{"type":"FeatureCollection", "features": [
{"type":"Feature","geometry":{"type":"Polygon","coordinates":[[[39.1663894,38.1852472],[39.125989,38.1868672],[39.10654,38.2038182],[39.1208124,38.2271738],[39.1008556,38.2391051],[39.044805,38.2292031],[39.0205587,38.2316266],[38.9894056,38.2577279],[38.9470267,38.2595645],[38.9287662,38.3026006],[38.901515,38.3236124],[38.813796,38.3211378],[38.8076377,38.3427838],[38.7360332,38.333342],[38.7388658,38.2944164],[38.6877448,38.2951701],[38.6423049,38.2693568],[38.5922241,38.2571382],[38.6099052,38.2354835],[38.6204094,38.1848768],[38.5971851,38.1727977],[38.5847394,38.1279322],[38.5979929,38.1142545],[38.6380071,38.0878638],[38.6538993,38.0706117],[38.6823034,38.0510904],[38.7218284,38.0526027],[38.7394818,38.043477],[38.7414555,38.0418798],[38.7520487,38.03144],[38.7471052,37.9835858],[38.7684002,37.9749077],[38.7912524,38.0006965],[38.8230137,38.0136945],[38.8324777,38.0441952],[38.8840552,38.0647998],[38.9330027,38.0885558],[38.975555,38.0858604],[39.0234619,38.0757926],[39.0528561,38.1031377],[39.0579216,38.1327161],[39.0734684,38.1517558],[39.1070607,38.1639368],[39.1663894,38.1852472]]]},"properties":{"@id":"relation/1246232","admin_level":"6","alt_name":"Pötürge","boundary":"administrative","name":"Pütürge","name:de":"Pütürge","name:diq":"Şêro","name:en":"Pütürge","name:hy":"Շիրո","name:ku":"Şîro","name:ru":"Пютюрге","name:tr":"Pütürge","name:tr:suffix":"İlçesi","name:uk":"Пютюрґе","network":"TR44-districts","source":"http://rehber.malatya.bel.tr/KentrehberiApp/Index","type":"boundary","wikidata":"Q1019922","wikipedia":"tr:Pütürge"},"id":"relation/1246232"},
{"type":"Feature","geometry":{"type":"Polygon","coordinates":[[[37.482929,37.8820347],[37.5356942,37.9196214],[37.564054,37.9006637],[37.6078504,37.9213665],[37.6161398,37.9441115],[37.603097,37.9577975],[37.5838959,37.9829127],[37.5786495,38.0540473],[37.6248751,38.0651455],[37.6014658,38.0807279],[37.4883729,38.0925308],[37.4555697,38.1092482],[37.4171431,38.1114605],[37.3684069,38.0959729],[37.2534822,38.0840735],[37.2477758,38.0201135],[37.2607789,38.0063462],[37.2652607,37.9727554],[37.2348937,37.9154741],[37.246509,37.9056424],[37.2650263,37.84504],[37.3085273,37.8414377],[37.3344575,37.8485921],[37.3639963,37.8788277],[37.4327582,37.8914949],[37.4476443,37.9028819],[37.4876328,37.8981295],[37.482929,37.8820347]]]},"properties":{"@id":"relation/1340568","admin_level":"6","alt_name:ku":"Nûrḧeq","boundary":"administrative","name":"Nurhak","name:ce":"НурхӀак","name:de":"Nurhak","name:en":"Nurhak","name:fa":"نورحق","name:ku":"Nûrheq","name:ru":"Нурхак","name:tr":"Nurhak","name:tr:suffix":"İlçesi","name:tt":"Нурһак","name:ur":"نورہاک","network":"TR46-districts","postal_code":"46370","type":"boundary","wikidata":"Q509011","wikipedia":"tr:Nurhak"},"id":"relation/1340568"},
{"type":"Feature","geometry":{"type":"Polygon","coordinates":[[[37.482929,37.8820347],[37.5039254,37.8779533],[37.5131198,37.8447232],[37.5019575,37.8035768],[37.5088116,37.7762884],[37.4836389,37.7499437],[37.4533164,37.7482244],[37.4693787,37.6822334],[37.4541779,37.6676823],[37.4848074,37.6320287],[37.4781341,37.6118039],[37.4514193,37.6064323],[37.4526071,37.5785963],[37.4713595,37.562552],[37.4941503,37.5706901],[37.5538328,37.6103706],[37.586324,37.5831633],[37.6221906,37.6021165],[37.6582767,37.6086608],[37.685957,37.6412583],[37.6775641,37.6833583],[37.6881749,37.7094821],[37.6625777,37.7401009],[37.6785917,37.7559539],[37.7086022,37.752963],[37.7318036,37.7649258],[37.7460523,37.789842],[37.7790891,37.7912371],[37.8133031,37.7746177],[37.8422275,37.7836088],[37.8287846,37.8133401],[37.8558714,37.8387265],[37.8871627,37.890883],[37.8539713,37.886509],[37.7949536,37.8935418],[37.7551424,37.9096685],[37.7686539,37.9242361],[37.7622734,37.9327622],[37.6935768,37.9078745],[37.6926121,37.9572287],[37.6258963,37.9511977],[37.6161398,37.9441115],[37.6078504,37.9213665],[37.564054,37.9006637],[37.5356942,37.9196214],[37.482929,37.8820347]]]},"properties":{"@id":"relation/1389197","admin_level":"6","boundary":"administrative","name":"Gölbaşı","name:ce":"Гоьлбаши","name:de":"Gölbaşı","name:en":"Gölbaşı","name:fa":"گول‌باشی","name:ku":"Sergol","name:pt":"Serê Golan","name:ru":"Гёльбаши","name:tr":"Gölbaşı","name:tr:suffix":"İlçesi","name:uk":"Ґьольбаши","name:ur":"گولباشی","name:zh":"格爾巴舍","network":"TR02-districts","type":"boundary","wikidata":"Q519859","wikipedia":"tr:Gölbaşı, Adıyaman"},"id":"relation/1389197"},
{"type":"Feature","geometry":{"type":"Polygon","coordinates":[[[39.1663894,38.1852472],[39.1070607,38.1639368],[39.0734684,38.1517558],[39.0579216,38.1327161],[39.0528561,38.1031377],[39.0234619,38.0757926],[38.975555,38.0858604],[38.9330027,38.0885558],[38.8840552,38.0647998],[38.8324777,38.0441952],[38.8230137,38.0136945],[38.7912524,38.0006965],[38.7684002,37.9749077],[38.7997177,37.9216636],[38.8426206,37.9072729],[38.8866232,37.925494],[38.9108475,37.9459581],[38.9357396,37.9485567],[38.9089806,37.8957768],[38.9202,37.8621931],[38.9072299,37.8368679],[38.9207979,37.826398],[38.9680406,37.8222204],[38.9738656,37.8599719],[38.9924007,37.8851362],[38.9736968,37.9000874],[39.0248664,37.9166177],[39.0572125,37.9647214],[39.0591654,37.9844434],[39.0883244,38.0074307],[39.1279016,38.0205169],[39.1505094,38.0156171],[39.1766961,38.0293465],[39.201536,38.0629104],[39.2223263,38.0717695],[39.2378483,38.1214274],[39.2629315,38.1461335],[39.2567722,38.1778617],[39.2200999,38.2077979],[39.1952249,38.2068301],[39.1663894,38.1852472]]]},"properties":{"@id":"relation/1807479","admin_level":"6","boundary":"administrative","name":"Gerger","name:az":"Gərgər","name:ce":"Гергер","name:de":"Gerger","name:en":"Gerger","name:fa":"گرگر","name:hy":"Կարկառ","name:ku":"Aldûş","name:ru":"Гергер","name:tr":"Gerger","name:tr:suffix":"İlçesi","name:ur":"گرگر","name:zza":"Aldûş","network":"TR02-districts","type":"boundary","wikidata":"Q963493","wikipedia":"tr:Gerger"},"id":"relation/1807479"},
{"type":"Feature","geometry":{"type":"Polygon","coordinates":[[[37.8422275,37.7836088],[37.8133031,37.7746177],[37.7790891,37.7912371],[37.7460523,37.789842],[37.7318036,37.7649258],[37.7086022,37.752963],[37.6785917,37.7559539],[37.6625777,37.7401009],[37.6881749,37.7094821],[37.6775641,37.6833583],[37.685957,37.6412583],[37.6582767,37.6086608],[37.6221906,37.6021165],[37.586324,37.5831633],[37.5783759,37.5426587],[37.590761,37.5089121],[37.5796528,37.4744607],[37.6289463,37.4779574],[37.6447821,37.5196571],[37.7221799,37.5373378],[37.7615332,37.5226269],[37.760793,37.5060066],[37.786628,37.4900807],[37.8949785,37.4636094],[37.9566157,37.4665133],[37.9819894,37.4597431],[38.0195349,37.472789],[38.0615222,37.4692297],[38.1343458,37.4221932],[38.1675953,37.4380269],[38.1717283,37.4628718],[38.1395005,37.5267199],[38.1377726,37.5437328],[38.1002902,37.5920892],[38.1013746,37.6420501],[38.0915961,37.6725304],[38.0683464,37.7027014],[38.0427696,37.7172527],[38.0072814,37.7467737],[37.9714023,37.7600939],[37.8687698,37.7702324],[37.8422275,37.7836088]]]},"properties":{"@id":"relation/1825239","admin_level":"6","boundary":"administrative","name":"Besni","name:ar":"بيسني","name:ce":"Бесни","name:de":"Besni","name:en":"Besni","name:fa":"بسنی","name:hy":"Բեհեսնի","name:ku":"Bêsnî","name:ru":"Бесни","name:tr":"Besni","name:tr:suffix":"İlçesi","name:ur":"بسنی","name:zh":"貝斯尼","name:zza":"Bêsni","network":"TR02-districts","type":"boundary","wikidata":"Q816753","wikipedia":"tr:Besni"},"id":"relation/1825239"},
{"type":"Feature","geometry":{"type":"Polygon","coordinates":[[[38.0427696,37.7172527],[38.0591074,37.7358586],[38.0734804,37.784635],[38.0706933,37.8129049],[38.0249092,37.8132902],[38.0166668,37.8333079],[37.9661026,37.8665777],[37.9904943,37.8888848],[37.9102491,37.8988884],[37.8871627,37.890883],[37.8558714,37.8387265],[37.8287846,37.8133401],[37.8422275,37.7836088],[37.8687698,37.7702324],[37.9714023,37.7600939],[38.0072814,37.7467737],[38.0427696,37.7172527]]]},"properties":{"@id":"relation/1825241","admin_level":"6","boundary":"administrative","name":"Tut","name:ce":"Тут","name:de":"Tut","name:en":"Tut","name:fa":"توت","name:hy":"Թութ","name:ku":"Tût","name:ru":"Тут","name:tr":"Tut","name:tr:suffix":"İlçesi","name:ur":"توت","network":"TR02-districts","type":"boundary","wikidata":"Q1023319","wikipedia":"tr:Tut"},"id":"relation/1825241"},
{"type":"Feature","geometry":{"type":"Polygon","coordinates":[[[37.9904943,37.8888848],[37.9661026,37.8665777],[38.0166668,37.8333079],[38.0249092,37.8132902],[38.0706933,37.8129049],[38.0734804,37.784635],[38.0591074,37.7358586],[38.0427696,37.7172527],[38.0683464,37.7027014],[38.0915961,37.6725304],[38.1013746,37.6420501],[38.1002902,37.5920892],[38.1377726,37.5437328],[38.1395005,37.5267199],[38.1717283,37.4628718],[38.1675953,37.4380269],[38.1343458,37.4221932],[38.1933616,37.4233286],[38.1990397,37.4511083],[38.2474349,37.4435024],[38.2669315,37.472109],[38.3054565,37.4725949],[38.3411026,37.4874873],[38.3635144,37.578579],[38.431143,37.6418352],[38.4512663,37.6541264],[38.4809991,37.6760723],[38.4952903,37.6999654],[38.5051462,37.7534457],[38.502016,37.8118183],[38.46807,37.8348018],[38.4697028,37.8819378],[38.5075467,37.9221575],[38.4774755,37.9348935],[38.4932003,37.9530322],[38.4190317,37.9585112],[38.2811685,37.9832796],[38.2317973,38.0127655],[38.1992938,37.9888447],[38.168783,37.9876095],[38.1547989,37.9502563],[38.1056664,37.948746],[38.0901313,37.9582898],[38.0621464,37.9420269],[38.0349065,37.9337765],[38.0241624,37.8983836],[37.9904943,37.8888848]]]},"properties":{"@id":"relation/1825792","admin_level":"6","alt_name":"Adiyaman","boundary":"administrative","name":"Adıyaman Merkez","name:ar":"أديامان","name:bg":"Адъяман","name:bn":"আদিয়ামান","name:ce":"Адийаман","name:de":"Adıyaman Merkez","name:el":"Αντιγιαμάν","name:en":"Adıyaman","name:fa":"آدیامان","name:he":"אדיאמן","name:hy":"Ադիյաման","name:ja":"アドゥヤマン","name:ka":"ადიამანი","name:ko":"아디야만","name:ku":"Semsûr (navend)","name:lt":"Adijamanas","name:lv":"Adijamana","name:ota":"حصن منصور","name:sr":"Адијаман","name:tg":"Одиёмон","name:tr":"Adıyaman Merkez","name:tr:suffix":"İlçesi","name:tt":"Адыяман","name:uk":"Адияман","name:ur":"آدیامان","name:zh":"阿德亚曼","name:zza":"Semsûr","network":"TR02-districts","type":"boundary","wikidata":"Q168197","wikipedia":"tr:Adıyaman"},"id":"relation/1825792"},
{"type":"Feature","geometry":{"type":"Polygon","coordinates":[[[38.7471052,37.9835858],[38.6825268,37.9646233],[38.6332702,37.9709963],[38.6191572,37.9518141],[38.5583679,37.9311534],[38.5460946,37.919129],[38.5075467,37.9221575],[38.4697028,37.8819378],[38.46807,37.8348018],[38.502016,37.8118183],[38.5051462,37.7534457],[38.4952903,37.6999654],[38.4809991,37.6760723],[38.4512663,37.6541264],[38.5167743,37.6438549],[38.5420194,37.6597322],[38.6260986,37.5969314],[38.6513745,37.6241604],[38.7579495,37.6292034],[38.7830505,37.6405484],[38.8474031,37.6476226],[38.8472135,37.6627653],[38.8058315,37.6819304],[38.8269346,37.6977764],[38.8494686,37.6911084],[38.9148326,37.7250537],[38.9053399,37.7411986],[38.9586119,37.7529806],[38.9541625,37.7986073],[38.9207979,37.826398],[38.9072299,37.8368679],[38.9202,37.8621931],[38.9089806,37.8957768],[38.9357396,37.9485567],[38.9108475,37.9459581],[38.8866232,37.925494],[38.8426206,37.9072729],[38.7997177,37.9216636],[38.7684002,37.9749077],[38.7471052,37.9835858]]]},"properties":{"@id":"relation/1825793","admin_level":"6","alt_name":"Kahta","alt_name:ar":"كاهاتا;كاختا;كولك","alt_name:fa":"کاهتا","boundary":"administrative","name":"Kâhta","name:ar":"كاهتا","name:arc":"ܓܟܬܝ","name:azb":"کاهتا","name:ce":"КаьхӀта","name:ckb":"کۆلیک","name:de":"Kâhta","name:diq":"Kolık","name:en":"Kâhta","name:fa":"کاهتا","name:hy":"Քոլիկ","name:kmr":"کۆلک","name:ku":"Kolik","name:ku-Arab":"کۆلک","name:ota":"کولک","name:pnb":"کاہتا","name:ru":"Кяхта","name:syc":"ܓܟܬܝ","name:tr":"Kâhta","name:tr:suffix":"İlçesi","name:uk":"Кягта","name:ur":"کیاحتا","name:zh":"卡赫塔","name:zza":"Kolık","network":"TR02-districts","old_name":"Kölük","type":"boundary","wikidata":"Q375432","wikipedia":"tr:Kâhta"},"id":"relation/1825793"},
{"type":"Feature","geometry":{"type":"Polygon","coordinates":[[[38.3411026,37.4874873],[38.3830416,37.4811094],[38.4108276,37.4897153],[38.4630506,37.4883193],[38.4994355,37.4986033],[38.5616605,37.5463864],[38.5794295,37.5705414],[38.6260986,37.5969314],[38.5420194,37.6597322],[38.5167743,37.6438549],[38.4512663,37.6541264],[38.431143,37.6418352],[38.3635144,37.578579],[38.3411026,37.4874873]]]},"properties":{"@id":"relation/1825794","admin_level":"6","boundary":"administrative","name":"Samsat","name:ar":"سامسات","name:ce":"Самсат","name:de":"Samsat","name:el":"Σαμόσατα","name:en":"Samsat","name:fa":"سامسات","name:ku":"Semîsad","name:ru":"Самсат","name:tr":"Samsat","name:tr:suffix":"İlçesi","name:ur":"سامسات","name:zh":"萨姆萨特","name:zza":"Semsat","network":"TR02-districts","old_name":"Sumeysat;Samosata;Şamuşad","type":"boundary","wikidata":"Q667098","wikipedia":"tr:Samsat"},"id":"relation/1825794"},
{"type":"Feature","geometry":{"type":"Polygon","coordinates":[[[38.5075467,37.9221575],[38.5460946,37.919129],[38.5583679,37.9311534],[38.6191572,37.9518141],[38.6332702,37.9709963],[38.6825268,37.9646233],[38.7471052,37.9835858],[38.7520487,38.03144],[38.7414555,38.0418798],[38.7394818,38.043477],[38.7218284,38.0526027],[38.6823034,38.0510904],[38.6538993,38.0706117],[38.6380071,38.0878638],[38.5979929,38.1142545],[38.5847394,38.1279322],[38.5258129,38.1553758],[38.496437,38.1582492],[38.4919597,38.1902752],[38.4417411,38.1751234],[38.4291503,38.1258615],[38.4165286,38.1076485],[38.4335658,38.1011649],[38.4405239,38.0288136],[38.4130237,37.997994],[38.4190317,37.9585112],[38.4932003,37.9530322],[38.4774755,37.9348935],[38.5075467,37.9221575]]]},"properties":{"@id":"relation/1825795","admin_level":"6","boundary":"administrative","name":"Sincik","name:ce":"Синджик","name:de":"Sincik","name:en":"Sincik","name:fa":"سینجیک","name:hy":"Սինջիք","name:ku":"Sincik","name:ru":"Синджик","name:tr":"Sincik","name:tr:suffix":"İlçesi","name:ur":"سنجک","network":"TR02-districts","type":"boundary","wikidata":"Q1010479","wikipedia":"tr:Sincik"},"id":"relation/1825795"},
{"type":"Feature","geometry":{"type":"Polygon","coordinates":[[[38.1295434,38.0931654],[38.0870207,38.0846315],[38.1129023,38.0361853],[38.1500279,38.0189689],[38.168783,37.9876095],[38.1992938,37.9888447],[38.2317973,38.0127655],[38.2811685,37.9832796],[38.4190317,37.9585112],[38.4130237,37.997994],[38.4405239,38.0288136],[38.4335658,38.1011649],[38.4165286,38.1076485],[38.3747582,38.1176906],[38.3269858,38.1128486],[38.2848215,38.1330376],[38.282032,38.1565619],[38.2580852,38.1787631],[38.2229375,38.1675959],[38.1937593,38.1408404],[38.1876462,38.1036802],[38.1592659,38.1193167],[38.1295434,38.0931654]]]},"properties":{"@id":"relation/1825796","admin_level":"6","alt_name":"Çêlikan, Paẍnîk, Porẍe","boundary":"administrative","name":"Çelikhan","name:ce":"ЧеликхӀан","name:de":"Çelikhan","name:en":"Çelikhan","name:fa":"چلیخان","name:ku":"Komîşîr","name:ota":"پورغه","name:ru":"Челикхан","name:tr":"Çelikhan","name:tr:suffix":"İlçesi","name:ur":"چلی خان","name:zh":"切利克汗","name:zza":"Komişir","network":"TR02-districts","type":"boundary","wikidata":"Q272782","wikipedia":"tr:Çelikhan"},"id":"relation/1825796"},
{"type":"Feature","geometry":{"type":"Polygon","coordinates":[[[38.1090941,38.1027844],[38.1280303,38.1593459],[38.1093406,38.1884107],[38.0826258,38.1644073],[38.0114937,38.1576249],[37.9866964,38.1879368],[37.9890012,38.2231474],[37.9424,38.2089076],[37.8902793,38.2407924],[37.8637361,38.2334104],[37.8145337,38.2442473],[37.781167,38.2224033],[37.7499461,38.219234],[37.7486372,38.1647616],[37.7181244,38.1577768],[37.7268791,38.1329701],[37.6744794,38.0844123],[37.6248751,38.0651455],[37.5786495,38.0540473],[37.5838959,37.9829127],[37.603097,37.9577975],[37.6161398,37.9441115],[37.6258963,37.9511977],[37.6926121,37.9572287],[37.6935768,37.9078745],[37.7622734,37.9327622],[37.7686539,37.9242361],[37.7551424,37.9096685],[37.7949536,37.8935418],[37.8539713,37.886509],[37.8871627,37.890883],[37.9102491,37.8988884],[37.9904943,37.8888848],[38.0241624,37.8983836],[38.0349065,37.9337765],[38.0621464,37.9420269],[38.0901313,37.9582898],[38.1056664,37.948746],[38.1547989,37.9502563],[38.168783,37.9876095],[38.1500279,38.0189689],[38.1129023,38.0361853],[38.0870207,38.0846315],[38.1295434,38.0931654],[38.1090941,38.1027844]]]},"properties":{"@id":"relation/1825945","admin_level":"6","alt_name":"Muhacîr","boundary":"administrative","name":"Doğanşehir","name:de":"Doğanşehir","name:en":"Doğanşehir","name:fa":"دوغان‌شهر","name:hy":"Վերանշեհր","name:ku":"Wêranşar","name:ru":"Доганшехир","name:tr":"Doğanşehir","name:tr:suffix":"İlçesi","name:zh":"多安謝希爾","network":"TR44-districts","source":"http://rehber.malatya.bel.tr/KentrehberiApp/Index","type":"boundary","wikidata":"Q1004642","wikipedia":"tr:Doğanşehir"},"id":"relation/1825945"},
{"type":"Feature","geometry":{"type":"Polygon","coordinates":[[[38.2494213,37.7787926],[38.2302189,37.7663778],[38.254174,37.7605192],[38.2638352,37.7642005],[38.2650007,37.7649695],[38.2494213,37.7787926]]]},"properties":{"@id":"relation/5887815","admin_level":"8","boundary":"administrative","city":"Adıyaman","name":"Yeni Mahallesi","type":"boundary"},"id":"relation/5887815"},
{"type":"Feature","geometry":{"type":"Polygon","coordinates":[[[38.2494213,37.7787926],[38.2650007,37.7649695],[38.2700206,37.7682879],[38.2648551,37.7833772],[38.2494213,37.7787926]]]},"properties":{"@id":"relation/5887816","admin_level":"8","boundary":"administrative","city":"Adıyaman","name":"Cumhurriyet Mahallesi","type":"boundary"},"id":"relation/5887816"},
{"type":"Feature","geometry":{"type":"Polygon","coordinates":[[[38.2724389,37.7830657],[38.2648551,37.7833772],[38.2700206,37.7682879],[38.2752038,37.7692481],[38.2724389,37.7830657]]]},"properties":{"@id":"relation/5887853","admin_level":"8","boundary":"administrative","city":"Adıyaman","name":"Kayalık Mahallesi","type":"boundary"},"id":"relation/5887853"},
{"type":"Feature","geometry":{"type":"Polygon","coordinates":[[[38.2752038,37.7692481],[38.2803424,37.7692444],[38.2772044,37.7828802],[38.2724389,37.7830657],[38.2752038,37.7692481]]]},"properties":{"@id":"relation/5888139","admin_level":"8","boundary":"administrative","city":"Adıyaman","name":"Malazgirt Mahallesi","type":"boundary"},"id":"relation/5888139"},
{"type":"Feature","geometry":{"type":"Polygon","coordinates":[[[38.281018,37.7692552],[38.30385,37.7884421],[38.2772044,37.7828802],[38.2803424,37.7692444],[38.281018,37.7692552]]]},"properties":{"@id":"relation/5888140","admin_level":"8","boundary":"administrative","city":"Adıyaman","name":"Fatih Mahallesi","type":"boundary"},"id":"relation/5888140"},
{"type":"Feature","geometry":{"type":"Polygon","coordinates":[[[38.3145814,37.7849035],[38.30385,37.7884421],[38.281018,37.7692552],[38.2868962,37.7664269],[38.3145814,37.7849035]]]},"properties":{"@id":"relation/5888176","admin_level":"8","boundary":"administrative","city":"Adıyaman","name":"Yeşilyurt Mahallesi","type":"boundary"},"id":"relation/5888176"},
{"type":"Feature","geometry":{"type":"Polygon","coordinates":[[[38.3195599,37.77026],[38.3145814,37.7849035],[38.2868962,37.7664269],[38.2896423,37.763209],[38.29697,37.7629757],[38.3195599,37.77026]]]},"properties":{"@id":"relation/5888177","admin_level":"8","boundary":"administrative","city":"Adıyaman","name":"Siteler Mahallesi","type":"boundary"},"id":"relation/5888177"},
{"type":"Feature","geometry":{"type":"Polygon","coordinates":[[[38.3274311,37.7516667],[38.3195599,37.77026],[38.29697,37.7629757],[38.3014546,37.759006],[38.3274311,37.7516667]]]},"properties":{"@id":"relation/5888234","admin_level":"8","boundary":"administrative","city":"Adıyaman","name":"Yunus Emre Mahallesi","type":"boundary"},"id":"relation/5888234"},
{"type":"Feature","geometry":{"type":"Polygon","coordinates":[[[38.3133075,37.7422354],[38.3274311,37.7516667],[38.3014546,37.759006],[38.2825893,37.7582841],[38.2847714,37.7572668],[38.3133075,37.7422354]]]},"properties":{"@id":"relation/5888235","admin_level":"8","boundary":"administrative","city":"Adıyaman","name":"İmamağa Mahallesi","type":"boundary"},"id":"relation/5888235"},
{"type":"Feature","geometry":{"type":"Polygon","coordinates":[[[38.2905379,37.7466173],[38.3133075,37.7422354],[38.2847714,37.7572668],[38.2877181,37.7523188],[38.2905379,37.7466173]]]},"properties":{"@id":"relation/5888762","admin_level":"8","boundary":"administrative","city":"Adıyaman","name":"Bahçecik Mahallesi","type":"boundary"},"id":"relation/5888762"},
{"type":"Feature","geometry":{"type":"Polygon","coordinates":[[[38.280271,37.7432773],[38.2905379,37.7466173],[38.2877181,37.7523188],[38.2805147,37.7566296],[38.280271,37.7432773]]]},"properties":{"@id":"relation/5888763","admin_level":"8","boundary":"administrative","city":"Adıyaman","name":"Varlık Mahallesi","type":"boundary"},"id":"relation/5888763"},
{"type":"Feature","geometry":{"type":"Polygon","coordinates":[[[38.2568464,37.7281148],[38.280271,37.7432773],[38.2805147,37.7566296],[38.2776877,37.7586594],[38.2758781,37.7582909],[38.2710052,37.7535698],[38.2626558,37.752602],[38.2568464,37.7281148]]]},"properties":{"@id":"relation/5888764","admin_level":"8","boundary":"administrative","city":"Adıyaman","name":"Musalla Mahallesi","type":"boundary"},"id":"relation/5888764"},
{"type":"Feature","geometry":{"type":"Polygon","coordinates":[[[38.2364659,37.7454095],[38.2568464,37.7281148],[38.2626558,37.752602],[38.2595219,37.7596425],[38.2464853,37.7525071],[38.2364659,37.7454095]]]},"properties":{"@id":"relation/5889449","admin_level":"8","boundary":"administrative","city":"Adıyaman","name":"Sümerevler Mahallesi","type":"boundary"},"id":"relation/5889449"},
{"type":"Feature","geometry":{"type":"Polygon","coordinates":[[[38.2304414,37.7533047],[38.2364659,37.7454095],[38.2464853,37.7525071],[38.254174,37.7605192],[38.2304414,37.7533047]]]},"properties":{"@id":"relation/5889483","admin_level":"8","boundary":"administrative","city":"Adıyaman","name":"Yeni Sanayi Mahallesi","type":"boundary"},"id":"relation/5889483"},
{"type":"Feature","geometry":{"type":"Polygon","coordinates":[[[38.2304414,37.7533047],[38.254174,37.7605192],[38.2302189,37.7663778],[38.2304414,37.7533047]]]},"properties":{"@id":"relation/5889484","admin_level":"8","boundary":"administrative","city":"Adıyaman","name":"Karapınar Mahallesi","type":"boundary"},"id":"relation/5889484"},
{"type":"Feature","geometry":{"type":"Polygon","coordinates":[[[38.2896423,37.763209],[38.2842733,37.7634215],[38.2813684,37.7603051],[38.2825893,37.7582841],[38.3014546,37.759006],[38.29697,37.7629757],[38.2896423,37.763209]]]},"properties":{"@id":"relation/5892033","admin_level":"8","boundary":"administrative","city":"Adıyaman","name":"Bahçelievler Mahallesi","type":"boundary"},"id":"relation/5892033"},
{"type":"Feature","geometry":{"type":"Polygon","coordinates":[[[38.2595219,37.7596425],[38.2638533,37.7607743],[38.254174,37.7605192],[38.2464853,37.7525071],[38.2595219,37.7596425]]]},"properties":{"@id":"relation/5892034","admin_level":"8","boundary":"administrative","city":"Adıyaman","name":"Barbaros Hayrettin Mahallesi","type":"boundary"},"id":"relation/5892034"},
{"type":"Feature","geometry":{"type":"Polygon","coordinates":[[[38.2746759,37.7603536],[38.2727413,37.7630685],[38.2680617,37.7618631],[38.2651099,37.7606307],[38.2686207,37.7601182],[38.2746759,37.7603536]]]},"properties":{"@id":"relation/5892035","admin_level":"8","boundary":"administrative","city":"Adıyaman","name":"Eskisaray Mahallesi","type":"boundary"},"id":"relation/5892035"},
{"type":"Feature","geometry":{"type":"Polygon","coordinates":[[[38.2773022,37.763661],[38.2727413,37.7630685],[38.2746759,37.7603536],[38.2773295,37.7603418],[38.2773022,37.763661]]]},"properties":{"@id":"relation/5892036","admin_level":"8","boundary":"administrative","city":"Adıyaman","name":"Hocaömer Mahallesi","type":"boundary"},"id":"relation/5892036"},
{"type":"Feature","geometry":{"type":"Polygon","coordinates":[[[38.2825893,37.7582841],[38.2813684,37.7603051],[38.2793427,37.7601829],[38.2773295,37.7603418],[38.2776877,37.7586594],[38.2805147,37.7566296],[38.2877181,37.7523188],[38.2847714,37.7572668],[38.2825893,37.7582841]]]},"properties":{"@id":"relation/5892037","admin_level":"8","boundary":"administrative","is_in:city":"Adıyaman","name":"Kapcami Mahallesi","type":"boundary"},"id":"relation/5892037"},
{"type":"Feature","geometry":{"type":"Polygon","coordinates":[[[38.2704188,37.7569028],[38.2710052,37.7535698],[38.2758781,37.7582909],[38.2704188,37.7569028]]]},"properties":{"@id":"relation/5892038","admin_level":"8","boundary":"administrative","city":"Adıyaman","name":"Mara Mahallesi","type":"boundary"},"id":"relation/5892038"},
{"type":"Feature","geometry":{"type":"Polygon","coordinates":[[[38.2842733,37.7634215],[38.2896423,37.763209],[38.2868962,37.7664269],[38.281018,37.7692552],[38.2792242,37.7635965],[38.2842733,37.7634215]]]},"properties":{"@id":"relation/5892039","admin_level":"8","boundary":"administrative","city":"Adıyaman","name":"Mehmet Akif Mahallesi","type":"boundary"},"id":"relation/5892039"},
{"type":"Feature","geometry":{"type":"Polygon","coordinates":[[[38.2651099,37.7606307],[38.2680617,37.7618631],[38.2638352,37.7642005],[38.254174,37.7605192],[38.2638533,37.7607743],[38.2651099,37.7606307]]]},"properties":{"@id":"relation/5892040","admin_level":"8","boundary":"administrative","city":"Adıyaman","name":"Mimar Sinan Mahallesi","type":"boundary"},"id":"relation/5892040"},
{"type":"Feature","geometry":{"type":"Polygon","coordinates":[[[38.2793427,37.7601829],[38.2813684,37.7603051],[38.2842733,37.7634215],[38.2792242,37.7635965],[38.2793427,37.7601829]]]},"properties":{"@id":"relation/5892041","admin_level":"8","boundary":"administrative","city":"Adıyaman","name":"Sıratut Mahallesi","type":"boundary"},"id":"relation/5892041"},
{"type":"Feature","geometry":{"type":"Polygon","coordinates":[[[38.2727413,37.7630685],[38.2773022,37.763661],[38.2792242,37.7635965],[38.281018,37.7692552],[38.2803424,37.7692444],[38.2752038,37.7692481],[38.2700206,37.7682879],[38.2727413,37.7630685]]]},"properties":{"@id":"relation/5892042","admin_level":"8","boundary":"administrative","city":"Adıyaman","name":"Turgut Reis Mahallesi","type":"boundary"},"id":"relation/5892042"},
{"type":"Feature","geometry":{"type":"Polygon","coordinates":[[[38.2776877,37.7586594],[38.2773295,37.7603418],[38.2746759,37.7603536],[38.2686207,37.7601182],[38.2704188,37.7569028],[38.2758781,37.7582909],[38.2776877,37.7586594]]]},"properties":{"@id":"relation/5892043","admin_level":"8","boundary":"administrative","city":"Adıyaman","name":"Ulucami Mahallesi","type":"boundary"},"id":"relation/5892043"},
{"type":"Feature","geometry":{"type":"Polygon","coordinates":[[[38.2650007,37.7649695],[38.2638352,37.7642005],[38.2680617,37.7618631],[38.2727413,37.7630685],[38.2700206,37.7682879],[38.2650007,37.7649695]]]},"properties":{"@id":"relation/5892044","admin_level":"8","boundary":"administrative","city":"Adıyaman","name":"Yavuz Selim Mah.","type":"boundary"},"id":"relation/5892044"},
{"type":"Feature","geometry":{"type":"Polygon","coordinates":[[[38.2792242,37.7635965],[38.2773022,37.763661],[38.2773295,37.7603418],[38.2793427,37.7601829],[38.2792242,37.7635965]]]},"properties":{"@id":"relation/5902407","admin_level":"8","boundary":"administrative","city":"Adıyaman","name":"Yenipınar Mahallesi","type":"boundary"},"id":"relation/5902407"},
{"type":"Feature","geometry":{"type":"Polygon","coordinates":[[[38.2704188,37.7569028],[38.2686207,37.7601182],[38.2651099,37.7606307],[38.2638533,37.7607743],[38.2595219,37.7596425],[38.2626558,37.752602],[38.2710052,37.7535698],[38.2704188,37.7569028]]]},"properties":{"@id":"relation/5902408","admin_level":"8","boundary":"administrative","city":"Adıyaman","name":"Alitaşı Mahallesi","type":"boundary"},"id":"relation/5902408"},
{"type":"Feature","geometry":{"type":"Polygon","coordinates":[[[39.1663894,38.1852472],[39.125989,38.1868672],[39.10654,38.2038182],[39.1208124,38.2271738],[39.1008556,38.2391051],[39.044805,38.2292031],[39.0790987,38.1861675],[39.1070607,38.1639368],[39.1663894,38.1852472]]]},"properties":{"@id":"relation/12285444","admin_level":"8","boundary":"administrative","name":"Köklükaya Mahallesi","type":"boundary","@relations":[{"role":"subarea","rel":1246232,"reltags":{"admin_level":"6","alt_name":"Pötürge","boundary":"administrative","name":"Pütürge","name:de":"Pütürge","name:diq":"Şêro","name:en":"Pütürge","name:hy":"Շիրո","name:ku":"Şîro","name:ru":"Пютюрге","name:tr":"Pütürge","name:tr:suffix":"İlçesi","name:uk":"Пютюрґе","network":"TR44-districts","source":"http://rehber.malatya.bel.tr/KentrehberiApp/Index","type":"boundary","wikidata":"Q1019922","wikipedia":"tr:Pütürge"}}]},"id":"relation/12285444"},
{"type":"Feature","geometry":{"type":"Polygon","coordinates":[[[38.7684002,37.9749077],[38.7912524,38.0006965],[38.777833,38.0375461],[38.7520487,38.03144],[38.7471052,37.9835858],[38.7684002,37.9749077]]]},"properties":{"@id":"relation/12469944","admin_level":"8","boundary":"administrative","name":"Büyüköz Mahallesi","type":"boundary","@relations":[{"role":"subarea","rel":1246232,"reltags":{"admin_level":"6","alt_name":"Pötürge","boundary":"administrative","name":"Pütürge","name:de":"Pütürge","name:diq":"Şêro","name:en":"Pütürge","name:hy":"Շիրո","name:ku":"Şîro","name:ru":"Пютюрге","name:tr":"Pütürge","name:tr:suffix":"İlçesi","name:uk":"Пютюрґе","network":"TR44-districts","source":"http://rehber.malatya.bel.tr/KentrehberiApp/Index","type":"boundary","wikidata":"Q1019922","wikipedia":"tr:Pütürge"}}]},"id":"relation/12469944"},
{"type":"Feature","geometry":{"type":"Polygon","coordinates":[[[38.8168001,38.0561847],[38.7545299,38.0579249],[38.7414555,38.0418798],[38.7520487,38.03144],[38.777833,38.0375461],[38.7912524,38.0006965],[38.8230137,38.0136945],[38.8324777,38.0441952],[38.8168001,38.0561847]]]},"properties":{"@id":"relation/12470487","admin_level":"8","boundary":"administrative","name":"Yandere Mahallesi","type":"boundary","@relations":[{"role":"subarea","rel":1246232,"reltags":{"admin_level":"6","alt_name":"Pötürge","boundary":"administrative","name":"Pütürge","name:de":"Pütürge","name:diq":"Şêro","name:en":"Pütürge","name:hy":"Շիրո","name:ku":"Şîro","name:ru":"Пютюрге","name:tr":"Pütürge","name:tr:suffix":"İlçesi","name:uk":"Пютюрґе","network":"TR44-districts","source":"http://rehber.malatya.bel.tr/KentrehberiApp/Index","type":"boundary","wikidata":"Q1019922","wikipedia":"tr:Pütürge"}}]},"id":"relation/12470487"},
{"type":"Feature","geometry":{"type":"Polygon","coordinates":[[[38.7394818,38.043477],[38.7337106,38.0999784],[38.6916697,38.1001346],[38.7274718,38.0878577],[38.7173223,38.0724536],[38.7218284,38.0526027],[38.7394818,38.043477]]]},"properties":{"@id":"relation/12470803","admin_level":"8","boundary":"administrative","name":"Taştepe Mahallesi","type":"boundary","@relations":[{"role":"subarea","rel":1246232,"reltags":{"admin_level":"6","alt_name":"Pötürge","boundary":"administrative","name":"Pütürge","name:de":"Pütürge","name:diq":"Şêro","name:en":"Pütürge","name:hy":"Շիրո","name:ku":"Şîro","name:ru":"Пютюрге","name:tr":"Pütürge","name:tr:suffix":"İlçesi","name:uk":"Пютюрґе","network":"TR44-districts","source":"http://rehber.malatya.bel.tr/KentrehberiApp/Index","type":"boundary","wikidata":"Q1019922","wikipedia":"tr:Pütürge"}}]},"id":"relation/12470803"},
{"type":"Feature","geometry":{"type":"Polygon","coordinates":[[[39.0528561,38.1031377],[39.0206265,38.111329],[38.9937186,38.1074627],[38.975555,38.0858604],[39.0234619,38.0757926],[39.0528561,38.1031377]]]},"properties":{"@id":"relation/12471191","admin_level":"8","boundary":"administrative","name":"Esencik Mahallesi","type":"boundary","@relations":[{"role":"subarea","rel":1246232,"reltags":{"admin_level":"6","alt_name":"Pötürge","boundary":"administrative","name":"Pütürge","name:de":"Pütürge","name:diq":"Şêro","name:en":"Pütürge","name:hy":"Շիրո","name:ku":"Şîro","name:ru":"Пютюрге","name:tr":"Pütürge","name:tr:suffix":"İlçesi","name:uk":"Пютюрґе","network":"TR44-districts","source":"http://rehber.malatya.bel.tr/KentrehberiApp/Index","type":"boundary","wikidata":"Q1019922","wikipedia":"tr:Pütürge"}}]},"id":"relation/12471191"},
{"type":"Feature","geometry":{"type":"Polygon","coordinates":[[[39.0790987,38.1861675],[39.0485859,38.1719651],[39.039166,38.1500825],[39.00213,38.1423368],[39.0206265,38.111329],[39.0579216,38.1327161],[39.0734684,38.1517558],[39.1070607,38.1639368],[39.0790987,38.1861675]]]},"properties":{"@id":"relation/12471193","admin_level":"8","alt_name":"Aslankent Mahallesi","boundary":"administrative","name":"Arslankent Mahallesi","type":"boundary","@relations":[{"role":"subarea","rel":1246232,"reltags":{"admin_level":"6","alt_name":"Pötürge","boundary":"administrative","name":"Pütürge","name:de":"Pütürge","name:diq":"Şêro","name:en":"Pütürge","name:hy":"Շիրո","name:ku":"Şîro","name:ru":"Пютюрге","name:tr":"Pütürge","name:tr:suffix":"İlçesi","name:uk":"Пютюрґе","network":"TR44-districts","source":"http://rehber.malatya.bel.tr/KentrehberiApp/Index","type":"boundary","wikidata":"Q1019922","wikipedia":"tr:Pütürge"}}]},"id":"relation/12471193"},
{"type":"Feature","geometry":{"type":"Polygon","coordinates":[[[39.0206265,38.111329],[39.0528561,38.1031377],[39.0579216,38.1327161],[39.0206265,38.111329]]]},"properties":{"@id":"relation/12471194","admin_level":"8","boundary":"administrative","name":"Meşedibi Mahallesi","type":"boundary","@relations":[{"role":"subarea","rel":1246232,"reltags":{"admin_level":"6","alt_name":"Pötürge","boundary":"administrative","name":"Pütürge","name:de":"Pütürge","name:diq":"Şêro","name:en":"Pütürge","name:hy":"Շիրո","name:ku":"Şîro","name:ru":"Пютюрге","name:tr":"Pütürge","name:tr:suffix":"İlçesi","name:uk":"Пютюрґе","network":"TR44-districts","source":"http://rehber.malatya.bel.tr/KentrehberiApp/Index","type":"boundary","wikidata":"Q1019922","wikipedia":"tr:Pütürge"}}]},"id":"relation/12471194"},
{"type":"Feature","geometry":{"type":"Polygon","coordinates":[[[38.8324777,38.0441952],[38.8840552,38.0647998],[38.8413906,38.0863377],[38.810513,38.0742273],[38.8168001,38.0561847],[38.8324777,38.0441952]]]},"properties":{"@id":"relation/12471449","admin_level":"8","boundary":"administrative","name":"Kayadere Mahallesi","type":"boundary","wikidata":"Q10778303","wikipedia":"tr:Kayadere, Pütürge","@relations":[{"role":"subarea","rel":1246232,"reltags":{"admin_level":"6","alt_name":"Pötürge","boundary":"administrative","name":"Pütürge","name:de":"Pütürge","name:diq":"Şêro","name:en":"Pütürge","name:hy":"Շիրո","name:ku":"Şîro","name:ru":"Пютюрге","name:tr":"Pütürge","name:tr:suffix":"İlçesi","name:uk":"Пютюрґе","network":"TR44-districts","source":"http://rehber.malatya.bel.tr/KentrehberiApp/Index","type":"boundary","wikidata":"Q1019922","wikipedia":"tr:Pütürge"}}]},"id":"relation/12471449"},
{"type":"Feature","geometry":{"type":"Polygon","coordinates":[[[38.9330027,38.0885558],[38.9359116,38.1299657],[38.894037,38.1463701],[38.8586855,38.1348604],[38.7958789,38.1676802],[38.7941408,38.1447923],[38.827132,38.1445476],[38.8439762,38.1165373],[38.8413906,38.0863377],[38.8840552,38.0647998],[38.9330027,38.0885558]]]},"properties":{"@id":"relation/12471476","admin_level":"8","boundary":"administrative","name":"Nohutlu Mahallesi","name:ku":"Nıkûltı","type":"boundary","wikidata":"Q10801536","wikipedia":"tr:Nohutlu, Pütürge","@relations":[{"role":"subarea","rel":1246232,"reltags":{"admin_level":"6","alt_name":"Pötürge","boundary":"administrative","name":"Pütürge","name:de":"Pütürge","name:diq":"Şêro","name:en":"Pütürge","name:hy":"Շիրո","name:ku":"Şîro","name:ru":"Пютюрге","name:tr":"Pütürge","name:tr:suffix":"İlçesi","name:uk":"Пютюрґе","network":"TR44-districts","source":"http://rehber.malatya.bel.tr/KentrehberiApp/Index","type":"boundary","wikidata":"Q1019922","wikipedia":"tr:Pütürge"}}]},"id":"relation/12471476"},
{"type":"Feature","geometry":{"type":"Polygon","coordinates":[[[38.7173223,38.0724536],[38.7274718,38.0878577],[38.6916697,38.1001346],[38.64604,38.1077919],[38.6380071,38.0878638],[38.6538993,38.0706117],[38.6837518,38.09121],[38.7173223,38.0724536]]]},"properties":{"@id":"relation/12472492","admin_level":"8","boundary":"administrative","name":"Şükan Mahallesi","old_name":"Sorguçlu;Şukyan","type":"boundary","wikidata":"Q10820241","wikipedia":"tr:Şükan, Pütürge","@relations":[{"role":"subarea","rel":1246232,"reltags":{"admin_level":"6","alt_name":"Pötürge","boundary":"administrative","name":"Pütürge","name:de":"Pütürge","name:diq":"Şêro","name:en":"Pütürge","name:hy":"Շիրո","name:ku":"Şîro","name:ru":"Пютюрге","name:tr":"Pütürge","name:tr:suffix":"İlçesi","name:uk":"Пютюрґе","network":"TR44-districts","source":"http://rehber.malatya.bel.tr/KentrehberiApp/Index","type":"boundary","wikidata":"Q1019922","wikipedia":"tr:Pütürge"}}]},"id":"relation/12472492"},
{"type":"Feature","geometry":{"type":"Polygon","coordinates":[[[38.64604,38.1077919],[38.635354,38.122201],[38.5979929,38.1142545],[38.6380071,38.0878638],[38.64604,38.1077919]]]},"properties":{"@id":"relation/12472825","admin_level":"8","boundary":"administrative","name":"Kozluk Mahallesi","type":"boundary","@relations":[{"role":"subarea","rel":1246232,"reltags":{"admin_level":"6","alt_name":"Pötürge","boundary":"administrative","name":"Pütürge","name:de":"Pütürge","name:diq":"Şêro","name:en":"Pütürge","name:hy":"Շիրո","name:ku":"Şîro","name:ru":"Пютюрге","name:tr":"Pütürge","name:tr:suffix":"İlçesi","name:uk":"Пютюрґе","network":"TR44-districts","source":"http://rehber.malatya.bel.tr/KentrehberiApp/Index","type":"boundary","wikidata":"Q1019922","wikipedia":"tr:Pütürge"}}]},"id":"relation/12472825"},
{"type":"Feature","geometry":{"type":"Polygon","coordinates":[[[38.2801269,38.0384189],[38.2474929,38.0393343],[38.2469652,38.0343487],[38.2473085,38.034392],[38.2473972,38.0343809],[38.2475677,38.034335],[38.2479319,38.0341602],[38.2490013,38.0333584],[38.253161,38.0342719],[38.2608693,38.0373801],[38.2801269,38.0384189]]]},"properties":{"@id":"relation/12897676","admin_level":"8","boundary":"administrative","name":"Bahçeli Evler Mahallesi","type":"boundary"},"id":"relation/12897676"},
{"type":"Feature","geometry":{"type":"Polygon","coordinates":[[[38.2475267,38.0297646],[38.2801269,38.0384189],[38.2608693,38.0373801],[38.253161,38.0342719],[38.2490013,38.0333584],[38.2479319,38.0341602],[38.2475677,38.034335],[38.2473972,38.0343809],[38.2473085,38.034392],[38.2469652,38.0343487],[38.2475267,38.0297646]]]},"properties":{"@id":"relation/12897677","admin_level":"8","boundary":"administrative","name":"Başpınar Mahallesi","type":"boundary"},"id":"relation/12897677"},
{"type":"Feature","geometry":{"type":"Polygon","coordinates":[[[38.2475267,38.0297646],[38.2474929,38.0393343],[38.2469652,38.0343487],[38.2475267,38.0297646]]]},"properties":{"@id":"relation/12897681","admin_level":"8","boundary":"administrative","name":"Fatih Mahallesi","type":"boundary"},"id":"relation/12897681"},
{"type":"Feature","geometry":{"type":"Polygon","coordinates":[[[38.2425079,38.033119],[38.2450914,38.0320407],[38.2449351,38.0337311],[38.2442598,38.033841],[38.2423874,38.0333027],[38.2425079,38.033119]]]},"properties":{"@id":"relation/12906078","admin_level":"8","boundary":"administrative","name":"Cami Mahallesi","type":"boundary"},"id":"relation/12906078"},
{"type":"Feature","geometry":{"type":"Polygon","coordinates":[[[38.2455663,38.0387657],[38.243792,38.0368165],[38.2442598,38.033841],[38.2449351,38.0337311],[38.2455663,38.0387657]]]},"properties":{"@id":"relation/12906103","admin_level":"8","boundary":"administrative","name":"Merkez Mahallesi","type":"boundary"},"id":"relation/12906103"},
{"type":"Feature","geometry":{"type":"Polygon","coordinates":[[[38.243792,38.0368165],[38.2419488,38.0335093],[38.2423874,38.0333027],[38.2442598,38.033841],[38.243792,38.0368165]]]},"properties":{"@id":"relation/12906144","admin_level":"8","boundary":"administrative","name":"Cumhuriyet Mahallesi","type":"boundary"},"id":"relation/12906144"},
{"type":"Feature","geometry":{"type":"Polygon","coordinates":[[[38.2419488,38.0335093],[38.2425079,38.033119],[38.2423874,38.0333027],[38.2419488,38.0335093]]]},"properties":{"@id":"relation/12911554","admin_level":"8","boundary":"administrative","name":"Zafer Mahallesi","type":"boundary"},"id":"relation/12911554"},
{"type":"Feature","geometry":{"type":"Polygon","coordinates":[[[37.7017307,37.9760542],[37.6955187,37.9933725],[37.6604998,37.9947592],[37.6665401,37.968527],[37.6222086,37.9545191],[37.603097,37.9577975],[37.6161398,37.9441115],[37.6258963,37.9511977],[37.6926121,37.9572287],[37.7017307,37.9760542]]]},"properties":{"@id":"relation/13727566","admin_level":"8","boundary":"administrative","name":"Kapıdere Mahallesi","type":"boundary","@relations":[{"role":"subarea","rel":1825945,"reltags":{"admin_level":"6","alt_name":"Muhacîr","boundary":"administrative","name":"Doğanşehir","name:de":"Doğanşehir","name:en":"Doğanşehir","name:fa":"دوغان‌شهر","name:hy":"Վերանշեհր","name:ku":"Wêranşar","name:ru":"Доганшехир","name:tr":"Doğanşehir","name:tr:suffix":"İlçesi","name:zh":"多安謝希爾","network":"TR44-districts","source":"http://rehber.malatya.bel.tr/KentrehberiApp/Index","type":"boundary","wikidata":"Q1004642","wikipedia":"tr:Doğanşehir"}}]},"id":"relation/13727566"},
{"type":"Feature","geometry":{"type":"Polygon","coordinates":[[[37.7686539,37.9242361],[37.8203058,37.9448067],[37.812463,37.9684424],[37.7488947,38.0034166],[37.7285313,38.0003816],[37.7017307,37.9760542],[37.6926121,37.9572287],[37.6935768,37.9078745],[37.7622734,37.9327622],[37.7686539,37.9242361]]]},"properties":{"@id":"relation/13727569","admin_level":"8","boundary":"administrative","name":"Örencik Mahallesi","type":"boundary","@relations":[{"role":"subarea","rel":1825945,"reltags":{"admin_level":"6","alt_name":"Muhacîr","boundary":"administrative","name":"Doğanşehir","name:de":"Doğanşehir","name:en":"Doğanşehir","name:fa":"دوغان‌شهر","name:hy":"Վերանշեհր","name:ku":"Wêranşar","name:ru":"Доганшехир","name:tr":"Doğanşehir","name:tr:suffix":"İlçesi","name:zh":"多安謝希爾","network":"TR44-districts","source":"http://rehber.malatya.bel.tr/KentrehberiApp/Index","type":"boundary","wikidata":"Q1004642","wikipedia":"tr:Doğanşehir"}}]},"id":"relation/13727569"},
{"type":"Feature","geometry":{"type":"Polygon","coordinates":[[[37.7949536,37.8935418],[37.8113365,37.9097114],[37.8481579,37.9209688],[37.8203058,37.9448067],[37.7686539,37.9242361],[37.7551424,37.9096685],[37.7949536,37.8935418]]]},"properties":{"@id":"relation/13727614","admin_level":"8","boundary":"administrative","name":"Karanlıkdere Mahallesi","type":"boundary","@relations":[{"role":"subarea","rel":1825945,"reltags":{"admin_level":"6","alt_name":"Muhacîr","boundary":"administrative","name":"Doğanşehir","name:de":"Doğanşehir","name:en":"Doğanşehir","name:fa":"دوغان‌شهر","name:hy":"Վերանշեհր","name:ku":"Wêranşar","name:ru":"Доганшехир","name:tr":"Doğanşehir","name:tr:suffix":"İlçesi","name:zh":"多安謝希爾","network":"TR44-districts","source":"http://rehber.malatya.bel.tr/KentrehberiApp/Index","type":"boundary","wikidata":"Q1004642","wikipedia":"tr:Doğanşehir"}}]},"id":"relation/13727614"},
{"type":"Feature","geometry":{"type":"Polygon","coordinates":[[[37.8203058,37.9448067],[37.8481579,37.9209688],[37.8113365,37.9097114],[37.7949536,37.8935418],[37.8539713,37.886509],[37.8871627,37.890883],[37.9102491,37.8988884],[37.9904943,37.8888848],[38.0241624,37.8983836],[38.0349065,37.9337765],[38.0621464,37.9420269],[38.0624664,37.946355],[38.0120408,37.9660318],[37.9755735,37.9598315],[37.9447603,37.9760796],[37.9012603,37.975792],[37.881031,37.9628767],[37.8192587,37.9884308],[37.812463,37.9684424],[37.8203058,37.9448067]]]},"properties":{"@id":"relation/13728901","admin_level":"8","boundary":"administrative","name":"Erkenek Mahallesi","type":"boundary","@relations":[{"role":"subarea","rel":1825945,"reltags":{"admin_level":"6","alt_name":"Muhacîr","boundary":"administrative","name":"Doğanşehir","name:de":"Doğanşehir","name:en":"Doğanşehir","name:fa":"دوغان‌شهر","name:hy":"Վերանշեհր","name:ku":"Wêranşar","name:ru":"Доганшехир","name:tr":"Doğanşehir","name:tr:suffix":"İlçesi","name:zh":"多安謝希爾","network":"TR44-districts","source":"http://rehber.malatya.bel.tr/KentrehberiApp/Index","type":"boundary","wikidata":"Q1004642","wikipedia":"tr:Doğanşehir"}}]},"id":"relation/13728901"},
{"type":"Feature","geometry":{"type":"Polygon","coordinates":[[[38.1295434,38.0931654],[38.1090941,38.1027844],[38.0144119,38.0605183],[38.0295074,38.0351631],[38.04548,37.9651859],[38.0624664,37.946355],[38.0621464,37.9420269],[38.0901313,37.9582898],[38.1056664,37.948746],[38.1547989,37.9502563],[38.168783,37.9876095],[38.1500279,38.0189689],[38.1129023,38.0361853],[38.0870207,38.0846315],[38.1295434,38.0931654]]]},"properties":{"@id":"relation/13728905","admin_level":"8","boundary":"administrative","name":"Kurucaova Mahallesi","type":"boundary","@relations":[{"role":"subarea","rel":1825945,"reltags":{"admin_level":"6","alt_name":"Muhacîr","boundary":"administrative","name":"Doğanşehir","name:de":"Doğanşehir","name:en":"Doğanşehir","name:fa":"دوغان‌شهر","name:hy":"Վերանշեհր","name:ku":"Wêranşar","name:ru":"Доганшехир","name:tr":"Doğanşehir","name:tr:suffix":"İlçesi","name:zh":"多安謝希爾","network":"TR44-districts","source":"http://rehber.malatya.bel.tr/KentrehberiApp/Index","type":"boundary","wikidata":"Q1004642","wikipedia":"tr:Doğanşehir"}}]},"id":"relation/13728905"}
]}