{"type":"FeatureCollection", "features": [
{"type":"Feature","geometry":{"type":"Polygon","coordinates":[[[30.1569595,37.9221207],[30.1793075,37.9424019],[30.1914052,37.9946704],[30.2221009,38.0090736],[30.23054,38.03728],[30.3325065,38.040766],[30.3787753,38.0625843],[30.4282844,38.1534731],[30.4806109,38.1990258],[30.52441,38.1962843],[30.6070894,38.2202332],[30.5587778,38.3299374],[30.5111758,38.3475078],[30.474152,38.379709],[30.4140006,38.3860006],[30.3896054,38.3852652],[30.375627,38.3240594],[30.2679519,38.2793893],[30.2479361,38.2249657],[30.1871506,38.2253741],[30.1325471,38.2111314],[30.0831852,38.2148234],[30.0580578,38.184182],[30.0199993,38.1950242],[29.9993449,38.1414641],[29.9686483,38.1349431],[30.041912,38.0368705],[30.0433828,37.9923632],[30.0536263,37.9517216],[30.1569595,37.9221207]]]},"properties":{"@id":"relation/1263741","admin_level":"6","boundary":"administrative","name":"Dinar","name:ce":"Динар","name:el":"Ντινάρ","name:fa":"دینار","name:ja":"ディナール","name:ru":"Динар","name:tr":"Dinar","name:tr:suffix":"İlçesi","name:zh":"迪納爾","network":"TR03-districts","type":"boundary","wikidata":"Q933815","wikipedia":"tr:Dinar, Afyonkarahisar"},"id":"relation/1263741"},
{"type":"Feature","geometry":{"type":"Polygon","coordinates":[[[30.7186679,39.0492497],[30.6715964,39.0839718],[30.5502318,39.0931653],[30.5529783,39.1521615],[30.476589,39.2210832],[30.4475263,39.1863369],[30.422998,39.1871151],[30.378018,39.1534907],[30.3277211,39.1586225],[30.2657008,39.1131563],[30.2422698,39.0594396],[30.2651472,39.0036484],[30.2569113,38.9824717],[30.2759251,38.9571757],[30.3211222,38.9645992],[30.3328227,38.9901699],[30.3956689,38.958247],[30.3887843,38.8947739],[30.4840859,38.8996256],[30.5047416,38.9308379],[30.5592622,38.9246],[30.5890273,38.9373141],[30.6172656,38.9920378],[30.6508888,38.9992005],[30.7052687,39.0268776],[30.7186679,39.0492497]]]},"properties":{"@id":"relation/1263742","admin_level":"6","boundary":"administrative","name":"İhsaniye","name:ce":"ИхӀсанийе","name:de":"İhsaniye","name:en":"İhsaniye","name:fa":"احسانیه","name:tr":"İhsaniye","name:tr:suffix":"İlçesi","network":"TR03-districts","old_name":"Belcemeşe","type":"boundary","wikidata":"Q343559","wikipedia":"tr:İhsaniye"},"id":"relation/1263742"},
{"type":"Feature","geometry":{"type":"Polygon","coordinates":[[[31.1853928,38.6402188],[31.0020443,38.6444952],[30.9734627,38.6616211],[30.8829501,38.672767],[30.844187,38.6413926],[30.8572953,38.6312402],[30.8505065,38.567673],[30.759749,38.5594725],[30.7742667,38.523417],[30.7524969,38.46212],[30.716972,38.4461935],[30.6912528,38.3891563],[30.7727103,38.3370066],[30.7952099,38.3413548],[30.7996931,38.3660822],[30.850772,38.400091],[30.9592686,38.4136016],[30.9668428,38.4566033],[31.0006712,38.4659554],[31.0214897,38.5007393],[31.0812464,38.505298],[31.1831775,38.468438],[31.2174795,38.4992806],[31.1621678,38.5595891],[31.1646266,38.6035624],[31.1853928,38.6402188]]]},"properties":{"@id":"relation/1263743","admin_level":"6","boundary":"administrative","name":"Çay","name:ce":"Чай","name:fa":"چای","name:ru":"Чай","name:tr":"Çay","name:tr:suffix":"İlçesi","name:uk":"ЧаЙ","name:zh":"恰伊","network":"TR03-districts","type":"boundary","wikidata":"Q1915489","wikipedia":"tr:Çay, Afyonkarahisar"},"id":"relation/1263743"},
{"type":"Feature","geometry":{"type":"Polygon","coordinates":[[[29.9122291,38.4319935],[29.953494,38.4559076],[29.9238394,38.5163404],[30.002058,38.5469151],[30.0535306,38.5463369],[30.0782,38.5899124],[30.095142,38.6733698],[30.0523363,38.7341609],[29.9876048,38.742576],[29.918776,38.7082179],[29.903097,38.6460851],[29.8652359,38.5835913],[29.8359357,38.5564773],[29.8142623,38.4740857],[29.873535,38.4629123],[29.9122291,38.4319935]]]},"properties":{"@id":"relation/1263744","admin_level":"6","boundary":"administrative","name":"Hocalar","name:ce":"ХӀоджалар","name:de":"Hocalar","name:en":"Hocalar","name:tr":"Hocalar","name:tr:suffix":"İlçesi","network":"TR03-districts","type":"boundary","wikidata":"Q2672697","wikipedia":"tr:Hocalar"},"id":"relation/1263744"},
{"type":"Feature","geometry":{"type":"Polygon","coordinates":[[[31.005138,38.9114829],[31.0116575,38.9776937],[30.9574357,39.0160394],[31.0042761,39.0642484],[30.9515111,39.1200587],[30.9457788,39.1851229],[30.9138514,39.1997102],[30.8929924,39.1688803],[30.9260763,39.1502983],[30.9250579,39.1103035],[30.8690069,39.0960963],[30.8502845,39.1180002],[30.7878799,39.0995418],[30.8012328,39.052096],[30.8443736,39.0415197],[30.8628555,39.0087113],[30.8193969,38.9732229],[30.8351612,38.9357961],[30.8615079,38.9194186],[30.871116,38.8831367],[30.9075554,38.8328134],[30.9496639,38.8162525],[30.9490223,38.8881082],[31.005138,38.9114829]]]},"properties":{"@id":"relation/1263745","admin_level":"6","boundary":"administrative","name":"Bayat","name:ce":"Байат","name:de":"Bayat","name:tr":"Bayat","name:tr:suffix":"İlçesi","network":"TR03-districts","type":"boundary","wikidata":"Q796992","wikipedia":"tr:Bayat, Afyonkarahisar"},"id":"relation/1263745"},
{"type":"Feature","geometry":{"type":"Polygon","coordinates":[[[30.0433828,37.9923632],[30.041912,38.0368705],[29.9686483,38.1349431],[29.9293597,38.170212],[29.8671318,38.1357952],[29.8937984,38.0931607],[29.8120447,38.070631],[29.7785566,38.0360475],[29.8557951,38.0118467],[29.8903238,37.9810873],[29.9133429,38.0000177],[29.9755145,37.9772943],[29.9919121,37.9964781],[30.0433828,37.9923632]]]},"properties":{"@id":"relation/1263746","admin_level":"6","boundary":"administrative","name":"Evciler","name:ce":"Эвджилер","name:de":"Evciler","name:en":"Evciler","name:tr":"Evciler","name:tr:suffix":"İlçesi","network":"TR03-districts","type":"boundary","wikidata":"Q2672705","wikipedia":"tr:Evciler"},"id":"relation/1263746"},
{"type":"Feature","geometry":{"type":"Polygon","coordinates":[[[30.8829501,38.672767],[30.8773007,38.7171208],[30.90806,38.7752314],[30.9570693,38.7881447],[30.9496639,38.8162525],[30.9075554,38.8328134],[30.8180686,38.7938569],[30.8168748,38.7739905],[30.7676681,38.7516079],[30.7392309,38.6911375],[30.7949365,38.6576242],[30.844187,38.6413926],[30.8829501,38.672767]]]},"properties":{"@id":"relation/1263747","admin_level":"6","boundary":"administrative","name":"Çobanlar","name:ce":"Чобанлар","name:de":"Çobanlar","name:en":"Çobanlar","name:fa":"چوپانلار","name:ru":"Чобанлар","name:tr":"Çobanlar","name:tr:suffix":"İlçesi","name:zh":"喬班拉爾","network":"TR03-districts","type":"boundary","wikidata":"Q1948398","wikipedia":"tr:Çobanlar"},"id":"relation/1263747"},
{"type":"Feature","geometry":{"type":"Polygon","coordinates":[[[29.8868858,37.8254386],[29.8970523,37.7774879],[30.0256915,37.8074119],[30.0478943,37.790497],[30.1500061,37.8524324],[30.1569595,37.9221207],[30.0536263,37.9517216],[30.0433828,37.9923632],[29.9919121,37.9964781],[29.9755145,37.9772943],[29.9498932,37.9501256],[29.9412504,37.8725934],[29.8868858,37.8254386]]]},"properties":{"@id":"relation/1263748","admin_level":"6","boundary":"administrative","name":"Başmakçı","name:ce":"Башмакчи","name:tr":"Başmakçı","name:tr:suffix":"İlçesi","network":"TR03-districts","old_name":"Paşmakçı","type":"boundary","wikidata":"Q1905717","wikipedia":"tr:Başmakçı"},"id":"relation/1263748"},
{"type":"Feature","geometry":{"type":"Polygon","coordinates":[[[31.005138,38.9114829],[30.9490223,38.8881082],[30.9496639,38.8162525],[30.9570693,38.7881447],[30.90806,38.7752314],[30.8773007,38.7171208],[30.8829501,38.672767],[30.9734627,38.6616211],[31.0020443,38.6444952],[31.1853928,38.6402188],[31.3055418,38.6839019],[31.3254545,38.7394903],[31.3090362,38.7630115],[31.3967745,38.8012611],[31.3786485,38.8291567],[31.3182448,38.8393066],[31.2368263,38.827057],[31.1814306,38.8336906],[31.1564521,38.8825846],[31.0903681,38.93364],[31.0622531,38.917968],[31.005138,38.9114829]]]},"properties":{"@id":"relation/1263749","admin_level":"6","boundary":"administrative","name":"Bolvadin","name:ce":"Болвадин","name:de":"Bolvadin","name:en":"Bolvadin","name:fa":"بولوادین","name:tr":"Bolvadin","name:tr:suffix":"İlçesi","name:zh":"博爾瓦丁","network":"TR03-districts","type":"boundary","wikidata":"Q1915508","wikipedia":"tr:Bolvadin"},"id":"relation/1263749"},
{"type":"Feature","geometry":{"type":"Polygon","coordinates":[[[31.1831775,38.468438],[31.2401936,38.4237125],[31.254856,38.4464807],[31.2989856,38.4599785],[31.3313769,38.4886665],[31.4428698,38.5462666],[31.5555694,38.6163251],[31.6018292,38.6168707],[31.5918728,38.6603142],[31.5620808,38.665055],[31.5436231,38.7273315],[31.562444,38.7699617],[31.4723618,38.7737937],[31.4480208,38.7973098],[31.3967745,38.8012611],[31.3090362,38.7630115],[31.3254545,38.7394903],[31.3055418,38.6839019],[31.1853928,38.6402188],[31.1646266,38.6035624],[31.1621678,38.5595891],[31.2174795,38.4992806],[31.1831775,38.468438]]]},"properties":{"@id":"relation/1263750","admin_level":"6","alt_name":"Sultandağ","boundary":"administrative","name":"Sultandağı","name:ce":"СултандагӀи","name:de":"Sultandağı","name:en":"Sultandağı","name:tr":"Sultandağı","name:tr:suffix":"İlçesi","name:uk":"Султандаґи","network":"TR03-districts","old_name":"İshaklı","type":"boundary","wikidata":"Q2674205","wikipedia":"tr:Sultandağı"},"id":"relation/1263750"},
{"type":"Feature","geometry":{"type":"Polygon","coordinates":[[[29.7785566,38.0360475],[29.7401022,37.9858964],[29.6837256,37.988441],[29.6668375,37.9631866],[29.7227018,37.9433465],[29.669439,37.8981155],[29.7418215,37.8582439],[29.7702514,37.8125987],[29.8868858,37.8254386],[29.9412504,37.8725934],[29.9498932,37.9501256],[29.9755145,37.9772943],[29.9133429,38.0000177],[29.8903238,37.9810873],[29.8557951,38.0118467],[29.7785566,38.0360475]]]},"properties":{"@id":"relation/1263751","admin_level":"6","boundary":"administrative","name":"Dazkırı","name:ce":"Дазкири","name:de":"Dazkırı","name:en":"Dazkırı","name:fa":"دازقری","name:tr":"Dazkırı","name:tr:suffix":"İlçesi","network":"TR03-districts","type":"boundary","wikidata":"Q2672686","wikipedia":"tr:Dazkırı"},"id":"relation/1263751"},
{"type":"Feature","geometry":{"type":"Polygon","coordinates":[[[30.7186679,39.0492497],[30.7052687,39.0268776],[30.6508888,38.9992005],[30.6694042,38.9680776],[30.6648158,38.907198],[30.6359767,38.83817],[30.6818306,38.8118316],[30.7487582,38.8357632],[30.8126163,38.8119579],[30.8180686,38.7938569],[30.9075554,38.8328134],[30.871116,38.8831367],[30.8615079,38.9194186],[30.8351612,38.9357961],[30.8193969,38.9732229],[30.8628555,39.0087113],[30.8443736,39.0415197],[30.8012328,39.052096],[30.7811163,39.0402531],[30.7186679,39.0492497]]]},"properties":{"@id":"relation/1263752","admin_level":"6","boundary":"administrative","name":"İscehisar","name:ce":"ИсджехӀисар","name:de":"İscehisar","name:en":"İscehisar","name:fa":"ایسجه‌حصار","name:tr":"İscehisar","name:tr:suffix":"İlçesi","name:zh":"厄斯傑希薩爾","network":"TR03-districts","old_name":"İsce Karahisar;Dokimeíon;Dokimía","type":"boundary","wikidata":"Q1947477","wikipedia":"tr:İscehisar"},"id":"relation/1263752"},
{"type":"Feature","geometry":{"type":"Polygon","coordinates":[[[30.759749,38.5594725],[30.8505065,38.567673],[30.8572953,38.6312402],[30.844187,38.6413926],[30.7949365,38.6576242],[30.7392309,38.6911375],[30.7676681,38.7516079],[30.8168748,38.7739905],[30.8180686,38.7938569],[30.8126163,38.8119579],[30.7487582,38.8357632],[30.6818306,38.8118316],[30.6359767,38.83817],[30.6648158,38.907198],[30.6694042,38.9680776],[30.6508888,38.9992005],[30.6172656,38.9920378],[30.5890273,38.9373141],[30.5592622,38.9246],[30.5047416,38.9308379],[30.4840859,38.8996256],[30.3887843,38.8947739],[30.3956689,38.958247],[30.3328227,38.9901699],[30.3211222,38.9645992],[30.2759251,38.9571757],[30.2569113,38.9824717],[30.2041624,38.94913],[30.187985,38.9122454],[30.2773149,38.9015308],[30.3149129,38.8389634],[30.3514759,38.811943],[30.3998545,38.8024233],[30.4050922,38.7700119],[30.439074,38.7701574],[30.4252694,38.7050918],[30.4084671,38.6861019],[30.4165201,38.6326658],[30.4615457,38.6349626],[30.5872551,38.5907993],[30.6319567,38.6137153],[30.7317348,38.5619855],[30.759749,38.5594725]]]},"properties":{"@id":"relation/1263753","admin_level":"6","alt_name":"Afyonkarahisar;Afyon Karahisar","boundary":"administrative","name":"Afyonkarahisar Merkez","name:ar":"أفيون قره حصار","name:az":"Afyonqarahisar","name:be":"Аф’ён","name:ce":"АфйонкарахӀисар","name:el":"Αφιόν Καραχισάρ","name:fa":"افیون قره‌حصار","name:hy":"Աֆյոնքարահիսար","name:ja":"アフィヨンカラヒサール","name:ka":"აფიონ-ყარაჰისარი","name:kk":"Афионқарахисар","name:ko":"아피온카라히사르","name:la":"Acroenus","name:lt":"Afjonkarahisaras","name:lv":"Afjonkarahisara","name:ru":"Афьонкарахисар","name:sq":"Afjonkarahisar","name:sr":"Афионкарахисар","name:tg":"Афюнқараҳисор","name:tr":"Afyonkarahisar Merkez","name:tr:suffix":"İlçesi","name:uk":"Афьон-Карахісар","name:zh":"阿菲永卡拉希萨尔","network":"TR03-districts","old_name":"Karahisar","type":"boundary","wikidata":"Q166824","wikipedia":"tr:Afyonkarahisar"},"id":"relation/1263753"},
{"type":"Feature","geometry":{"type":"Polygon","coordinates":[[[30.3885237,38.5197624],[30.401573,38.4992806],[30.3921075,38.4516723],[30.4140006,38.3860006],[30.474152,38.379709],[30.5111758,38.3475078],[30.5587778,38.3299374],[30.6070894,38.2202332],[30.7248009,38.2693555],[30.7505765,38.2958256],[30.7884255,38.3071226],[30.7952099,38.3413548],[30.7727103,38.3370066],[30.6912528,38.3891563],[30.716972,38.4461935],[30.7524969,38.46212],[30.7742667,38.523417],[30.759749,38.5594725],[30.7317348,38.5619855],[30.6319567,38.6137153],[30.5872551,38.5907993],[30.4615457,38.6349626],[30.4165201,38.6326658],[30.3968955,38.6164152],[30.3845078,38.5675202],[30.3885237,38.5197624]]]},"properties":{"@id":"relation/1263754","admin_level":"6","boundary":"administrative","name":"Şuhut","name:ce":"ШухӀут","name:fa":"شوهوت","name:ru":"Шухут","name:tr":"Şuhut","name:tr:suffix":"İlçesi","name:uk":"Шугут","name:zh":"舒胡特","network":"TR03-districts","type":"boundary","wikidata":"Q1947545","wikipedia":"tr:Şuhut"},"id":"relation/1263754"},
{"type":"Feature","geometry":{"type":"Polygon","coordinates":[[[30.095142,38.6733698],[30.0782,38.5899124],[30.0535306,38.5463369],[30.002058,38.5469151],[29.9238394,38.5163404],[29.953494,38.4559076],[29.9122291,38.4319935],[29.9320539,38.4094307],[29.9831409,38.4122872],[29.9697287,38.3381835],[30.0285716,38.3179544],[30.0794521,38.2712081],[30.1390539,38.2919095],[30.1538992,38.3158032],[30.2267534,38.2717779],[30.2679519,38.2793893],[30.375627,38.3240594],[30.3896054,38.3852652],[30.4140006,38.3860006],[30.3921075,38.4516723],[30.401573,38.4992806],[30.3885237,38.5197624],[30.3059109,38.57379],[30.2774873,38.608069],[30.2973117,38.6899543],[30.2368136,38.6846096],[30.1813486,38.6637346],[30.095142,38.6733698]]]},"properties":{"@id":"relation/1263755","admin_level":"6","boundary":"administrative","name":"Sandıklı","name:ce":"Сандикли","name:de":"Sandıklı","name:en":"Sandıklı","name:fa":"صاندیقلی","name:tr":"Sandıklı","name:tr:suffix":"İlçesi","name:uk":"Сандикли","name:zh":"桑德克勒","network":"TR03-districts","type":"boundary","wikidata":"Q1012846","wikipedia":"tr:Sandıklı"},"id":"relation/1263755"},
{"type":"Feature","geometry":{"type":"Polygon","coordinates":[[[30.4165201,38.6326658],[30.4084671,38.6861019],[30.4252694,38.7050918],[30.439074,38.7701574],[30.4050922,38.7700119],[30.3998545,38.8024233],[30.3514759,38.811943],[30.3149129,38.8389634],[30.2773149,38.9015308],[30.187985,38.9122454],[30.1274299,38.9000176],[30.1120368,38.84647],[30.0070436,38.8060406],[30.0156115,38.7924555],[29.9876048,38.742576],[30.0523363,38.7341609],[30.095142,38.6733698],[30.1813486,38.6637346],[30.2368136,38.6846096],[30.2973117,38.6899543],[30.2774873,38.608069],[30.3059109,38.57379],[30.3885237,38.5197624],[30.3845078,38.5675202],[30.3968955,38.6164152],[30.4165201,38.6326658]]]},"properties":{"@id":"relation/1263756","admin_level":"6","boundary":"administrative","name":"Sinanpaşa","name:ce":"Синанпаша","name:de":"Sinanpaşa","name:en":"Sinanpaşa","name:fa":"سنان‌پاشا","name:tr":"Sinanpaşa","name:tr:suffix":"İlçesi","network":"TR03-districts","old_name":"Sincanlı","type":"boundary","wikidata":"Q2744945","wikipedia":"tr:Sinanpaşa"},"id":"relation/1263756"},
{"type":"Feature","geometry":{"type":"Polygon","coordinates":[[[31.562444,38.7699617],[31.5813696,38.7763856],[31.61822,38.84765],[31.570555,38.8640967],[31.6210449,38.9201875],[31.6071403,38.9687102],[31.7292665,38.9713421],[31.7164725,39.0003344],[31.6763949,39.0199339],[31.5960145,39.0165162],[31.5924847,39.0433112],[31.5445518,39.044144],[31.5375783,39.0962082],[31.4439009,39.0846381],[31.4272497,39.1056878],[31.4441094,39.1530467],[31.4085386,39.1777157],[31.3267091,39.1868494],[31.3285124,39.22031],[31.2198079,39.2234768],[31.1981249,39.249059],[31.141409,39.2708544],[31.0872246,39.2500676],[31.1154791,39.2220998],[31.0940551,39.19009],[30.9754983,39.1955269],[30.9457788,39.1851229],[30.9515111,39.1200587],[31.0042761,39.0642484],[30.9574357,39.0160394],[31.0116575,38.9776937],[31.005138,38.9114829],[31.0622531,38.917968],[31.0903681,38.93364],[31.1564521,38.8825846],[31.1814306,38.8336906],[31.2368263,38.827057],[31.3182448,38.8393066],[31.3786485,38.8291567],[31.3967745,38.8012611],[31.4480208,38.7973098],[31.4723618,38.7737937],[31.562444,38.7699617]]]},"properties":{"@id":"relation/1263757","admin_level":"6","boundary":"administrative","name":"Emirdağ","name:de":"Emirdağ","name:en":"Emirdağ","name:tr":"Emirdağ","name:tr:suffix":"İlçesi","network":"TR03-districts","type":"boundary","wikidata":"Q1911759","wikipedia":"tr:Emirdağ"},"id":"relation/1263757"},
{"type":"Feature","geometry":{"type":"Polygon","coordinates":[[[30.2679519,38.2793893],[30.2267534,38.2717779],[30.1538992,38.3158032],[30.1390539,38.2919095],[30.0794521,38.2712081],[30.0831852,38.2148234],[30.1325471,38.2111314],[30.1871506,38.2253741],[30.2479361,38.2249657],[30.2679519,38.2793893]]]},"properties":{"@id":"relation/1824754","admin_level":"6","boundary":"administrative","name":"Kızılören","name:ce":"Кизилоьрен","name:de":"Kızılören","name:en":"Kızılören","name:tr":"Kızılören","name:tr:suffix":"İlçesi","network":"TR03-districts","old_name":"Kızılviran","type":"boundary","wikidata":"Q2365599","wikipedia":"tr:Kızılören"},"id":"relation/1824754"},
{"type":"Feature","geometry":{"type":"Polygon","coordinates":[[[30.5706167,38.7358665],[30.5811417,38.7509959],[30.5678111,38.7480213],[30.5706167,38.7358665]]]},"properties":{"@id":"relation/11569431","admin_level":"8","boundary":"administrative","name":"Fatih Mahallesi","type":"boundary","@relations":[{"role":"subarea","rel":1263753,"reltags":{"admin_level":"6","alt_name":"Afyonkarahisar;Afyon Karahisar","boundary":"administrative","name":"Afyonkarahisar Merkez","name:ar":"أفيون قره حصار","name:az":"Afyonqarahisar","name:be":"Аф’ён","name:ce":"АфйонкарахӀисар","name:el":"Αφιόν Καραχισάρ","name:fa":"افیون قره‌حصار","name:hy":"Աֆյոնքարահիսար","name:ja":"アフィヨンカラヒサール","name:ka":"აფიონ-ყარაჰისარი","name:kk":"Афионқарахисар","name:ko":"아피온카라히사르","name:la":"Acroenus","name:lt":"Afjonkarahisaras","name:lv":"Afjonkarahisara","name:ru":"Афьонкарахисар","name:sq":"Afjonkarahisar","name:sr":"Афионкарахисар","name:tg":"Афюнқараҳисор","name:tr":"Afyonkarahisar Merkez","name:tr:suffix":"İlçesi","name:uk":"Афьон-Карахісар","name:zh":"阿菲永卡拉希萨尔","network":"TR03-districts","old_name":"Karahisar","type":"boundary","wikidata":"Q166824","wikipedia":"tr:Afyonkarahisar"}}]},"id":"relation/11569431"},
{"type":"Feature","geometry":{"type":"Polygon","coordinates":[[[30.5784595,38.7659757],[30.564158,38.7555391],[30.5797044,38.7512482],[30.5784595,38.7659757]]]},"properties":{"@id":"relation/11569432","admin_level":"8","boundary":"administrative","name":"Sahipata Mahallesi","type":"boundary","@relations":[{"role":"subarea","rel":1263753,"reltags":{"admin_level":"6","alt_name":"Afyonkarahisar;Afyon Karahisar","boundary":"administrative","name":"Afyonkarahisar Merkez","name:ar":"أفيون قره حصار","name:az":"Afyonqarahisar","name:be":"Аф’ён","name:ce":"АфйонкарахӀисар","name:el":"Αφιόν Καραχισάρ","name:fa":"افیون قره‌حصار","name:hy":"Աֆյոնքարահիսար","name:ja":"アフィヨンカラヒサール","name:ka":"აფიონ-ყარაჰისარი","name:kk":"Афионқарахисар","name:ko":"아피온카라히사르","name:la":"Acroenus","name:lt":"Afjonkarahisaras","name:lv":"Afjonkarahisara","name:ru":"Афьонкарахисар","name:sq":"Afjonkarahisar","name:sr":"Афионкарахисар","name:tg":"Афюнқараҳисор","name:tr":"Afyonkarahisar Merkez","name:tr:suffix":"İlçesi","name:uk":"Афьон-Карахісар","name:zh":"阿菲永卡拉希萨尔","network":"TR03-districts","old_name":"Karahisar","type":"boundary","wikidata":"Q166824","wikipedia":"tr:Afyonkarahisar"}}]},"id":"relation/11569432"},
{"type":"Feature","geometry":{"type":"Polygon","coordinates":[[[30.5811417,38.7509959],[30.5797044,38.7512482],[30.564158,38.7555391],[30.5625218,38.7549911],[30.5678111,38.7480213],[30.5811417,38.7509959]]]},"properties":{"@id":"relation/11569433","admin_level":"8","boundary":"administrative","name":"Eşrefpaşa Mahallesi","type":"boundary","@relations":[{"role":"subarea","rel":1263753,"reltags":{"admin_level":"6","alt_name":"Afyonkarahisar;Afyon Karahisar","boundary":"administrative","name":"Afyonkarahisar Merkez","name:ar":"أفيون قره حصار","name:az":"Afyonqarahisar","name:be":"Аф’ён","name:ce":"АфйонкарахӀисар","name:el":"Αφιόν Καραχισάρ","name:fa":"افیون قره‌حصار","name:hy":"Աֆյոնքարահիսար","name:ja":"アフィヨンカラヒサール","name:ka":"აფიონ-ყარაჰისარი","name:kk":"Афионқарахисар","name:ko":"아피온카라히사르","name:la":"Acroenus","name:lt":"Afjonkarahisaras","name:lv":"Afjonkarahisara","name:ru":"Афьонкарахисар","name:sq":"Afjonkarahisar","name:sr":"Афионкарахисар","name:tg":"Афюнқараҳисор","name:tr":"Afyonkarahisar Merkez","name:tr:suffix":"İlçesi","name:uk":"Афьон-Карахісар","name:zh":"阿菲永卡拉希萨尔","network":"TR03-districts","old_name":"Karahisar","type":"boundary","wikidata":"Q166824","wikipedia":"tr:Afyonkarahisar"}}]},"id":"relation/11569433"},
{"type":"Feature","geometry":{"type":"Polygon","coordinates":[[[30.5678111,38.7480213],[30.5625218,38.7549911],[30.5542123,38.755949],[30.5516474,38.7472738],[30.5533272,38.746147],[30.5670118,38.7479334],[30.5678111,38.7480213]]]},"properties":{"@id":"relation/11569434","admin_level":"8","boundary":"administrative","name":"Güvenevler Mahallesi","type":"boundary","@relations":[{"role":"subarea","rel":1263753,"reltags":{"admin_level":"6","alt_name":"Afyonkarahisar;Afyon Karahisar","boundary":"administrative","name":"Afyonkarahisar Merkez","name:ar":"أفيون قره حصار","name:az":"Afyonqarahisar","name:be":"Аф’ён","name:ce":"АфйонкарахӀисар","name:el":"Αφιόν Καραχισάρ","name:fa":"افیون قره‌حصار","name:hy":"Աֆյոնքարահիսար","name:ja":"アフィヨンカラヒサール","name:ka":"აფიონ-ყარაჰისარი","name:kk":"Афионқарахисар","name:ko":"아피온카라히사르","name:la":"Acroenus","name:lt":"Afjonkarahisaras","name:lv":"Afjonkarahisara","name:ru":"Афьонкарахисар","name:sq":"Afjonkarahisar","name:sr":"Афионкарахисар","name:tg":"Афюнқараҳисор","name:tr":"Afyonkarahisar Merkez","name:tr:suffix":"İlçesi","name:uk":"Афьон-Карахісар","name:zh":"阿菲永卡拉希萨尔","network":"TR03-districts","old_name":"Karahisar","type":"boundary","wikidata":"Q166824","wikipedia":"tr:Afyonkarahisar"}}]},"id":"relation/11569434"},
{"type":"Feature","geometry":{"type":"Polygon","coordinates":[[[30.5560899,38.7434107],[30.5589867,38.7395906],[30.567162,38.7427956],[30.5670118,38.7479334],[30.5533272,38.746147],[30.5560899,38.7434107]]]},"properties":{"@id":"relation/11569435","admin_level":"8","boundary":"administrative","name":"Örnekevler Mahallesi","type":"boundary","@relations":[{"role":"subarea","rel":1263753,"reltags":{"admin_level":"6","alt_name":"Afyonkarahisar;Afyon Karahisar","boundary":"administrative","name":"Afyonkarahisar Merkez","name:ar":"أفيون قره حصار","name:az":"Afyonqarahisar","name:be":"Аф’ён","name:ce":"АфйонкарахӀисар","name:el":"Αφιόν Καραχισάρ","name:fa":"افیون قره‌حصار","name:hy":"Աֆյոնքարահիսար","name:ja":"アフィヨンカラヒサール","name:ka":"აფიონ-ყარაჰისარი","name:kk":"Афионқарахисар","name:ko":"아피온카라히사르","name:la":"Acroenus","name:lt":"Afjonkarahisaras","name:lv":"Afjonkarahisara","name:ru":"Афьонкарахисар","name:sq":"Afjonkarahisar","name:sr":"Афионкарахисар","name:tg":"Афюнқараҳисор","name:tr":"Afyonkarahisar Merkez","name:tr:suffix":"İlçesi","name:uk":"Афьон-Карахісар","name:zh":"阿菲永卡拉希萨尔","network":"TR03-districts","old_name":"Karahisar","type":"boundary","wikidata":"Q166824","wikipedia":"tr:Afyonkarahisar"}}]},"id":"relation/11569435"},
{"type":"Feature","geometry":{"type":"Polygon","coordinates":[[[30.5516474,38.7472738],[30.5478287,38.7498621],[30.5560899,38.7434107],[30.5533272,38.746147],[30.5516474,38.7472738]]]},"properties":{"@id":"relation/11569436","admin_level":"8","boundary":"administrative","name":"Zafer Mahallesi","type":"boundary","@relations":[{"role":"subarea","rel":1263753,"reltags":{"admin_level":"6","alt_name":"Afyonkarahisar;Afyon Karahisar","boundary":"administrative","name":"Afyonkarahisar Merkez","name:ar":"أفيون قره حصار","name:az":"Afyonqarahisar","name:be":"Аф’ён","name:ce":"АфйонкарахӀисар","name:el":"Αφιόν Καραχισάρ","name:fa":"افیون قره‌حصار","name:hy":"Աֆյոնքարահիսար","name:ja":"アフィヨンカラヒサール","name:ka":"აფიონ-ყარაჰისარი","name:kk":"Афионқарахисар","name:ko":"아피온카라히사르","name:la":"Acroenus","name:lt":"Afjonkarahisaras","name:lv":"Afjonkarahisara","name:ru":"Афьонкарахисар","name:sq":"Afjonkarahisar","name:sr":"Афионкарахисар","name:tg":"Афюнқараҳисор","name:tr":"Afyonkarahisar Merkez","name:tr:suffix":"İlçesi","name:uk":"Афьон-Карахісар","name:zh":"阿菲永卡拉希萨尔","network":"TR03-districts","old_name":"Karahisar","type":"boundary","wikidata":"Q166824","wikipedia":"tr:Afyonkarahisar"}}]},"id":"relation/11569436"},
{"type":"Feature","geometry":{"type":"Polygon","coordinates":[[[30.5424643,38.76516],[30.5436605,38.7732824],[30.5348146,38.7661262],[30.5371987,38.7663547],[30.5424643,38.76516]]]},"properties":{"@id":"relation/14190884","admin_level":"8","boundary":"administrative","name":"Selçuklu Mahallesi","type":"boundary","@relations":[{"role":"subarea","rel":1263753,"reltags":{"admin_level":"6","alt_name":"Afyonkarahisar;Afyon Karahisar","boundary":"administrative","name":"Afyonkarahisar Merkez","name:ar":"أفيون قره حصار","name:az":"Afyonqarahisar","name:be":"Аф’ён","name:ce":"АфйонкарахӀисар","name:el":"Αφιόν Καραχισάρ","name:fa":"افیون قره‌حصار","name:hy":"Աֆյոնքարահիսար","name:ja":"アフィヨンカラヒサール","name:ka":"აფიონ-ყარაჰისარი","name:kk":"Афионқарахисар","name:ko":"아피온카라히사르","name:la":"Acroenus","name:lt":"Afjonkarahisaras","name:lv":"Afjonkarahisara","name:ru":"Афьонкарахисар","name:sq":"Afjonkarahisar","name:sr":"Афионкарахисар","name:tg":"Афюнқараҳисор","name:tr":"Afyonkarahisar Merkez","name:tr:suffix":"İlçesi","name:uk":"Афьон-Карахісар","name:zh":"阿菲永卡拉希萨尔","network":"TR03-districts","old_name":"Karahisar","type":"boundary","wikidata":"Q166824","wikipedia":"tr:Afyonkarahisar"}}]},"id":"relation/14190884"},
{"type":"Feature","geometry":{"type":"Polygon","coordinates":[[[30.538103,38.7624433],[30.5371987,38.7663547],[30.5348146,38.7661262],[30.537073,38.7626378],[30.538103,38.7624433]]]},"properties":{"@id":"relation/14190885","admin_level":"8","boundary":"administrative","name":"Kayadibi Mahallesi","type":"boundary","@relations":[{"role":"subarea","rel":1263753,"reltags":{"admin_level":"6","alt_name":"Afyonkarahisar;Afyon Karahisar","boundary":"administrative","name":"Afyonkarahisar Merkez","name:ar":"أفيون قره حصار","name:az":"Afyonqarahisar","name:be":"Аф’ён","name:ce":"АфйонкарахӀисар","name:el":"Αφιόν Καραχισάρ","name:fa":"افیون قره‌حصار","name:hy":"Աֆյոնքարահիսար","name:ja":"アフィヨンカラヒサール","name:ka":"აფიონ-ყარაჰისარი","name:kk":"Афионқарахисар","name:ko":"아피온카라히사르","name:la":"Acroenus","name:lt":"Afjonkarahisaras","name:lv":"Afjonkarahisara","name:ru":"Афьонкарахисар","name:sq":"Afjonkarahisar","name:sr":"Афионкарахисар","name:tg":"Афюнқараҳисор","name:tr":"Afyonkarahisar Merkez","name:tr:suffix":"İlçesi","name:uk":"Афьон-Карахісар","name:zh":"阿菲永卡拉希萨尔","network":"TR03-districts","old_name":"Karahisar","type":"boundary","wikidata":"Q166824","wikipedia":"tr:Afyonkarahisar"}}]},"id":"relation/14190885"},
{"type":"Feature","geometry":{"type":"Polygon","coordinates":[[[30.538103,38.7624433],[30.5391088,38.7600193],[30.540238,38.7614791],[30.5424643,38.76516],[30.5371987,38.7663547],[30.538103,38.7624433]]]},"properties":{"@id":"relation/14190886","admin_level":"8","boundary":"administrative","name":"Kasımpaşa Mahallesi","type":"boundary","@relations":[{"role":"subarea","rel":1263753,"reltags":{"admin_level":"6","alt_name":"Afyonkarahisar;Afyon Karahisar","boundary":"administrative","name":"Afyonkarahisar Merkez","name:ar":"أفيون قره حصار","name:az":"Afyonqarahisar","name:be":"Аф’ён","name:ce":"АфйонкарахӀисар","name:el":"Αφιόν Καραχισάρ","name:fa":"افیون قره‌حصار","name:hy":"Աֆյոնքարահիսար","name:ja":"アフィヨンカラヒサール","name:ka":"აფიონ-ყარაჰისარი","name:kk":"Афионқарахисар","name:ko":"아피온카라히사르","name:la":"Acroenus","name:lt":"Afjonkarahisaras","name:lv":"Afjonkarahisara","name:ru":"Афьонкарахисар","name:sq":"Afjonkarahisar","name:sr":"Афионкарахисар","name:tg":"Афюнқараҳисор","name:tr":"Afyonkarahisar Merkez","name:tr:suffix":"İlçesi","name:uk":"Афьон-Карахісар","name:zh":"阿菲永卡拉希萨尔","network":"TR03-districts","old_name":"Karahisar","type":"boundary","wikidata":"Q166824","wikipedia":"tr:Afyonkarahisar"}}]},"id":"relation/14190886"},
{"type":"Feature","geometry":{"type":"Polygon","coordinates":[[[30.538103,38.7624433],[30.537073,38.7626378],[30.5377918,38.7583523],[30.5391088,38.7600193],[30.538103,38.7624433]]]},"properties":{"@id":"relation/14190887","admin_level":"8","boundary":"administrative","name":"Dairecep Mahallesi","type":"boundary","@relations":[{"role":"subarea","rel":1263753,"reltags":{"admin_level":"6","alt_name":"Afyonkarahisar;Afyon Karahisar","boundary":"administrative","name":"Afyonkarahisar Merkez","name:ar":"أفيون قره حصار","name:az":"Afyonqarahisar","name:be":"Аф’ён","name:ce":"АфйонкарахӀисар","name:el":"Αφιόν Καραχισάρ","name:fa":"افیون قره‌حصار","name:hy":"Աֆյոնքարահիսար","name:ja":"アフィヨンカラヒサール","name:ka":"აფიონ-ყარაჰისარი","name:kk":"Афионқарахисар","name:ko":"아피온카라히사르","name:la":"Acroenus","name:lt":"Afjonkarahisaras","name:lv":"Afjonkarahisara","name:ru":"Афьонкарахисар","name:sq":"Afjonkarahisar","name:sr":"Афионкарахисар","name:tg":"Афюнқараҳисор","name:tr":"Afyonkarahisar Merkez","name:tr:suffix":"İlçesi","name:uk":"Афьон-Карахісар","name:zh":"阿菲永卡拉希萨尔","network":"TR03-districts","old_name":"Karahisar","type":"boundary","wikidata":"Q166824","wikipedia":"tr:Afyonkarahisar"}}]},"id":"relation/14190887"},
{"type":"Feature","geometry":{"type":"Polygon","coordinates":[[[30.5589867,38.7395906],[30.5664968,38.7377871],[30.567162,38.7427956],[30.5589867,38.7395906]]]},"properties":{"@id":"relation/14190888","admin_level":"8","boundary":"administrative","name":"Kocatepe Mahallesi","type":"boundary","@relations":[{"role":"subarea","rel":1263753,"reltags":{"admin_level":"6","alt_name":"Afyonkarahisar;Afyon Karahisar","boundary":"administrative","name":"Afyonkarahisar Merkez","name:ar":"أفيون قره حصار","name:az":"Afyonqarahisar","name:be":"Аф’ён","name:ce":"АфйонкарахӀисар","name:el":"Αφιόν Καραχισάρ","name:fa":"افیون قره‌حصار","name:hy":"Աֆյոնքարահիսար","name:ja":"アフィヨンカラヒサール","name:ka":"აფიონ-ყარაჰისარი","name:kk":"Афионқарахисар","name:ko":"아피온카라히사르","name:la":"Acroenus","name:lt":"Afjonkarahisaras","name:lv":"Afjonkarahisara","name:ru":"Афьонкарахисар","name:sq":"Afjonkarahisar","name:sr":"Афионкарахисар","name:tg":"Афюнқараҳисор","name:tr":"Afyonkarahisar Merkez","name:tr:suffix":"İlçesi","name:uk":"Афьон-Карахісар","name:zh":"阿菲永卡拉希萨尔","network":"TR03-districts","old_name":"Karahisar","type":"boundary","wikidata":"Q166824","wikipedia":"tr:Afyonkarahisar"}}]},"id":"relation/14190888"},
{"type":"Feature","geometry":{"type":"Polygon","coordinates":[[[30.5396748,38.7549451],[30.5456829,38.7514059],[30.5454415,38.7552839],[30.5396748,38.7549451]]]},"properties":{"@id":"relation/14190889","admin_level":"8","boundary":"administrative","name":"Marulcu Mahallesi","type":"boundary","@relations":[{"role":"subarea","rel":1263753,"reltags":{"admin_level":"6","alt_name":"Afyonkarahisar;Afyon Karahisar","boundary":"administrative","name":"Afyonkarahisar Merkez","name:ar":"أفيون قره حصار","name:az":"Afyonqarahisar","name:be":"Аф’ён","name:ce":"АфйонкарахӀисар","name:el":"Αφιόν Καραχισάρ","name:fa":"افیون قره‌حصار","name:hy":"Աֆյոնքարահիսար","name:ja":"アフィヨンカラヒサール","name:ka":"აფიონ-ყარაჰისარი","name:kk":"Афионқарахисар","name:ko":"아피온카라히사르","name:la":"Acroenus","name:lt":"Afjonkarahisaras","name:lv":"Afjonkarahisara","name:ru":"Афьонкарахисар","name:sq":"Afjonkarahisar","name:sr":"Афионкарахисар","name:tg":"Афюнқараҳисор","name:tr":"Afyonkarahisar Merkez","name:tr:suffix":"İlçesi","name:uk":"Афьон-Карахісар","name:zh":"阿菲永卡拉希萨尔","network":"TR03-districts","old_name":"Karahisar","type":"boundary","wikidata":"Q166824","wikipedia":"tr:Afyonkarahisar"}}]},"id":"relation/14190889"},
{"type":"Feature","geometry":{"type":"Polygon","coordinates":[[[30.540238,38.7614791],[30.5391088,38.7600193],[30.5377918,38.7583523],[30.5387346,38.756885],[30.5430517,38.7592203],[30.540238,38.7614791]]]},"properties":{"@id":"relation/14190890","admin_level":"8","boundary":"administrative","name":"Karaman Mahallesi","type":"boundary","@relations":[{"role":"subarea","rel":1263753,"reltags":{"admin_level":"6","alt_name":"Afyonkarahisar;Afyon Karahisar","boundary":"administrative","name":"Afyonkarahisar Merkez","name:ar":"أفيون قره حصار","name:az":"Afyonqarahisar","name:be":"Аф’ён","name:ce":"АфйонкарахӀисар","name:el":"Αφιόν Καραχισάρ","name:fa":"افیون قره‌حصار","name:hy":"Աֆյոնքարահիսար","name:ja":"アフィヨンカラヒサール","name:ka":"აფიონ-ყარაჰისარი","name:kk":"Афионқарахисар","name:ko":"아피온카라히사르","name:la":"Acroenus","name:lt":"Afjonkarahisaras","name:lv":"Afjonkarahisara","name:ru":"Афьонкарахисар","name:sq":"Afjonkarahisar","name:sr":"Афионкарахисар","name:tg":"Афюнқараҳисор","name:tr":"Afyonkarahisar Merkez","name:tr:suffix":"İlçesi","name:uk":"Афьон-Карахісар","name:zh":"阿菲永卡拉希萨尔","network":"TR03-districts","old_name":"Karahisar","type":"boundary","wikidata":"Q166824","wikipedia":"tr:Afyonkarahisar"}}]},"id":"relation/14190890"},
{"type":"Feature","geometry":{"type":"Polygon","coordinates":[[[30.5424643,38.76516],[30.540238,38.7614791],[30.5430517,38.7592203],[30.5479789,38.7618556],[30.5424643,38.76516]]]},"properties":{"@id":"relation/14190891","admin_level":"8","boundary":"administrative","name":"Derviş Paşa Mahallesi","type":"boundary","@relations":[{"role":"subarea","rel":1263753,"reltags":{"admin_level":"6","alt_name":"Afyonkarahisar;Afyon Karahisar","boundary":"administrative","name":"Afyonkarahisar Merkez","name:ar":"أفيون قره حصار","name:az":"Afyonqarahisar","name:be":"Аф’ён","name:ce":"АфйонкарахӀисар","name:el":"Αφιόν Καραχισάρ","name:fa":"افیون قره‌حصار","name:hy":"Աֆյոնքարահիսար","name:ja":"アフィヨンカラヒサール","name:ka":"აფიონ-ყარაჰისარი","name:kk":"Афионқарахисар","name:ko":"아피온카라히사르","name:la":"Acroenus","name:lt":"Afjonkarahisaras","name:lv":"Afjonkarahisara","name:ru":"Афьонкарахисар","name:sq":"Afjonkarahisar","name:sr":"Афионкарахисар","name:tg":"Афюнқараҳисор","name:tr":"Afyonkarahisar Merkez","name:tr:suffix":"İlçesi","name:uk":"Афьон-Карахісар","name:zh":"阿菲永卡拉希萨尔","network":"TR03-districts","old_name":"Karahisar","type":"boundary","wikidata":"Q166824","wikipedia":"tr:Afyonkarahisar"}}]},"id":"relation/14190891"},
{"type":"Feature","geometry":{"type":"Polygon","coordinates":[[[30.5706167,38.7358665],[30.5678111,38.7480213],[30.5670118,38.7479334],[30.567162,38.7427956],[30.5664968,38.7377871],[30.5706167,38.7358665]]]},"properties":{"@id":"relation/14190892","admin_level":"8","boundary":"administrative","name":"Nazmi Saatçi Mahallesi","type":"boundary","@relations":[{"role":"subarea","rel":1263753,"reltags":{"admin_level":"6","alt_name":"Afyonkarahisar;Afyon Karahisar","boundary":"administrative","name":"Afyonkarahisar Merkez","name:ar":"أفيون قره حصار","name:az":"Afyonqarahisar","name:be":"Аф’ён","name:ce":"АфйонкарахӀисар","name:el":"Αφιόν Καραχισάρ","name:fa":"افیون قره‌حصار","name:hy":"Աֆյոնքարահիսար","name:ja":"アフィヨンカラヒサール","name:ka":"აფიონ-ყარაჰისარი","name:kk":"Афионқарахисар","name:ko":"아피온카라히사르","name:la":"Acroenus","name:lt":"Afjonkarahisaras","name:lv":"Afjonkarahisara","name:ru":"Афьонкарахисар","name:sq":"Afjonkarahisar","name:sr":"Афионкарахисар","name:tg":"Афюнқараҳисор","name:tr":"Afyonkarahisar Merkez","name:tr:suffix":"İlçesi","name:uk":"Афьон-Карахісар","name:zh":"阿菲永卡拉希萨尔","network":"TR03-districts","old_name":"Karahisar","type":"boundary","wikidata":"Q166824","wikipedia":"tr:Afyonkarahisar"}}]},"id":"relation/14190892"},
{"type":"Feature","geometry":{"type":"Polygon","coordinates":[[[30.564158,38.7555391],[30.5462301,38.7743698],[30.5436605,38.7732824],[30.5424643,38.76516],[30.5479789,38.7618556],[30.5542123,38.755949],[30.5625218,38.7549911],[30.564158,38.7555391]]]},"properties":{"@id":"relation/14190893","admin_level":"8","boundary":"administrative","name":"Ali Çetinkaya Mahallesi","type":"boundary","@relations":[{"role":"subarea","rel":1263753,"reltags":{"admin_level":"6","alt_name":"Afyonkarahisar;Afyon Karahisar","boundary":"administrative","name":"Afyonkarahisar Merkez","name:ar":"أفيون قره حصار","name:az":"Afyonqarahisar","name:be":"Аф’ён","name:ce":"АфйонкарахӀисар","name:el":"Αφιόν Καραχισάρ","name:fa":"افیون قره‌حصار","name:hy":"Աֆյոնքարահիսար","name:ja":"アフィヨンカラヒサール","name:ka":"აფიონ-ყარაჰისარი","name:kk":"Афионқарахисар","name:ko":"아피온카라히사르","name:la":"Acroenus","name:lt":"Afjonkarahisaras","name:lv":"Afjonkarahisara","name:ru":"Афьонкарахисар","name:sq":"Afjonkarahisar","name:sr":"Афионкарахисар","name:tg":"Афюнқараҳисор","name:tr":"Afyonkarahisar Merkez","name:tr:suffix":"İlçesi","name:uk":"Афьон-Карахісар","name:zh":"阿菲永卡拉希萨尔","network":"TR03-districts","old_name":"Karahisar","type":"boundary","wikidata":"Q166824","wikipedia":"tr:Afyonkarahisar"}}]},"id":"relation/14190893"},
{"type":"Feature","geometry":{"type":"Polygon","coordinates":[[[30.5462301,38.7743698],[30.564158,38.7555391],[30.5784595,38.7659757],[30.5462301,38.7743698]]]},"properties":{"@id":"relation/14190894","admin_level":"8","boundary":"administrative","name":"Yenice Mahallesi","type":"boundary","@relations":[{"role":"subarea","rel":1263753,"reltags":{"admin_level":"6","alt_name":"Afyonkarahisar;Afyon Karahisar","boundary":"administrative","name":"Afyonkarahisar Merkez","name:ar":"أفيون قره حصار","name:az":"Afyonqarahisar","name:be":"Аф’ён","name:ce":"АфйонкарахӀисар","name:el":"Αφιόν Καραχισάρ","name:fa":"افیون قره‌حصار","name:hy":"Աֆյոնքարահիսար","name:ja":"アフィヨンカラヒサール","name:ka":"აფიონ-ყარაჰისარი","name:kk":"Афионқарахисар","name:ko":"아피온카라히사르","name:la":"Acroenus","name:lt":"Afjonkarahisaras","name:lv":"Afjonkarahisara","name:ru":"Афьонкарахисар","name:sq":"Afjonkarahisar","name:sr":"Афионкарахисар","name:tg":"Афюнқараҳисор","name:tr":"Afyonkarahisar Merkez","name:tr:suffix":"İlçesi","name:uk":"Афьон-Карахісар","name:zh":"阿菲永卡拉希萨尔","network":"TR03-districts","old_name":"Karahisar","type":"boundary","wikidata":"Q166824","wikipedia":"tr:Afyonkarahisar"}}]},"id":"relation/14190894"},
{"type":"Feature","geometry":{"type":"Polygon","coordinates":[[[30.5479789,38.7618556],[30.5430517,38.7592203],[30.5387346,38.756885],[30.5396748,38.7549451],[30.5454415,38.7552839],[30.5542123,38.755949],[30.5479789,38.7618556]]]},"properties":{"@id":"relation/14190895","admin_level":"8","boundary":"administrative","name":"Dumlupınar Mahallesi","type":"boundary","@relations":[{"role":"subarea","rel":1263753,"reltags":{"admin_level":"6","alt_name":"Afyonkarahisar;Afyon Karahisar","boundary":"administrative","name":"Afyonkarahisar Merkez","name:ar":"أفيون قره حصار","name:az":"Afyonqarahisar","name:be":"Аф’ён","name:ce":"АфйонкарахӀисар","name:el":"Αφιόν Καραχισάρ","name:fa":"افیون قره‌حصار","name:hy":"Աֆյոնքարահիսար","name:ja":"アフィヨンカラヒサール","name:ka":"აფიონ-ყარაჰისარი","name:kk":"Афионқарахисар","name:ko":"아피온카라히사르","name:la":"Acroenus","name:lt":"Afjonkarahisaras","name:lv":"Afjonkarahisara","name:ru":"Афьонкарахисар","name:sq":"Afjonkarahisar","name:sr":"Афионкарахисар","name:tg":"Афюнқараҳисор","name:tr":"Afyonkarahisar Merkez","name:tr:suffix":"İlçesi","name:uk":"Афьон-Карахісар","name:zh":"阿菲永卡拉希萨尔","network":"TR03-districts","old_name":"Karahisar","type":"boundary","wikidata":"Q166824","wikipedia":"tr:Afyonkarahisar"}}]},"id":"relation/14190895"},
{"type":"Feature","geometry":{"type":"Polygon","coordinates":[[[30.5516474,38.7472738],[30.5542123,38.755949],[30.5454415,38.7552839],[30.5456829,38.7514059],[30.5478287,38.7498621],[30.5516474,38.7472738]]]},"properties":{"@id":"relation/14190896","admin_level":"8","boundary":"administrative","name":"Cumhuriyet Mahallesi","type":"boundary","@relations":[{"role":"subarea","rel":1263753,"reltags":{"admin_level":"6","alt_name":"Afyonkarahisar;Afyon Karahisar","boundary":"administrative","name":"Afyonkarahisar Merkez","name:ar":"أفيون قره حصار","name:az":"Afyonqarahisar","name:be":"Аф’ён","name:ce":"АфйонкарахӀисар","name:el":"Αφιόν Καραχισάρ","name:fa":"افیون قره‌حصار","name:hy":"Աֆյոնքարահիսար","name:ja":"アフィヨンカラヒサール","name:ka":"აფიონ-ყარაჰისარი","name:kk":"Афионқарахисар","name:ko":"아피온카라히사르","name:la":"Acroenus","name:lt":"Afjonkarahisaras","name:lv":"Afjonkarahisara","name:ru":"Афьонкарахисар","name:sq":"Afjonkarahisar","name:sr":"Афионкарахисар","name:tg":"Афюнқараҳисор","name:tr":"Afyonkarahisar Merkez","name:tr:suffix":"İlçesi","name:uk":"Афьон-Карахісар","name:zh":"阿菲永卡拉希萨尔","network":"TR03-districts","old_name":"Karahisar","type":"boundary","wikidata":"Q166824","wikipedia":"tr:Afyonkarahisar"}}]},"id":"relation/14190896"}
]}