{"type":"FeatureCollection", "features": [
{"type":"Feature","geometry":{"type":"Polygon","coordinates":[[[42.883893,39.9808928],[42.792925,39.9725456],[42.6306977,39.934833],[42.5566822,39.9346359],[42.5219626,39.9092459],[42.4405064,39.911664],[42.3864912,39.8819036],[42.2871314,39.8430221],[42.2789918,39.8171262],[42.3021524,39.7712666],[42.3303543,39.7527548],[42.3815064,39.7439555],[42.4587749,39.718586],[42.4855403,39.6806254],[42.5137314,39.6905055],[42.7787999,39.6853178],[42.8562459,39.6752398],[42.8789935,39.7146769],[42.8736256,39.7585777],[42.9128325,39.7716521],[42.9208468,39.8102991],[42.9429552,39.8385274],[42.8793937,39.949418],[42.883893,39.9808928]]]},"properties":{"@id":"relation/1780207","admin_level":"6","boundary":"administrative","name":"Eleşkirt","name:az":"Ələşgird","name:ce":"Элешкирт","name:ckb":"زێتکا","name:diq":"Zêdikan","name:fa":"الشکیرت","name:hy":"Ալաշկերտ","name:ku":"Zêtka","name:ru":"Элешкирт","name:tr":"Eleşkirt","name:tr:suffix":"İlçesi","name:ur":"الشکیرت","name:zh":"埃萊什基爾特","name:zza":"Zêdikan","network":"TR04-districts","old_name":"Zêdkan;Zeydikan;Alashkert","type":"boundary","wikidata":"Q918800","wikipedia":"ku:Zêtka"},"id":"relation/1780207"},
{"type":"Feature","geometry":{"type":"Polygon","coordinates":[[[42.6255714,39.3030451],[42.6016843,39.2765594],[42.6553496,39.2649095],[42.6861102,39.2203478],[42.6796947,39.1803725],[42.7126062,39.1506438],[42.6929719,39.1250125],[42.7099239,39.0776368],[42.6944739,39.0236447],[42.7146572,38.935095],[42.909638,38.9307798],[42.9396342,38.9630795],[42.9358296,38.9973915],[42.9876483,39.0484187],[43.0143512,39.0961909],[43.1383608,39.1712448],[43.1863825,39.2838296],[43.2162343,39.3311636],[43.115286,39.312838],[43.0819083,39.2914723],[42.9658283,39.3464678],[42.9240192,39.3518693],[42.9085842,39.4004956],[42.8626317,39.4178986],[42.8118637,39.3577229],[42.8178405,39.3168356],[42.7918501,39.3099573],[42.6816367,39.3118042],[42.6255714,39.3030451]]]},"properties":{"@id":"relation/1780615","admin_level":"6","alt_name:ku":"Panos","boundary":"administrative","name":"Patnos","name:ce":"Патнос","name:ckb":"پاتنۆس","name:de":"Panos","name:en":"Panos","name:fa":"پاتنوس","name:hy":"Բադնոց","name:ku":"Panos","name:ru":"Патнос","name:tr":"Panos","name:tr:suffix":"İlçesi","name:tt":"Патнос","name:ur":"پاتنوس","name:zh":"帕特諾斯","network":"TR04-districts","type":"boundary","wikidata":"Q509324","wikipedia":"ku:Panos"},"id":"relation/1780615"},
{"type":"Feature","geometry":{"type":"Polygon","coordinates":[[[42.4855403,39.6806254],[42.5202956,39.6359314],[42.4861172,39.5883911],[42.4821554,39.5607438],[42.4195897,39.5346642],[42.4661248,39.4780818],[42.5112699,39.4858534],[42.5005922,39.4218863],[42.5245229,39.3601697],[42.5563396,39.3718236],[42.5815739,39.3365076],[42.6255714,39.3030451],[42.6816367,39.3118042],[42.7918501,39.3099573],[42.8178405,39.3168356],[42.8118637,39.3577229],[42.8626317,39.4178986],[42.9085842,39.4004956],[42.9234484,39.4442154],[42.9232106,39.5201437],[42.954922,39.5362559],[42.9384694,39.5815804],[42.8827099,39.6685582],[42.8562459,39.6752398],[42.7787999,39.6853178],[42.5137314,39.6905055],[42.4855403,39.6806254]]]},"properties":{"@id":"relation/1780622","admin_level":"6","boundary":"administrative","name":"Tutak","name:ckb":"دوتاخ","name:de":"Tutak","name:en":"Tutak","name:fa":"توتک","name:hy":"Այնթապ","name:ku":"Dutax","name:tr":"Tutak","name:tr:suffix":"İlçesi","name:ur":"توتک","name:zh":"图塔克","network":"TR04-districts","type":"boundary","wikidata":"Q1727597","wikipedia":"ku:Dutax"},"id":"relation/1780622"},
{"type":"Feature","geometry":{"type":"Polygon","coordinates":[[[43.4273324,39.7847725],[43.4031464,39.8409801],[43.4046604,39.8709672],[43.3662786,39.9249807],[43.3784641,39.981726],[43.3576457,39.9920306],[43.2857942,39.9968295],[43.0933412,39.9839103],[43.0529675,39.9883763],[42.883893,39.9808928],[42.8793937,39.949418],[42.9429552,39.8385274],[42.9208468,39.8102991],[42.9128325,39.7716521],[42.8736256,39.7585777],[42.8789935,39.7146769],[42.8562459,39.6752398],[42.8827099,39.6685582],[42.9564007,39.6542162],[43.0284654,39.655959],[43.0403118,39.6570219],[43.0876984,39.6467441],[43.1322116,39.5929202],[43.1967415,39.5862081],[43.2476178,39.5636168],[43.2802244,39.5622046],[43.3055543,39.6529241],[43.341041,39.6787556],[43.3498338,39.716529],[43.4273324,39.7847725]]]},"properties":{"@id":"relation/1837704","admin_level":"6","alt_name:ku":"Qerekose;Qerekilîs;Qerekîs;Qereysî","boundary":"administrative","name":"Ağrı Merkez","name:ar":"أغري","name:arc":"ܐܓܪܝ","name:azb":"آغری","name:bg":"Агръ","name:ce":"АгӀри","name:el":"Άγρι","name:es":"Agri","name:fa":"آگری","name:fr":"Agri","name:grc":"Ἄγρι","name:hy":"Աղրը","name:ja":"アール","name:ka":"აღრი","name:ko":"아르","name:ku":"Qerekose","name:lt":"Ahras","name:mk":"Агри","name:ota":"قره‌کلیسا","name:pa":"ਆਗਰੀ","name:ru":"Агри","name:sr":"Агри","name:syc":"ܐܓܪܝ","name:tg":"Ағри","name:tr":"Ağrı Merkez","name:tr:suffix":"İlçesi","name:tt":"Агры","name:ug":"ئاغرى","name:uk":"Агри","name:ur":"آغری","name:zh":"阿勒","network":"TR04-districts","old_name":"Karaköse","old_name:azb":"قره‌کلیسا","old_name:de":"Karakilise","old_name:es":"Karakilise","old_name:fr":"Karakilise","old_name:grc":"Καρακίλισε","old_name:hy":"Քարբեր","type":"boundary","wikidata":"Q80051","wikipedia":"ku:Agirî (parêzgeh)"},"id":"relation/1837704"},
{"type":"Feature","geometry":{"type":"Polygon","coordinates":[[[43.418489,39.3578959],[43.5127363,39.3198977],[43.5772951,39.249237],[43.6264539,39.2106811],[43.660026,39.1994872],[43.7345317,39.2004619],[43.7754235,39.2500385],[43.8527536,39.3198597],[43.8806071,39.3336033],[43.8331549,39.423401],[43.8237357,39.5055942],[43.7547291,39.5655854],[43.7561027,39.5975852],[43.7945935,39.6149458],[43.7558034,39.6558464],[43.6424877,39.678477],[43.5690978,39.684991],[43.5639687,39.6426866],[43.5397886,39.611647],[43.4525936,39.5772049],[43.4529945,39.5237741],[43.4135253,39.5051058],[43.399786,39.4709519],[43.418489,39.3578959]]]},"properties":{"@id":"relation/1837705","admin_level":"6","alt_name":"Diadin","boundary":"administrative","name":"Diyadin","name:ce":"Дийадин","name:ckb":"گیادین","name:de":"Diyadin","name:en":"Diyadin","name:fa":"دیادین","name:hy":"Դիադին","name:ku":"Giyadîn","name:ru":"Диядин","name:tr":"Diyadin","name:tr:suffix":"İlçesi","name:tt":"Диядин","name:ur":"دیادین","name:zh":"迪亞丁","network":"TR04-districts","type":"boundary","wikidata":"Q932913","wikipedia":"ku:Giyadîn"},"id":"relation/1837705"},
{"type":"Feature","geometry":{"type":"Polygon","coordinates":[[[43.8806071,39.3336033],[43.9629634,39.3689657],[44.0377009,39.3612643],[44.0511439,39.4030519],[44.1908085,39.4024348],[44.2306563,39.4161582],[44.2473324,39.397303],[44.3007509,39.3792134],[44.3855811,39.4129925],[44.4219571,39.4116039],[44.4320998,39.4428202],[44.4175827,39.4851502],[44.439737,39.501147],[44.416204,39.55644],[44.480148,39.610424],[44.4816613,39.6714235],[44.426319,39.6608709],[44.2950184,39.675043],[44.2545623,39.6985325],[44.1777684,39.7128832],[44.1450644,39.7400855],[44.0939492,39.7326339],[44.0450143,39.7400855],[43.9988204,39.7278452],[43.9764267,39.7475712],[43.8810399,39.7577566],[43.838024,39.777437],[43.7903141,39.7784967],[43.7709273,39.7634508],[43.6088849,39.8008094],[43.5594837,39.8386828],[43.5632359,39.7689588],[43.5573741,39.6990867],[43.5690978,39.684991],[43.6424877,39.678477],[43.7558034,39.6558464],[43.7945935,39.6149458],[43.7561027,39.5975852],[43.7547291,39.5655854],[43.8237357,39.5055942],[43.8331549,39.423401],[43.8806071,39.3336033]]]},"properties":{"@id":"relation/1837706","admin_level":"6","alt_name":"Doğubeyazıt","boundary":"administrative","name":"Doğubayazıt","name:ar":"دوغبايزيد","name:azb":"دوغوبایزید","name:ce":"ДогӀубайазит","name:ckb":"بازید","name:de":"Doğubayazıt","name:el":"Ντογουμπαγιαζίτ","name:en":"Doğubayazıt","name:fa":"دغوبایزید","name:fr":"Doğubayazıt","name:hy":"Բայազետ","name:ku":"Bazîd","name:ota":"بایزید","name:ru":"Догубаязит","name:tr":"Doğubayazıt","name:tr:suffix":"İlçesi","name:tt":"Догубаязыт","name:ur":"دوغوبایزید","name:zh":"多烏巴亞澤特","name:zza":"Doğubeyazıt","network":"TR04-districts","old_name":"Bayazıt","type":"boundary","wikidata":"Q849535","wikipedia":"tr:Doğubayazıt"},"id":"relation/1837706"},
{"type":"Feature","geometry":{"type":"Polygon","coordinates":[[[43.2162343,39.3311636],[43.2850244,39.3581884],[43.2754895,39.4462686],[43.2394968,39.4825405],[43.233696,39.5164337],[43.2476178,39.5636168],[43.1967415,39.5862081],[43.1322116,39.5929202],[43.0876984,39.6467441],[43.0403118,39.6570219],[43.0284654,39.655959],[42.9564007,39.6542162],[42.8827099,39.6685582],[42.9384694,39.5815804],[42.954922,39.5362559],[42.9232106,39.5201437],[42.9234484,39.4442154],[42.9085842,39.4004956],[42.9240192,39.3518693],[42.9658283,39.3464678],[43.0819083,39.2914723],[43.115286,39.312838],[43.2162343,39.3311636]]]},"properties":{"@id":"relation/1837707","admin_level":"6","alt_name":"Xemûr","boundary":"administrative","name":"Hamur","name:az":"Xamur","name:ce":"ХӀамур","name:ckb":"خاموور","name:de":"Hamur","name:en":"Hamur","name:fa":"هامور","name:hy":"Խամուր","name:ku":"Xamûr","name:tr":"Hamur","name:tr:suffix":"İlçesi","name:tt":"Хамур","name:ur":"حامور","network":"TR04-districts","type":"boundary","wikidata":"Q1025417","wikipedia":"ku:Xamûr"},"id":"relation/1837707"},
{"type":"Feature","geometry":{"type":"Polygon","coordinates":[[[43.2850244,39.3581884],[43.3264415,39.3665654],[43.418489,39.3578959],[43.399786,39.4709519],[43.4135253,39.5051058],[43.4529945,39.5237741],[43.4525936,39.5772049],[43.5397886,39.611647],[43.5639687,39.6426866],[43.5690978,39.684991],[43.5573741,39.6990867],[43.5632359,39.7689588],[43.5594837,39.8386828],[43.5015612,39.8205162],[43.4924768,39.7884129],[43.4537165,39.7709592],[43.4273324,39.7847725],[43.3498338,39.716529],[43.341041,39.6787556],[43.3055543,39.6529241],[43.2802244,39.5622046],[43.2476178,39.5636168],[43.233696,39.5164337],[43.2394968,39.4825405],[43.2754895,39.4462686],[43.2850244,39.3581884]]]},"properties":{"@id":"relation/1837708","admin_level":"6","boundary":"administrative","name":"Taşlıçay","name:ar":"تسليكاي","name:az":"Daşlıçay","name:ce":"Ташличай","name:ckb":"ئاڤکەڤر","name:de":"Taşlıçay","name:en":"Taşlıçay","name:fa":"تاش‌لی‌چای","name:hy":"Դաշլիչայ","name:ku":"Avkevir","name:tr":"Taşlıçay","name:tr:suffix":"İlçesi","name:tt":"Ташлычай","name:ur":"تاشلیچائے","network":"TR04-districts","type":"boundary","wikidata":"Q1023307","wikipedia":"ku:Avkevir"},"id":"relation/1837708"},
{"type":"Feature","geometry":{"type":"Polygon","coordinates":[[[43.0499586,39.7142527],[43.0424917,39.7096463],[43.0424219,39.7082555],[43.0486286,39.7069308],[43.0499586,39.7142527]]]},"properties":{"@id":"relation/12981003","admin_level":"8","boundary":"administrative","name":"Kurtuluş Mahallesi","type":"boundary","@relations":[{"role":"subarea","rel":1837704,"reltags":{"admin_level":"6","alt_name:ku":"Qerekose;Qerekilîs;Qerekîs;Qereysî","boundary":"administrative","name":"Ağrı Merkez","name:ar":"أغري","name:arc":"ܐܓܪܝ","name:azb":"آغری","name:bg":"Агръ","name:ce":"АгӀри","name:el":"Άγρι","name:es":"Agri","name:fa":"آگری","name:fr":"Agri","name:grc":"Ἄγρι","name:hy":"Աղրը","name:ja":"アール","name:ka":"აღრი","name:ko":"아르","name:ku":"Qerekose","name:lt":"Ahras","name:mk":"Агри","name:ota":"قره‌کلیسا","name:pa":"ਆਗਰੀ","name:ru":"Агри","name:sr":"Агри","name:syc":"ܐܓܪܝ","name:tg":"Ағри","name:tr":"Ağrı Merkez","name:tr:suffix":"İlçesi","name:tt":"Агры","name:ug":"ئاغرى","name:uk":"Агри","name:ur":"آغری","name:zh":"阿勒","network":"TR04-districts","old_name":"Karaköse","old_name:azb":"قره‌کلیسا","old_name:de":"Karakilise","old_name:es":"Karakilise","old_name:fr":"Karakilise","old_name:grc":"Καρακίλισε","old_name:hy":"Քարբեր","type":"boundary","wikidata":"Q80051","wikipedia":"ku:Agirî (parêzgeh)"}}]},"id":"relation/12981003"},
{"type":"Feature","geometry":{"type":"Polygon","coordinates":[[[43.0521691,39.7067657],[43.0574638,39.7073311],[43.0523407,39.7160095],[43.0515468,39.7190465],[43.0505383,39.7189805],[43.0499586,39.7142527],[43.0486286,39.7069308],[43.0521691,39.7067657]]]},"properties":{"@id":"relation/12981004","admin_level":"8","boundary":"administrative","name":"Alpaslan Mahallesi","type":"boundary","@relations":[{"role":"subarea","rel":1837704,"reltags":{"admin_level":"6","alt_name:ku":"Qerekose;Qerekilîs;Qerekîs;Qereysî","boundary":"administrative","name":"Ağrı Merkez","name:ar":"أغري","name:arc":"ܐܓܪܝ","name:azb":"آغری","name:bg":"Агръ","name:ce":"АгӀри","name:el":"Άγρι","name:es":"Agri","name:fa":"آگری","name:fr":"Agri","name:grc":"Ἄγρι","name:hy":"Աղրը","name:ja":"アール","name:ka":"აღრი","name:ko":"아르","name:ku":"Qerekose","name:lt":"Ahras","name:mk":"Агри","name:ota":"قره‌کلیسا","name:pa":"ਆਗਰੀ","name:ru":"Агри","name:sr":"Агри","name:syc":"ܐܓܪܝ","name:tg":"Ағри","name:tr":"Ağrı Merkez","name:tr:suffix":"İlçesi","name:tt":"Агры","name:ug":"ئاغرى","name:uk":"Агри","name:ur":"آغری","name:zh":"阿勒","network":"TR04-districts","old_name":"Karaköse","old_name:azb":"قره‌کلیسا","old_name:de":"Karakilise","old_name:es":"Karakilise","old_name:fr":"Karakilise","old_name:grc":"Καρακίλισε","old_name:hy":"Քարբեր","type":"boundary","wikidata":"Q80051","wikipedia":"ku:Agirî (parêzgeh)"}}]},"id":"relation/12981004"},
{"type":"Feature","geometry":{"type":"Polygon","coordinates":[[[43.0647969,39.7158197],[43.0523407,39.7160095],[43.0574638,39.7073311],[43.05866,39.7076406],[43.0647969,39.7158197]]]},"properties":{"@id":"relation/12981005","admin_level":"8","boundary":"administrative","name":"Murat Mahallesi","type":"boundary","@relations":[{"role":"subarea","rel":1837704,"reltags":{"admin_level":"6","alt_name:ku":"Qerekose;Qerekilîs;Qerekîs;Qereysî","boundary":"administrative","name":"Ağrı Merkez","name:ar":"أغري","name:arc":"ܐܓܪܝ","name:azb":"آغری","name:bg":"Агръ","name:ce":"АгӀри","name:el":"Άγρι","name:es":"Agri","name:fa":"آگری","name:fr":"Agri","name:grc":"Ἄγρι","name:hy":"Աղրը","name:ja":"アール","name:ka":"აღრი","name:ko":"아르","name:ku":"Qerekose","name:lt":"Ahras","name:mk":"Агри","name:ota":"قره‌کلیسا","name:pa":"ਆਗਰੀ","name:ru":"Агри","name:sr":"Агри","name:syc":"ܐܓܪܝ","name:tg":"Ағри","name:tr":"Ağrı Merkez","name:tr:suffix":"İlçesi","name:tt":"Агры","name:ug":"ئاغرى","name:uk":"Агри","name:ur":"آغری","name:zh":"阿勒","network":"TR04-districts","old_name":"Karaköse","old_name:azb":"قره‌کلیسا","old_name:de":"Karakilise","old_name:es":"Karakilise","old_name:fr":"Karakilise","old_name:grc":"Καρακίλισε","old_name:hy":"Քարբեր","type":"boundary","wikidata":"Q80051","wikipedia":"ku:Agirî (parêzgeh)"}}]},"id":"relation/12981005"},
{"type":"Feature","geometry":{"type":"Polygon","coordinates":[[[43.0499586,39.7142527],[43.0505383,39.7189805],[43.0478129,39.7189673],[43.0437362,39.7189475],[43.0424917,39.7096463],[43.0499586,39.7142527]]]},"properties":{"@id":"relation/12981007","admin_level":"8","boundary":"administrative","name":"Sıtkıye Mahallesi","type":"boundary","@relations":[{"role":"subarea","rel":1837704,"reltags":{"admin_level":"6","alt_name:ku":"Qerekose;Qerekilîs;Qerekîs;Qereysî","boundary":"administrative","name":"Ağrı Merkez","name:ar":"أغري","name:arc":"ܐܓܪܝ","name:azb":"آغری","name:bg":"Агръ","name:ce":"АгӀри","name:el":"Άγρι","name:es":"Agri","name:fa":"آگری","name:fr":"Agri","name:grc":"Ἄγρι","name:hy":"Աղրը","name:ja":"アール","name:ka":"აღრი","name:ko":"아르","name:ku":"Qerekose","name:lt":"Ahras","name:mk":"Агри","name:ota":"قره‌کلیسا","name:pa":"ਆਗਰੀ","name:ru":"Агри","name:sr":"Агри","name:syc":"ܐܓܪܝ","name:tg":"Ағри","name:tr":"Ağrı Merkez","name:tr:suffix":"İlçesi","name:tt":"Агры","name:ug":"ئاغرى","name:uk":"Агри","name:ur":"آغری","name:zh":"阿勒","network":"TR04-districts","old_name":"Karaköse","old_name:azb":"قره‌کلیسا","old_name:de":"Karakilise","old_name:es":"Karakilise","old_name:fr":"Karakilise","old_name:grc":"Καρακίλισε","old_name:hy":"Քարբեր","type":"boundary","wikidata":"Q80051","wikipedia":"ku:Agirî (parêzgeh)"}}]},"id":"relation/12981007"},
{"type":"Feature","geometry":{"type":"Polygon","coordinates":[[[43.0515468,39.7190465],[43.053081,39.7220173],[43.053875,39.7237503],[43.0499482,39.7251531],[43.0467939,39.7215098],[43.0478129,39.7189673],[43.0505383,39.7189805],[43.0515468,39.7190465]]]},"properties":{"@id":"relation/12981650","admin_level":"8","boundary":"administrative","name":"Yavuz Mahallesi","type":"boundary","@relations":[{"role":"subarea","rel":1837704,"reltags":{"admin_level":"6","alt_name:ku":"Qerekose;Qerekilîs;Qerekîs;Qereysî","boundary":"administrative","name":"Ağrı Merkez","name:ar":"أغري","name:arc":"ܐܓܪܝ","name:azb":"آغری","name:bg":"Агръ","name:ce":"АгӀри","name:el":"Άγρι","name:es":"Agri","name:fa":"آگری","name:fr":"Agri","name:grc":"Ἄγρι","name:hy":"Աղրը","name:ja":"アール","name:ka":"აღრი","name:ko":"아르","name:ku":"Qerekose","name:lt":"Ahras","name:mk":"Агри","name:ota":"قره‌کلیسا","name:pa":"ਆਗਰੀ","name:ru":"Агри","name:sr":"Агри","name:syc":"ܐܓܪܝ","name:tg":"Ағри","name:tr":"Ağrı Merkez","name:tr:suffix":"İlçesi","name:tt":"Агры","name:ug":"ئاغرى","name:uk":"Агри","name:ur":"آغری","name:zh":"阿勒","network":"TR04-districts","old_name":"Karaköse","old_name:azb":"قره‌کلیسا","old_name:de":"Karakilise","old_name:es":"Karakilise","old_name:fr":"Karakilise","old_name:grc":"Καρακίλισε","old_name:hy":"Քարբեր","type":"boundary","wikidata":"Q80051","wikipedia":"ku:Agirî (parêzgeh)"}}]},"id":"relation/12981650"},
{"type":"Feature","geometry":{"type":"Polygon","coordinates":[[[43.1094932,39.7127413],[43.0666906,39.7172144],[43.0647969,39.7158197],[43.05866,39.7076406],[43.0788757,39.7041389],[43.1094932,39.7127413]]]},"properties":{"@id":"relation/12981651","admin_level":"8","boundary":"administrative","name":"Mehmet Akif Ersoy Mahallesi","type":"boundary","@relations":[{"role":"subarea","rel":1837704,"reltags":{"admin_level":"6","alt_name:ku":"Qerekose;Qerekilîs;Qerekîs;Qereysî","boundary":"administrative","name":"Ağrı Merkez","name:ar":"أغري","name:arc":"ܐܓܪܝ","name:azb":"آغری","name:bg":"Агръ","name:ce":"АгӀри","name:el":"Άγρι","name:es":"Agri","name:fa":"آگری","name:fr":"Agri","name:grc":"Ἄγρι","name:hy":"Աղրը","name:ja":"アール","name:ka":"აღრი","name:ko":"아르","name:ku":"Qerekose","name:lt":"Ahras","name:mk":"Агри","name:ota":"قره‌کلیسا","name:pa":"ਆਗਰੀ","name:ru":"Агри","name:sr":"Агри","name:syc":"ܐܓܪܝ","name:tg":"Ағри","name:tr":"Ağrı Merkez","name:tr:suffix":"İlçesi","name:tt":"Агры","name:ug":"ئاغرى","name:uk":"Агри","name:ur":"آغری","name:zh":"阿勒","network":"TR04-districts","old_name":"Karaköse","old_name:azb":"قره‌کلیسا","old_name:de":"Karakilise","old_name:es":"Karakilise","old_name:fr":"Karakilise","old_name:grc":"Καρακίλισε","old_name:hy":"Քարբեր","type":"boundary","wikidata":"Q80051","wikipedia":"ku:Agirî (parêzgeh)"}}]},"id":"relation/12981651"},
{"type":"Feature","geometry":{"type":"Polygon","coordinates":[[[43.1094932,39.7127413],[43.0701828,39.7321172],[43.0604088,39.7253016],[43.053081,39.7220173],[43.0515468,39.7190465],[43.0666906,39.7172144],[43.1094932,39.7127413]]]},"properties":{"@id":"relation/12981652","admin_level":"8","boundary":"administrative","name":"Leylek Pınar Mahallesi","type":"boundary","@relations":[{"role":"subarea","rel":1837704,"reltags":{"admin_level":"6","alt_name:ku":"Qerekose;Qerekilîs;Qerekîs;Qereysî","boundary":"administrative","name":"Ağrı Merkez","name:ar":"أغري","name:arc":"ܐܓܪܝ","name:azb":"آغری","name:bg":"Агръ","name:ce":"АгӀри","name:el":"Άγρι","name:es":"Agri","name:fa":"آگری","name:fr":"Agri","name:grc":"Ἄγρι","name:hy":"Աղրը","name:ja":"アール","name:ka":"აღრი","name:ko":"아르","name:ku":"Qerekose","name:lt":"Ahras","name:mk":"Агри","name:ota":"قره‌کلیسا","name:pa":"ਆਗਰੀ","name:ru":"Агри","name:sr":"Агри","name:syc":"ܐܓܪܝ","name:tg":"Ағри","name:tr":"Ağrı Merkez","name:tr:suffix":"İlçesi","name:tt":"Агры","name:ug":"ئاغرى","name:uk":"Агри","name:ur":"آغری","name:zh":"阿勒","network":"TR04-districts","old_name":"Karaköse","old_name:azb":"قره‌کلیسا","old_name:de":"Karakilise","old_name:es":"Karakilise","old_name:fr":"Karakilise","old_name:grc":"Καρακίλισε","old_name:hy":"Քարբեր","type":"boundary","wikidata":"Q80051","wikipedia":"ku:Agirî (parêzgeh)"}}]},"id":"relation/12981652"},
{"type":"Feature","geometry":{"type":"Polygon","coordinates":[[[43.0647969,39.7158197],[43.0666906,39.7172144],[43.0515468,39.7190465],[43.0523407,39.7160095],[43.0647969,39.7158197]]]},"properties":{"@id":"relation/12981653","admin_level":"8","boundary":"administrative","name":"Cumhuriyet Mahallesi","type":"boundary","@relations":[{"role":"subarea","rel":1837704,"reltags":{"admin_level":"6","alt_name:ku":"Qerekose;Qerekilîs;Qerekîs;Qereysî","boundary":"administrative","name":"Ağrı Merkez","name:ar":"أغري","name:arc":"ܐܓܪܝ","name:azb":"آغری","name:bg":"Агръ","name:ce":"АгӀри","name:el":"Άγρι","name:es":"Agri","name:fa":"آگری","name:fr":"Agri","name:grc":"Ἄγρι","name:hy":"Աղրը","name:ja":"アール","name:ka":"აღრი","name:ko":"아르","name:ku":"Qerekose","name:lt":"Ahras","name:mk":"Агри","name:ota":"قره‌کلیسا","name:pa":"ਆਗਰੀ","name:ru":"Агри","name:sr":"Агри","name:syc":"ܐܓܪܝ","name:tg":"Ағри","name:tr":"Ağrı Merkez","name:tr:suffix":"İlçesi","name:tt":"Агры","name:ug":"ئاغرى","name:uk":"Агри","name:ur":"آغری","name:zh":"阿勒","network":"TR04-districts","old_name":"Karaköse","old_name:azb":"قره‌کلیسا","old_name:de":"Karakilise","old_name:es":"Karakilise","old_name:fr":"Karakilise","old_name:grc":"Καρακίλισε","old_name:hy":"Քարբեր","type":"boundary","wikidata":"Q80051","wikipedia":"ku:Agirî (parêzgeh)"}}]},"id":"relation/12981653"},
{"type":"Feature","geometry":{"type":"Polygon","coordinates":[[[43.05255,39.7279297],[43.0592501,39.7482129],[43.0211091,39.7474375],[43.0413008,39.7320347],[43.0457407,39.727841],[43.05255,39.7279297]]]},"properties":{"@id":"relation/12981669","admin_level":"8","boundary":"administrative","name":"Fatih Mahallesi","type":"boundary","@relations":[{"role":"subarea","rel":1837704,"reltags":{"admin_level":"6","alt_name:ku":"Qerekose;Qerekilîs;Qerekîs;Qereysî","boundary":"administrative","name":"Ağrı Merkez","name:ar":"أغري","name:arc":"ܐܓܪܝ","name:azb":"آغری","name:bg":"Агръ","name:ce":"АгӀри","name:el":"Άγρι","name:es":"Agri","name:fa":"آگری","name:fr":"Agri","name:grc":"Ἄγρι","name:hy":"Աղրը","name:ja":"アール","name:ka":"აღრი","name:ko":"아르","name:ku":"Qerekose","name:lt":"Ahras","name:mk":"Агри","name:ota":"قره‌کلیسا","name:pa":"ਆਗਰੀ","name:ru":"Агри","name:sr":"Агри","name:syc":"ܐܓܪܝ","name:tg":"Ағри","name:tr":"Ağrı Merkez","name:tr:suffix":"İlçesi","name:tt":"Агры","name:ug":"ئاغرى","name:uk":"Агри","name:ur":"آغری","name:zh":"阿勒","network":"TR04-districts","old_name":"Karaköse","old_name:azb":"قره‌کلیسا","old_name:de":"Karakilise","old_name:es":"Karakilise","old_name:fr":"Karakilise","old_name:grc":"Καρακίλισε","old_name:hy":"Քարբեր","type":"boundary","wikidata":"Q80051","wikipedia":"ku:Agirî (parêzgeh)"}}]},"id":"relation/12981669"},
{"type":"Feature","geometry":{"type":"Polygon","coordinates":[[[43.0604088,39.7253016],[43.0701828,39.7321172],[43.0592501,39.7482129],[43.05255,39.7279297],[43.0540466,39.7242206],[43.0604088,39.7253016]]]},"properties":{"@id":"relation/12981670","admin_level":"8","boundary":"administrative","name":"Kazım Karabekir Mahallesi","type":"boundary","@relations":[{"role":"subarea","rel":1837704,"reltags":{"admin_level":"6","alt_name:ku":"Qerekose;Qerekilîs;Qerekîs;Qereysî","boundary":"administrative","name":"Ağrı Merkez","name:ar":"أغري","name:arc":"ܐܓܪܝ","name:azb":"آغری","name:bg":"Агръ","name:ce":"АгӀри","name:el":"Άγρι","name:es":"Agri","name:fa":"آگری","name:fr":"Agri","name:grc":"Ἄγρι","name:hy":"Աղրը","name:ja":"アール","name:ka":"აღრი","name:ko":"아르","name:ku":"Qerekose","name:lt":"Ahras","name:mk":"Агри","name:ota":"قره‌کلیسا","name:pa":"ਆਗਰੀ","name:ru":"Агри","name:sr":"Агри","name:syc":"ܐܓܪܝ","name:tg":"Ағри","name:tr":"Ağrı Merkez","name:tr:suffix":"İlçesi","name:tt":"Агры","name:ug":"ئاغرى","name:uk":"Агри","name:ur":"آغری","name:zh":"阿勒","network":"TR04-districts","old_name":"Karaköse","old_name:azb":"قره‌کلیسا","old_name:de":"Karakilise","old_name:es":"Karakilise","old_name:fr":"Karakilise","old_name:grc":"Καρακίλισε","old_name:hy":"Քարբեր","type":"boundary","wikidata":"Q80051","wikipedia":"ku:Agirî (parêzgeh)"}}]},"id":"relation/12981670"},
{"type":"Feature","geometry":{"type":"Polygon","coordinates":[[[43.053081,39.7220173],[43.0604088,39.7253016],[43.0540466,39.7242206],[43.053875,39.7237503],[43.053081,39.7220173]]]},"properties":{"@id":"relation/12981671","admin_level":"8","boundary":"administrative","name":"Hürriyet Mahallesi","type":"boundary","@relations":[{"role":"subarea","rel":1837704,"reltags":{"admin_level":"6","alt_name:ku":"Qerekose;Qerekilîs;Qerekîs;Qereysî","boundary":"administrative","name":"Ağrı Merkez","name:ar":"أغري","name:arc":"ܐܓܪܝ","name:azb":"آغری","name:bg":"Агръ","name:ce":"АгӀри","name:el":"Άγρι","name:es":"Agri","name:fa":"آگری","name:fr":"Agri","name:grc":"Ἄγρι","name:hy":"Աղրը","name:ja":"アール","name:ka":"აღრი","name:ko":"아르","name:ku":"Qerekose","name:lt":"Ahras","name:mk":"Агри","name:ota":"قره‌کلیسا","name:pa":"ਆਗਰੀ","name:ru":"Агри","name:sr":"Агри","name:syc":"ܐܓܪܝ","name:tg":"Ағри","name:tr":"Ağrı Merkez","name:tr:suffix":"İlçesi","name:tt":"Агры","name:ug":"ئاغرى","name:uk":"Агри","name:ur":"آغری","name:zh":"阿勒","network":"TR04-districts","old_name":"Karaköse","old_name:azb":"قره‌کلیسا","old_name:de":"Karakilise","old_name:es":"Karakilise","old_name:fr":"Karakilise","old_name:grc":"Καρακίλισε","old_name:hy":"Քարբեր","type":"boundary","wikidata":"Q80051","wikipedia":"ku:Agirî (parêzgeh)"}}]},"id":"relation/12981671"},
{"type":"Feature","geometry":{"type":"Polygon","coordinates":[[[43.0457407,39.727841],[43.0499482,39.7251531],[43.053875,39.7237503],[43.0540466,39.7242206],[43.05255,39.7279297],[43.0457407,39.727841]]]},"properties":{"@id":"relation/12981672","admin_level":"8","boundary":"administrative","name":"Bahçelievler Mahallesi","type":"boundary","@relations":[{"role":"subarea","rel":1837704,"reltags":{"admin_level":"6","alt_name:ku":"Qerekose;Qerekilîs;Qerekîs;Qereysî","boundary":"administrative","name":"Ağrı Merkez","name:ar":"أغري","name:arc":"ܐܓܪܝ","name:azb":"آغری","name:bg":"Агръ","name:ce":"АгӀри","name:el":"Άγρι","name:es":"Agri","name:fa":"آگری","name:fr":"Agri","name:grc":"Ἄγρι","name:hy":"Աղրը","name:ja":"アール","name:ka":"აღრი","name:ko":"아르","name:ku":"Qerekose","name:lt":"Ahras","name:mk":"Агри","name:ota":"قره‌کلیسا","name:pa":"ਆਗਰੀ","name:ru":"Агри","name:sr":"Агри","name:syc":"ܐܓܪܝ","name:tg":"Ағри","name:tr":"Ağrı Merkez","name:tr:suffix":"İlçesi","name:tt":"Агры","name:ug":"ئاغرى","name:uk":"Агри","name:ur":"آغری","name:zh":"阿勒","network":"TR04-districts","old_name":"Karaköse","old_name:azb":"قره‌کلیسا","old_name:de":"Karakilise","old_name:es":"Karakilise","old_name:fr":"Karakilise","old_name:grc":"Καρακίλισε","old_name:hy":"Քարբեր","type":"boundary","wikidata":"Q80051","wikipedia":"ku:Agirî (parêzgeh)"}}]},"id":"relation/12981672"},
{"type":"Feature","geometry":{"type":"Polygon","coordinates":[[[43.0457407,39.727841],[43.0413008,39.7320347],[43.0467939,39.7215098],[43.0499482,39.7251531],[43.0457407,39.727841]]]},"properties":{"@id":"relation/12981673","admin_level":"8","boundary":"administrative","name":"Gazi Mahallesi","type":"boundary","@relations":[{"role":"subarea","rel":1837704,"reltags":{"admin_level":"6","alt_name:ku":"Qerekose;Qerekilîs;Qerekîs;Qereysî","boundary":"administrative","name":"Ağrı Merkez","name:ar":"أغري","name:arc":"ܐܓܪܝ","name:azb":"آغری","name:bg":"Агръ","name:ce":"АгӀри","name:el":"Άγρι","name:es":"Agri","name:fa":"آگری","name:fr":"Agri","name:grc":"Ἄγρι","name:hy":"Աղրը","name:ja":"アール","name:ka":"აღრი","name:ko":"아르","name:ku":"Qerekose","name:lt":"Ahras","name:mk":"Агри","name:ota":"قره‌کلیسا","name:pa":"ਆਗਰੀ","name:ru":"Агри","name:sr":"Агри","name:syc":"ܐܓܪܝ","name:tg":"Ағри","name:tr":"Ağrı Merkez","name:tr:suffix":"İlçesi","name:tt":"Агры","name:ug":"ئاغرى","name:uk":"Агри","name:ur":"آغری","name:zh":"阿勒","network":"TR04-districts","old_name":"Karaköse","old_name:azb":"قره‌کلیسا","old_name:de":"Karakilise","old_name:es":"Karakilise","old_name:fr":"Karakilise","old_name:grc":"Καρακίλισε","old_name:hy":"Քարբեր","type":"boundary","wikidata":"Q80051","wikipedia":"ku:Agirî (parêzgeh)"}}]},"id":"relation/12981673"},
{"type":"Feature","geometry":{"type":"Polygon","coordinates":[[[43.0437362,39.7189475],[43.0390692,39.7189304],[43.0391121,39.7096133],[43.0424219,39.7082555],[43.0424917,39.7096463],[43.0437362,39.7189475]]]},"properties":{"@id":"relation/12981676","admin_level":"8","boundary":"administrative","name":"Fevzi Çakmak Mahallesi","type":"boundary","@relations":[{"role":"subarea","rel":1837704,"reltags":{"admin_level":"6","alt_name:ku":"Qerekose;Qerekilîs;Qerekîs;Qereysî","boundary":"administrative","name":"Ağrı Merkez","name:ar":"أغري","name:arc":"ܐܓܪܝ","name:azb":"آغری","name:bg":"Агръ","name:ce":"АгӀри","name:el":"Άγρι","name:es":"Agri","name:fa":"آگری","name:fr":"Agri","name:grc":"Ἄγρι","name:hy":"Աղրը","name:ja":"アール","name:ka":"აღრი","name:ko":"아르","name:ku":"Qerekose","name:lt":"Ahras","name:mk":"Агри","name:ota":"قره‌کلیسا","name:pa":"ਆਗਰੀ","name:ru":"Агри","name:sr":"Агри","name:syc":"ܐܓܪܝ","name:tg":"Ағри","name:tr":"Ağrı Merkez","name:tr:suffix":"İlçesi","name:tt":"Агры","name:ug":"ئاغرى","name:uk":"Агри","name:ur":"آغری","name:zh":"阿勒","network":"TR04-districts","old_name":"Karaköse","old_name:azb":"قره‌کلیسا","old_name:de":"Karakilise","old_name:es":"Karakilise","old_name:fr":"Karakilise","old_name:grc":"Καρακίλισε","old_name:hy":"Քարբեր","type":"boundary","wikidata":"Q80051","wikipedia":"ku:Agirî (parêzgeh)"}}]},"id":"relation/12981676"},
{"type":"Feature","geometry":{"type":"Polygon","coordinates":[[[43.0413008,39.7320347],[43.0211091,39.7474375],[42.9862493,39.7327998],[43.0390692,39.7189304],[43.0437362,39.7189475],[43.0478129,39.7189673],[43.0467939,39.7215098],[43.0413008,39.7320347]]]},"properties":{"@id":"relation/12981677","admin_level":"8","boundary":"administrative","name":"Abide Mahallesi","type":"boundary","@relations":[{"role":"subarea","rel":1837704,"reltags":{"admin_level":"6","alt_name:ku":"Qerekose;Qerekilîs;Qerekîs;Qereysî","boundary":"administrative","name":"Ağrı Merkez","name:ar":"أغري","name:arc":"ܐܓܪܝ","name:azb":"آغری","name:bg":"Агръ","name:ce":"АгӀри","name:el":"Άγρι","name:es":"Agri","name:fa":"آگری","name:fr":"Agri","name:grc":"Ἄγρι","name:hy":"Աղրը","name:ja":"アール","name:ka":"აღრი","name:ko":"아르","name:ku":"Qerekose","name:lt":"Ahras","name:mk":"Агри","name:ota":"قره‌کلیسا","name:pa":"ਆਗਰੀ","name:ru":"Агри","name:sr":"Агри","name:syc":"ܐܓܪܝ","name:tg":"Ағри","name:tr":"Ağrı Merkez","name:tr:suffix":"İlçesi","name:tt":"Агры","name:ug":"ئاغرى","name:uk":"Агри","name:ur":"آغری","name:zh":"阿勒","network":"TR04-districts","old_name":"Karaköse","old_name:azb":"قره‌کلیسا","old_name:de":"Karakilise","old_name:es":"Karakilise","old_name:fr":"Karakilise","old_name:grc":"Καρακίλισε","old_name:hy":"Քարբեր","type":"boundary","wikidata":"Q80051","wikipedia":"ku:Agirî (parêzgeh)"}}]},"id":"relation/12981677"},
{"type":"Feature","geometry":{"type":"Polygon","coordinates":[[[43.0536818,39.6811655],[43.0521691,39.7067657],[43.0486286,39.7069308],[43.0424219,39.7082555],[43.0391121,39.7096133],[43.0275249,39.6986186],[43.0284654,39.655959],[43.0403118,39.6570219],[43.0536818,39.6811655]]]},"properties":{"@id":"relation/12981736","admin_level":"8","boundary":"administrative","name":"100. Yıl Mahallesi","type":"boundary","@relations":[{"role":"subarea","rel":1837704,"reltags":{"admin_level":"6","alt_name:ku":"Qerekose;Qerekilîs;Qerekîs;Qereysî","boundary":"administrative","name":"Ağrı Merkez","name:ar":"أغري","name:arc":"ܐܓܪܝ","name:azb":"آغری","name:bg":"Агръ","name:ce":"АгӀри","name:el":"Άγρι","name:es":"Agri","name:fa":"آگری","name:fr":"Agri","name:grc":"Ἄγρι","name:hy":"Աղրը","name:ja":"アール","name:ka":"აღრი","name:ko":"아르","name:ku":"Qerekose","name:lt":"Ahras","name:mk":"Агри","name:ota":"قره‌کلیسا","name:pa":"ਆਗਰੀ","name:ru":"Агри","name:sr":"Агри","name:syc":"ܐܓܪܝ","name:tg":"Ағри","name:tr":"Ağrı Merkez","name:tr:suffix":"İlçesi","name:tt":"Агры","name:ug":"ئاغرى","name:uk":"Агри","name:ur":"آغری","name:zh":"阿勒","network":"TR04-districts","old_name":"Karaköse","old_name:azb":"قره‌کلیسا","old_name:de":"Karakilise","old_name:es":"Karakilise","old_name:fr":"Karakilise","old_name:grc":"Καρακίλισε","old_name:hy":"Քարբեր","type":"boundary","wikidata":"Q80051","wikipedia":"ku:Agirî (parêzgeh)"}}]},"id":"relation/12981736"},
{"type":"Feature","geometry":{"type":"Polygon","coordinates":[[[42.9862493,39.7327998],[43.0275249,39.6986186],[43.0391121,39.7096133],[43.0390692,39.7189304],[42.9862493,39.7327998]]]},"properties":{"@id":"relation/12981737","admin_level":"8","boundary":"administrative","name":"Fırat Mahallesi","type":"boundary","@relations":[{"role":"subarea","rel":1837704,"reltags":{"admin_level":"6","alt_name:ku":"Qerekose;Qerekilîs;Qerekîs;Qereysî","boundary":"administrative","name":"Ağrı Merkez","name:ar":"أغري","name:arc":"ܐܓܪܝ","name:azb":"آغری","name:bg":"Агръ","name:ce":"АгӀри","name:el":"Άγρι","name:es":"Agri","name:fa":"آگری","name:fr":"Agri","name:grc":"Ἄγρι","name:hy":"Աղրը","name:ja":"アール","name:ka":"აღრი","name:ko":"아르","name:ku":"Qerekose","name:lt":"Ahras","name:mk":"Агри","name:ota":"قره‌کلیسا","name:pa":"ਆਗਰੀ","name:ru":"Агри","name:sr":"Агри","name:syc":"ܐܓܪܝ","name:tg":"Ағри","name:tr":"Ağrı Merkez","name:tr:suffix":"İlçesi","name:tt":"Агры","name:ug":"ئاغرى","name:uk":"Агри","name:ur":"آغری","name:zh":"阿勒","network":"TR04-districts","old_name":"Karaköse","old_name:azb":"قره‌کلیسا","old_name:de":"Karakilise","old_name:es":"Karakilise","old_name:fr":"Karakilise","old_name:grc":"Καρακίλισε","old_name:hy":"Քարբեր","type":"boundary","wikidata":"Q80051","wikipedia":"ku:Agirî (parêzgeh)"}}]},"id":"relation/12981737"},
{"type":"Feature","geometry":{"type":"Polygon","coordinates":[[[43.0536818,39.6811655],[43.0788757,39.7041389],[43.05866,39.7076406],[43.0574638,39.7073311],[43.0521691,39.7067657],[43.0536818,39.6811655]]]},"properties":{"@id":"relation/12981744","admin_level":"8","boundary":"administrative","name":"Aşağıküpkıran Mahallesi","type":"boundary","@relations":[{"role":"subarea","rel":1837704,"reltags":{"admin_level":"6","alt_name:ku":"Qerekose;Qerekilîs;Qerekîs;Qereysî","boundary":"administrative","name":"Ağrı Merkez","name:ar":"أغري","name:arc":"ܐܓܪܝ","name:azb":"آغری","name:bg":"Агръ","name:ce":"АгӀри","name:el":"Άγρι","name:es":"Agri","name:fa":"آگری","name:fr":"Agri","name:grc":"Ἄγρι","name:hy":"Աղրը","name:ja":"アール","name:ka":"აღრი","name:ko":"아르","name:ku":"Qerekose","name:lt":"Ahras","name:mk":"Агри","name:ota":"قره‌کلیسا","name:pa":"ਆਗਰੀ","name:ru":"Агри","name:sr":"Агри","name:syc":"ܐܓܪܝ","name:tg":"Ағри","name:tr":"Ağrı Merkez","name:tr:suffix":"İlçesi","name:tt":"Агры","name:ug":"ئاغرى","name:uk":"Агри","name:ur":"آغری","name:zh":"阿勒","network":"TR04-districts","old_name":"Karaköse","old_name:azb":"قره‌کلیسا","old_name:de":"Karakilise","old_name:es":"Karakilise","old_name:fr":"Karakilise","old_name:grc":"Καρακίλισε","old_name:hy":"Քարբեր","type":"boundary","wikidata":"Q80051","wikipedia":"ku:Agirî (parêzgeh)"}}]},"id":"relation/12981744"},
{"type":"Feature","geometry":{"type":"Polygon","coordinates":[[[42.8226685,39.2029112],[42.8447753,39.2144541],[42.8438473,39.2230861],[42.8226685,39.2128373],[42.8226685,39.2029112]]]},"properties":{"@id":"relation/13426544","admin_level":"8","boundary":"administrative","name":"Badişan Mahallesi","type":"boundary","@relations":[{"role":"subarea","rel":1780615,"reltags":{"admin_level":"6","alt_name:ku":"Panos","boundary":"administrative","name":"Patnos","name:ce":"Патнос","name:ckb":"پاتنۆس","name:de":"Panos","name:en":"Panos","name:fa":"پاتنوس","name:hy":"Բադնոց","name:ku":"Panos","name:ru":"Патнос","name:tr":"Panos","name:tr:suffix":"İlçesi","name:tt":"Патнос","name:ur":"پاتنوس","name:zh":"帕特諾斯","network":"TR04-districts","type":"boundary","wikidata":"Q509324","wikipedia":"ku:Panos"}}]},"id":"relation/13426544"}
]}