{"type":"FeatureCollection", "features": [
{"type":"Feature","geometry":{"type":"Polygon","coordinates":[[[34.2440774,38.6513374],[34.2819701,38.6764518],[34.2885914,38.6993792],[34.2645675,38.7520095],[34.2903268,38.7862899],[34.2827483,38.8127036],[34.224299,38.8250252],[34.1791206,38.8199336],[34.0804013,38.8755869],[34.0513835,38.9459625],[34.0355016,38.9608706],[33.969205,38.9744824],[33.9249649,38.9484454],[33.9419689,38.9113278],[33.9891132,38.8768198],[34.0181098,38.7992691],[33.9693804,38.7736386],[33.930103,38.7352596],[33.8936045,38.7184168],[33.8907642,38.6745813],[33.9290661,38.6356882],[34.0086487,38.6456998],[34.1408064,38.6546532],[34.1757127,38.6432889],[34.2440774,38.6513374]]]},"properties":{"@id":"relation/1246396","admin_level":"6","boundary":"administrative","name":"Ortaköy","name:de":"Ortaköy","name:en":"Ortaköy","name:tr":"Ortaköy","name:tr:suffix":"İlçesi","network":"TR68-districts","type":"boundary","wikidata":"Q1434794","wikipedia":"tr:Ortaköy, Aksaray"},"id":"relation/1246396"},
{"type":"Feature","geometry":{"type":"Polygon","coordinates":[[[33.8029343,38.8820402],[33.8323686,38.890447],[33.858266,38.9267554],[33.8982283,38.9187657],[33.9249649,38.9484454],[33.969205,38.9744824],[34.0048863,39.0274378],[33.9478741,39.0509266],[33.8478469,39.0247851],[33.8110255,38.9832315],[33.759098,38.9864339],[33.7241328,38.9667625],[33.8029343,38.8820402]]]},"properties":{"@id":"relation/1713915","admin_level":"6","boundary":"administrative","name":"Sarıyahşi","name:de":"Sarıyahşi","name:en":"Sarıyahşi","name:tr":"Sarıyahşi","name:tr:suffix":"İlçesi","network":"TR68-districts","type":"boundary","wikidata":"Q1846787","wikipedia":"tr:Sarıyahşi"},"id":"relation/1713915"},
{"type":"Feature","geometry":{"type":"Polygon","coordinates":[[[33.6754475,38.3481436],[33.6300067,38.3977979],[33.6283544,38.4286164],[33.4197336,38.5889858],[33.4925505,38.6859915],[33.4196534,38.6673795],[33.3495218,38.6616457],[33.3453114,38.524054],[33.2541811,38.4564009],[33.2230896,38.4106797],[33.2452956,38.3859933],[33.2248784,38.3486167],[33.1746339,38.2893047],[33.1898001,38.2484957],[33.2783431,38.2371411],[33.2682251,38.2080664],[33.3001763,38.1873263],[33.2973059,38.15247],[33.2707322,38.1395861],[33.2893823,38.0926079],[33.3108576,38.0724909],[33.274243,38.0017361],[33.2983211,37.9872412],[33.3210066,38.0312199],[33.366951,38.038212],[33.3996131,38.0186744],[33.4102117,37.9907602],[33.4538891,37.9803928],[33.4856271,38.0024394],[33.5568097,37.9994772],[33.5492755,38.0717435],[33.5708629,38.0807729],[33.5648368,38.1143144],[33.5148689,38.17784],[33.4917244,38.2548793],[33.4699772,38.2755822],[33.5010131,38.3127063],[33.555417,38.3057079],[33.6156051,38.3327641],[33.6754475,38.3481436]]]},"properties":{"@id":"relation/1714007","admin_level":"6","boundary":"administrative","name":"Eskil","name:ce":"Эскил","name:de":"Eskil","name:en":"Eskil","name:fa":"اسکیل","name:ru":"Эскиль","name:tr":"Eskil","name:tr:suffix":"İlçesi","name:tt":"Эскил","name:ur":"اسکیل","name:zh":"埃斯基爾","network":"TR68-districts","type":"boundary","wikidata":"Q1917854","wikipedia":"tr:Eskil"},"id":"relation/1714007"},
{"type":"Feature","geometry":{"type":"Polygon","coordinates":[[[33.7206441,38.105714],[33.7789813,38.0707549],[33.8157607,38.0794196],[33.8493185,38.1151243],[33.9521396,38.1252621],[33.9811336,38.1144907],[33.997523,38.081548],[34.0606973,38.061363],[34.0899714,38.0635185],[34.1487325,38.0922476],[34.1606874,38.1232965],[34.2749932,38.1134664],[34.2953131,38.1555511],[34.250539,38.2157042],[34.2478825,38.2472368],[34.1475262,38.2854749],[34.1724745,38.3146968],[34.2349887,38.3824638],[34.1791931,38.4076008],[34.1922031,38.4620859],[34.3018297,38.5086093],[34.4223637,38.5286388],[34.4285844,38.5374044],[34.3569034,38.5936058],[34.2977529,38.599227],[34.240312,38.6262637],[34.2440774,38.6513374],[34.1757127,38.6432889],[34.1408064,38.6546532],[34.0086487,38.6456998],[33.9290661,38.6356882],[33.8907642,38.6745813],[33.8936045,38.7184168],[33.8776464,38.6958945],[33.8325283,38.7145346],[33.7903054,38.7152876],[33.7048946,38.6408874],[33.670875,38.6374952],[33.6436035,38.6887577],[33.5551667,38.6757357],[33.4925505,38.6859915],[33.4197336,38.5889858],[33.6283544,38.4286164],[33.6300067,38.3977979],[33.6754475,38.3481436],[33.7105104,38.3192584],[33.6695957,38.2873982],[33.6825801,38.2286177],[33.7345506,38.2309617],[33.7455465,38.1875807],[33.7206441,38.105714]]]},"properties":{"@id":"relation/1717633","admin_level":"6","boundary":"administrative","name":"Aksaray Merkez","name:ar":"آق سراي","name:bg":"Аксарай","name:ce":"Аксарай","name:de":"Aksaray","name:el":"Άκσεράι","name:en":"Aksaray","name:fa":"آق‌سرای","name:hi":"अक्साराय","name:hy":"Աքսարայ","name:ja":"アクサライ","name:ka":"აქსარაი","name:kk":"Ақсарай","name:ko":"악사라이","name:pa":"ਅਕਸਾਰਾਏ","name:ru":"Аксарай","name:sr":"Аксарај","name:tg":"Оқсарой","name:tr":"Aksaray Merkez","name:tr:suffix":"İlçesi","name:tt":"Аксарай","name:uk":"Аксарай","name:ur":"آق سرائے","name:zh":"阿克萨赖","network":"TR68-districts","type":"boundary","wikidata":"Q182025","wikipedia":"tr:Aksaray"},"id":"relation/1717633"},
{"type":"Feature","geometry":{"type":"Polygon","coordinates":[[[33.8029343,38.8820402],[33.7655567,38.809684],[33.7787747,38.7980289],[33.7016772,38.7224834],[33.6436035,38.6887577],[33.670875,38.6374952],[33.7048946,38.6408874],[33.7903054,38.7152876],[33.8325283,38.7145346],[33.8776464,38.6958945],[33.8936045,38.7184168],[33.930103,38.7352596],[33.9693804,38.7736386],[34.0181098,38.7992691],[33.9891132,38.8768198],[33.9419689,38.9113278],[33.9249649,38.9484454],[33.8982283,38.9187657],[33.858266,38.9267554],[33.8323686,38.890447],[33.8029343,38.8820402]]]},"properties":{"@id":"relation/1717634","admin_level":"6","boundary":"administrative","name":"Ağaçören","name:de":"Ağaçören","name:en":"Ağaçören","name:tr":"Ağaçören","name:tr:suffix":"İlçesi","network":"TR68-districts","type":"boundary","wikidata":"Q1948336","wikipedia":"tr:Ağaçören"},"id":"relation/1717634"},
{"type":"Feature","geometry":{"type":"Polygon","coordinates":[[[34.1724745,38.3146968],[34.2135834,38.3064058],[34.2549213,38.3274933],[34.2876806,38.3229404],[34.305422,38.3442948],[34.3987466,38.3651814],[34.4296138,38.3215352],[34.4693356,38.35153],[34.4944352,38.3902473],[34.474169,38.4038893],[34.4317072,38.4651198],[34.4223637,38.5286388],[34.3018297,38.5086093],[34.1922031,38.4620859],[34.1791931,38.4076008],[34.2349887,38.3824638],[34.1724745,38.3146968]]]},"properties":{"@id":"relation/1717635","admin_level":"6","boundary":"administrative","name":"Gülağaç","name:ce":"ГуьлагӀач","name:de":"Gülağaç","name:en":"Gülağaç","name:ru":"Гюлагач","name:tr":"Gülağaç","name:tr:suffix":"İlçesi","network":"TR68-districts","old_name":"Ağaçlı;Ağaçlıköy:Aschlikoi","type":"boundary","wikidata":"Q1958579","wikipedia":"tr:Gülağaç"},"id":"relation/1717635"},
{"type":"Feature","geometry":{"type":"Polygon","coordinates":[[[34.2953131,38.1555511],[34.3202206,38.1945853],[34.3633016,38.2267172],[34.4369053,38.2338668],[34.4296138,38.3215352],[34.3987466,38.3651814],[34.305422,38.3442948],[34.2876806,38.3229404],[34.2549213,38.3274933],[34.2135834,38.3064058],[34.1724745,38.3146968],[34.1475262,38.2854749],[34.2478825,38.2472368],[34.250539,38.2157042],[34.2953131,38.1555511]]]},"properties":{"@id":"relation/1717636","admin_level":"6","boundary":"administrative","name":"Güzelyurt","name:de":"Güzelyurt","name:en":"Güzelyurt","name:tr":"Güzelyurt","name:tr:suffix":"İlçesi","network":"TR68-districts","type":"boundary","wikidata":"Q1004503","wikipedia":"tr:Güzelyurt, Aksaray"},"id":"relation/1717636"},
{"type":"Feature","geometry":{"type":"Polygon","coordinates":[[[33.6754475,38.3481436],[33.6156051,38.3327641],[33.555417,38.3057079],[33.5010131,38.3127063],[33.4699772,38.2755822],[33.4917244,38.2548793],[33.5148689,38.17784],[33.5648368,38.1143144],[33.5708629,38.0807729],[33.6084247,38.0746769],[33.6604915,38.1021328],[33.7206441,38.105714],[33.7455465,38.1875807],[33.7345506,38.2309617],[33.6825801,38.2286177],[33.6695957,38.2873982],[33.7105104,38.3192584],[33.6754475,38.3481436]]]},"properties":{"@id":"relation/8100757","admin_level":"6","boundary":"administrative","name":"Sultanhanı","name:de":"Sultanhanı","name:en":"Sultanhanı","name:tr":"Sultanhanı","name:tr:suffix":"İlçesi","network":"TR68-districts","type":"boundary","wikidata":"Q657912","wikipedia":"tr:Sultanhanı, Aksaray"},"id":"relation/8100757"},
{"type":"Feature","geometry":{"type":"Polygon","coordinates":[[[34.0281236,38.3729445],[34.0252054,38.3725828],[34.0256667,38.3707154],[34.0273189,38.370278],[34.0279627,38.3720697],[34.0281236,38.3729445]]]},"properties":{"@id":"relation/12311253","admin_level":"8","boundary":"administrative","name":"Minarecik Mahallesi","type":"boundary","@relations":[{"role":"subarea","rel":1717633,"reltags":{"admin_level":"6","boundary":"administrative","name":"Aksaray Merkez","name:ar":"آق سراي","name:bg":"Аксарай","name:ce":"Аксарай","name:de":"Aksaray","name:el":"Άκσεράι","name:en":"Aksaray","name:fa":"آق‌سرای","name:hi":"अक्साराय","name:hy":"Աքսարայ","name:ja":"アクサライ","name:ka":"აქსარაი","name:kk":"Ақсарай","name:ko":"악사라이","name:pa":"ਅਕਸਾਰਾਏ","name:ru":"Аксарай","name:sr":"Аксарај","name:tg":"Оқсарой","name:tr":"Aksaray Merkez","name:tr:suffix":"İlçesi","name:tt":"Аксарай","name:uk":"Аксарай","name:ur":"آق سرائے","name:zh":"阿克萨赖","network":"TR68-districts","type":"boundary","wikidata":"Q182025","wikipedia":"tr:Aksaray"}}]},"id":"relation/12311253"},
{"type":"Feature","geometry":{"type":"Polygon","coordinates":[[[34.0297758,38.3686041],[34.0320182,38.3718678],[34.0279627,38.3720697],[34.0273189,38.370278],[34.0297758,38.3686041]]]},"properties":{"@id":"relation/12311254","admin_level":"8","boundary":"administrative","name":"Hamidiye Mahallesi","type":"boundary","@relations":[{"role":"subarea","rel":1717633,"reltags":{"admin_level":"6","boundary":"administrative","name":"Aksaray Merkez","name:ar":"آق سراي","name:bg":"Аксарай","name:ce":"Аксарай","name:de":"Aksaray","name:el":"Άκσεράι","name:en":"Aksaray","name:fa":"آق‌سرای","name:hi":"अक्साराय","name:hy":"Աքսարայ","name:ja":"アクサライ","name:ka":"აქსარაი","name:kk":"Ақсарай","name:ko":"악사라이","name:pa":"ਅਕਸਾਰਾਏ","name:ru":"Аксарай","name:sr":"Аксарај","name:tg":"Оқсарой","name:tr":"Aksaray Merkez","name:tr:suffix":"İlçesi","name:tt":"Аксарай","name:uk":"Аксарай","name:ur":"آق سرائے","name:zh":"阿克萨赖","network":"TR68-districts","type":"boundary","wikidata":"Q182025","wikipedia":"tr:Aksaray"}}]},"id":"relation/12311254"},
{"type":"Feature","geometry":{"type":"Polygon","coordinates":[[[34.0281378,38.374214],[34.0321684,38.376208],[34.0317178,38.3782265],[34.0272117,38.3753248],[34.0281343,38.374408],[34.0281378,38.374214]]]},"properties":{"@id":"relation/12311258","admin_level":"8","boundary":"administrative","name":"Sofular Mahallesi","type":"boundary","@relations":[{"role":"subarea","rel":1717633,"reltags":{"admin_level":"6","boundary":"administrative","name":"Aksaray Merkez","name:ar":"آق سراي","name:bg":"Аксарай","name:ce":"Аксарай","name:de":"Aksaray","name:el":"Άκσεράι","name:en":"Aksaray","name:fa":"آق‌سرای","name:hi":"अक्साराय","name:hy":"Աքսարայ","name:ja":"アクサライ","name:ka":"აქსარაი","name:kk":"Ақсарай","name:ko":"악사라이","name:pa":"ਅਕਸਾਰਾਏ","name:ru":"Аксарай","name:sr":"Аксарај","name:tg":"Оқсарой","name:tr":"Aksaray Merkez","name:tr:suffix":"İlçesi","name:tt":"Аксарай","name:uk":"Аксарай","name:ur":"آق سرائے","name:zh":"阿克萨赖","network":"TR68-districts","type":"boundary","wikidata":"Q182025","wikipedia":"tr:Aksaray"}}]},"id":"relation/12311258"},
{"type":"Feature","geometry":{"type":"Polygon","coordinates":[[[34.0279627,38.3720697],[34.0320182,38.3718678],[34.0321684,38.376208],[34.0281378,38.374214],[34.0281236,38.3729445],[34.0279627,38.3720697]]]},"properties":{"@id":"relation/12311259","admin_level":"8","boundary":"administrative","name":"Hacıhasanlı Mahallesi","type":"boundary","@relations":[{"role":"subarea","rel":1717633,"reltags":{"admin_level":"6","boundary":"administrative","name":"Aksaray Merkez","name:ar":"آق سراي","name:bg":"Аксарай","name:ce":"Аксарай","name:de":"Aksaray","name:el":"Άκσεράι","name:en":"Aksaray","name:fa":"آق‌سرای","name:hi":"अक्साराय","name:hy":"Աքսարայ","name:ja":"アクサライ","name:ka":"აქსარაი","name:kk":"Ақсарай","name:ko":"악사라이","name:pa":"ਅਕਸਾਰਾਏ","name:ru":"Аксарай","name:sr":"Аксарај","name:tg":"Оқсарой","name:tr":"Aksaray Merkez","name:tr:suffix":"İlçesi","name:tt":"Аксарай","name:uk":"Аксарай","name:ur":"آق سرائے","name:zh":"阿克萨赖","network":"TR68-districts","type":"boundary","wikidata":"Q182025","wikipedia":"tr:Aksaray"}}]},"id":"relation/12311259"},
{"type":"Feature","geometry":{"type":"Polygon","coordinates":[[[34.0272117,38.3753248],[34.0232313,38.3729781],[34.0252054,38.3725828],[34.0281343,38.374408],[34.0272117,38.3753248]]]},"properties":{"@id":"relation/12311260","admin_level":"8","boundary":"administrative","name":"Dere Mahallesi","type":"boundary","@relations":[{"role":"subarea","rel":1717633,"reltags":{"admin_level":"6","boundary":"administrative","name":"Aksaray Merkez","name:ar":"آق سراي","name:bg":"Аксарай","name:ce":"Аксарай","name:de":"Aksaray","name:el":"Άκσεράι","name:en":"Aksaray","name:fa":"آق‌سرای","name:hi":"अक्साराय","name:hy":"Աքսարայ","name:ja":"アクサライ","name:ka":"აქსარაი","name:kk":"Ақсарай","name:ko":"악사라이","name:pa":"ਅਕਸਾਰਾਏ","name:ru":"Аксарай","name:sr":"Аксарај","name:tg":"Оқсарой","name:tr":"Aksaray Merkez","name:tr:suffix":"İlçesi","name:tt":"Аксарай","name:uk":"Аксарай","name:ur":"آق سرائے","name:zh":"阿克萨赖","network":"TR68-districts","type":"boundary","wikidata":"Q182025","wikipedia":"tr:Aksaray"}}]},"id":"relation/12311260"},
{"type":"Feature","geometry":{"type":"Polygon","coordinates":[[[34.0252054,38.3725828],[34.0281236,38.3729445],[34.0281378,38.374214],[34.0281343,38.374408],[34.0252054,38.3725828]]]},"properties":{"@id":"relation/12311261","admin_level":"8","boundary":"administrative","name":"Zincirli Mahallesi","type":"boundary","@relations":[{"role":"subarea","rel":1717633,"reltags":{"admin_level":"6","boundary":"administrative","name":"Aksaray Merkez","name:ar":"آق سراي","name:bg":"Аксарай","name:ce":"Аксарай","name:de":"Aksaray","name:el":"Άκσεράι","name:en":"Aksaray","name:fa":"آق‌سرای","name:hi":"अक्साराय","name:hy":"Աքսարայ","name:ja":"アクサライ","name:ka":"აქსარაი","name:kk":"Ақсарай","name:ko":"악사라이","name:pa":"ਅਕਸਾਰਾਏ","name:ru":"Аксарай","name:sr":"Аксарај","name:tg":"Оқсарой","name:tr":"Aksaray Merkez","name:tr:suffix":"İlçesi","name:tt":"Аксарай","name:uk":"Аксарай","name:ur":"آق سرائے","name:zh":"阿克萨赖","network":"TR68-districts","type":"boundary","wikidata":"Q182025","wikipedia":"tr:Aksaray"}}]},"id":"relation/12311261"},
{"type":"Feature","geometry":{"type":"Polygon","coordinates":[[[34.0232313,38.3729781],[34.022727,38.3718173],[34.0256667,38.3707154],[34.0252054,38.3725828],[34.0232313,38.3729781]]]},"properties":{"@id":"relation/12311262","admin_level":"8","boundary":"administrative","name":"Muhsin Çelebi Mahallesi","type":"boundary","@relations":[{"role":"subarea","rel":1717633,"reltags":{"admin_level":"6","boundary":"administrative","name":"Aksaray Merkez","name:ar":"آق سراي","name:bg":"Аксарай","name:ce":"Аксарай","name:de":"Aksaray","name:el":"Άκσεράι","name:en":"Aksaray","name:fa":"آق‌سرای","name:hi":"अक्साराय","name:hy":"Աքսարայ","name:ja":"アクサライ","name:ka":"აქსარაი","name:kk":"Ақсарай","name:ko":"악사라이","name:pa":"ਅਕਸਾਰਾਏ","name:ru":"Аксарай","name:sr":"Аксарај","name:tg":"Оқсарой","name:tr":"Aksaray Merkez","name:tr:suffix":"İlçesi","name:tt":"Аксарай","name:uk":"Аксарай","name:ur":"آق سرائے","name:zh":"阿克萨赖","network":"TR68-districts","type":"boundary","wikidata":"Q182025","wikipedia":"tr:Aksaray"}}]},"id":"relation/12311262"},
{"type":"Feature","geometry":{"type":"Polygon","coordinates":[[[34.0057486,38.3678765],[34.0297758,38.3686041],[34.0273189,38.370278],[34.0256667,38.3707154],[34.022727,38.3718173],[34.017384,38.3686714],[34.0057486,38.3678765]]]},"properties":{"@id":"relation/12311269","admin_level":"8","boundary":"administrative","name":"Taşpazar Mahallesi","type":"boundary","@relations":[{"role":"subarea","rel":1717633,"reltags":{"admin_level":"6","boundary":"administrative","name":"Aksaray Merkez","name:ar":"آق سراي","name:bg":"Аксарай","name:ce":"Аксарай","name:de":"Aksaray","name:el":"Άκσεράι","name:en":"Aksaray","name:fa":"آق‌سرای","name:hi":"अक्साराय","name:hy":"Աքսարայ","name:ja":"アクサライ","name:ka":"აქსარაი","name:kk":"Ақсарай","name:ko":"악사라이","name:pa":"ਅਕਸਾਰਾਏ","name:ru":"Аксарай","name:sr":"Аксарај","name:tg":"Оқсарой","name:tr":"Aksaray Merkez","name:tr:suffix":"İlçesi","name:tt":"Аксарай","name:uk":"Аксарай","name:ur":"آق سرائے","name:zh":"阿克萨赖","network":"TR68-districts","type":"boundary","wikidata":"Q182025","wikipedia":"tr:Aksaray"}}]},"id":"relation/12311269"},
{"type":"Feature","geometry":{"type":"Polygon","coordinates":[[[34.0317178,38.3782265],[34.0293467,38.3812627],[34.0271074,38.3802771],[34.0239608,38.3785714],[34.0272117,38.3753248],[34.0317178,38.3782265]]]},"properties":{"@id":"relation/12311316","admin_level":"8","boundary":"administrative","name":"Çerdiğin Mahallesi","type":"boundary","@relations":[{"role":"subarea","rel":1717633,"reltags":{"admin_level":"6","boundary":"administrative","name":"Aksaray Merkez","name:ar":"آق سراي","name:bg":"Аксарай","name:ce":"Аксарай","name:de":"Aksaray","name:el":"Άκσεράι","name:en":"Aksaray","name:fa":"آق‌سرای","name:hi":"अक्साराय","name:hy":"Աքսարայ","name:ja":"アクサライ","name:ka":"აქსარაი","name:kk":"Ақсарай","name:ko":"악사라이","name:pa":"ਅਕਸਾਰਾਏ","name:ru":"Аксарай","name:sr":"Аксарај","name:tg":"Оқсарой","name:tr":"Aksaray Merkez","name:tr:suffix":"İlçesi","name:tt":"Аксарай","name:uk":"Аксарай","name:ur":"آق سرائے","name:zh":"阿克萨赖","network":"TR68-districts","type":"boundary","wikidata":"Q182025","wikipedia":"tr:Aksaray"}}]},"id":"relation/12311316"},
{"type":"Feature","geometry":{"type":"Polygon","coordinates":[[[34.0228987,38.3730117],[34.0232313,38.3729781],[34.0272117,38.3753248],[34.0239608,38.3785714],[34.0209031,38.3781256],[34.0167296,38.377049],[34.0228987,38.3730117]]]},"properties":{"@id":"relation/12311317","admin_level":"8","boundary":"administrative","name":"Meydan Mahallesi","type":"boundary","@relations":[{"role":"subarea","rel":1717633,"reltags":{"admin_level":"6","boundary":"administrative","name":"Aksaray Merkez","name:ar":"آق سراي","name:bg":"Аксарай","name:ce":"Аксарай","name:de":"Aksaray","name:el":"Άκσεράι","name:en":"Aksaray","name:fa":"آق‌سرای","name:hi":"अक्साराय","name:hy":"Աքսարայ","name:ja":"アクサライ","name:ka":"აქსარაი","name:kk":"Ақсарай","name:ko":"악사라이","name:pa":"ਅਕਸਾਰਾਏ","name:ru":"Аксарай","name:sr":"Аксарај","name:tg":"Оқсарой","name:tr":"Aksaray Merkez","name:tr:suffix":"İlçesi","name:tt":"Аксарай","name:uk":"Аксарай","name:ur":"آق سرائے","name:zh":"阿克萨赖","network":"TR68-districts","type":"boundary","wikidata":"Q182025","wikipedia":"tr:Aksaray"}}]},"id":"relation/12311317"},
{"type":"Feature","geometry":{"type":"Polygon","coordinates":[[[34.0003252,38.3886129],[33.998394,38.3872758],[34.0167296,38.377049],[34.0209031,38.3781256],[34.0003252,38.3886129]]]},"properties":{"@id":"relation/12311318","admin_level":"8","boundary":"administrative","name":"Nakkaş Mahallesi","type":"boundary","@relations":[{"role":"subarea","rel":1717633,"reltags":{"admin_level":"6","boundary":"administrative","name":"Aksaray Merkez","name:ar":"آق سراي","name:bg":"Аксарай","name:ce":"Аксарай","name:de":"Aksaray","name:el":"Άκσεράι","name:en":"Aksaray","name:fa":"آق‌سرای","name:hi":"अक्साराय","name:hy":"Աքսարայ","name:ja":"アクサライ","name:ka":"აქსარაი","name:kk":"Ақсарай","name:ko":"악사라이","name:pa":"ਅਕਸਾਰਾਏ","name:ru":"Аксарай","name:sr":"Аксарај","name:tg":"Оқсарой","name:tr":"Aksaray Merkez","name:tr:suffix":"İlçesi","name:tt":"Аксарай","name:uk":"Аксарай","name:ur":"آق سرائے","name:zh":"阿克萨赖","network":"TR68-districts","type":"boundary","wikidata":"Q182025","wikipedia":"tr:Aksaray"}}]},"id":"relation/12311318"},
{"type":"Feature","geometry":{"type":"Polygon","coordinates":[[[34.0007651,38.3755183],[34.0174162,38.3727258],[34.0228987,38.3730117],[34.0167296,38.377049],[33.998394,38.3872758],[34.0007651,38.3755183]]]},"properties":{"@id":"relation/12311319","admin_level":"8","boundary":"administrative","name":"Küçük Bölcek Mahallesi","type":"boundary","@relations":[{"role":"subarea","rel":1717633,"reltags":{"admin_level":"6","boundary":"administrative","name":"Aksaray Merkez","name:ar":"آق سراي","name:bg":"Аксарай","name:ce":"Аксарай","name:de":"Aksaray","name:el":"Άκσεράι","name:en":"Aksaray","name:fa":"آق‌سرای","name:hi":"अक्साराय","name:hy":"Աքսարայ","name:ja":"アクサライ","name:ka":"აქსარაი","name:kk":"Ақсарай","name:ko":"악사라이","name:pa":"ਅਕਸਾਰਾਏ","name:ru":"Аксарай","name:sr":"Аксарај","name:tg":"Оқсарой","name:tr":"Aksaray Merkez","name:tr:suffix":"İlçesi","name:tt":"Аксарай","name:uk":"Аксарай","name:ur":"آق سرائے","name:zh":"阿克萨赖","network":"TR68-districts","type":"boundary","wikidata":"Q182025","wikipedia":"tr:Aksaray"}}]},"id":"relation/12311319"},
{"type":"Feature","geometry":{"type":"Polygon","coordinates":[[[34.0057486,38.3678765],[34.017384,38.3686714],[34.0174162,38.3727258],[34.0007651,38.3755183],[34.0057486,38.3678765]]]},"properties":{"@id":"relation/12311320","admin_level":"8","boundary":"administrative","name":"Büyük Bölcek Mahallesi","type":"boundary","@relations":[{"role":"subarea","rel":1717633,"reltags":{"admin_level":"6","boundary":"administrative","name":"Aksaray Merkez","name:ar":"آق سراي","name:bg":"Аксарай","name:ce":"Аксарай","name:de":"Aksaray","name:el":"Άκσεράι","name:en":"Aksaray","name:fa":"آق‌سرای","name:hi":"अक्साराय","name:hy":"Աքսարայ","name:ja":"アクサライ","name:ka":"აქსარაი","name:kk":"Ақсарай","name:ko":"악사라이","name:pa":"ਅਕਸਾਰਾਏ","name:ru":"Аксарай","name:sr":"Аксарај","name:tg":"Оқсарой","name:tr":"Aksaray Merkez","name:tr:suffix":"İlçesi","name:tt":"Аксарай","name:uk":"Аксарай","name:ur":"آق سرائے","name:zh":"阿克萨赖","network":"TR68-districts","type":"boundary","wikidata":"Q182025","wikipedia":"tr:Aksaray"}}]},"id":"relation/12311320"},
{"type":"Feature","geometry":{"type":"Polygon","coordinates":[[[34.022727,38.3718173],[34.0232313,38.3729781],[34.0228987,38.3730117],[34.0174162,38.3727258],[34.017384,38.3686714],[34.022727,38.3718173]]]},"properties":{"@id":"relation/12311321","admin_level":"8","boundary":"administrative","name":"Pamucak Mahallesi","type":"boundary","@relations":[{"role":"subarea","rel":1717633,"reltags":{"admin_level":"6","boundary":"administrative","name":"Aksaray Merkez","name:ar":"آق سراي","name:bg":"Аксарай","name:ce":"Аксарай","name:de":"Aksaray","name:el":"Άκσεράι","name:en":"Aksaray","name:fa":"آق‌سرای","name:hi":"अक्साराय","name:hy":"Աքսարայ","name:ja":"アクサライ","name:ka":"აქსარაი","name:kk":"Ақсарай","name:ko":"악사라이","name:pa":"ਅਕਸਾਰਾਏ","name:ru":"Аксарай","name:sr":"Аксарај","name:tg":"Оқсарой","name:tr":"Aksaray Merkez","name:tr:suffix":"İlçesi","name:tt":"Аксарай","name:uk":"Аксарай","name:ur":"آق سرائے","name:zh":"阿克萨赖","network":"TR68-districts","type":"boundary","wikidata":"Q182025","wikipedia":"tr:Aksaray"}}]},"id":"relation/12311321"},
{"type":"Feature","geometry":{"type":"Polygon","coordinates":[[[34.0220618,38.3840465],[34.027909,38.3832559],[34.0292823,38.3889409],[34.011966,38.3968033],[34.0220618,38.3840465]]]},"properties":{"@id":"relation/12311330","admin_level":"8","boundary":"administrative","name":"Şifahane Mahallesi","type":"boundary","@relations":[{"role":"subarea","rel":1717633,"reltags":{"admin_level":"6","boundary":"administrative","name":"Aksaray Merkez","name:ar":"آق سراي","name:bg":"Аксарай","name:ce":"Аксарай","name:de":"Aksaray","name:el":"Άκσεράι","name:en":"Aksaray","name:fa":"آق‌سرای","name:hi":"अक्साराय","name:hy":"Աքսարայ","name:ja":"アクサライ","name:ka":"აქსარაი","name:kk":"Ақсарай","name:ko":"악사라이","name:pa":"ਅਕਸਾਰਾਏ","name:ru":"Аксарай","name:sr":"Аксарај","name:tg":"Оқсарой","name:tr":"Aksaray Merkez","name:tr:suffix":"İlçesi","name:tt":"Аксарай","name:uk":"Аксарай","name:ur":"آق سرائے","name:zh":"阿克萨赖","network":"TR68-districts","type":"boundary","wikidata":"Q182025","wikipedia":"tr:Aksaray"}}]},"id":"relation/12311330"},
{"type":"Feature","geometry":{"type":"Polygon","coordinates":[[[34.0317178,38.3782265],[34.0292823,38.3889409],[34.027909,38.3832559],[34.0293467,38.3812627],[34.0317178,38.3782265]]]},"properties":{"@id":"relation/12311331","admin_level":"8","boundary":"administrative","name":"Şeyhhamit Mahallesi","type":"boundary","@relations":[{"role":"subarea","rel":1717633,"reltags":{"admin_level":"6","boundary":"administrative","name":"Aksaray Merkez","name:ar":"آق سراي","name:bg":"Аксарай","name:ce":"Аксарай","name:de":"Aksaray","name:el":"Άκσεράι","name:en":"Aksaray","name:fa":"آق‌سرای","name:hi":"अक्साराय","name:hy":"Աքսարայ","name:ja":"アクサライ","name:ka":"აქსარაი","name:kk":"Ақсарай","name:ko":"악사라이","name:pa":"ਅਕਸਾਰਾਏ","name:ru":"Аксарай","name:sr":"Аксарај","name:tg":"Оқсарой","name:tr":"Aksaray Merkez","name:tr:suffix":"İlçesi","name:tt":"Аксарай","name:uk":"Аксарай","name:ur":"آق سرائے","name:zh":"阿克萨赖","network":"TR68-districts","type":"boundary","wikidata":"Q182025","wikipedia":"tr:Aksaray"}}]},"id":"relation/12311331"},
{"type":"Feature","geometry":{"type":"Polygon","coordinates":[[[34.0239608,38.3785714],[34.0271074,38.3802771],[34.0220618,38.3840465],[34.011966,38.3968033],[34.0003252,38.3886129],[34.0209031,38.3781256],[34.0239608,38.3785714]]]},"properties":{"@id":"relation/12311332","admin_level":"8","boundary":"administrative","name":"Hasas Mahallesi","type":"boundary","@relations":[{"role":"subarea","rel":1717633,"reltags":{"admin_level":"6","boundary":"administrative","name":"Aksaray Merkez","name:ar":"آق سراي","name:bg":"Аксарай","name:ce":"Аксарай","name:de":"Aksaray","name:el":"Άκσεράι","name:en":"Aksaray","name:fa":"آق‌سرای","name:hi":"अक्साराय","name:hy":"Աքսարայ","name:ja":"アクサライ","name:ka":"აქსარაი","name:kk":"Ақсарай","name:ko":"악사라이","name:pa":"ਅਕਸਾਰਾਏ","name:ru":"Аксарай","name:sr":"Аксарај","name:tg":"Оқсарой","name:tr":"Aksaray Merkez","name:tr:suffix":"İlçesi","name:tt":"Аксарай","name:uk":"Аксарай","name:ur":"آق سرائے","name:zh":"阿克萨赖","network":"TR68-districts","type":"boundary","wikidata":"Q182025","wikipedia":"tr:Aksaray"}}]},"id":"relation/12311332"},
{"type":"Feature","geometry":{"type":"Polygon","coordinates":[[[34.0271074,38.3802771],[34.0293467,38.3812627],[34.027909,38.3832559],[34.0220618,38.3840465],[34.0271074,38.3802771]]]},"properties":{"@id":"relation/12311333","admin_level":"8","boundary":"administrative","name":"Şamlı Mahallesi","type":"boundary","@relations":[{"role":"subarea","rel":1717633,"reltags":{"admin_level":"6","boundary":"administrative","name":"Aksaray Merkez","name:ar":"آق سراي","name:bg":"Аксарай","name:ce":"Аксарай","name:de":"Aksaray","name:el":"Άκσεράι","name:en":"Aksaray","name:fa":"آق‌سرای","name:hi":"अक्साराय","name:hy":"Աքսարայ","name:ja":"アクサライ","name:ka":"აქსარაი","name:kk":"Ақсарай","name:ko":"악사라이","name:pa":"ਅਕਸਾਰਾਏ","name:ru":"Аксарай","name:sr":"Аксарај","name:tg":"Оқсарой","name:tr":"Aksaray Merkez","name:tr:suffix":"İlçesi","name:tt":"Аксарай","name:uk":"Аксарай","name:ur":"آق سرائے","name:zh":"阿克萨赖","network":"TR68-districts","type":"boundary","wikidata":"Q182025","wikipedia":"tr:Aksaray"}}]},"id":"relation/12311333"},
{"type":"Feature","geometry":{"type":"Polygon","coordinates":[[[34.345565,38.3945471],[34.3462336,38.3996621],[34.341588,38.4012008],[34.3402576,38.3949198],[34.345565,38.3945471]]]},"properties":{"@id":"relation/13526470","admin_level":"8","alt_name":"Yeni Mahalle;Yeni Mah.","boundary":"administrative","name":"Yenimahalle","place":"neighbourhood","type":"boundary","@relations":[{"role":"subarea","rel":1717635,"reltags":{"admin_level":"6","boundary":"administrative","name":"Gülağaç","name:ce":"ГуьлагӀач","name:de":"Gülağaç","name:en":"Gülağaç","name:ru":"Гюлагач","name:tr":"Gülağaç","name:tr:suffix":"İlçesi","network":"TR68-districts","old_name":"Ağaçlı;Ağaçlıköy:Aschlikoi","type":"boundary","wikidata":"Q1958579","wikipedia":"tr:Gülağaç"}}]},"id":"relation/13526470"},
{"type":"Feature","geometry":{"type":"Polygon","coordinates":[[[34.3402576,38.3949198],[34.338541,38.3900425],[34.3451714,38.3878056],[34.345565,38.3945471],[34.3402576,38.3949198]]]},"properties":{"@id":"relation/13526471","admin_level":"8","alt_name":"Meydan Mahallesi","boundary":"administrative","name":"Meydan Mah.","place":"neighbourhood","type":"boundary","@relations":[{"role":"subarea","rel":1717635,"reltags":{"admin_level":"6","boundary":"administrative","name":"Gülağaç","name:ce":"ГуьлагӀач","name:de":"Gülağaç","name:en":"Gülağaç","name:ru":"Гюлагач","name:tr":"Gülağaç","name:tr:suffix":"İlçesi","network":"TR68-districts","old_name":"Ağaçlı;Ağaçlıköy:Aschlikoi","type":"boundary","wikidata":"Q1958579","wikipedia":"tr:Gülağaç"}}]},"id":"relation/13526471"},
{"type":"Feature","geometry":{"type":"Polygon","coordinates":[[[34.1757127,38.6432889],[34.2031092,38.6798479],[34.1753832,38.6809234],[34.1408064,38.6546532],[34.1757127,38.6432889]]]},"properties":{"@id":"relation/15047824","admin_level":"8","boundary":"administrative","name":"Çatin Köyü","network":"TR68-Ortaköy-köyleri","old_name":"Çetin","place":"village","population":"439","population:year":"2023","source:population":"wikipedia","type":"boundary","website":"https://www.catinkoyu68.com","wikidata":"Q6094731","wikimedia_commons":"Category:Çatin, Ortaköy","wikipedia":"tr:Çatin, Ortaköy","@relations":[{"role":"subarea","rel":1246396,"reltags":{"admin_level":"6","boundary":"administrative","name":"Ortaköy","name:de":"Ortaköy","name:en":"Ortaköy","name:tr":"Ortaköy","name:tr:suffix":"İlçesi","network":"TR68-districts","type":"boundary","wikidata":"Q1434794","wikipedia":"tr:Ortaköy, Aksaray"}}]},"id":"relation/15047824"}
]}