{"type":"FeatureCollection", "features": [
{"type":"Feature","geometry":{"type":"Polygon","coordinates":[[[35.1607274,40.7089134],[35.1753549,40.699167],[35.2215025,40.7118316],[35.2348698,40.7058386],[35.2525522,40.7431955],[35.2500776,40.7551466],[35.2256411,40.7853662],[35.238014,40.7994172],[35.3206219,40.8182953],[35.3348091,40.8267765],[35.3614886,40.8727396],[35.2850758,40.9629569],[35.3075791,40.98415],[35.2896961,40.9956064],[35.2885026,41.0131518],[35.2676012,41.0332085],[35.2408069,41.0449913],[35.230617,41.0693543],[35.2106349,41.0759495],[35.1586914,41.0775982],[35.1012557,41.0620917],[35.0995584,41.0459689],[35.075697,41.0219999],[35.049602,41.018353],[35.0263488,41.0058822],[35.0346432,40.9695892],[35.0644753,40.9463451],[35.059825,40.9253765],[35.0677745,40.9114199],[35.0310607,40.8821879],[35.0668764,40.8785438],[35.1082666,40.8571285],[35.1017951,40.8409253],[35.1036914,40.8122312],[35.1404539,40.7873947],[35.1779999,40.7834781],[35.1841122,40.7726808],[35.1306845,40.7560163],[35.1408229,40.7327153],[35.1607274,40.7089134]]]},"properties":{"@id":"relation/1724394","admin_level":"6","boundary":"administrative","name":"Gümüşhacıköy","name:ce":"ГуьмуьшхӀаджикоьй","name:de":"Gümüşhacıköy","name:el":"Σιμ Μαντένι","name:en":"Gümüşhacıköy","name:fa":"گوموش‌حاجی‌کوی","name:hy":"Հաջիքյոյ","name:ku":"Artukâbâd","name:tr":"Gümüşhacıköy","name:tr:suffix":"İlçesi","name:tt":"Гүмүшхаҗыкөй","name:ur":"گوموش حاجی کوئے","name:zh":"居米斯哈吉柯伊","network":"TR05-districts","old_name":"Artukabad;Gemara;Gemari;Hacıköy","population":"22179","population:date":"31-12-2021","type":"boundary","wikidata":"Q2248859","wikipedia":"tr:Gümüşhacıköy"},"id":"relation/1724394"},
{"type":"Feature","geometry":{"type":"Polygon","coordinates":[[[35.0310607,40.8821879],[35.0082036,40.8638525],[35.0074565,40.826102],[34.9788445,40.7920618],[34.9903322,40.7768109],[35.0153202,40.767872],[35.0125239,40.75695],[35.0428364,40.7180249],[35.1045514,40.7048214],[35.1607274,40.7089134],[35.1408229,40.7327153],[35.1306845,40.7560163],[35.1841122,40.7726808],[35.1779999,40.7834781],[35.1404539,40.7873947],[35.1036914,40.8122312],[35.1017951,40.8409253],[35.1082666,40.8571285],[35.0668764,40.8785438],[35.0310607,40.8821879]]]},"properties":{"@id":"relation/1724395","admin_level":"6","boundary":"administrative","name":"Hamamözü","name:ce":"ХӀамамоьзуь","name:de":"Hamamözü","name:en":"Hamamözü","name:fa":"حمام‌اوزو","name:tr":"Hamamözü","name:tr:suffix":"İlçesi","name:tt":"Хамамөзү","name:ur":"حمام اوزو","network":"TR05-districts","population":"3565","population:date":"31-12-2021","type":"boundary","wikidata":"Q2670691","wikipedia":"tr:Hamamözü"},"id":"relation/1724395"},
{"type":"Feature","geometry":{"type":"Polygon","coordinates":[[[35.7512696,40.4331051],[35.8072757,40.4493638],[35.8386039,40.4448569],[35.8498478,40.4614134],[35.8738374,40.4594869],[35.8797597,40.4841353],[35.9090709,40.4796307],[35.9395408,40.4823073],[35.9676276,40.4988128],[35.9916361,40.4959848],[36.019181,40.4824256],[36.0133901,40.4677475],[36.0683861,40.4593175],[36.1087507,40.4436341],[36.1104017,40.456228],[36.138061,40.4730751],[36.1963316,40.4856579],[36.2678432,40.5181384],[36.2871551,40.5522873],[36.2889047,40.5858687],[36.3127136,40.5908359],[36.2798783,40.6016063],[36.257364,40.6192973],[36.2339977,40.6251072],[36.1711505,40.6648454],[36.1228065,40.6697347],[36.0873543,40.6828727],[36.0615708,40.6990625],[36.0479189,40.7279275],[36.0623645,40.7756669],[36.0462329,40.8324432],[36.0231822,40.8220848],[35.9379529,40.8486836],[35.9043501,40.8345933],[35.8661547,40.8037802],[35.8318297,40.7845859],[35.777809,40.7693212],[35.7624239,40.754706],[35.7518077,40.7303239],[35.7218796,40.7008819],[35.6954016,40.6841518],[35.6413425,40.6665807],[35.5529878,40.6774504],[35.5157307,40.6727721],[35.4846948,40.6750048],[35.4358434,40.6571689],[35.4043222,40.6384292],[35.4312268,40.625036],[35.45641,40.6219798],[35.4855054,40.5970552],[35.4869241,40.5694022],[35.5151086,40.5633526],[35.5304532,40.5371581],[35.5135394,40.5208309],[35.554342,40.5096354],[35.5996966,40.5115335],[35.5981116,40.4873497],[35.6250785,40.4931828],[35.6433868,40.4887526],[35.6745941,40.5010932],[35.7070496,40.4998276],[35.7053852,40.4662805],[35.7261901,40.4520337],[35.7266062,40.43335],[35.7512696,40.4331051]]]},"properties":{"@id":"relation/1837141","admin_level":"6","boundary":"administrative","name":"Amasya Merkez","name:ar":"أماصيا","name:bg":"Амасия","name:ce":"Амаси","name:de":"Amasya","name:el":"Αμάσεια","name:en":"Amasya","name:fa":"آماسیه","name:fr":"Amasya","name:grc":"Άμάσεια","name:he":"אמסיה","name:hu":"Amasya","name:hy":"Ամասիա","name:it":"Amasya","name:ja":"アマスィヤ","name:ka":"ამასია","name:ko":"아마시아","name:la":"Amasea","name:lt":"Amasija","name:lv":"Amasja","name:mk":"Амасија","name:ml":"അമാസ്യ","name:no":"Amasya","name:os":"Амасья","name:pa":"ਅਮਾਸਿਆ","name:pl":"Amasya","name:pnt":"Αμάσεια","name:pt":"Amasia","name:ru":"Амасья","name:so":"Amaasiya","name:sq":"Amasia","name:sr":"Амасија","name:sv":"Amasya","name:tg":"Амосия","name:tr":"Amasya","name:tr:suffix":"İlçesi","name:tt":"Амасья","name:uk":"Амасья","name:ur":"اماسیا","name:zh":"阿馬西亞","network":"TR05-districts","population":"148908","population:date":"31-12-2023","type":"boundary","wikidata":"Q170532","wikipedia":"tr:Amasya"},"id":"relation/1837141"},
{"type":"Feature","geometry":{"type":"Polygon","coordinates":[[[35.5135394,40.5208309],[35.4839249,40.5039019],[35.4348721,40.4877477],[35.4114365,40.4631941],[35.3957545,40.4057096],[35.3538956,40.3857219],[35.3615129,40.3596443],[35.3799114,40.3319623],[35.4086393,40.3232669],[35.385138,40.286226],[35.3559036,40.2761586],[35.3399519,40.2550786],[35.3472284,40.2365534],[35.3623573,40.2330084],[35.3915339,40.2423478],[35.4325569,40.2427259],[35.465455,40.2867936],[35.4945945,40.3047963],[35.5209875,40.3090835],[35.5337762,40.3252809],[35.5596113,40.3203403],[35.5981922,40.3209947],[35.6447982,40.349357],[35.6447982,40.3671468],[35.6848812,40.360607],[35.7272815,40.3742745],[35.7323241,40.39026],[35.7510566,40.3971892],[35.7512696,40.4331051],[35.7266062,40.43335],[35.7261901,40.4520337],[35.7053852,40.4662805],[35.7070496,40.4998276],[35.6745941,40.5010932],[35.6433868,40.4887526],[35.6250785,40.4931828],[35.5981116,40.4873497],[35.5996966,40.5115335],[35.554342,40.5096354],[35.5135394,40.5208309]]]},"properties":{"@id":"relation/1837142","admin_level":"6","boundary":"administrative","name":"Göynücek","name:ce":"Гоьйнуьджек","name:de":"Göynücek","name:en":"Göynücek","name:fa":"گوینوجک","name:tr":"Göynücek","name:tr:suffix":"İlçesi","name:tt":"Гөйнүҗек","name:ur":"گوےنوجیک","network":"TR05-districts","population":"10291","population:date":"31-12-2021","type":"boundary","wikidata":"Q2670770","wikipedia":"tr:Göynücek"},"id":"relation/1837142"},
{"type":"Feature","geometry":{"type":"Polygon","coordinates":[[[35.2348698,40.7058386],[35.2538138,40.7093332],[35.3292289,40.6839267],[35.3237097,40.6488352],[35.3713056,40.6381571],[35.4043222,40.6384292],[35.4358434,40.6571689],[35.4846948,40.6750048],[35.5157307,40.6727721],[35.5529878,40.6774504],[35.546696,40.6911773],[35.5680831,40.7334214],[35.5357306,40.7551523],[35.5404568,40.7882596],[35.5675662,40.8330788],[35.6069182,40.8683005],[35.6290432,40.8679008],[35.638149,40.8930125],[35.643938,40.9148638],[35.6266992,40.9366369],[35.573735,40.9401265],[35.5016308,40.9595511],[35.4659628,40.9913574],[35.4461684,41.0203347],[35.3643015,41.0049568],[35.3542607,41.0270098],[35.3261267,41.040283],[35.2828322,41.0411453],[35.2676012,41.0332085],[35.2885026,41.0131518],[35.2896961,40.9956064],[35.3075791,40.98415],[35.2850758,40.9629569],[35.3614886,40.8727396],[35.3348091,40.8267765],[35.3206219,40.8182953],[35.238014,40.7994172],[35.2256411,40.7853662],[35.2500776,40.7551466],[35.2525522,40.7431955],[35.2348698,40.7058386]]]},"properties":{"@id":"relation/1837143","admin_level":"6","boundary":"administrative","name":"Merzifon","name:ar":"مرزيفون","name:az":"Mərzifon","name:ce":"Мерзифон","name:de":"Merzifon","name:el":"Μερζιφούντα","name:en":"Merzifon","name:fa":"مرزیفون","name:hy":"Մարզվան","name:ka":"მერზიფონი","name:kk":"Мерзифон","name:ru":"Мерзифон","name:tr":"Merzifon","name:tr:suffix":"İlçesi","name:tt":"Мерзифон","name:ur":"مرزیفون","name:zh":"梅爾濟豐","network":"TR05-districts","population":"74727","population:date":"31-12-2021","type":"boundary","wikidata":"Q958135","wikipedia":"tr:Merzifon"},"id":"relation/1837143"},
{"type":"Feature","geometry":{"type":"Polygon","coordinates":[[[35.9379529,40.8486836],[35.9201753,40.8690752],[35.8799314,40.8705558],[35.8605122,40.8825174],[35.83987,40.8814061],[35.8063102,40.8662761],[35.7914289,40.8850195],[35.7665618,40.8682853],[35.7337599,40.8798234],[35.7142324,40.8665154],[35.6745966,40.8693133],[35.6628479,40.8970596],[35.638149,40.8930125],[35.6290432,40.8679008],[35.6069182,40.8683005],[35.5675662,40.8330788],[35.5404568,40.7882596],[35.5357306,40.7551523],[35.5680831,40.7334214],[35.546696,40.6911773],[35.5529878,40.6774504],[35.6413425,40.6665807],[35.6954016,40.6841518],[35.7218796,40.7008819],[35.7518077,40.7303239],[35.7624239,40.754706],[35.777809,40.7693212],[35.8318297,40.7845859],[35.8661547,40.8037802],[35.9043501,40.8345933],[35.9379529,40.8486836]]]},"properties":{"@id":"relation/1837144","admin_level":"6","boundary":"administrative","name":"Suluova","name:ce":"Сулуова","name:de":"Suluova","name:en":"Suluova","name:fa":"سولواووا","name:tr":"Suluova","name:tr:suffix":"İlçesi","name:tt":"Сулуова","name:ur":"سولووا","name:zh":"蘇盧奧瓦","network":"TR05-districts","population":"47066","population:date":"31-12-2021","type":"boundary","wikidata":"Q1922386","wikipedia":"tr:Suluova"},"id":"relation/1837144"},
{"type":"Feature","geometry":{"type":"Polygon","coordinates":[[[36.3127136,40.5908359],[36.3418292,40.5910139],[36.3626861,40.6014415],[36.3763332,40.6445684],[36.4024257,40.6792386],[36.3971901,40.7046194],[36.4077674,40.7357042],[36.4404534,40.7570254],[36.5054177,40.7645275],[36.5122462,40.7704818],[36.4418258,40.7955669],[36.4111095,40.8191523],[36.4172311,40.8625723],[36.3990966,40.8670659],[36.4102337,40.8911068],[36.3964788,40.9200009],[36.3782635,40.9388817],[36.3508496,40.9408194],[36.3424466,40.9716626],[36.3272802,40.9798794],[36.2702307,40.9836234],[36.2157096,40.9744716],[36.1962096,40.962381],[36.1712723,40.9209896],[36.1618638,40.8907672],[36.1195719,40.9008749],[36.0934005,40.8833524],[36.0962515,40.8583004],[36.0751112,40.8404222],[36.0462329,40.8324432],[36.0623645,40.7756669],[36.0479189,40.7279275],[36.0615708,40.6990625],[36.0873543,40.6828727],[36.1228065,40.6697347],[36.1711505,40.6648454],[36.2339977,40.6251072],[36.257364,40.6192973],[36.2798783,40.6016063],[36.3127136,40.5908359]]]},"properties":{"@id":"relation/1837145","admin_level":"6","boundary":"administrative","name":"Taşova","name:ce":"Ташова","name:de":"Taşova","name:en":"Taşova","name:fa":"تاشوا","name:tr":"Taşova","name:tr:suffix":"İlçesi","name:tt":"Ташова","name:ur":"تاشووا","name:zh":"塔紹瓦","network":"TR05-districts","population":"30123","population:date":"31-12-2021","type":"boundary","wikidata":"Q225506","wikipedia":"tr:Taşova"},"id":"relation/1837145"},
{"type":"Feature","geometry":{"type":"Polygon","coordinates":[[[35.6355525,40.8434712],[35.6405148,40.8395749],[35.6423939,40.8416081],[35.6355525,40.8434712]]]},"properties":{"@id":"relation/11067732","admin_level":"8","boundary":"administrative","name":"Ata Mahallesi","type":"boundary","@relations":[{"role":"subarea","rel":1837144,"reltags":{"admin_level":"6","boundary":"administrative","name":"Suluova","name:ce":"Сулуова","name:de":"Suluova","name:en":"Suluova","name:fa":"سولواووا","name:tr":"Suluova","name:tr:suffix":"İlçesi","name:tt":"Сулуова","name:ur":"سولووا","name:zh":"蘇盧奧瓦","network":"TR05-districts","population":"47066","population:date":"31-12-2021","type":"boundary","wikidata":"Q1922386","wikipedia":"tr:Suluova"}}]},"id":"relation/11067732"},
{"type":"Feature","geometry":{"type":"Polygon","coordinates":[[[35.6355525,40.8434712],[35.6319155,40.8385318],[35.6368944,40.8314061],[35.6405148,40.8395749],[35.6355525,40.8434712]]]},"properties":{"@id":"relation/11067733","admin_level":"8","boundary":"administrative","name":"Borsa Mahallesi","type":"boundary","@relations":[{"role":"subarea","rel":1837144,"reltags":{"admin_level":"6","boundary":"administrative","name":"Suluova","name:ce":"Сулуова","name:de":"Suluova","name:en":"Suluova","name:fa":"سولواووا","name:tr":"Suluova","name:tr:suffix":"İlçesi","name:tt":"Сулуова","name:ur":"سولووا","name:zh":"蘇盧奧瓦","network":"TR05-districts","population":"47066","population:date":"31-12-2021","type":"boundary","wikidata":"Q1922386","wikipedia":"tr:Suluova"}}]},"id":"relation/11067733"},
{"type":"Feature","geometry":{"type":"Polygon","coordinates":[[[35.810312,40.6599443],[35.8085311,40.6555166],[35.8106017,40.6508852],[35.8185518,40.6511538],[35.8228862,40.6520329],[35.8230257,40.6525295],[35.8172321,40.6597001],[35.810312,40.6599443]]]},"properties":{"@id":"relation/12311183","admin_level":"8","boundary":"administrative","name":"Hızırpaşa Mahallesi","type":"boundary","@relations":[{"role":"subarea","rel":1837141,"reltags":{"admin_level":"6","boundary":"administrative","name":"Amasya Merkez","name:ar":"أماصيا","name:bg":"Амасия","name:ce":"Амаси","name:de":"Amasya","name:el":"Αμάσεια","name:en":"Amasya","name:fa":"آماسیه","name:fr":"Amasya","name:grc":"Άμάσεια","name:he":"אמסיה","name:hu":"Amasya","name:hy":"Ամասիա","name:it":"Amasya","name:ja":"アマスィヤ","name:ka":"ამასია","name:ko":"아마시아","name:la":"Amasea","name:lt":"Amasija","name:lv":"Amasja","name:mk":"Амасија","name:ml":"അമാസ്യ","name:no":"Amasya","name:os":"Амасья","name:pa":"ਅਮਾਸਿਆ","name:pl":"Amasya","name:pnt":"Αμάσεια","name:pt":"Amasia","name:ru":"Амасья","name:so":"Amaasiya","name:sq":"Amasia","name:sr":"Амасија","name:sv":"Amasya","name:tg":"Амосия","name:tr":"Amasya","name:tr:suffix":"İlçesi","name:tt":"Амасья","name:uk":"Амасья","name:ur":"اماسیا","name:zh":"阿馬西亞","network":"TR05-districts","population":"148908","population:date":"31-12-2023","type":"boundary","wikidata":"Q170532","wikipedia":"tr:Amasya"}}]},"id":"relation/12311183"},
{"type":"Feature","geometry":{"type":"Polygon","coordinates":[[[35.822221,40.6599036],[35.8172321,40.6597001],[35.8230257,40.6525295],[35.822221,40.6599036]]]},"properties":{"@id":"relation/12311184","admin_level":"8","boundary":"administrative","name":"Kurşunlu Mahallesi","type":"boundary","@relations":[{"role":"subarea","rel":1837141,"reltags":{"admin_level":"6","boundary":"administrative","name":"Amasya Merkez","name:ar":"أماصيا","name:bg":"Амасия","name:ce":"Амаси","name:de":"Amasya","name:el":"Αμάσεια","name:en":"Amasya","name:fa":"آماسیه","name:fr":"Amasya","name:grc":"Άμάσεια","name:he":"אמסיה","name:hu":"Amasya","name:hy":"Ամասիա","name:it":"Amasya","name:ja":"アマスィヤ","name:ka":"ამასია","name:ko":"아마시아","name:la":"Amasea","name:lt":"Amasija","name:lv":"Amasja","name:mk":"Амасија","name:ml":"അമാസ്യ","name:no":"Amasya","name:os":"Амасья","name:pa":"ਅਮਾਸਿਆ","name:pl":"Amasya","name:pnt":"Αμάσεια","name:pt":"Amasia","name:ru":"Амасья","name:so":"Amaasiya","name:sq":"Amasia","name:sr":"Амасија","name:sv":"Amasya","name:tg":"Амосия","name:tr":"Amasya","name:tr:suffix":"İlçesi","name:tt":"Амасья","name:uk":"Амасья","name:ur":"اماسیا","name:zh":"阿馬西亞","network":"TR05-districts","population":"148908","population:date":"31-12-2023","type":"boundary","wikidata":"Q170532","wikipedia":"tr:Amasya"}}]},"id":"relation/12311184"},
{"type":"Feature","geometry":{"type":"Polygon","coordinates":[[[35.8228862,40.6520329],[35.8278841,40.6512275],[35.8299992,40.6518027],[35.83354,40.6526923],[35.830214,40.6571404],[35.8237338,40.6601559],[35.822221,40.6599036],[35.8230257,40.6525295],[35.8228862,40.6520329]]]},"properties":{"@id":"relation/12311224","admin_level":"8","boundary":"administrative","name":"Hatuniye Mahallesi","type":"boundary","@relations":[{"role":"subarea","rel":1837141,"reltags":{"admin_level":"6","boundary":"administrative","name":"Amasya Merkez","name:ar":"أماصيا","name:bg":"Амасия","name:ce":"Амаси","name:de":"Amasya","name:el":"Αμάσεια","name:en":"Amasya","name:fa":"آماسیه","name:fr":"Amasya","name:grc":"Άμάσεια","name:he":"אמסיה","name:hu":"Amasya","name:hy":"Ամասիա","name:it":"Amasya","name:ja":"アマスィヤ","name:ka":"ამასია","name:ko":"아마시아","name:la":"Amasea","name:lt":"Amasija","name:lv":"Amasja","name:mk":"Амасија","name:ml":"അമാസ്യ","name:no":"Amasya","name:os":"Амасья","name:pa":"ਅਮਾਸਿਆ","name:pl":"Amasya","name:pnt":"Αμάσεια","name:pt":"Amasia","name:ru":"Амасья","name:so":"Amaasiya","name:sq":"Amasia","name:sr":"Амасија","name:sv":"Amasya","name:tg":"Амосия","name:tr":"Amasya","name:tr:suffix":"İlçesi","name:tt":"Амасья","name:uk":"Амасья","name:ur":"اماسیا","name:zh":"阿馬西亞","network":"TR05-districts","population":"148908","population:date":"31-12-2023","type":"boundary","wikidata":"Q170532","wikipedia":"tr:Amasya"}}]},"id":"relation/12311224"},
{"type":"Feature","geometry":{"type":"Polygon","coordinates":[[[35.8347148,40.6573154],[35.830214,40.6571404],[35.83354,40.6526923],[35.8340548,40.6530631],[35.8345831,40.6539341],[35.8347148,40.6573154]]]},"properties":{"@id":"relation/12311228","admin_level":"8","boundary":"administrative","name":"Nergis Mahallesi","type":"boundary","@relations":[{"role":"subarea","rel":1837141,"reltags":{"admin_level":"6","boundary":"administrative","name":"Amasya Merkez","name:ar":"أماصيا","name:bg":"Амасия","name:ce":"Амаси","name:de":"Amasya","name:el":"Αμάσεια","name:en":"Amasya","name:fa":"آماسیه","name:fr":"Amasya","name:grc":"Άμάσεια","name:he":"אמסיה","name:hu":"Amasya","name:hy":"Ամասիա","name:it":"Amasya","name:ja":"アマスィヤ","name:ka":"ამასია","name:ko":"아마시아","name:la":"Amasea","name:lt":"Amasija","name:lv":"Amasja","name:mk":"Амасија","name:ml":"അമാസ്യ","name:no":"Amasya","name:os":"Амасья","name:pa":"ਅਮਾਸਿਆ","name:pl":"Amasya","name:pnt":"Αμάσεια","name:pt":"Amasia","name:ru":"Амасья","name:so":"Amaasiya","name:sq":"Amasia","name:sr":"Амасија","name:sv":"Amasya","name:tg":"Амосия","name:tr":"Amasya","name:tr:suffix":"İlçesi","name:tt":"Амасья","name:uk":"Амасья","name:ur":"اماسیا","name:zh":"阿馬西亞","network":"TR05-districts","population":"148908","population:date":"31-12-2023","type":"boundary","wikidata":"Q170532","wikipedia":"tr:Amasya"}}]},"id":"relation/12311228"},
{"type":"Feature","geometry":{"type":"Polygon","coordinates":[[[35.8315873,40.6488584],[35.831259,40.6494218],[35.8257991,40.6487403],[35.8254182,40.6462738],[35.8294737,40.6468558],[35.8315873,40.6488584]]]},"properties":{"@id":"relation/14747060","admin_level":"8","boundary":"administrative","name":"Şehirüstü Mahallesi","type":"boundary","@relations":[{"role":"subarea","rel":1837141,"reltags":{"admin_level":"6","boundary":"administrative","name":"Amasya Merkez","name:ar":"أماصيا","name:bg":"Амасия","name:ce":"Амаси","name:de":"Amasya","name:el":"Αμάσεια","name:en":"Amasya","name:fa":"آماسیه","name:fr":"Amasya","name:grc":"Άμάσεια","name:he":"אמסיה","name:hu":"Amasya","name:hy":"Ամասիա","name:it":"Amasya","name:ja":"アマスィヤ","name:ka":"ამასია","name:ko":"아마시아","name:la":"Amasea","name:lt":"Amasija","name:lv":"Amasja","name:mk":"Амасија","name:ml":"അമാസ്യ","name:no":"Amasya","name:os":"Амасья","name:pa":"ਅਮਾਸਿਆ","name:pl":"Amasya","name:pnt":"Αμάσεια","name:pt":"Amasia","name:ru":"Амасья","name:so":"Amaasiya","name:sq":"Amasia","name:sr":"Амасија","name:sv":"Amasya","name:tg":"Амосия","name:tr":"Amasya","name:tr:suffix":"İlçesi","name:tt":"Амасья","name:uk":"Амасья","name:ur":"اماسیا","name:zh":"阿馬西亞","network":"TR05-districts","population":"148908","population:date":"31-12-2023","type":"boundary","wikidata":"Q170532","wikipedia":"tr:Amasya"}}]},"id":"relation/14747060"},
{"type":"Feature","geometry":{"type":"Polygon","coordinates":[[[35.8299992,40.6518027],[35.8278841,40.6512275],[35.8260628,40.6497418],[35.8257991,40.6487403],[35.831259,40.6494218],[35.8299992,40.6518027]]]},"properties":{"@id":"relation/14747061","admin_level":"8","boundary":"administrative","name":"Yüzevler Mahallesi","type":"boundary","@relations":[{"role":"subarea","rel":1837141,"reltags":{"admin_level":"6","boundary":"administrative","name":"Amasya Merkez","name:ar":"أماصيا","name:bg":"Амасия","name:ce":"Амаси","name:de":"Amasya","name:el":"Αμάσεια","name:en":"Amasya","name:fa":"آماسیه","name:fr":"Amasya","name:grc":"Άμάσεια","name:he":"אמסיה","name:hu":"Amasya","name:hy":"Ամասիա","name:it":"Amasya","name:ja":"アマスィヤ","name:ka":"ამასია","name:ko":"아마시아","name:la":"Amasea","name:lt":"Amasija","name:lv":"Amasja","name:mk":"Амасија","name:ml":"അമാസ്യ","name:no":"Amasya","name:os":"Амасья","name:pa":"ਅਮਾਸਿਆ","name:pl":"Amasya","name:pnt":"Αμάσεια","name:pt":"Amasia","name:ru":"Амасья","name:so":"Amaasiya","name:sq":"Amasia","name:sr":"Амасија","name:sv":"Amasya","name:tg":"Амосия","name:tr":"Amasya","name:tr:suffix":"İlçesi","name:tt":"Амасья","name:uk":"Амасья","name:ur":"اماسیا","name:zh":"阿馬西亞","network":"TR05-districts","population":"148908","population:date":"31-12-2023","type":"boundary","wikidata":"Q170532","wikipedia":"tr:Amasya"}}]},"id":"relation/14747061"},
{"type":"Feature","geometry":{"type":"Polygon","coordinates":[[[35.8257991,40.6487403],[35.8260628,40.6497418],[35.8242273,40.6496683],[35.8227199,40.6468396],[35.8254182,40.6462738],[35.8257991,40.6487403]]]},"properties":{"@id":"relation/14747062","admin_level":"8","boundary":"administrative","name":"Üçler Mahallesi","type":"boundary","@relations":[{"role":"subarea","rel":1837141,"reltags":{"admin_level":"6","boundary":"administrative","name":"Amasya Merkez","name:ar":"أماصيا","name:bg":"Амасия","name:ce":"Амаси","name:de":"Amasya","name:el":"Αμάσεια","name:en":"Amasya","name:fa":"آماسیه","name:fr":"Amasya","name:grc":"Άμάσεια","name:he":"אמסיה","name:hu":"Amasya","name:hy":"Ամասիա","name:it":"Amasya","name:ja":"アマスィヤ","name:ka":"ამასია","name:ko":"아마시아","name:la":"Amasea","name:lt":"Amasija","name:lv":"Amasja","name:mk":"Амасија","name:ml":"അമാസ്യ","name:no":"Amasya","name:os":"Амасья","name:pa":"ਅਮਾਸਿਆ","name:pl":"Amasya","name:pnt":"Αμάσεια","name:pt":"Amasia","name:ru":"Амасья","name:so":"Amaasiya","name:sq":"Amasia","name:sr":"Амасија","name:sv":"Amasya","name:tg":"Амосия","name:tr":"Amasya","name:tr:suffix":"İlçesi","name:tt":"Амасья","name:uk":"Амасья","name:ur":"اماسیا","name:zh":"阿馬西亞","network":"TR05-districts","population":"148908","population:date":"31-12-2023","type":"boundary","wikidata":"Q170532","wikipedia":"tr:Amasya"}}]},"id":"relation/14747062"},
{"type":"Feature","geometry":{"type":"Polygon","coordinates":[[[35.8278841,40.6512275],[35.8228862,40.6520329],[35.8185518,40.6511538],[35.8188629,40.6498352],[35.8242273,40.6496683],[35.8260628,40.6497418],[35.8278841,40.6512275]]]},"properties":{"@id":"relation/14747063","admin_level":"8","boundary":"administrative","name":"Hacı İlyas Mahallesi","type":"boundary","@relations":[{"role":"subarea","rel":1837141,"reltags":{"admin_level":"6","boundary":"administrative","name":"Amasya Merkez","name:ar":"أماصيا","name:bg":"Амасия","name:ce":"Амаси","name:de":"Amasya","name:el":"Αμάσεια","name:en":"Amasya","name:fa":"آماسیه","name:fr":"Amasya","name:grc":"Άμάσεια","name:he":"אמסיה","name:hu":"Amasya","name:hy":"Ամասիա","name:it":"Amasya","name:ja":"アマスィヤ","name:ka":"ამასია","name:ko":"아마시아","name:la":"Amasea","name:lt":"Amasija","name:lv":"Amasja","name:mk":"Амасија","name:ml":"അമാസ്യ","name:no":"Amasya","name:os":"Амасья","name:pa":"ਅਮਾਸਿਆ","name:pl":"Amasya","name:pnt":"Αμάσεια","name:pt":"Amasia","name:ru":"Амасья","name:so":"Amaasiya","name:sq":"Amasia","name:sr":"Амасија","name:sv":"Amasya","name:tg":"Амосия","name:tr":"Amasya","name:tr:suffix":"İlçesi","name:tt":"Амасья","name:uk":"Амасья","name:ur":"اماسیا","name:zh":"阿馬西亞","network":"TR05-districts","population":"148908","population:date":"31-12-2023","type":"boundary","wikidata":"Q170532","wikipedia":"tr:Amasya"}}]},"id":"relation/14747063"},
{"type":"Feature","geometry":{"type":"Polygon","coordinates":[[[35.8185518,40.6511538],[35.8106017,40.6508852],[35.8086773,40.6364818],[35.8188629,40.6498352],[35.8185518,40.6511538]]]},"properties":{"@id":"relation/14747064","admin_level":"8","boundary":"administrative","name":"Hacılar Meydanı Mahallesi","type":"boundary","@relations":[{"role":"subarea","rel":1837141,"reltags":{"admin_level":"6","boundary":"administrative","name":"Amasya Merkez","name:ar":"أماصيا","name:bg":"Амасия","name:ce":"Амаси","name:de":"Amasya","name:el":"Αμάσεια","name:en":"Amasya","name:fa":"آماسیه","name:fr":"Amasya","name:grc":"Άμάσεια","name:he":"אמסיה","name:hu":"Amasya","name:hy":"Ամասիա","name:it":"Amasya","name:ja":"アマスィヤ","name:ka":"ამასია","name:ko":"아마시아","name:la":"Amasea","name:lt":"Amasija","name:lv":"Amasja","name:mk":"Амасија","name:ml":"അമാസ്യ","name:no":"Amasya","name:os":"Амасья","name:pa":"ਅਮਾਸਿਆ","name:pl":"Amasya","name:pnt":"Αμάσεια","name:pt":"Amasia","name:ru":"Амасья","name:so":"Amaasiya","name:sq":"Amasia","name:sr":"Амасија","name:sv":"Amasya","name:tg":"Амосия","name:tr":"Amasya","name:tr:suffix":"İlçesi","name:tt":"Амасья","name:uk":"Амасья","name:ur":"اماسیا","name:zh":"阿馬西亞","network":"TR05-districts","population":"148908","population:date":"31-12-2023","type":"boundary","wikidata":"Q170532","wikipedia":"tr:Amasya"}}]},"id":"relation/14747064"},
{"type":"Feature","geometry":{"type":"Polygon","coordinates":[[[35.8188629,40.6498352],[35.8086773,40.6364818],[35.8099961,40.6350785],[35.8227199,40.6468396],[35.8242273,40.6496683],[35.8188629,40.6498352]]]},"properties":{"@id":"relation/14747065","admin_level":"8","boundary":"administrative","name":"Gökmedrese Mahallesi","type":"boundary","@relations":[{"role":"subarea","rel":1837141,"reltags":{"admin_level":"6","boundary":"administrative","name":"Amasya Merkez","name:ar":"أماصيا","name:bg":"Амасия","name:ce":"Амаси","name:de":"Amasya","name:el":"Αμάσεια","name:en":"Amasya","name:fa":"آماسیه","name:fr":"Amasya","name:grc":"Άμάσεια","name:he":"אמסיה","name:hu":"Amasya","name:hy":"Ամասիա","name:it":"Amasya","name:ja":"アマスィヤ","name:ka":"ამასია","name:ko":"아마시아","name:la":"Amasea","name:lt":"Amasija","name:lv":"Amasja","name:mk":"Амасија","name:ml":"അമാസ്യ","name:no":"Amasya","name:os":"Амасья","name:pa":"ਅਮਾਸਿਆ","name:pl":"Amasya","name:pnt":"Αμάσεια","name:pt":"Amasia","name:ru":"Амасья","name:so":"Amaasiya","name:sq":"Amasia","name:sr":"Амасија","name:sv":"Amasya","name:tg":"Амосия","name:tr":"Amasya","name:tr:suffix":"İlçesi","name:tt":"Амасья","name:uk":"Амасья","name:ur":"اماسیا","name:zh":"阿馬西亞","network":"TR05-districts","population":"148908","population:date":"31-12-2023","type":"boundary","wikidata":"Q170532","wikipedia":"tr:Amasya"}}]},"id":"relation/14747065"},
{"type":"Feature","geometry":{"type":"Polygon","coordinates":[[[35.8315873,40.6488584],[35.8294737,40.6468558],[35.8357233,40.6470878],[35.8315873,40.6488584]]]},"properties":{"@id":"relation/14747066","admin_level":"8","boundary":"administrative","name":"Fethiye Mahallesi","type":"boundary","@relations":[{"role":"subarea","rel":1837141,"reltags":{"admin_level":"6","boundary":"administrative","name":"Amasya Merkez","name:ar":"أماصيا","name:bg":"Амасия","name:ce":"Амаси","name:de":"Amasya","name:el":"Αμάσεια","name:en":"Amasya","name:fa":"آماسیه","name:fr":"Amasya","name:grc":"Άμάσεια","name:he":"אמסיה","name:hu":"Amasya","name:hy":"Ամասիա","name:it":"Amasya","name:ja":"アマスィヤ","name:ka":"ამასია","name:ko":"아마시아","name:la":"Amasea","name:lt":"Amasija","name:lv":"Amasja","name:mk":"Амасија","name:ml":"അമാസ്യ","name:no":"Amasya","name:os":"Амасья","name:pa":"ਅਮਾਸਿਆ","name:pl":"Amasya","name:pnt":"Αμάσεια","name:pt":"Amasia","name:ru":"Амасья","name:so":"Amaasiya","name:sq":"Amasia","name:sr":"Амасија","name:sv":"Amasya","name:tg":"Амосия","name:tr":"Amasya","name:tr:suffix":"İlçesi","name:tt":"Амасья","name:uk":"Амасья","name:ur":"اماسیا","name:zh":"阿馬西亞","network":"TR05-districts","population":"148908","population:date":"31-12-2023","type":"boundary","wikidata":"Q170532","wikipedia":"tr:Amasya"}}]},"id":"relation/14747066"},
{"type":"Feature","geometry":{"type":"Polygon","coordinates":[[[35.8346236,40.6518498],[35.8340548,40.6530631],[35.83354,40.6526923],[35.8299992,40.6518027],[35.831259,40.6494218],[35.8315873,40.6488584],[35.8357233,40.6470878],[35.8353746,40.6515323],[35.8346236,40.6518498]]]},"properties":{"@id":"relation/14747067","admin_level":"8","boundary":"administrative","name":"Dere Mahallesi","type":"boundary","@relations":[{"role":"subarea","rel":1837141,"reltags":{"admin_level":"6","boundary":"administrative","name":"Amasya Merkez","name:ar":"أماصيا","name:bg":"Амасия","name:ce":"Амаси","name:de":"Amasya","name:el":"Αμάσεια","name:en":"Amasya","name:fa":"آماسیه","name:fr":"Amasya","name:grc":"Άμάσεια","name:he":"אמסיה","name:hu":"Amasya","name:hy":"Ամասիա","name:it":"Amasya","name:ja":"アマスィヤ","name:ka":"ამასია","name:ko":"아마시아","name:la":"Amasea","name:lt":"Amasija","name:lv":"Amasja","name:mk":"Амасија","name:ml":"അമാസ്യ","name:no":"Amasya","name:os":"Амасья","name:pa":"ਅਮਾਸਿਆ","name:pl":"Amasya","name:pnt":"Αμάσεια","name:pt":"Amasia","name:ru":"Амасья","name:so":"Amaasiya","name:sq":"Amasia","name:sr":"Амасија","name:sv":"Amasya","name:tg":"Амосия","name:tr":"Amasya","name:tr:suffix":"İlçesi","name:tt":"Амасья","name:uk":"Амасья","name:ur":"اماسیا","name:zh":"阿馬西亞","network":"TR05-districts","population":"148908","population:date":"31-12-2023","type":"boundary","wikidata":"Q170532","wikipedia":"tr:Amasya"}}]},"id":"relation/14747067"},
{"type":"Feature","geometry":{"type":"Polygon","coordinates":[[[35.839988,40.6538562],[35.8460176,40.6527899],[35.8427399,40.6567131],[35.8401542,40.6551537],[35.839988,40.6538562]]]},"properties":{"@id":"relation/14747068","admin_level":"8","boundary":"administrative","name":"Savadiye Mahallesi","type":"boundary","@relations":[{"role":"subarea","rel":1837141,"reltags":{"admin_level":"6","boundary":"administrative","name":"Amasya Merkez","name:ar":"أماصيا","name:bg":"Амасия","name:ce":"Амаси","name:de":"Amasya","name:el":"Αμάσεια","name:en":"Amasya","name:fa":"آماسیه","name:fr":"Amasya","name:grc":"Άμάσεια","name:he":"אמסיה","name:hu":"Amasya","name:hy":"Ամասիա","name:it":"Amasya","name:ja":"アマスィヤ","name:ka":"ამასია","name:ko":"아마시아","name:la":"Amasea","name:lt":"Amasija","name:lv":"Amasja","name:mk":"Амасија","name:ml":"അമാസ്യ","name:no":"Amasya","name:os":"Амасья","name:pa":"ਅਮਾਸਿਆ","name:pl":"Amasya","name:pnt":"Αμάσεια","name:pt":"Amasia","name:ru":"Амасья","name:so":"Amaasiya","name:sq":"Amasia","name:sr":"Амасија","name:sv":"Amasya","name:tg":"Амосия","name:tr":"Amasya","name:tr:suffix":"İlçesi","name:tt":"Амасья","name:uk":"Амасья","name:ur":"اماسیا","name:zh":"阿馬西亞","network":"TR05-districts","population":"148908","population:date":"31-12-2023","type":"boundary","wikidata":"Q170532","wikipedia":"tr:Amasya"}}]},"id":"relation/14747068"},
{"type":"Feature","geometry":{"type":"Polygon","coordinates":[[[35.8373894,40.6563078],[35.8361363,40.6534655],[35.8346236,40.6518498],[35.839988,40.6538562],[35.8401542,40.6551537],[35.8373894,40.6563078]]]},"properties":{"@id":"relation/14747069","admin_level":"8","boundary":"administrative","name":"Mehmet Paşa Mahallesi","type":"boundary","@relations":[{"role":"subarea","rel":1837141,"reltags":{"admin_level":"6","boundary":"administrative","name":"Amasya Merkez","name:ar":"أماصيا","name:bg":"Амасия","name:ce":"Амаси","name:de":"Amasya","name:el":"Αμάσεια","name:en":"Amasya","name:fa":"آماسیه","name:fr":"Amasya","name:grc":"Άμάσεια","name:he":"אמסיה","name:hu":"Amasya","name:hy":"Ամասիա","name:it":"Amasya","name:ja":"アマスィヤ","name:ka":"ამასია","name:ko":"아마시아","name:la":"Amasea","name:lt":"Amasija","name:lv":"Amasja","name:mk":"Амасија","name:ml":"അമാസ്യ","name:no":"Amasya","name:os":"Амасья","name:pa":"ਅਮਾਸਿਆ","name:pl":"Amasya","name:pnt":"Αμάσεια","name:pt":"Amasia","name:ru":"Амасья","name:so":"Amaasiya","name:sq":"Amasia","name:sr":"Амасија","name:sv":"Amasya","name:tg":"Амосия","name:tr":"Amasya","name:tr:suffix":"İlçesi","name:tt":"Амасья","name:uk":"Амасья","name:ur":"اماسیا","name:zh":"阿馬西亞","network":"TR05-districts","population":"148908","population:date":"31-12-2023","type":"boundary","wikidata":"Q170532","wikipedia":"tr:Amasya"}}]},"id":"relation/14747069"},
{"type":"Feature","geometry":{"type":"Polygon","coordinates":[[[35.8460176,40.6527899],[35.839988,40.6538562],[35.8346236,40.6518498],[35.8353746,40.6515323],[35.8460176,40.6527899]]]},"properties":{"@id":"relation/14747070","admin_level":"8","boundary":"administrative","name":"Sofular Mahallesi","type":"boundary","@relations":[{"role":"subarea","rel":1837141,"reltags":{"admin_level":"6","boundary":"administrative","name":"Amasya Merkez","name:ar":"أماصيا","name:bg":"Амасия","name:ce":"Амаси","name:de":"Amasya","name:el":"Αμάσεια","name:en":"Amasya","name:fa":"آماسیه","name:fr":"Amasya","name:grc":"Άμάσεια","name:he":"אמסיה","name:hu":"Amasya","name:hy":"Ամասիա","name:it":"Amasya","name:ja":"アマスィヤ","name:ka":"ამასია","name:ko":"아마시아","name:la":"Amasea","name:lt":"Amasija","name:lv":"Amasja","name:mk":"Амасија","name:ml":"അമാസ്യ","name:no":"Amasya","name:os":"Амасья","name:pa":"ਅਮਾਸਿਆ","name:pl":"Amasya","name:pnt":"Αμάσεια","name:pt":"Amasia","name:ru":"Амасья","name:so":"Amaasiya","name:sq":"Amasia","name:sr":"Амасија","name:sv":"Amasya","name:tg":"Амосия","name:tr":"Amasya","name:tr:suffix":"İlçesi","name:tt":"Амасья","name:uk":"Амасья","name:ur":"اماسیا","name:zh":"阿馬西亞","network":"TR05-districts","population":"148908","population:date":"31-12-2023","type":"boundary","wikidata":"Q170532","wikipedia":"tr:Amasya"}}]},"id":"relation/14747070"},
{"type":"Feature","geometry":{"type":"Polygon","coordinates":[[[35.8345831,40.6539341],[35.8340548,40.6530631],[35.8346236,40.6518498],[35.8361363,40.6534655],[35.8345831,40.6539341]]]},"properties":{"@id":"relation/14747071","admin_level":"8","boundary":"administrative","name":"Gümüşlü Mahallesi","type":"boundary","@relations":[{"role":"subarea","rel":1837141,"reltags":{"admin_level":"6","boundary":"administrative","name":"Amasya Merkez","name:ar":"أماصيا","name:bg":"Амасия","name:ce":"Амаси","name:de":"Amasya","name:el":"Αμάσεια","name:en":"Amasya","name:fa":"آماسیه","name:fr":"Amasya","name:grc":"Άμάσεια","name:he":"אמסיה","name:hu":"Amasya","name:hy":"Ամասիա","name:it":"Amasya","name:ja":"アマスィヤ","name:ka":"ამასია","name:ko":"아마시아","name:la":"Amasea","name:lt":"Amasija","name:lv":"Amasja","name:mk":"Амасија","name:ml":"അമാസ്യ","name:no":"Amasya","name:os":"Амасья","name:pa":"ਅਮਾਸਿਆ","name:pl":"Amasya","name:pnt":"Αμάσεια","name:pt":"Amasia","name:ru":"Амасья","name:so":"Amaasiya","name:sq":"Amasia","name:sr":"Амасија","name:sv":"Amasya","name:tg":"Амосия","name:tr":"Amasya","name:tr:suffix":"İlçesi","name:tt":"Амасья","name:uk":"Амасья","name:ur":"اماسیا","name:zh":"阿馬西亞","network":"TR05-districts","population":"148908","population:date":"31-12-2023","type":"boundary","wikidata":"Q170532","wikipedia":"tr:Amasya"}}]},"id":"relation/14747071"},
{"type":"Feature","geometry":{"type":"Polygon","coordinates":[[[35.835396,40.657934],[35.8347148,40.6573154],[35.8345831,40.6539341],[35.8361363,40.6534655],[35.8373894,40.6563078],[35.835396,40.657934]]]},"properties":{"@id":"relation/14747072","admin_level":"8","boundary":"administrative","name":"Pirinççi Mahallesi","type":"boundary","@relations":[{"role":"subarea","rel":1837141,"reltags":{"admin_level":"6","boundary":"administrative","name":"Amasya Merkez","name:ar":"أماصيا","name:bg":"Амасия","name:ce":"Амаси","name:de":"Amasya","name:el":"Αμάσεια","name:en":"Amasya","name:fa":"آماسیه","name:fr":"Amasya","name:grc":"Άμάσεια","name:he":"אמסיה","name:hu":"Amasya","name:hy":"Ամասիա","name:it":"Amasya","name:ja":"アマスィヤ","name:ka":"ამასია","name:ko":"아마시아","name:la":"Amasea","name:lt":"Amasija","name:lv":"Amasja","name:mk":"Амасија","name:ml":"അമാസ്യ","name:no":"Amasya","name:os":"Амасья","name:pa":"ਅਮਾਸਿਆ","name:pl":"Amasya","name:pnt":"Αμάσεια","name:pt":"Amasia","name:ru":"Амасья","name:so":"Amaasiya","name:sq":"Amasia","name:sr":"Амасија","name:sv":"Amasya","name:tg":"Амосия","name:tr":"Amasya","name:tr:suffix":"İlçesi","name:tt":"Амасья","name:uk":"Амасья","name:ur":"اماسیا","name:zh":"阿馬西亞","network":"TR05-districts","population":"148908","population:date":"31-12-2023","type":"boundary","wikidata":"Q170532","wikipedia":"tr:Amasya"}}]},"id":"relation/14747072"},
{"type":"Feature","geometry":{"type":"Polygon","coordinates":[[[35.8399397,40.659456],[35.8546221,40.6708657],[35.8403206,40.668522],[35.8383861,40.6600421],[35.8399397,40.659456]]]},"properties":{"@id":"relation/14747073","admin_level":"8","boundary":"administrative","name":"Ellibeşevler Mahallesi","type":"boundary","@relations":[{"role":"subarea","rel":1837141,"reltags":{"admin_level":"6","boundary":"administrative","name":"Amasya Merkez","name:ar":"أماصيا","name:bg":"Амасия","name:ce":"Амаси","name:de":"Amasya","name:el":"Αμάσεια","name:en":"Amasya","name:fa":"آماسیه","name:fr":"Amasya","name:grc":"Άμάσεια","name:he":"אמסיה","name:hu":"Amasya","name:hy":"Ամասիա","name:it":"Amasya","name:ja":"アマスィヤ","name:ka":"ამასია","name:ko":"아마시아","name:la":"Amasea","name:lt":"Amasija","name:lv":"Amasja","name:mk":"Амасија","name:ml":"അമാസ്യ","name:no":"Amasya","name:os":"Амасья","name:pa":"ਅਮਾਸਿਆ","name:pl":"Amasya","name:pnt":"Αμάσεια","name:pt":"Amasia","name:ru":"Амасья","name:so":"Amaasiya","name:sq":"Amasia","name:sr":"Амасија","name:sv":"Amasya","name:tg":"Амосия","name:tr":"Amasya","name:tr:suffix":"İlçesi","name:tt":"Амасья","name:uk":"Амасья","name:ur":"اماسیا","name:zh":"阿馬西亞","network":"TR05-districts","population":"148908","population:date":"31-12-2023","type":"boundary","wikidata":"Q170532","wikipedia":"tr:Amasya"}}]},"id":"relation/14747073"},
{"type":"Feature","geometry":{"type":"Polygon","coordinates":[[[35.8546221,40.6708657],[35.8399397,40.659456],[35.8403852,40.6592647],[35.8546221,40.6708657]]]},"properties":{"@id":"relation/14747074","admin_level":"8","boundary":"administrative","name":"Kirazlıdere Mahallesi","type":"boundary","@relations":[{"role":"subarea","rel":1837141,"reltags":{"admin_level":"6","boundary":"administrative","name":"Amasya Merkez","name:ar":"أماصيا","name:bg":"Амасия","name:ce":"Амаси","name:de":"Amasya","name:el":"Αμάσεια","name:en":"Amasya","name:fa":"آماسیه","name:fr":"Amasya","name:grc":"Άμάσεια","name:he":"אמסיה","name:hu":"Amasya","name:hy":"Ամասիա","name:it":"Amasya","name:ja":"アマスィヤ","name:ka":"ამასია","name:ko":"아마시아","name:la":"Amasea","name:lt":"Amasija","name:lv":"Amasja","name:mk":"Амасија","name:ml":"അമാസ്യ","name:no":"Amasya","name:os":"Амасья","name:pa":"ਅਮਾਸਿਆ","name:pl":"Amasya","name:pnt":"Αμάσεια","name:pt":"Amasia","name:ru":"Амасья","name:so":"Amaasiya","name:sq":"Amasia","name:sr":"Амасија","name:sv":"Amasya","name:tg":"Амосия","name:tr":"Amasya","name:tr:suffix":"İlçesi","name:tt":"Амасья","name:uk":"Амасья","name:ur":"اماسیا","name:zh":"阿馬西亞","network":"TR05-districts","population":"148908","population:date":"31-12-2023","type":"boundary","wikidata":"Q170532","wikipedia":"tr:Amasya"}}]},"id":"relation/14747074"},
{"type":"Feature","geometry":{"type":"Polygon","coordinates":[[[35.8373894,40.6563078],[35.8401542,40.6551537],[35.8427399,40.6567131],[35.8403852,40.6592647],[35.8399397,40.659456],[35.8383861,40.6600421],[35.835396,40.657934],[35.8373894,40.6563078]]]},"properties":{"@id":"relation/14747075","admin_level":"8","boundary":"administrative","name":"Beyazıtpaşa Mahallesi","type":"boundary","@relations":[{"role":"subarea","rel":1837141,"reltags":{"admin_level":"6","boundary":"administrative","name":"Amasya Merkez","name:ar":"أماصيا","name:bg":"Амасия","name:ce":"Амаси","name:de":"Amasya","name:el":"Αμάσεια","name:en":"Amasya","name:fa":"آماسیه","name:fr":"Amasya","name:grc":"Άμάσεια","name:he":"אמסיה","name:hu":"Amasya","name:hy":"Ամասիա","name:it":"Amasya","name:ja":"アマスィヤ","name:ka":"ამასია","name:ko":"아마시아","name:la":"Amasea","name:lt":"Amasija","name:lv":"Amasja","name:mk":"Амасија","name:ml":"അമാസ്യ","name:no":"Amasya","name:os":"Амасья","name:pa":"ਅਮਾਸਿਆ","name:pl":"Amasya","name:pnt":"Αμάσεια","name:pt":"Amasia","name:ru":"Амасья","name:so":"Amaasiya","name:sq":"Amasia","name:sr":"Амасија","name:sv":"Amasya","name:tg":"Амосия","name:tr":"Amasya","name:tr:suffix":"İlçesi","name:tt":"Амасья","name:uk":"Амасья","name:ur":"اماسیا","name:zh":"阿馬西亞","network":"TR05-districts","population":"148908","population:date":"31-12-2023","type":"boundary","wikidata":"Q170532","wikipedia":"tr:Amasya"}}]},"id":"relation/14747075"},
{"type":"Feature","geometry":{"type":"Polygon","coordinates":[[[35.8383861,40.6600421],[35.8403206,40.668522],[35.8335185,40.6702716],[35.8339047,40.662215],[35.835396,40.657934],[35.8383861,40.6600421]]]},"properties":{"@id":"relation/14747076","admin_level":"8","boundary":"administrative","name":"Bahçeleriçi Mahallesi","type":"boundary","@relations":[{"role":"subarea","rel":1837141,"reltags":{"admin_level":"6","boundary":"administrative","name":"Amasya Merkez","name:ar":"أماصيا","name:bg":"Амасия","name:ce":"Амаси","name:de":"Amasya","name:el":"Αμάσεια","name:en":"Amasya","name:fa":"آماسیه","name:fr":"Amasya","name:grc":"Άμάσεια","name:he":"אמסיה","name:hu":"Amasya","name:hy":"Ամասիա","name:it":"Amasya","name:ja":"アマスィヤ","name:ka":"ამასია","name:ko":"아마시아","name:la":"Amasea","name:lt":"Amasija","name:lv":"Amasja","name:mk":"Амасија","name:ml":"അമാസ്യ","name:no":"Amasya","name:os":"Амасья","name:pa":"ਅਮਾਸਿਆ","name:pl":"Amasya","name:pnt":"Αμάσεια","name:pt":"Amasia","name:ru":"Амасья","name:so":"Amaasiya","name:sq":"Amasia","name:sr":"Амасија","name:sv":"Amasya","name:tg":"Амосия","name:tr":"Amasya","name:tr:suffix":"İlçesi","name:tt":"Амасья","name:uk":"Амасья","name:ur":"اماسیا","name:zh":"阿馬西亞","network":"TR05-districts","population":"148908","population:date":"31-12-2023","type":"boundary","wikidata":"Q170532","wikipedia":"tr:Amasya"}}]},"id":"relation/14747076"},
{"type":"Feature","geometry":{"type":"Polygon","coordinates":[[[35.8335185,40.6702716],[35.8226394,40.6635171],[35.8339047,40.662215],[35.8335185,40.6702716]]]},"properties":{"@id":"relation/14747077","admin_level":"8","boundary":"administrative","name":"İhsaniye Mahallesi","type":"boundary","@relations":[{"role":"subarea","rel":1837141,"reltags":{"admin_level":"6","boundary":"administrative","name":"Amasya Merkez","name:ar":"أماصيا","name:bg":"Амасия","name:ce":"Амаси","name:de":"Amasya","name:el":"Αμάσεια","name:en":"Amasya","name:fa":"آماسیه","name:fr":"Amasya","name:grc":"Άμάσεια","name:he":"אמסיה","name:hu":"Amasya","name:hy":"Ամասիա","name:it":"Amasya","name:ja":"アマスィヤ","name:ka":"ამასია","name:ko":"아마시아","name:la":"Amasea","name:lt":"Amasija","name:lv":"Amasja","name:mk":"Амасија","name:ml":"അമാസ്യ","name:no":"Amasya","name:os":"Амасья","name:pa":"ਅਮਾਸਿਆ","name:pl":"Amasya","name:pnt":"Αμάσεια","name:pt":"Amasia","name:ru":"Амасья","name:so":"Amaasiya","name:sq":"Amasia","name:sr":"Амасија","name:sv":"Amasya","name:tg":"Амосия","name:tr":"Amasya","name:tr:suffix":"İlçesi","name:tt":"Амасья","name:uk":"Амасья","name:ur":"اماسیا","name:zh":"阿馬西亞","network":"TR05-districts","population":"148908","population:date":"31-12-2023","type":"boundary","wikidata":"Q170532","wikipedia":"tr:Amasya"}}]},"id":"relation/14747077"},
{"type":"Feature","geometry":{"type":"Polygon","coordinates":[[[35.830214,40.6571404],[35.8347148,40.6573154],[35.835396,40.657934],[35.8339047,40.662215],[35.8226394,40.6635171],[35.8237338,40.6601559],[35.830214,40.6571404]]]},"properties":{"@id":"relation/14747078","admin_level":"8","boundary":"administrative","name":"Şamlar Mahallesi","type":"boundary","@relations":[{"role":"subarea","rel":1837141,"reltags":{"admin_level":"6","boundary":"administrative","name":"Amasya Merkez","name:ar":"أماصيا","name:bg":"Амасия","name:ce":"Амаси","name:de":"Amasya","name:el":"Αμάσεια","name:en":"Amasya","name:fa":"آماسیه","name:fr":"Amasya","name:grc":"Άμάσεια","name:he":"אמסיה","name:hu":"Amasya","name:hy":"Ամասիա","name:it":"Amasya","name:ja":"アマスィヤ","name:ka":"ამასია","name:ko":"아마시아","name:la":"Amasea","name:lt":"Amasija","name:lv":"Amasja","name:mk":"Амасија","name:ml":"അമാസ്യ","name:no":"Amasya","name:os":"Амасья","name:pa":"ਅਮਾਸਿਆ","name:pl":"Amasya","name:pnt":"Αμάσεια","name:pt":"Amasia","name:ru":"Амасья","name:so":"Amaasiya","name:sq":"Amasia","name:sr":"Амасија","name:sv":"Amasya","name:tg":"Амосия","name:tr":"Amasya","name:tr:suffix":"İlçesi","name:tt":"Амасья","name:uk":"Амасья","name:ur":"اماسیا","name:zh":"阿馬西亞","network":"TR05-districts","population":"148908","population:date":"31-12-2023","type":"boundary","wikidata":"Q170532","wikipedia":"tr:Amasya"}}]},"id":"relation/14747078"},
{"type":"Feature","geometry":{"type":"Polygon","coordinates":[[[35.8085311,40.6555166],[35.7856679,40.647792],[35.8099961,40.6350785],[35.8086773,40.6364818],[35.8106017,40.6508852],[35.8085311,40.6555166]]]},"properties":{"@id":"relation/14747079","admin_level":"8","boundary":"administrative","name":"Akbilek Mahallesi","type":"boundary","@relations":[{"role":"subarea","rel":1837141,"reltags":{"admin_level":"6","boundary":"administrative","name":"Amasya Merkez","name:ar":"أماصيا","name:bg":"Амасия","name:ce":"Амаси","name:de":"Amasya","name:el":"Αμάσεια","name:en":"Amasya","name:fa":"آماسیه","name:fr":"Amasya","name:grc":"Άμάσεια","name:he":"אמסיה","name:hu":"Amasya","name:hy":"Ամասիա","name:it":"Amasya","name:ja":"アマスィヤ","name:ka":"ამასია","name:ko":"아마시아","name:la":"Amasea","name:lt":"Amasija","name:lv":"Amasja","name:mk":"Амасија","name:ml":"അമാസ്യ","name:no":"Amasya","name:os":"Амасья","name:pa":"ਅਮਾਸਿਆ","name:pl":"Amasya","name:pnt":"Αμάσεια","name:pt":"Amasia","name:ru":"Амасья","name:so":"Amaasiya","name:sq":"Amasia","name:sr":"Амасија","name:sv":"Amasya","name:tg":"Амосия","name:tr":"Amasya","name:tr:suffix":"İlçesi","name:tt":"Амасья","name:uk":"Амасья","name:ur":"اماسیا","name:zh":"阿馬西亞","network":"TR05-districts","population":"148908","population:date":"31-12-2023","type":"boundary","wikidata":"Q170532","wikipedia":"tr:Amasya"}}]},"id":"relation/14747079"},
{"type":"Feature","geometry":{"type":"Polygon","coordinates":[[[35.7856679,40.647792],[35.8085311,40.6555166],[35.810312,40.6599443],[35.7856679,40.647792]]]},"properties":{"@id":"relation/14747080","admin_level":"8","boundary":"administrative","name":"Şeyhcui Mahallesi","type":"boundary","@relations":[{"role":"subarea","rel":1837141,"reltags":{"admin_level":"6","boundary":"administrative","name":"Amasya Merkez","name:ar":"أماصيا","name:bg":"Амасия","name:ce":"Амаси","name:de":"Amasya","name:el":"Αμάσεια","name:en":"Amasya","name:fa":"آماسیه","name:fr":"Amasya","name:grc":"Άμάσεια","name:he":"אמסיה","name:hu":"Amasya","name:hy":"Ամասիա","name:it":"Amasya","name:ja":"アマスィヤ","name:ka":"ამასია","name:ko":"아마시아","name:la":"Amasea","name:lt":"Amasija","name:lv":"Amasja","name:mk":"Амасија","name:ml":"അമാസ്യ","name:no":"Amasya","name:os":"Амасья","name:pa":"ਅਮਾਸਿਆ","name:pl":"Amasya","name:pnt":"Αμάσεια","name:pt":"Amasia","name:ru":"Амасья","name:so":"Amaasiya","name:sq":"Amasia","name:sr":"Амасија","name:sv":"Amasya","name:tg":"Амосия","name:tr":"Amasya","name:tr:suffix":"İlçesi","name:tt":"Амасья","name:uk":"Амасья","name:ur":"اماسیا","name:zh":"阿馬西亞","network":"TR05-districts","population":"148908","population:date":"31-12-2023","type":"boundary","wikidata":"Q170532","wikipedia":"tr:Amasya"}}]},"id":"relation/14747080"},
{"type":"Feature","geometry":{"type":"Polygon","coordinates":[[[35.4631591,40.8726408],[35.4649615,40.8729572],[35.4647577,40.8757885],[35.4616785,40.8747724],[35.4631591,40.8726408]]]},"properties":{"@id":"relation/18008340","admin_level":"8","boundary":"administrative","name":"Hocasüleyman Mahallesi","type":"boundary","@relations":[{"role":"subarea","rel":1837143,"reltags":{"admin_level":"6","boundary":"administrative","name":"Merzifon","name:ar":"مرزيفون","name:az":"Mərzifon","name:ce":"Мерзифон","name:de":"Merzifon","name:el":"Μερζιφούντα","name:en":"Merzifon","name:fa":"مرزیفون","name:hy":"Մարզվան","name:ka":"მერზიფონი","name:kk":"Мерзифон","name:ru":"Мерзифон","name:tr":"Merzifon","name:tr:suffix":"İlçesi","name:tt":"Мерзифон","name:ur":"مرزیفون","name:zh":"梅爾濟豐","network":"TR05-districts","population":"74727","population:date":"31-12-2021","type":"boundary","wikidata":"Q958135","wikipedia":"tr:Merzifon"}}]},"id":"relation/18008340"},
{"type":"Feature","geometry":{"type":"Polygon","coordinates":[[[35.4616785,40.8747724],[35.458256,40.8740038],[35.4583418,40.8721135],[35.4631591,40.8726408],[35.4616785,40.8747724]]]},"properties":{"@id":"relation/18014760","admin_level":"8","boundary":"administrative","name":"Camicedit Mahallesi","type":"boundary","@relations":[{"role":"subarea","rel":1837143,"reltags":{"admin_level":"6","boundary":"administrative","name":"Merzifon","name:ar":"مرزيفون","name:az":"Mərzifon","name:ce":"Мерзифон","name:de":"Merzifon","name:el":"Μερζιφούντα","name:en":"Merzifon","name:fa":"مرزیفون","name:hy":"Մարզվան","name:ka":"მერზიფონი","name:kk":"Мерзифон","name:ru":"Мерзифон","name:tr":"Merzifon","name:tr:suffix":"İlçesi","name:tt":"Мерзифон","name:ur":"مرزیفون","name:zh":"梅爾濟豐","network":"TR05-districts","population":"74727","population:date":"31-12-2021","type":"boundary","wikidata":"Q958135","wikipedia":"tr:Merzifon"}}]},"id":"relation/18014760"}
]}