{"type":"FeatureCollection", "features": [
{"type":"Feature","geometry":{"type":"Polygon","coordinates":[[[43.0528134,40.9628208],[43.0783397,40.9750708],[43.1048806,40.975699],[43.1500589,40.9684638],[43.2055322,40.984555],[43.2306865,41.0021978],[43.3141835,41.0795029],[43.3435739,41.0951827],[43.3616774,41.0964801],[43.4246991,41.0697983],[43.4506255,41.0417937],[43.4682566,41.0332775],[43.471514,41.0675026],[43.4471395,41.0988144],[43.4586328,41.1197223],[43.474145,41.123038],[43.44848,41.176399],[43.367357,41.203384],[43.329215,41.200549],[43.246875,41.177148],[43.231043,41.1919638],[43.19263,41.253229],[43.1471093,41.246284],[43.1322162,41.2557935],[43.212588,41.290319],[43.1884358,41.3040756],[43.132178,41.321121],[43.096154,41.357131],[43.03252,41.370816],[43.007889,41.397051],[42.9974662,41.369036],[43.047806,41.3312028],[43.0206085,41.3142212],[43.0159285,41.2805117],[43.0424377,41.2520099],[43.0779854,41.2042749],[43.09566,41.1731796],[43.0518302,41.1709372],[42.9939157,41.1539649],[42.9764546,41.1642739],[42.9377909,41.1675152],[42.9185501,41.1496079],[42.9244332,41.1081866],[42.936418,41.0938614],[42.9847704,41.086386],[43.0041941,41.063955],[43.0066737,41.038711],[43.023346,41.0002426],[43.0451626,40.9801309],[43.0528134,40.9628208]]]},"properties":{"@id":"relation/1649770","admin_level":"6","boundary":"administrative","name":"Çıldır","name:ce":"Чилдир","name:de":"Çıldır","name:el":"Τσιλντίρ","name:en":"Çıldır","name:fa":"چیلدیر","name:hy":"Զուրզունա","name:ka":"ჩილდირი","name:ku":"Çildar","name:ru":"Чилдыр","name:tr":"Çıldır","name:tr:suffix":"İlçesi","name:tt":"Чылдыр","name:uk":"Чилдир","name:ur":"چلدیر","name:zh":"彻尔德尔","network":"TR75-districts","type":"boundary","wikidata":"Q272985","wikipedia":"tr:Çıldır"},"id":"relation/1649770"},
{"type":"Feature","geometry":{"type":"Polygon","coordinates":[[[42.3724337,41.0149614],[42.3763413,40.9950234],[42.3626239,40.9553273],[42.3396562,40.9379257],[42.3499953,40.9211229],[42.3237255,40.8987571],[42.359526,40.8937155],[42.3571383,40.8566668],[42.3408664,40.8536961],[42.3324131,40.8292952],[42.3414321,40.8065167],[42.3603205,40.7923978],[42.3935602,40.7881762],[42.4343,40.8158538],[42.4448782,40.8292469],[42.4871842,40.8178093],[42.4982089,40.7918615],[42.5637741,40.7770556],[42.5807873,40.7316712],[42.5980134,40.7120855],[42.5991595,40.6934598],[42.6201865,40.6801472],[42.6182058,40.6447048],[42.6707411,40.6538197],[42.7478535,40.6933379],[42.7955735,40.7068358],[42.8514048,40.7313047],[42.8614301,40.809982],[42.8937926,40.8180681],[42.9064207,40.8832757],[42.8865523,40.8875493],[42.8314781,40.9362518],[42.8142475,40.9559185],[42.7583439,40.9750011],[42.6886522,40.9661854],[42.6716209,40.9886835],[42.6624869,41.0148793],[42.6297678,41.0100795],[42.6080478,41.0141155],[42.5508114,40.9917661],[42.5114679,41.0018282],[42.4802482,40.99884],[42.4260509,41.0138331],[42.3724337,41.0149614]]]},"properties":{"@id":"relation/1651532","admin_level":"6","boundary":"administrative","name":"Göle","name:az":"Gölə","name:ce":"Гоьле","name:de":"Göle","name:el":"Κιόλε","name:en":"Göle","name:fa":"گوله","name:hy":"Մերդենեկ","name:ka":"კოლა","name:ku":"Mêrdînik","name:ota":"مرده نيک","name:ru":"Гёле","name:tr":"Göle","name:tr:suffix":"İlçesi","name:tt":"Гөле","name:uk":"Ґьоле","name:ur":"گولے","name:zh":"格莱","network":"TR75-districts","old_name":"Mardenik;Merdenik;Kola","type":"boundary","wikidata":"Q1004454","wikipedia":"tr:Göle"},"id":"relation/1651532"},
{"type":"Feature","geometry":{"type":"Polygon","coordinates":[[[42.5701639,41.2600522],[42.6402799,41.2046428],[42.6937292,41.2044895],[42.720055,41.176894],[42.8039358,41.1799461],[42.8236164,41.1734818],[42.9026968,41.1636379],[42.9185501,41.1496079],[42.9377909,41.1675152],[42.9764546,41.1642739],[42.9939157,41.1539649],[43.0518302,41.1709372],[43.09566,41.1731796],[43.0779854,41.2042749],[43.0424377,41.2520099],[43.0159285,41.2805117],[43.0206085,41.3142212],[43.047806,41.3312028],[42.9974662,41.369036],[42.9337086,41.3388074],[42.9016061,41.3143317],[42.8419888,41.2971689],[42.8111328,41.2839431],[42.7884984,41.2892461],[42.7318736,41.3604344],[42.6405432,41.3716256],[42.6206871,41.387114],[42.5907201,41.3785504],[42.5515154,41.3764921],[42.5402772,41.3493345],[42.5921057,41.3088899],[42.5910757,41.2882553],[42.5701639,41.2600522]]]},"properties":{"@id":"relation/1651533","admin_level":"6","boundary":"administrative","name":"Hanak","name:ce":"ХӀанак","name:de":"Hanak","name:el":"Χανάκ","name:en":"Hanak","name:fa":"هاناک","name:hy":"Խանախ Մեծ","name:ka":"ჰანაქი","name:ku":"Xanek","name:ru":"Ханак","name:tr":"Hanak","name:tr:suffix":"İlçesi","name:tt":"Ханак","name:ur":"ہاناک","name:zh":"哈纳克","network":"TR75-districts","type":"boundary","wikidata":"Q1014299","wikipedia":"tr:Hanak"},"id":"relation/1651533"},
{"type":"Feature","geometry":{"type":"Polygon","coordinates":[[[42.9680632,41.4504466],[42.930326,41.47067],[42.89941,41.478982],[42.900942,41.5003],[42.877189,41.502974],[42.858424,41.473338],[42.828712,41.479915],[42.801563,41.496859],[42.799226,41.520945],[42.8293295,41.5577655],[42.8365871,41.5848074],[42.8257926,41.5925216],[42.794374,41.588498],[42.7746387,41.578535],[42.740135,41.596111],[42.684129,41.5998375],[42.6603274,41.5927009],[42.600945,41.584851],[42.573749,41.557961],[42.580754,41.543211],[42.564778,41.525278],[42.572898,41.509911],[42.532349,41.49064],[42.512774,41.472079],[42.520686,41.447188],[42.5152358,41.4028952],[42.5435255,41.3944534],[42.5515154,41.3764921],[42.5907201,41.3785504],[42.6206871,41.387114],[42.7189293,41.4170072],[42.7826014,41.4310453],[42.8016326,41.4197707],[42.8611523,41.4121072],[42.9079065,41.4221503],[42.956234,41.4070743],[43.007889,41.397051],[42.971365,41.430863],[42.9680632,41.4504466]]]},"properties":{"@id":"relation/1651534","admin_level":"6","boundary":"administrative","name":"Posof","name:ce":"Пософ","name:de":"Posof","name:en":"Posof","name:fa":"پوسوف","name:hy":"Դիգուր","name:ka":"პოსოფი","name:ku":"Duxur","name:ota":"پوسخو","name:ru":"Пософ","name:tr":"Posof","name:tr:suffix":"İlçesi","name:tt":"Пософ","name:ur":"پوسوف","name:zh":"波索夫","network":"TR75-districts","old_name":"Duğur;Diğviri;Poshov;Potshovi","type":"boundary","wikidata":"Q1004613","wikipedia":"tr:Posof"},"id":"relation/1651534"},
{"type":"Feature","geometry":{"type":"Polygon","coordinates":[[[42.9974662,41.369036],[43.007889,41.397051],[42.956234,41.4070743],[42.9079065,41.4221503],[42.8611523,41.4121072],[42.8016326,41.4197707],[42.7826014,41.4310453],[42.7189293,41.4170072],[42.6206871,41.387114],[42.6405432,41.3716256],[42.7318736,41.3604344],[42.7884984,41.2892461],[42.8111328,41.2839431],[42.8419888,41.2971689],[42.9016061,41.3143317],[42.9337086,41.3388074],[42.9974662,41.369036]]]},"properties":{"@id":"relation/1651535","admin_level":"6","boundary":"administrative","name":"Damal","name:ce":"Дамал","name:de":"Damal","name:en":"Damal","name:fa":"دامال","name:hy":"Դամալ","name:ka":"დამალი","name:ku":"Dêmal","name:ru":"Дамал","name:tr":"Damal","name:tr:suffix":"İlçesi","name:tt":"Дамал","name:ur":"دامال","network":"TR75-districts","type":"boundary","wikidata":"Q1025410","wikipedia":"tr:Damal"},"id":"relation/1651535"},
{"type":"Feature","geometry":{"type":"Polygon","coordinates":[[[42.9064207,40.8832757],[42.9503745,40.8772707],[42.9725773,40.9132992],[43.0144118,40.9476252],[43.0528134,40.9628208],[43.0451626,40.9801309],[43.023346,41.0002426],[43.0066737,41.038711],[43.0041941,41.063955],[42.9847704,41.086386],[42.936418,41.0938614],[42.9244332,41.1081866],[42.9185501,41.1496079],[42.9026968,41.1636379],[42.8236164,41.1734818],[42.8039358,41.1799461],[42.720055,41.176894],[42.6937292,41.2044895],[42.6402799,41.2046428],[42.5701639,41.2600522],[42.5539969,41.2490317],[42.5400923,41.2224392],[42.5016164,41.1722446],[42.3844015,41.1014395],[42.3579362,41.0787422],[42.3724337,41.0149614],[42.4260509,41.0138331],[42.4802482,40.99884],[42.5114679,41.0018282],[42.5508114,40.9917661],[42.6080478,41.0141155],[42.6297678,41.0100795],[42.6624869,41.0148793],[42.6716209,40.9886835],[42.6886522,40.9661854],[42.7583439,40.9750011],[42.8142475,40.9559185],[42.8314781,40.9362518],[42.8865523,40.8875493],[42.9064207,40.8832757]]]},"properties":{"@id":"relation/1651536","admin_level":"6","alt_name":"Ardahan merkez ilçesi;Ardahan ilçesi;Ardahan merkez","boundary":"administrative","name":"Ardahan Merkez","name:ar":"أرداهان","name:az":"Ərdəhan","name:bg":"Ардахан","name:ce":"АрдахӀан","name:de":"Ardahan","name:el":"Αρνταχάν","name:en":"Ardahan","name:fa":"اردهان","name:he":"ארדהאן","name:hy":"Արդահան","name:ja":"アルダハン","name:ka":"არტაანი","name:ko":"아르다한","name:ku":"Erdêxan","name:pt":"Ardaã","name:ru":"Ардахан","name:tg":"Ардаҳон","name:tr":"Ardahan Merkez","name:tr:suffix":"İlçesi","name:tt":"Ардахан","name:uk":"Ардахан","name:ur":"ارداہان","name:zh":"阿爾達漢","network":"TR75-districts","type":"boundary","wikidata":"Q202188","wikipedia":"tr:Ardahan"},"id":"relation/1651536"},
{"type":"Feature","geometry":{"type":"Polygon","coordinates":[[[42.9680632,41.4504466],[42.9992568,41.458617],[43.0258917,41.4484783],[43.0316273,41.4342323],[43.0774362,41.4254795],[43.0918279,41.4355852],[43.0855306,41.4547126],[43.0999774,41.4913031],[43.1284106,41.520118],[43.1388894,41.5505328],[43.1001428,41.5692865],[43.1175595,41.6109419],[43.1031991,41.6236218],[43.1406823,41.6319892],[43.1905066,41.6614778],[43.2126795,41.6823754],[43.2638961,41.6819974],[43.2760254,41.6926492],[43.2589655,41.7113915],[43.2023682,41.7368865],[43.2111335,41.7567982],[43.1966045,41.7763458],[43.1683699,41.7855925],[43.1452429,41.8150771],[43.1181638,41.8371252],[43.0690729,41.8316574],[42.9963257,41.8370025],[42.9757937,41.8304387],[42.9570039,41.8104212],[42.9632294,41.7835102],[42.9161188,41.7732854],[42.9051195,41.7137171],[42.91944,41.6931459],[42.9095874,41.6640151],[42.8833109,41.6607022],[42.8287645,41.6199194],[42.8257926,41.5925216],[42.8365871,41.5848074],[42.8293295,41.5577655],[42.799226,41.520945],[42.801563,41.496859],[42.828712,41.479915],[42.858424,41.473338],[42.877189,41.502974],[42.900942,41.5003],[42.89941,41.478982],[42.930326,41.47067],[42.9680632,41.4504466]]]},"properties":{"@id":"relation/2013748","admin_level":"6","boundary":"administrative","int_name":"Akhaltsikhis Munitsipaliteti","name":"ახალციხის მუნიციპალიტეტი","name:ar":"بلدية آخالتسيخه","name:ceb":"Akhaltsikhis Munitsip'alit'et'i","name:de":"Munizipalität Achalziche","name:en":"Akhaltsikhe Municipality","name:es":"Municipio de Ajaltsije","name:fa":"شهرداری آخالتسیخه","name:fi":"Akhaltsikhen piirikunta","name:fr":"Municipalité d'Akhaltsikhe","name:he":"נפת אחלציחה","name:hy":"Ախալցխայի մունիցիպալիտետ","name:it":"Municipalità di Akhaltsikhe","name:ka":"ახალციხის მუნიციპალიტეტი","name:os":"Ахалцихейы муниципалитет","name:ru":"Ахалцихский муниципалитет","name:tr":"Ahıska Belediyesi","name:uk":"Ахалціхський муніципалітет","name:uz":"Akhaltsikhe munitsipaliteti","name:xmf":"ახალციხეშ მუნიციპალიტეტი","name:zh":"阿哈爾齊赫市","type":"boundary","wikidata":"Q2513568","wikipedia":"ka:ახალციხის მუნიციპალიტეტი"},"id":"relation/2013748"},
{"type":"Feature","geometry":{"type":"Polygon","coordinates":[[[42.8412351,41.3400749],[42.8287742,41.344176],[42.8378623,41.3400828],[42.8412351,41.3400749]]]},"properties":{"@id":"relation/13740302","admin_level":"8","boundary":"administrative","name":"Konuk Sever Mahallesi","type":"boundary"},"id":"relation/13740302"},
{"type":"Feature","geometry":{"type":"Polygon","coordinates":[[[42.8412351,41.3400749],[42.8378623,41.3400828],[42.8287742,41.344176],[42.8259805,41.343021],[42.8230802,41.3377593],[42.8337354,41.3104124],[42.8412351,41.3400749]]]},"properties":{"@id":"relation/13740304","admin_level":"8","boundary":"administrative","name":"Çaybaşı Mahallesi","type":"boundary"},"id":"relation/13740304"},
{"type":"Feature","geometry":{"type":"Polygon","coordinates":[[[42.8051265,41.3800008],[42.7770036,41.3935481],[42.7773498,41.3819024],[42.7854482,41.3770246],[42.7894821,41.3731592],[42.7922781,41.3712841],[42.7924763,41.3703067],[42.7995617,41.3643304],[42.8259805,41.343021],[42.8287742,41.344176],[42.8339075,41.3767101],[42.8051265,41.3800008]]]},"properties":{"@id":"relation/13740617","admin_level":"8","boundary":"administrative","name":"Ata Mahallesi","type":"boundary"},"id":"relation/13740617"},
{"type":"Feature","geometry":{"type":"Polygon","coordinates":[[[42.8491682,41.3828551],[42.8339075,41.3767101],[42.8287742,41.344176],[42.8497222,41.3622127],[42.8491682,41.3828551]]]},"properties":{"@id":"relation/13741360","admin_level":"8","boundary":"administrative","name":"Kalender Mahallesi","type":"boundary"},"id":"relation/13741360"},
{"type":"Feature","geometry":{"type":"Polygon","coordinates":[[[42.8101882,41.3383364],[42.7756325,41.326485],[42.8162044,41.3065277],[42.8337354,41.3104124],[42.8230802,41.3377593],[42.8101882,41.3383364]]]},"properties":{"@id":"relation/13744784","admin_level":"8","boundary":"administrative","name":"Dereköy Köyü","type":"boundary"},"id":"relation/13744784"},
{"type":"Feature","geometry":{"type":"Polygon","coordinates":[[[42.7995617,41.3643304],[42.7971439,41.3631012],[42.7944634,41.3650713],[42.7925901,41.3655523],[42.7901376,41.3662691],[42.7942919,41.3553937],[42.7975239,41.3550885],[42.7985932,41.3543622],[42.8002029,41.3541209],[42.8004618,41.3540469],[42.801306,41.3537416],[42.8017188,41.3537092],[42.8022549,41.3530293],[42.8019961,41.3521226],[42.8024213,41.3512623],[42.8022118,41.3511836],[42.8017127,41.3507488],[42.8025692,41.3504898],[42.8013245,41.3429863],[42.8101882,41.3383364],[42.8230802,41.3377593],[42.8259805,41.343021],[42.7995617,41.3643304]]]},"properties":{"@id":"relation/13746049","admin_level":"8","boundary":"administrative","name":"Tepeköy Köyü","type":"boundary"},"id":"relation/13746049"},
{"type":"Feature","geometry":{"type":"Polygon","coordinates":[[[42.8101882,41.3383364],[42.7770036,41.3935481],[42.7773498,41.3819024],[42.7854482,41.3770246],[42.7894821,41.3731592],[42.7922781,41.3712841],[42.7924763,41.3703067],[42.7995617,41.3643304],[42.7971439,41.3631012],[42.7944634,41.3650713],[42.7925901,41.3655523],[42.7901376,41.3662691],[42.7942919,41.3553937],[42.7975239,41.3550885],[42.7985932,41.3543622],[42.8002029,41.3541209],[42.8004618,41.3540469],[42.801306,41.3537416],[42.8017188,41.3537092],[42.8022549,41.3530293],[42.8019961,41.3521226],[42.8024213,41.3512623],[42.8022118,41.3511836],[42.8017127,41.3507488],[42.8025692,41.3504898],[42.8013245,41.3429863],[42.8101882,41.3383364]]]},"properties":{"@id":"relation/13746050","admin_level":"8","boundary":"administrative","name":"Otağlı Köyü","type":"boundary"},"id":"relation/13746050"},
{"type":"Feature","geometry":{"type":"Polygon","coordinates":[[[42.8016326,41.4197707],[42.8051265,41.3800008],[42.8218168,41.3857888],[42.8016326,41.4197707]]]},"properties":{"@id":"relation/13748879","admin_level":"8","boundary":"administrative","name":"Seyitören Köyü","type":"boundary"},"id":"relation/13748879"},
{"type":"Feature","geometry":{"type":"Polygon","coordinates":[[[42.8491682,41.3828551],[42.8611523,41.4121072],[42.8016326,41.4197707],[42.8218168,41.3857888],[42.8051265,41.3800008],[42.8339075,41.3767101],[42.8491682,41.3828551]]]},"properties":{"@id":"relation/13748880","admin_level":"8","boundary":"administrative","name":"Mustafa Kemal Mahallesi","type":"boundary"},"id":"relation/13748880"},
{"type":"Feature","geometry":{"type":"Polygon","coordinates":[[[42.705574,41.0969146],[42.6992172,41.115112],[42.6946199,41.0970359],[42.705574,41.0969146]]]},"properties":{"@id":"relation/16738196","admin_level":"8","boundary":"administrative","name":"Karagöl Mahallesi","type":"boundary","@relations":[{"role":"subarea","rel":1651536,"reltags":{"admin_level":"6","alt_name":"Ardahan merkez ilçesi;Ardahan ilçesi;Ardahan merkez","boundary":"administrative","name":"Ardahan Merkez","name:ar":"أرداهان","name:az":"Ərdəhan","name:bg":"Ардахан","name:ce":"АрдахӀан","name:de":"Ardahan","name:el":"Αρνταχάν","name:en":"Ardahan","name:fa":"اردهان","name:he":"ארדהאן","name:hy":"Արդահան","name:ja":"アルダハン","name:ka":"არტაანი","name:ko":"아르다한","name:ku":"Erdêxan","name:pt":"Ardaã","name:ru":"Ардахан","name:tg":"Ардаҳон","name:tr":"Ardahan Merkez","name:tr:suffix":"İlçesi","name:tt":"Ардахан","name:uk":"Ардахан","name:ur":"ارداہان","name:zh":"阿爾達漢","network":"TR75-districts","type":"boundary","wikidata":"Q202188","wikipedia":"tr:Ardahan"}}]},"id":"relation/16738196"}
]}