{"type":"FeatureCollection", "features": [
{"type":"Feature","geometry":{"type":"Polygon","coordinates":[[[41.4296025,41.1163268],[41.4171714,41.0867724],[41.3855463,41.0902762],[41.3583714,41.0769535],[41.3514145,41.056157],[41.3202872,41.0288452],[41.2979506,40.994152],[41.2697124,40.9849521],[41.238629,40.9616231],[41.2166949,40.9314495],[41.2175696,40.9133109],[41.2020167,40.8805106],[41.1748266,40.8646209],[41.1698484,40.844236],[41.1470604,40.8302096],[41.1627163,40.8093387],[41.2180492,40.8384253],[41.2319639,40.8272493],[41.2177633,40.8042171],[41.2316072,40.7694119],[41.2575165,40.7591582],[41.2918711,40.7642695],[41.3484913,40.7414022],[41.3782151,40.7138595],[41.3408264,40.6899774],[41.2910122,40.681883],[41.2969016,40.6593624],[41.3192319,40.6493632],[41.3122088,40.6094202],[41.3221581,40.5726782],[41.3580557,40.5620731],[41.4026305,40.571308],[41.4312523,40.5865287],[41.4408901,40.6064787],[41.5058002,40.6461748],[41.5446233,40.6622536],[41.5758837,40.6891771],[41.6324976,40.7023804],[41.6852654,40.7066264],[41.6887488,40.7284073],[41.7318434,40.7213421],[41.7281029,40.6880303],[41.7648596,40.662469],[41.8068035,40.6842902],[41.8058201,40.711744],[41.8192032,40.7507884],[41.8443624,40.7594339],[41.8735126,40.8059189],[41.8691949,40.8341997],[41.8363237,40.8595008],[41.8495999,40.8946649],[41.9146135,40.9360831],[41.8842494,40.9538381],[41.8647773,40.9468717],[41.8133299,40.9573984],[41.812715,40.9999527],[41.7249367,41.0436795],[41.6818597,41.0548169],[41.6087703,41.0516472],[41.531043,41.0970234],[41.5150624,41.1240264],[41.4831732,41.0987582],[41.4296025,41.1163268]]]},"properties":{"@id":"relation/1385155","admin_level":"6","boundary":"administrative","name":"Yusufeli","name:de":"Yusufeli","name:en":"Yusufeli","name:hy":"Բերդագրակ","name:ka":"იუსუფელი","name:ru":"Юсуфели","name:tr":"Yusufeli","name:tr:suffix":"İlçesi","name:uk":"Юсуфелі ільче","network":"TR08-districts","old_name":"Perterek;Pertarek","population":"19510","population:date":"31-12-2023","type":"boundary","wikidata":"Q1027153","wikipedia":"tr:Yusufeli"},"id":"relation/1385155"},
{"type":"Feature","geometry":{"type":"Polygon","coordinates":[[[41.4706561,41.4540671],[41.4239441,41.3999905],[41.4007515,41.381242],[41.3375566,41.3699133],[41.3730189,41.3349577],[41.4357246,41.3481603],[41.4663504,41.3408605],[41.4865708,41.3168316],[41.5009757,41.3265651],[41.5411604,41.3277405],[41.5293263,41.3804117],[41.5385516,41.4222473],[41.4915982,41.4350587],[41.4706561,41.4540671]]]},"properties":{"@id":"relation/1596278","admin_level":"6","boundary":"administrative","name":"Hopa","name:bg":"Хопа","name:ce":"ХӀора","name:de":"Hopa","name:el":"Χόπα","name:en":"Hopa","name:fa":"هوپا","name:hy":"Հոպա","name:ja":"ホパ","name:ka":"ხოფა","name:ru":"Хопа","name:tr":"Hopa","name:tr:suffix":"İlçesi","name:tt":"Хопа","name:ur":"ہوپا","name:zh":"霍帕","network":"TR08-districts","population":"28136","population:date":"31-12-2021","type":"boundary","wikidata":"Q657127","wikipedia":"tr:Hopa"},"id":"relation/1596278"},
{"type":"Feature","geometry":{"type":"Polygon","coordinates":[[[42.1795948,41.2589252],[42.1503782,41.2302179],[42.1319675,41.2428363],[42.0578956,41.224634],[42.0144009,41.202945],[41.9939828,41.1961123],[41.9667434,41.1599816],[41.9189912,41.1397898],[41.9344604,41.1244026],[41.9472924,41.0854825],[41.9270329,41.0624647],[41.9501928,40.9942313],[41.9738829,40.9710087],[42.0111636,40.9749013],[42.0314981,40.9651982],[42.0777323,40.9717555],[42.1347813,40.9586139],[42.2196832,40.9671815],[42.2400335,40.9386924],[42.2771729,40.9228176],[42.3396562,40.9379257],[42.3626239,40.9553273],[42.3763413,40.9950234],[42.3579362,41.0787422],[42.3696259,41.0896188],[42.2755769,41.1226856],[42.2457158,41.1482194],[42.2459403,41.1822543],[42.1958255,41.2268935],[42.1795948,41.2589252]]]},"properties":{"@id":"relation/1838462","admin_level":"6","boundary":"administrative","name":"Ardanuç","name:ca":"Artanudj","name:ce":"Ардануч","name:de":"Ardanuç","name:en":"Ardanuç","name:fa":"آردانوچ","name:hy":"Արտանուջ","name:ka":"არტანუჯი","name:ru":"Ардануч","name:tr":"Ardanuç","name:tr:suffix":"İlçesi","name:ur":"اردانوچ","network":"TR08-districts","population":"11198","population:date":"31-12-2021","type":"boundary","wikidata":"Q638539","wikipedia":"tr:Ardanuç"},"id":"relation/1838462"},
{"type":"Feature","geometry":{"type":"Polygon","coordinates":[[[41.5150624,41.1240264],[41.5255036,41.18762],[41.5251258,41.2276886],[41.4896963,41.2447725],[41.4688122,41.2643774],[41.4865708,41.3168316],[41.4663504,41.3408605],[41.4357246,41.3481603],[41.3730189,41.3349577],[41.3375566,41.3699133],[41.2584226,41.3377325],[41.2482648,41.325614],[41.2891331,41.2726324],[41.2912203,41.2483217],[41.323444,41.2358295],[41.3537898,41.1821628],[41.3738445,41.1690446],[41.3819336,41.1401178],[41.4296025,41.1163268],[41.4831732,41.0987582],[41.5150624,41.1240264]]]},"properties":{"@id":"relation/1838463","admin_level":"6","boundary":"administrative","name":"Arhavi","name:ab":"Архави","name:bg":"Архави","name:ce":"АрхӀиви","name:de":"Arhavi","name:en":"Arhavi","name:fa":"آرهاوی","name:hy":"Արհավի","name:ka":"არჰავი","name:tr":"Arhavi","name:tr:suffix":"İlçesi","name:tt":"Архави","name:ur":"آرہاوی","name:zh":"阿爾哈維","network":"TR08-districts","population":"21661","population:date":"31-12-2021","type":"boundary","wikidata":"Q653312","wikipedia":"tr:Arhavi"},"id":"relation/1838463"},
{"type":"Feature","geometry":{"type":"Polygon","coordinates":[[[41.9939828,41.1961123],[42.0144009,41.202945],[42.0578956,41.224634],[42.1319675,41.2428363],[42.1503782,41.2302179],[42.1795948,41.2589252],[42.1620823,41.2696418],[42.1593914,41.2960308],[42.1307113,41.3385169],[42.0870332,41.3617705],[42.0673968,41.3563833],[42.017684,41.3139185],[41.9962277,41.322433],[41.9637117,41.3159957],[41.9103908,41.2713366],[41.8830649,41.2772487],[41.8632453,41.2678708],[41.8337059,41.2894806],[41.7795063,41.2967979],[41.7594868,41.2901995],[41.7281354,41.2977912],[41.7128951,41.2795481],[41.6796551,41.2676248],[41.6771428,41.2301121],[41.6522014,41.2160108],[41.5842789,41.2108173],[41.5691698,41.1846693],[41.5686032,41.1387429],[41.5576491,41.1235218],[41.5150624,41.1240264],[41.531043,41.0970234],[41.6087703,41.0516472],[41.6818597,41.0548169],[41.7249367,41.0436795],[41.812715,40.9999527],[41.8133299,40.9573984],[41.8647773,40.9468717],[41.8842494,40.9538381],[41.9146135,40.9360831],[41.9307785,40.9338864],[41.9473987,40.9625275],[41.9738829,40.9710087],[41.9501928,40.9942313],[41.9270329,41.0624647],[41.9472924,41.0854825],[41.9344604,41.1244026],[41.9189912,41.1397898],[41.9667434,41.1599816],[41.9939828,41.1961123]]]},"properties":{"@id":"relation/1838464","admin_level":"6","boundary":"administrative","name":"Artvin Merkez","name:ab":"Арҭвин","name:ar":"أرتوين","name:av":"Артвин","name:bg":"Артвин","name:ce":"Артвин","name:el":"Αρτβίν","name:fa":"آرتوین","name:hy":"Արդվին","name:ja":"アルトヴィン","name:ka":"ართვინი","name:ko":"아르트빈","name:os":"Артвин","name:ru":"Артвин","name:tg":"Ортвин","name:tr":"Artvin Merkez","name:tr:suffix":"İlçesi","name:tt":"Артвин","name:uk":"Артвін","name:ur":"آرتوین","name:zh":"阿爾特溫","network":"TR08-districts","population":"34537","population:date":"31-12-2021","type":"boundary","wikidata":"Q193445","wikipedia":"tr:Artvin"},"id":"relation/1838464"},
{"type":"Feature","geometry":{"type":"Polygon","coordinates":[[[42.103065,41.506924],[42.08479,41.510166],[42.042902,41.494141],[41.99448,41.504775],[41.984769,41.521973],[41.955316,41.5233],[41.911428,41.499309],[41.881394,41.460353],[41.847343,41.448603],[41.823994,41.43136],[41.805968,41.445791],[41.746889,41.471383],[41.710354,41.473653],[41.7097151,41.4956213],[41.665694,41.482557],[41.628188,41.492243],[41.5893545,41.4721875],[41.5826247,41.438895],[41.5385516,41.4222473],[41.5293263,41.3804117],[41.5411604,41.3277405],[41.5792178,41.3248771],[41.6255638,41.3326486],[41.6669068,41.3113917],[41.6796551,41.2676248],[41.7128951,41.2795481],[41.7281354,41.2977912],[41.7594868,41.2901995],[41.7795063,41.2967979],[41.8337059,41.2894806],[41.8632453,41.2678708],[41.8830649,41.2772487],[41.9103908,41.2713366],[41.9637117,41.3159957],[41.9962277,41.322433],[42.017684,41.3139185],[42.0673968,41.3563833],[42.0870332,41.3617705],[42.115444,41.4054064],[42.1203834,41.4389094],[42.1156685,41.4803014],[42.103065,41.506924]]]},"properties":{"@id":"relation/1838465","admin_level":"6","boundary":"administrative","name":"Borçka","name:ce":"Борчка","name:de":"Borçka","name:en":"Borçka","name:fa":"بورچکا","name:hy":"Բորչքա","name:ka":"ბორჩხა","name:ru":"Борчка","name:tr":"Borçka","name:tr:suffix":"İlçesi","name:tt":"Борчка","name:ur":"بورچکا","name:zh":"博爾奇卡","network":"TR08-districts","population":"22030","population:date":"31-12-2021","type":"boundary","wikidata":"Q894325","wikipedia":"tr:Borçka"},"id":"relation/1838465"},
{"type":"Feature","geometry":{"type":"Polygon","coordinates":[[[41.6796551,41.2676248],[41.6669068,41.3113917],[41.6255638,41.3326486],[41.5792178,41.3248771],[41.5411604,41.3277405],[41.5009757,41.3265651],[41.4865708,41.3168316],[41.4688122,41.2643774],[41.4896963,41.2447725],[41.5251258,41.2276886],[41.5255036,41.18762],[41.5150624,41.1240264],[41.5576491,41.1235218],[41.5686032,41.1387429],[41.5691698,41.1846693],[41.5842789,41.2108173],[41.6522014,41.2160108],[41.6771428,41.2301121],[41.6796551,41.2676248]]]},"properties":{"@id":"relation/1838466","admin_level":"6","boundary":"administrative","name":"Murgul","name:ce":"Мургул","name:de":"Murgul","name:en":"Murgul","name:fa":"مورگل","name:ka":"მურღული","name:tr":"Murgul","name:tr:suffix":"İlçesi","name:tt":"Мургул","name:ur":"مورگل","network":"TR08-districts","old_name":"Göktaş","population":"6522","population:date":"31-12-2021","type":"boundary","wikidata":"Q1029774","wikipedia":"tr:Murgul"},"id":"relation/1838466"},
{"type":"Feature","geometry":{"type":"Polygon","coordinates":[[[42.3696259,41.0896188],[42.3844015,41.1014395],[42.5016164,41.1722446],[42.5400923,41.2224392],[42.5539969,41.2490317],[42.5910757,41.2882553],[42.5921057,41.3088899],[42.5402772,41.3493345],[42.549362,41.3878855],[42.5152358,41.4028952],[42.520234,41.436706],[42.472873,41.435623],[42.439242,41.44163],[42.399614,41.466751],[42.384983,41.463172],[42.317421,41.479057],[42.274307,41.494226],[42.225908,41.498785],[42.202849,41.491823],[42.17823,41.514602],[42.159163,41.506769],[42.103065,41.506924],[42.1156685,41.4803014],[42.1203834,41.4389094],[42.115444,41.4054064],[42.0870332,41.3617705],[42.1307113,41.3385169],[42.1593914,41.2960308],[42.1620823,41.2696418],[42.1795948,41.2589252],[42.1958255,41.2268935],[42.2459403,41.1822543],[42.2457158,41.1482194],[42.2755769,41.1226856],[42.3696259,41.0896188]]]},"properties":{"@id":"relation/1838467","admin_level":"6","boundary":"administrative","name":"Şavşat","name:ar":"شفشات","name:ce":"Шавшат","name:de":"Şavşat","name:en":"Şavşat","name:fa":"شاوشات","name:hy":"Շավշատ","name:ka":"შავშეთი","name:ru":"Шавшат","name:tr":"Şavşat","name:tr:suffix":"İlçesi","name:tt":"Шавшат","name:uk":"Шавшат","name:ur":"شاوشات","network":"TR08-districts","population":"16975","population:date":"31-12-2021","type":"boundary","wikidata":"Q388603","wikipedia":"tr:Şavşat"},"id":"relation/1838467"},
{"type":"Feature","geometry":{"type":"Polygon","coordinates":[[[41.628188,41.492243],[41.5476607,41.5205358],[41.5219138,41.4823696],[41.4706561,41.4540671],[41.4915982,41.4350587],[41.5385516,41.4222473],[41.5826247,41.438895],[41.5893545,41.4721875],[41.628188,41.492243]]]},"properties":{"@id":"relation/8101358","admin_level":"6","alt_name":"Kemalpaşa ilçesi,Kemalpaşa District","boundary":"administrative","name":"Kemalpaşa","name:ce":"Кемалпаша","name:de":"Kemalpaşa","name:en":"Kemalpaşa","name:fa":"کمال‌پاشا","name:ka":"ქემალფაშა","name:tr":"Kemalpaşa","name:tr:suffix":"İlçesi","name:tt":"Кемалпаша","network":"TR08-districts","population":"8974","population:date":"31-12-2021","type":"boundary","wikidata":"Q4817429","wikipedia":"tr:Kemalpaşa, Artvin"},"id":"relation/8101358"},
{"type":"Feature","geometry":{"type":"Polygon","coordinates":[[[42.0799336,41.1229623],[42.0694026,41.1324313],[42.0745281,41.1110609],[42.0799336,41.1229623]]]},"properties":{"@id":"relation/13769222","admin_level":"8","boundary":"administrative","name":"Merkez Mahallesi","type":"boundary","@relations":[{"role":"subarea","rel":1838462,"reltags":{"admin_level":"6","boundary":"administrative","name":"Ardanuç","name:ca":"Artanudj","name:ce":"Ардануч","name:de":"Ardanuç","name:en":"Ardanuç","name:fa":"آردانوچ","name:hy":"Արտանուջ","name:ka":"არტანუჯი","name:ru":"Ардануч","name:tr":"Ardanuç","name:tr:suffix":"İlçesi","name:ur":"اردانوچ","network":"TR08-districts","population":"11198","population:date":"31-12-2021","type":"boundary","wikidata":"Q638539","wikipedia":"tr:Ardanuç"}}]},"id":"relation/13769222"},
{"type":"Feature","geometry":{"type":"Polygon","coordinates":[[[42.1089808,41.1102477],[42.1274634,41.1275384],[42.0964676,41.1197312],[42.1089808,41.1102477]]]},"properties":{"@id":"relation/13776846","admin_level":"8","boundary":"administrative","name":"Boyalı Köyü","type":"boundary","@relations":[{"role":"subarea","rel":1838462,"reltags":{"admin_level":"6","boundary":"administrative","name":"Ardanuç","name:ca":"Artanudj","name:ce":"Ардануч","name:de":"Ardanuç","name:en":"Ardanuç","name:fa":"آردانوچ","name:hy":"Արտանուջ","name:ka":"არტანუჯი","name:ru":"Ардануч","name:tr":"Ardanuç","name:tr:suffix":"İlçesi","name:ur":"اردانوچ","network":"TR08-districts","population":"11198","population:date":"31-12-2021","type":"boundary","wikidata":"Q638539","wikipedia":"tr:Ardanuç"}}]},"id":"relation/13776846"},
{"type":"Feature","geometry":{"type":"Polygon","coordinates":[[[42.0694026,41.1324313],[42.0799336,41.1229623],[42.0964676,41.1197312],[42.1274634,41.1275384],[42.0694026,41.1324313]]]},"properties":{"@id":"relation/13778741","admin_level":"8","boundary":"administrative","name":"Kızılcık Köyü","type":"boundary","@relations":[{"role":"subarea","rel":1838462,"reltags":{"admin_level":"6","boundary":"administrative","name":"Ardanuç","name:ca":"Artanudj","name:ce":"Ардануч","name:de":"Ardanuç","name:en":"Ardanuç","name:fa":"آردانوچ","name:hy":"Արտանուջ","name:ka":"არტანუჯი","name:ru":"Ардануч","name:tr":"Ardanuç","name:tr:suffix":"İlçesi","name:ur":"اردانوچ","network":"TR08-districts","population":"11198","population:date":"31-12-2021","type":"boundary","wikidata":"Q638539","wikipedia":"tr:Ardanuç"}}]},"id":"relation/13778741"},
{"type":"Feature","geometry":{"type":"Polygon","coordinates":[[[42.1089808,41.1102477],[42.0964676,41.1197312],[42.0799336,41.1229623],[42.0745281,41.1110609],[42.1089808,41.1102477]]]},"properties":{"@id":"relation/13800355","admin_level":"8","boundary":"administrative","name":"Harmanlı Köyü","type":"boundary","@relations":[{"role":"subarea","rel":1838462,"reltags":{"admin_level":"6","boundary":"administrative","name":"Ardanuç","name:ca":"Artanudj","name:ce":"Ардануч","name:de":"Ardanuç","name:en":"Ardanuç","name:fa":"آردانوچ","name:hy":"Արտանուջ","name:ka":"არტანუჯი","name:ru":"Ардануч","name:tr":"Ardanuç","name:tr:suffix":"İlçesi","name:ur":"اردانوچ","network":"TR08-districts","population":"11198","population:date":"31-12-2021","type":"boundary","wikidata":"Q638539","wikipedia":"tr:Ardanuç"}}]},"id":"relation/13800355"},
{"type":"Feature","geometry":{"type":"Polygon","coordinates":[[[41.8105101,41.1850169],[41.8174195,41.1870758],[41.8358087,41.183838],[41.828556,41.1961909],[41.8105101,41.1850169]]]},"properties":{"@id":"relation/14250062","admin_level":"8","boundary":"administrative","name":"Çayağzı Mahallesi","type":"boundary","@relations":[{"role":"subarea","rel":1838464,"reltags":{"admin_level":"6","boundary":"administrative","name":"Artvin Merkez","name:ab":"Арҭвин","name:ar":"أرتوين","name:av":"Артвин","name:bg":"Артвин","name:ce":"Артвин","name:el":"Αρτβίν","name:fa":"آرتوین","name:hy":"Արդվին","name:ja":"アルトヴィン","name:ka":"ართვინი","name:ko":"아르트빈","name:os":"Артвин","name:ru":"Артвин","name:tg":"Ортвин","name:tr":"Artvin Merkez","name:tr:suffix":"İlçesi","name:tt":"Артвин","name:uk":"Артвін","name:ur":"آرتوین","name:zh":"阿爾特溫","network":"TR08-districts","population":"34537","population:date":"31-12-2021","type":"boundary","wikidata":"Q193445","wikipedia":"tr:Artvin"}}]},"id":"relation/14250062"},
{"type":"Feature","geometry":{"type":"Polygon","coordinates":[[[41.8174195,41.1870758],[41.8105101,41.1850169],[41.8144101,41.1779514],[41.8237603,41.1811815],[41.8174195,41.1870758]]]},"properties":{"@id":"relation/14250063","admin_level":"8","boundary":"administrative","name":"Çarşı Mahallesi","type":"boundary","@relations":[{"role":"subarea","rel":1838464,"reltags":{"admin_level":"6","boundary":"administrative","name":"Artvin Merkez","name:ab":"Арҭвин","name:ar":"أرتوين","name:av":"Артвин","name:bg":"Артвин","name:ce":"Артвин","name:el":"Αρτβίν","name:fa":"آرتوین","name:hy":"Արդվին","name:ja":"アルトヴィン","name:ka":"ართვინი","name:ko":"아르트빈","name:os":"Артвин","name:ru":"Артвин","name:tg":"Ортвин","name:tr":"Artvin Merkez","name:tr:suffix":"İlçesi","name:tt":"Артвин","name:uk":"Артвін","name:ur":"آرتوین","name:zh":"阿爾特溫","network":"TR08-districts","population":"34537","population:date":"31-12-2021","type":"boundary","wikidata":"Q193445","wikipedia":"tr:Artvin"}}]},"id":"relation/14250063"},
{"type":"Feature","geometry":{"type":"Polygon","coordinates":[[[41.9293135,41.2402084],[41.9267893,41.2213637],[41.9875683,41.2054348],[41.9939828,41.1961123],[42.0144009,41.202945],[42.0108738,41.2128108],[41.9722549,41.233801],[41.9293135,41.2402084]]]},"properties":{"@id":"relation/18675221","admin_level":"8","boundary":"administrative","name":"Sakalar Mahallesi","type":"boundary"},"id":"relation/18675221"},
{"type":"Feature","geometry":{"type":"Polygon","coordinates":[[[42.017684,41.3139185],[41.9962277,41.322433],[41.9637117,41.3159957],[41.9103908,41.2713366],[41.9293135,41.2402084],[41.9722549,41.233801],[42.0108738,41.2128108],[42.030913,41.2839732],[42.017684,41.3139185]]]},"properties":{"@id":"relation/18676334","admin_level":"8","boundary":"administrative","name":"Ortaköy Köyü","type":"boundary"},"id":"relation/18676334"},
{"type":"Feature","geometry":{"type":"Polygon","coordinates":[[[41.8831371,41.1685933],[41.8956424,41.1868755],[41.9296202,41.1948049],[41.9207099,41.2132569],[41.8724863,41.2009882],[41.8669748,41.1800246],[41.8831371,41.1685933]]]},"properties":{"@id":"relation/18722962","admin_level":"8","boundary":"administrative","name":"Salkımlı Köyü","type":"boundary"},"id":"relation/18722962"}
]}