{"type":"FeatureCollection", "features": [
{"type":"Feature","geometry":{"type":"Polygon","coordinates":[[[41.7286096,37.6827811],[41.7463353,37.6769903],[41.7547514,37.6680995],[41.7658276,37.667992],[41.7899146,37.685219],[41.7984763,37.6829096],[41.8137637,37.6938255],[41.8219157,37.7094684],[41.8173825,37.7145802],[41.7904464,37.7119521],[41.7731363,37.7180474],[41.7773661,37.7318915],[41.7596801,37.7293235],[41.735931,37.7309408],[41.7184297,37.7254968],[41.7211267,37.7108792],[41.7023787,37.7155508],[41.695898,37.7280965],[41.6826803,37.7293505],[41.6646905,37.7428431],[41.651273,37.7414463],[41.634823,37.7479899],[41.630594,37.7367096],[41.6201107,37.7317363],[41.6057294,37.7337837],[41.5384016,37.7290732],[41.5237404,37.7254471],[41.5065898,37.7309749],[41.4621517,37.7325173],[41.4539054,37.7287443],[41.433147,37.723834],[41.4281743,37.7377378],[41.4173542,37.7386349],[41.4068528,37.7392902],[41.411875,37.7247115],[41.4201686,37.715646],[41.3963531,37.7169551],[41.3811356,37.713713],[41.3562091,37.725949],[41.3341239,37.7200438],[41.2988018,37.7270003],[41.3027464,37.7336191],[41.2616991,37.7354103],[41.2383042,37.7320088],[41.2238236,37.7399762],[41.2114413,37.7284355],[41.2238212,37.7121924],[41.2463032,37.6976818],[41.2689457,37.6889719],[41.3414485,37.6753879],[41.3660298,37.6554518],[41.4054281,37.6569806],[41.4390658,37.663707],[41.4581035,37.674519],[41.45465,37.6834464],[41.4636106,37.6981137],[41.485227,37.7033506],[41.4958666,37.7156256],[41.5166376,37.7079257],[41.511963,37.6876588],[41.5180723,37.6533371],[41.5370114,37.643916],[41.5596004,37.6445948],[41.5699732,37.637196],[41.5989595,37.6283539],[41.6202,37.6460458],[41.6213873,37.6623213],[41.6492025,37.6728938],[41.6815001,37.6694293],[41.7286096,37.6827811]]]},"properties":{"@id":"relation/1361162","admin_level":"6","boundary":"administrative","name":"Hasankeyf","name:ar":"حصن كيفا","name:ce":"ХӀасанкейф","name:de":"Hasankeyf","name:el":"Κίφας","name:en":"Hasankeyf","name:fa":"حصن کیفا","name:hy":"Հասանքեյֆ","name:ko":"하산케이프","name:ku":"Heskîf","name:ru":"Хасанкейф","name:tr":"Hasankeyf","name:tr:suffix":"İlçesi","name:tt":"Хасанкейф","name:uk":"Хасанкейф","name:ur":"حصن کیفا","name:zh":"哈桑凱伊夫","network":"TR72-districts","population":"7319","population:date":"2022","type":"boundary","wikidata":"Q756957","wikipedia":"ku:Heskîf","wikipedia:tr":"Hasankeyf"},"id":"relation/1361162"},
{"type":"Feature","geometry":{"type":"Polygon","coordinates":[[[41.4068528,37.7392902],[41.4173542,37.7386349],[41.4281743,37.7377378],[41.433147,37.723834],[41.4539054,37.7287443],[41.4399096,37.737263],[41.421188,37.7404611],[41.37739,37.75625],[41.35604,37.7576],[41.34488,37.76996],[41.34558,37.79528],[41.34128,37.80526],[41.3030342,37.8084959],[41.3034933,37.8223484],[41.2888056,37.8236904],[41.280389,37.8336607],[41.2844157,37.8486267],[41.2713961,37.8575569],[41.2479212,37.8543755],[41.2423679,37.8628182],[41.2257225,37.8707484],[41.216949,37.8682302],[41.2170747,37.8866539],[41.2124827,37.9019723],[41.2073819,37.9072662],[41.2175685,37.9179706],[41.2423895,37.928256],[41.2267925,37.9487403],[41.2184562,37.9718506],[41.2198008,37.9811774],[41.240776,38.0021585],[41.2431962,38.0341485],[41.2372261,38.0413796],[41.2627549,38.0493984],[41.2581415,38.0564789],[41.2329775,38.0712054],[41.2286749,38.0775561],[41.2088225,38.0816432],[41.1964054,38.0687708],[41.1823364,38.0691361],[41.1733142,38.0356123],[41.1646952,38.0322939],[41.1625171,38.0185406],[41.1528445,38.016008],[41.1468008,38.0020324],[41.1550434,37.9913683],[41.1374182,37.9858947],[41.122595,37.9751325],[41.1004339,37.9761587],[41.0826404,37.9731613],[41.0920093,37.9579163],[41.0819357,37.9479739],[41.0720558,37.9542759],[41.0357452,37.9607129],[41.0315634,37.9433272],[41.0329457,37.9273115],[41.0304288,37.9067],[41.0194537,37.899923],[41.0170492,37.8852033],[41.0300437,37.8767745],[41.0101426,37.8622132],[40.997853,37.8422092],[41.0023792,37.8317846],[40.9877057,37.8039376],[41.0127539,37.7878132],[41.0203125,37.7971316],[41.0309219,37.7919844],[41.0181004,37.7792715],[41.027959,37.7735444],[41.0382288,37.7818268],[41.0633146,37.7685812],[41.0805358,37.7775741],[41.1109297,37.7726119],[41.1144259,37.759304],[41.128204,37.7555876],[41.1602362,37.7577363],[41.1685584,37.7509412],[41.1709676,37.7376906],[41.2016666,37.7415949],[41.2114413,37.7284355],[41.2238236,37.7399762],[41.2383042,37.7320088],[41.2616991,37.7354103],[41.3027464,37.7336191],[41.2988018,37.7270003],[41.3341239,37.7200438],[41.3562091,37.725949],[41.3811356,37.713713],[41.3963531,37.7169551],[41.4201686,37.715646],[41.411875,37.7247115],[41.4068528,37.7392902]]]},"properties":{"@id":"relation/1842145","admin_level":"6","alt_name":"Batman","boundary":"administrative","name":"Batman Merkez","name:ar":"بطمان","name:de":"Batman","name:en":"Batman","name:ku":"Êlih (navend)","name:tr":"Batman Merkez","name:tr:suffix":"İlçesi","network":"TR72-districts","population":"477456","population:date":"2021","type":"boundary","wikidata":"Q159835","wikipedia":"tr:Batman"},"id":"relation/1842145"},
{"type":"Feature","geometry":{"type":"Polygon","coordinates":[[[41.6646905,37.7428431],[41.6732139,37.7467585],[41.6800692,37.7627692],[41.6823812,37.7876076],[41.6949548,37.8031349],[41.7028027,37.8309828],[41.6806065,37.8616187],[41.6566605,37.8686369],[41.644827,37.8803621],[41.6063433,37.8713011],[41.5900848,37.8806017],[41.5539427,37.8758873],[41.5226179,37.8623029],[41.4884427,37.8750215],[41.4398784,37.8971777],[41.4006466,37.9324044],[41.3663741,37.9535018],[41.3634127,37.9732716],[41.3835943,37.982502],[41.4004388,37.9852536],[41.4454413,38.0103957],[41.4169686,38.0297933],[41.4160178,38.0595933],[41.3993797,38.0816735],[41.3828366,38.083245],[41.3713145,38.0760516],[41.3756704,38.0538192],[41.3692537,38.0472009],[41.3222566,38.0555379],[41.3045084,38.0468558],[41.280926,38.0457097],[41.2581415,38.0564789],[41.2627549,38.0493984],[41.2372261,38.0413796],[41.2431962,38.0341485],[41.240776,38.0021585],[41.2198008,37.9811774],[41.2184562,37.9718506],[41.2267925,37.9487403],[41.2423895,37.928256],[41.2175685,37.9179706],[41.2073819,37.9072662],[41.2124827,37.9019723],[41.2170747,37.8866539],[41.216949,37.8682302],[41.2257225,37.8707484],[41.2423679,37.8628182],[41.2479212,37.8543755],[41.2713961,37.8575569],[41.2844157,37.8486267],[41.280389,37.8336607],[41.2888056,37.8236904],[41.3034933,37.8223484],[41.3030342,37.8084959],[41.34128,37.80526],[41.34558,37.79528],[41.34488,37.76996],[41.35604,37.7576],[41.37739,37.75625],[41.421188,37.7404611],[41.4399096,37.737263],[41.4539054,37.7287443],[41.4621517,37.7325173],[41.5065898,37.7309749],[41.5237404,37.7254471],[41.5384016,37.7290732],[41.6057294,37.7337837],[41.6201107,37.7317363],[41.630594,37.7367096],[41.634823,37.7479899],[41.651273,37.7414463],[41.6646905,37.7428431]]]},"properties":{"@id":"relation/1842146","admin_level":"6","boundary":"administrative","name":"Beşiri","name:ar":"البشيرية","name:ce":"Бешири","name:de":"Beşiri","name:en":"Beşiri","name:fa":"بشیری","name:hy":"Բշերիկ","name:ku":"Qubîn","name:ru":"Бешири","name:tr":"Beşiri","name:tr:suffix":"İlçesi","name:tt":"Бешири","name:ur":"بشیری","name:zh":"貝希里","network":"TR72-districts","population":"31465","population:date":"2022","type":"boundary","wikidata":"Q854667","wikipedia":"tr:Beşiri"},"id":"relation/1842146"},
{"type":"Feature","geometry":{"type":"Polygon","coordinates":[[[41.2016666,37.7415949],[41.1709676,37.7376906],[41.1685584,37.7509412],[41.1602362,37.7577363],[41.128204,37.7555876],[41.1144259,37.759304],[41.1109297,37.7726119],[41.0805358,37.7775741],[41.0633146,37.7685812],[41.0451669,37.7450313],[41.011403,37.725304],[41.015348,37.718597],[41.038756,37.708807],[41.061483,37.692404],[41.07307,37.69076],[41.080038,37.659709],[41.06459,37.657981],[41.067138,37.643691],[41.084423,37.63863],[41.094521,37.625916],[41.098223,37.612677],[41.113831,37.594695],[41.105283,37.577546],[41.10842,37.566437],[41.12832,37.557314],[41.1251,37.545009],[41.154468,37.52608],[41.166688,37.523973],[41.168389,37.50896],[41.18677,37.498951],[41.198461,37.499275],[41.206102,37.512111],[41.215483,37.542632],[41.214295,37.554207],[41.23712,37.564024],[41.245946,37.553481],[41.263683,37.548885],[41.277615,37.531699],[41.29499,37.534056],[41.308533,37.528991],[41.30994,37.517235],[41.319831,37.511078],[41.31842,37.498537],[41.350427,37.496003],[41.360169,37.501467],[41.358578,37.511838],[41.37378,37.522885],[41.381044,37.533967],[41.397708,37.525309],[41.415714,37.498812],[41.464737,37.497445],[41.47127,37.503074],[41.470314,37.517034],[41.48122,37.518709],[41.503214,37.532249],[41.51464,37.524181],[41.550402,37.525121],[41.557448,37.533952],[41.576846,37.539389],[41.5839143,37.556468],[41.6015511,37.5602559],[41.5988331,37.5693662],[41.6178263,37.5801181],[41.6312641,37.6005315],[41.6484048,37.6032556],[41.6510082,37.6196985],[41.6804394,37.6159827],[41.7039843,37.6349484],[41.7133131,37.6571429],[41.7286096,37.6827811],[41.6815001,37.6694293],[41.6492025,37.6728938],[41.6213873,37.6623213],[41.6202,37.6460458],[41.5989595,37.6283539],[41.5699732,37.637196],[41.5596004,37.6445948],[41.5370114,37.643916],[41.5180723,37.6533371],[41.511963,37.6876588],[41.5166376,37.7079257],[41.4958666,37.7156256],[41.485227,37.7033506],[41.4636106,37.6981137],[41.45465,37.6834464],[41.4581035,37.674519],[41.4390658,37.663707],[41.4054281,37.6569806],[41.3660298,37.6554518],[41.3414485,37.6753879],[41.2689457,37.6889719],[41.2463032,37.6976818],[41.2238212,37.7121924],[41.2114413,37.7284355],[41.2016666,37.7415949]]]},"properties":{"@id":"relation/1842147","admin_level":"6","alt_name:ku":"Kercos","boundary":"administrative","name":"Gercüş","name:ar":"کەرجەوس","name:ce":"Герджуьш","name:de":"Gercüş","name:en":"Gercüş","name:fa":"گرجوش","name:ku":"Kercews","name:ru":"Герджюш","name:tr":"Gercüş","name:tr:suffix":"İlçesi","name:tt":"Герҗүш","name:uk":"Ґерджюш","name:ur":"گرجوش","network":"TR72-districts","population":"19106","population:date":"2022","type":"boundary","wikidata":"Q1023286","wikipedia":"tr:Gercüş"},"id":"relation/1842147"},
{"type":"Feature","geometry":{"type":"Polygon","coordinates":[[[41.1836533,38.275856],[41.175092,38.2440861],[41.2023409,38.2327893],[41.2072123,38.2118729],[41.218594,38.2077252],[41.2261444,38.1967454],[41.2194365,38.1891553],[41.2208325,38.1619343],[41.2142616,38.150222],[41.2053064,38.106098],[41.2088225,38.0816432],[41.2286749,38.0775561],[41.2329775,38.0712054],[41.2581415,38.0564789],[41.280926,38.0457097],[41.3045084,38.0468558],[41.3222566,38.0555379],[41.3692537,38.0472009],[41.3756704,38.0538192],[41.3713145,38.0760516],[41.3828366,38.083245],[41.3993797,38.0816735],[41.4160178,38.0595933],[41.4169686,38.0297933],[41.4454413,38.0103957],[41.4569956,38.0163363],[41.4816556,38.0396734],[41.4949645,38.0400518],[41.5106513,38.0179558],[41.5222216,38.0098202],[41.5370266,38.0202101],[41.5405101,38.0497053],[41.5468551,38.0610691],[41.5739768,38.0788949],[41.6096829,38.0838893],[41.6074435,38.1108138],[41.6308329,38.1323463],[41.6407858,38.1451649],[41.6436473,38.1872253],[41.6288423,38.2150892],[41.6309573,38.2273069],[41.6473018,38.2535561],[41.63735,38.26841],[41.64698,38.2865],[41.64115,38.31619],[41.64214,38.33798],[41.63208,38.34104],[41.63674,38.35502],[41.62069,38.35277],[41.59634,38.37944],[41.5519538,38.3498219],[41.535791,38.3453481],[41.4846406,38.3399791],[41.4646749,38.3164107],[41.4573738,38.3026696],[41.4425386,38.3043897],[41.3986928,38.2798496],[41.372452,38.2623832],[41.3456409,38.2492434],[41.3294781,38.2498407],[41.2903072,38.2601437],[41.2599586,38.261664],[41.2281484,38.2714522],[41.1836533,38.275856]]]},"properties":{"@id":"relation/1842148","admin_level":"6","boundary":"administrative","name":"Kozluk","name:ce":"Козлук","name:de":"Kozluk","name:en":"Kozluk","name:fa":"کوزلوک","name:hy":"Հազզո","name:kk":"Козлук","name:ku":"Hezo","name:ru":"Козлук","name:tr":"Kozluk","name:tr:suffix":"İlçesi","name:ur":"کوزلوک","name:zh":"科茲盧克","network":"TR72-districts","population":"60128","population:date":"2022","type":"boundary","wikidata":"Q477171","wikipedia":"tr:Kozluk"},"id":"relation/1842148"},
{"type":"Feature","geometry":{"type":"Polygon","coordinates":[[[41.59634,38.37944],[41.59913,38.39345],[41.60842,38.40401],[41.61377,38.42297],[41.60927,38.44101],[41.62641,38.45617],[41.64154,38.45585],[41.64106,38.47264],[41.66776,38.48249],[41.66378,38.49611],[41.64255,38.50356],[41.60863,38.5059],[41.59509,38.52032],[41.58775,38.5132],[41.57332,38.5246],[41.55977,38.52266],[41.55665,38.53508],[41.53225,38.53644],[41.52326,38.53056],[41.50506,38.53149],[41.48718,38.54212],[41.4792002,38.5241222],[41.4637437,38.5083208],[41.4471191,38.5038374],[41.4155054,38.488567],[41.3850708,38.4923803],[41.3591275,38.4762392],[41.3459897,38.4594309],[41.3337388,38.4658629],[41.3218545,38.4620035],[41.3154233,38.452027],[41.3025294,38.453106],[41.2816437,38.4438151],[41.266595,38.4282072],[41.2639093,38.4161493],[41.2400502,38.4101379],[41.2312484,38.390413],[41.2354231,38.3791332],[41.2315005,38.3671259],[41.2190841,38.3638027],[41.2152467,38.3497824],[41.1971291,38.3193269],[41.178257,38.3115206],[41.1872391,38.2891364],[41.1836533,38.275856],[41.2281484,38.2714522],[41.2599586,38.261664],[41.2903072,38.2601437],[41.3294781,38.2498407],[41.3456409,38.2492434],[41.372452,38.2623832],[41.3986928,38.2798496],[41.4425386,38.3043897],[41.4573738,38.3026696],[41.4646749,38.3164107],[41.4846406,38.3399791],[41.535791,38.3453481],[41.5519538,38.3498219],[41.59634,38.37944]]]},"properties":{"@id":"relation/1842149","admin_level":"6","alt_name:ku":"Sason","boundary":"administrative","name":"Sason","name:ar":"ساسون","name:ce":"Сасон","name:de":"Sason","name:en":"Sason","name:fa":"ساسون","name:hy":"Սասուն","name:ja":"サソン","name:ku":"Qabilcewz","name:ru":"Сасон","name:tr":"Sason","name:tr:suffix":"İlçesi","name:uk":"Сасон","name:ur":"ساسون","name:zh":"薩松","network":"TR72-districts","old_name":"Sassoun;Sasun;Gabelcevz;Kabilcewz;Kabilcoz;Sanasin;Sanasun;Sanasana;Sanasina;Sanasnaye","population":"30182","population:date":"2021","type":"boundary","wikidata":"Q2225836","wikipedia":"tr:Sason"},"id":"relation/1842149"},
{"type":"Feature","geometry":{"type":"Polygon","coordinates":[[[41.1247084,37.8899724],[41.1222294,37.8855452],[41.1252975,37.8842429],[41.1277723,37.8833766],[41.1247084,37.8899724]]]},"properties":{"@id":"relation/4643737","admin_level":"8","alt_name":"Raman Mah.","boundary":"administrative","city":"Batman","name":"Raman Mahallesi","population":"3371","type":"boundary","@relations":[{"role":"subarea","rel":1842145,"reltags":{"admin_level":"6","alt_name":"Batman","boundary":"administrative","name":"Batman Merkez","name:ar":"بطمان","name:de":"Batman","name:en":"Batman","name:ku":"Êlih (navend)","name:tr":"Batman Merkez","name:tr:suffix":"İlçesi","network":"TR72-districts","population":"477456","population:date":"2021","type":"boundary","wikidata":"Q159835","wikipedia":"tr:Batman"}}]},"id":"relation/4643737"},
{"type":"Feature","geometry":{"type":"Polygon","coordinates":[[[41.1229954,37.8937006],[41.1173712,37.88754],[41.1222294,37.8855452],[41.1247084,37.8899724],[41.1229954,37.8937006]]]},"properties":{"@id":"relation/4643738","admin_level":"8","alt_name":"Sağlık Mah.","boundary":"administrative","city":"Batman","name":"Sağlık Mahallesi","population":"9956","type":"boundary","@relations":[{"role":"subarea","rel":1842145,"reltags":{"admin_level":"6","alt_name":"Batman","boundary":"administrative","name":"Batman Merkez","name:ar":"بطمان","name:de":"Batman","name:en":"Batman","name:ku":"Êlih (navend)","name:tr":"Batman Merkez","name:tr:suffix":"İlçesi","network":"TR72-districts","population":"477456","population:date":"2021","type":"boundary","wikidata":"Q159835","wikipedia":"tr:Batman"}}]},"id":"relation/4643738"},
{"type":"Feature","geometry":{"type":"Polygon","coordinates":[[[41.1198693,37.881476],[41.1229015,37.8801282],[41.1252975,37.8842429],[41.1222294,37.8855452],[41.1198693,37.881476]]]},"properties":{"@id":"relation/4666623","admin_level":"8","alt_name":"Yeni Mah.;Yeni Mahalle","boundary":"administrative","city":"Batman","name":"Yeni Mahallesi","population":"4520","type":"boundary","@relations":[{"role":"subarea","rel":1842145,"reltags":{"admin_level":"6","alt_name":"Batman","boundary":"administrative","name":"Batman Merkez","name:ar":"بطمان","name:de":"Batman","name:en":"Batman","name:ku":"Êlih (navend)","name:tr":"Batman Merkez","name:tr:suffix":"İlçesi","network":"TR72-districts","population":"477456","population:date":"2021","type":"boundary","wikidata":"Q159835","wikipedia":"tr:Batman"}}]},"id":"relation/4666623"},
{"type":"Feature","geometry":{"type":"Polygon","coordinates":[[[41.1229015,37.8801282],[41.1236975,37.8791466],[41.127613,37.880904],[41.1277723,37.8833766],[41.1252975,37.8842429],[41.1229015,37.8801282]]]},"properties":{"@id":"relation/4666633","admin_level":"8","alt_name":"Meydan Mah.","boundary":"administrative","city":"Batman","name":"Meydan Mahallesi","population":"2360","type":"boundary","@relations":[{"role":"subarea","rel":1842145,"reltags":{"admin_level":"6","alt_name":"Batman","boundary":"administrative","name":"Batman Merkez","name:ar":"بطمان","name:de":"Batman","name:en":"Batman","name:ku":"Êlih (navend)","name:tr":"Batman Merkez","name:tr:suffix":"İlçesi","network":"TR72-districts","population":"477456","population:date":"2021","type":"boundary","wikidata":"Q159835","wikipedia":"tr:Batman"}}]},"id":"relation/4666633"},
{"type":"Feature","geometry":{"type":"Polygon","coordinates":[[[41.1339459,37.883415],[41.1282306,37.8857189],[41.1277723,37.8833766],[41.127613,37.880904],[41.1288928,37.8812356],[41.1339459,37.883415]]]},"properties":{"@id":"relation/4666641","admin_level":"8","alt_name":"Şirinevler Mahallesi","boundary":"administrative","city":"Batman","name":"Şirinevler Mahallesi","population":"4595","type":"boundary","@relations":[{"role":"subarea","rel":1842145,"reltags":{"admin_level":"6","alt_name":"Batman","boundary":"administrative","name":"Batman Merkez","name:ar":"بطمان","name:de":"Batman","name:en":"Batman","name:ku":"Êlih (navend)","name:tr":"Batman Merkez","name:tr:suffix":"İlçesi","network":"TR72-districts","population":"477456","population:date":"2021","type":"boundary","wikidata":"Q159835","wikipedia":"tr:Batman"}}]},"id":"relation/4666641"},
{"type":"Feature","geometry":{"type":"Polygon","coordinates":[[[41.129232,37.8895407],[41.1282306,37.8857189],[41.1339459,37.883415],[41.1383882,37.8853268],[41.1343917,37.8872109],[41.129232,37.8895407]]]},"properties":{"@id":"relation/4666755","admin_level":"8","alt_name":"Cumhuriyet Mahallesi","boundary":"administrative","city":"Batman","name":"Cumhuriyet Mahallesi","population":"5204","type":"boundary","@relations":[{"role":"subarea","rel":1842145,"reltags":{"admin_level":"6","alt_name":"Batman","boundary":"administrative","name":"Batman Merkez","name:ar":"بطمان","name:de":"Batman","name:en":"Batman","name:ku":"Êlih (navend)","name:tr":"Batman Merkez","name:tr:suffix":"İlçesi","network":"TR72-districts","population":"477456","population:date":"2021","type":"boundary","wikidata":"Q159835","wikipedia":"tr:Batman"}}]},"id":"relation/4666755"},
{"type":"Feature","geometry":{"type":"Polygon","coordinates":[[[41.1282306,37.8857189],[41.129232,37.8895407],[41.1295109,37.8921489],[41.1247084,37.8899724],[41.1277723,37.8833766],[41.1282306,37.8857189]]]},"properties":{"@id":"relation/4666766","admin_level":"8","alt_name":"Ziyagökalp Mah.","boundary":"administrative","city":"Batman","name":"Ziyagökalp Mahallesi","population":"3592","type":"boundary","@relations":[{"role":"subarea","rel":1842145,"reltags":{"admin_level":"6","alt_name":"Batman","boundary":"administrative","name":"Batman Merkez","name:ar":"بطمان","name:de":"Batman","name:en":"Batman","name:ku":"Êlih (navend)","name:tr":"Batman Merkez","name:tr:suffix":"İlçesi","network":"TR72-districts","population":"477456","population:date":"2021","type":"boundary","wikidata":"Q159835","wikipedia":"tr:Batman"}}]},"id":"relation/4666766"},
{"type":"Feature","geometry":{"type":"Polygon","coordinates":[[[41.1343917,37.8872109],[41.1402277,37.8926956],[41.1395783,37.8969295],[41.1385833,37.8969236],[41.1303725,37.896526],[41.1295109,37.8921489],[41.129232,37.8895407],[41.1343917,37.8872109]]]},"properties":{"@id":"relation/4666797","admin_level":"8","alt_name":"Bahçelievler Mahallesi","boundary":"administrative","name":"Bahçelievler Mahallesi","population":"15926","type":"boundary","@relations":[{"role":"subarea","rel":1842145,"reltags":{"admin_level":"6","alt_name":"Batman","boundary":"administrative","name":"Batman Merkez","name:ar":"بطمان","name:de":"Batman","name:en":"Batman","name:ku":"Êlih (navend)","name:tr":"Batman Merkez","name:tr:suffix":"İlçesi","network":"TR72-districts","population":"477456","population:date":"2021","type":"boundary","wikidata":"Q159835","wikipedia":"tr:Batman"}}]},"id":"relation/4666797"},
{"type":"Feature","geometry":{"type":"Polygon","coordinates":[[[41.1402277,37.8926956],[41.1343917,37.8872109],[41.1383882,37.8853268],[41.1445897,37.8900523],[41.1402277,37.8926956]]]},"properties":{"@id":"relation/4666805","admin_level":"8","alt_name":"Şafak Mahallesi","boundary":"administrative","name":"Şafak Mahallesi","population":"8225","type":"boundary","@relations":[{"role":"subarea","rel":1842145,"reltags":{"admin_level":"6","alt_name":"Batman","boundary":"administrative","name":"Batman Merkez","name:ar":"بطمان","name:de":"Batman","name:en":"Batman","name:ku":"Êlih (navend)","name:tr":"Batman Merkez","name:tr:suffix":"İlçesi","network":"TR72-districts","population":"477456","population:date":"2021","type":"boundary","wikidata":"Q159835","wikipedia":"tr:Batman"}}]},"id":"relation/4666805"},
{"type":"Feature","geometry":{"type":"Polygon","coordinates":[[[41.153135,37.890947],[41.1445897,37.8900523],[41.1383882,37.8853268],[41.1433535,37.8797912],[41.1578544,37.8872016],[41.153135,37.890947]]]},"properties":{"@id":"relation/4669148","admin_level":"8","alt_name":"Cudi Mahallesi","boundary":"administrative","name":"Cudi Mahallesi","population":"20600","type":"boundary","@relations":[{"role":"subarea","rel":1842145,"reltags":{"admin_level":"6","alt_name":"Batman","boundary":"administrative","name":"Batman Merkez","name:ar":"بطمان","name:de":"Batman","name:en":"Batman","name:ku":"Êlih (navend)","name:tr":"Batman Merkez","name:tr:suffix":"İlçesi","network":"TR72-districts","population":"477456","population:date":"2021","type":"boundary","wikidata":"Q159835","wikipedia":"tr:Batman"}}]},"id":"relation/4669148"},
{"type":"Feature","geometry":{"type":"Polygon","coordinates":[[[41.1395783,37.8969295],[41.1402277,37.8926956],[41.1445897,37.8900523],[41.153135,37.890947],[41.1419392,37.9021906],[41.1395783,37.8969295]]]},"properties":{"@id":"relation/4669217","admin_level":"8","alt_name":"Fatih Mahallesi","boundary":"administrative","name":"Fatih Mahallesi","population":"15196","type":"boundary","@relations":[{"role":"subarea","rel":1842145,"reltags":{"admin_level":"6","alt_name":"Batman","boundary":"administrative","name":"Batman Merkez","name:ar":"بطمان","name:de":"Batman","name:en":"Batman","name:ku":"Êlih (navend)","name:tr":"Batman Merkez","name:tr:suffix":"İlçesi","network":"TR72-districts","population":"477456","population:date":"2021","type":"boundary","wikidata":"Q159835","wikipedia":"tr:Batman"}}]},"id":"relation/4669217"},
{"type":"Feature","geometry":{"type":"Polygon","coordinates":[[[41.1303725,37.896526],[41.1385833,37.8969236],[41.1321083,37.9051572],[41.1303725,37.896526]]]},"properties":{"@id":"relation/4669543","admin_level":"8","alt_name":"Gap Mah.;GAP Mah.;GAP Mahallesi","boundary":"administrative","name":"Gap Mahallesi","population":"10243","postal_code":"72070","type":"boundary","@relations":[{"role":"subarea","rel":1842145,"reltags":{"admin_level":"6","alt_name":"Batman","boundary":"administrative","name":"Batman Merkez","name:ar":"بطمان","name:de":"Batman","name:en":"Batman","name:ku":"Êlih (navend)","name:tr":"Batman Merkez","name:tr:suffix":"İlçesi","network":"TR72-districts","population":"477456","population:date":"2021","type":"boundary","wikidata":"Q159835","wikipedia":"tr:Batman"}}]},"id":"relation/4669543"},
{"type":"Feature","geometry":{"type":"Polygon","coordinates":[[[41.1321083,37.9051572],[41.1170729,37.9067938],[41.122055,37.8957928],[41.1303725,37.896526],[41.1321083,37.9051572]]]},"properties":{"@id":"relation/4669544","admin_level":"8","alt_name":"Kültür Mah.","boundary":"administrative","name":"Kültür Mahallesi","population":"25788","type":"boundary","@relations":[{"role":"subarea","rel":1842145,"reltags":{"admin_level":"6","alt_name":"Batman","boundary":"administrative","name":"Batman Merkez","name:ar":"بطمان","name:de":"Batman","name:en":"Batman","name:ku":"Êlih (navend)","name:tr":"Batman Merkez","name:tr:suffix":"İlçesi","network":"TR72-districts","population":"477456","population:date":"2021","type":"boundary","wikidata":"Q159835","wikipedia":"tr:Batman"}}]},"id":"relation/4669544"},
{"type":"Feature","geometry":{"type":"Polygon","coordinates":[[[41.1295109,37.8921489],[41.1303725,37.896526],[41.122055,37.8957928],[41.1229954,37.8937006],[41.1247084,37.8899724],[41.1295109,37.8921489]]]},"properties":{"@id":"relation/4669784","admin_level":"8","alt_name":"Pınarbaşı Mah.","boundary":"administrative","name":"Pınarbaşı Mahallesi","population":"6956","type":"boundary","@relations":[{"role":"subarea","rel":1842145,"reltags":{"admin_level":"6","alt_name":"Batman","boundary":"administrative","name":"Batman Merkez","name:ar":"بطمان","name:de":"Batman","name:en":"Batman","name:ku":"Êlih (navend)","name:tr":"Batman Merkez","name:tr:suffix":"İlçesi","network":"TR72-districts","population":"477456","population:date":"2021","type":"boundary","wikidata":"Q159835","wikipedia":"tr:Batman"}}]},"id":"relation/4669784"},
{"type":"Feature","geometry":{"type":"Polygon","coordinates":[[[41.1138996,37.8943894],[41.1138163,37.8890478],[41.1170301,37.8876827],[41.1173712,37.88754],[41.1229954,37.8937006],[41.122055,37.8957928],[41.1138996,37.8943894]]]},"properties":{"@id":"relation/4669802","admin_level":"8","alt_name":"Bağlar Mah.","boundary":"administrative","city":"Batman","name":"Bağlar Mahallesi","population":"7712","type":"boundary","@relations":[{"role":"subarea","rel":1842145,"reltags":{"admin_level":"6","alt_name":"Batman","boundary":"administrative","name":"Batman Merkez","name:ar":"بطمان","name:de":"Batman","name:en":"Batman","name:ku":"Êlih (navend)","name:tr":"Batman Merkez","name:tr:suffix":"İlçesi","network":"TR72-districts","population":"477456","population:date":"2021","type":"boundary","wikidata":"Q159835","wikipedia":"tr:Batman"}}]},"id":"relation/4669802"},
{"type":"Feature","geometry":{"type":"Polygon","coordinates":[[[41.1158636,37.8845233],[41.1170301,37.8876827],[41.1138163,37.8890478],[41.0996491,37.8949385],[41.0955134,37.8898063],[41.1082076,37.8870658],[41.1158636,37.8845233]]]},"properties":{"@id":"relation/4669803","admin_level":"8","alt_name":"Beşevler Mah.","boundary":"administrative","name":"Beşevler Mahallesi","population":"7642","type":"boundary","@relations":[{"role":"subarea","rel":1842145,"reltags":{"admin_level":"6","alt_name":"Batman","boundary":"administrative","name":"Batman Merkez","name:ar":"بطمان","name:de":"Batman","name:en":"Batman","name:ku":"Êlih (navend)","name:tr":"Batman Merkez","name:tr:suffix":"İlçesi","network":"TR72-districts","population":"477456","population:date":"2021","type":"boundary","wikidata":"Q159835","wikipedia":"tr:Batman"}}]},"id":"relation/4669803"},
{"type":"Feature","geometry":{"type":"Polygon","coordinates":[[[41.1138163,37.8890478],[41.1138996,37.8943894],[41.1126688,37.9072466],[41.1092305,37.9077256],[41.0996491,37.8949385],[41.1138163,37.8890478]]]},"properties":{"@id":"relation/4669823","admin_level":"8","alt_name":"Hilal Mah.","boundary":"administrative","name":"Hilal Mahallesi","population":"9134","type":"boundary","@relations":[{"role":"subarea","rel":1842145,"reltags":{"admin_level":"6","alt_name":"Batman","boundary":"administrative","name":"Batman Merkez","name:ar":"بطمان","name:de":"Batman","name:en":"Batman","name:ku":"Êlih (navend)","name:tr":"Batman Merkez","name:tr:suffix":"İlçesi","network":"TR72-districts","population":"477456","population:date":"2021","type":"boundary","wikidata":"Q159835","wikipedia":"tr:Batman"}}]},"id":"relation/4669823"},
{"type":"Feature","geometry":{"type":"Polygon","coordinates":[[[41.1138996,37.8943894],[41.122055,37.8957928],[41.1170729,37.9067938],[41.1126688,37.9072466],[41.1138996,37.8943894]]]},"properties":{"@id":"relation/4669824","admin_level":"8","alt_name":"Pazaryeri Mah.","boundary":"administrative","city":"Batman","name":"Pazaryeri Mahallesi","population":"10699","type":"boundary","@relations":[{"role":"subarea","rel":1842145,"reltags":{"admin_level":"6","alt_name":"Batman","boundary":"administrative","name":"Batman Merkez","name:ar":"بطمان","name:de":"Batman","name:en":"Batman","name:ku":"Êlih (navend)","name:tr":"Batman Merkez","name:tr:suffix":"İlçesi","network":"TR72-districts","population":"477456","population:date":"2021","type":"boundary","wikidata":"Q159835","wikipedia":"tr:Batman"}}]},"id":"relation/4669824"},
{"type":"Feature","geometry":{"type":"Polygon","coordinates":[[[41.1660503,37.8807764],[41.1578544,37.8872016],[41.1433535,37.8797912],[41.1452259,37.8754084],[41.1660503,37.8807764]]]},"properties":{"@id":"relation/4676673","admin_level":"8","alt_name":"Petrol Mahallesi","boundary":"administrative","name":"Petrol Mahallesi","population":"12283","type":"boundary","@relations":[{"role":"subarea","rel":1842145,"reltags":{"admin_level":"6","alt_name":"Batman","boundary":"administrative","name":"Batman Merkez","name:ar":"بطمان","name:de":"Batman","name:en":"Batman","name:ku":"Êlih (navend)","name:tr":"Batman Merkez","name:tr:suffix":"İlçesi","network":"TR72-districts","population":"477456","population:date":"2021","type":"boundary","wikidata":"Q159835","wikipedia":"tr:Batman"}}]},"id":"relation/4676673"},
{"type":"Feature","geometry":{"type":"Polygon","coordinates":[[[41.1660503,37.8807764],[41.1452259,37.8754084],[41.1482192,37.8686854],[41.1587678,37.8562711],[41.190534,37.8438575],[41.2001535,37.8454134],[41.1676606,37.8606955],[41.1742835,37.8743129],[41.1660503,37.8807764]]]},"properties":{"@id":"relation/4676674","admin_level":"8","alt_name":"Bayındır Mahallesi","boundary":"administrative","district":"Merkez","name":"Bayındır Mahallesi","population":"8988","type":"boundary","@relations":[{"role":"subarea","rel":1842145,"reltags":{"admin_level":"6","alt_name":"Batman","boundary":"administrative","name":"Batman Merkez","name:ar":"بطمان","name:de":"Batman","name:en":"Batman","name:ku":"Êlih (navend)","name:tr":"Batman Merkez","name:tr:suffix":"İlçesi","network":"TR72-districts","population":"477456","population:date":"2021","type":"boundary","wikidata":"Q159835","wikipedia":"tr:Batman"}}]},"id":"relation/4676674"},
{"type":"Feature","geometry":{"type":"Polygon","coordinates":[[[41.1173712,37.88754],[41.1170301,37.8876827],[41.1158636,37.8845233],[41.1147242,37.8819737],[41.1195074,37.8807187],[41.1198693,37.881476],[41.1222294,37.8855452],[41.1173712,37.88754]]]},"properties":{"@id":"relation/4676716","admin_level":"8","alt_name":"Aydınlıkevler Mah.","boundary":"administrative","city":"Batman","name":"Aydınlıkevler Mahallesi","population":"8636","type":"boundary","@relations":[{"role":"subarea","rel":1842145,"reltags":{"admin_level":"6","alt_name":"Batman","boundary":"administrative","name":"Batman Merkez","name:ar":"بطمان","name:de":"Batman","name:en":"Batman","name:ku":"Êlih (navend)","name:tr":"Batman Merkez","name:tr:suffix":"İlçesi","network":"TR72-districts","population":"477456","population:date":"2021","type":"boundary","wikidata":"Q159835","wikipedia":"tr:Batman"}}]},"id":"relation/4676716"},
{"type":"Feature","geometry":{"type":"Polygon","coordinates":[[[41.1156043,37.8771008],[41.1195074,37.8807187],[41.1147242,37.8819737],[41.1141651,37.8785528],[41.1156043,37.8771008]]]},"properties":{"@id":"relation/4676768","admin_level":"8","alt_name":"Kısmet Mah.","boundary":"administrative","city":"Batman","name":"Kısmet Mahallesi","population":"4758","type":"boundary","@relations":[{"role":"subarea","rel":1842145,"reltags":{"admin_level":"6","alt_name":"Batman","boundary":"administrative","name":"Batman Merkez","name:ar":"بطمان","name:de":"Batman","name:en":"Batman","name:ku":"Êlih (navend)","name:tr":"Batman Merkez","name:tr:suffix":"İlçesi","network":"TR72-districts","population":"477456","population:date":"2021","type":"boundary","wikidata":"Q159835","wikipedia":"tr:Batman"}}]},"id":"relation/4676768"},
{"type":"Feature","geometry":{"type":"Polygon","coordinates":[[[41.1229015,37.8801282],[41.1198693,37.881476],[41.1195074,37.8807187],[41.1156043,37.8771008],[41.117327,37.8763123],[41.1236975,37.8791466],[41.1229015,37.8801282]]]},"properties":{"@id":"relation/4676769","admin_level":"8","alt_name":"Çarşı Mah.","boundary":"administrative","city":"Batman","name":"Çarşı Mahallesi","population":"2268","type":"boundary","@relations":[{"role":"subarea","rel":1842145,"reltags":{"admin_level":"6","alt_name":"Batman","boundary":"administrative","name":"Batman Merkez","name:ar":"بطمان","name:de":"Batman","name:en":"Batman","name:ku":"Êlih (navend)","name:tr":"Batman Merkez","name:tr:suffix":"İlçesi","network":"TR72-districts","population":"477456","population:date":"2021","type":"boundary","wikidata":"Q159835","wikipedia":"tr:Batman"}}]},"id":"relation/4676769"},
{"type":"Feature","geometry":{"type":"Polygon","coordinates":[[[41.1147242,37.8819737],[41.1158636,37.8845233],[41.1082076,37.8870658],[41.1043611,37.8821001],[41.1098802,37.8810993],[41.1141651,37.8785528],[41.1147242,37.8819737]]]},"properties":{"@id":"relation/4676788","admin_level":"8","alt_name":"19 Mayıs Mah.","boundary":"administrative","city":"Batman","name":"19 Mayıs Mahallesi","population":"7110","type":"boundary","@relations":[{"role":"subarea","rel":1842145,"reltags":{"admin_level":"6","alt_name":"Batman","boundary":"administrative","name":"Batman Merkez","name:ar":"بطمان","name:de":"Batman","name:en":"Batman","name:ku":"Êlih (navend)","name:tr":"Batman Merkez","name:tr:suffix":"İlçesi","network":"TR72-districts","population":"477456","population:date":"2021","type":"boundary","wikidata":"Q159835","wikipedia":"tr:Batman"}}]},"id":"relation/4676788"},
{"type":"Feature","geometry":{"type":"Polygon","coordinates":[[[41.1141651,37.8785528],[41.1098802,37.8810993],[41.1084689,37.8770923],[41.1156043,37.8771008],[41.1141651,37.8785528]]]},"properties":{"@id":"relation/4676794","admin_level":"8","alt_name":"İluh Mah.","boundary":"administrative","city":"Batman","name":"İluh Mahallesi","population":"4439","type":"boundary","@relations":[{"role":"subarea","rel":1842145,"reltags":{"admin_level":"6","alt_name":"Batman","boundary":"administrative","name":"Batman Merkez","name:ar":"بطمان","name:de":"Batman","name:en":"Batman","name:ku":"Êlih (navend)","name:tr":"Batman Merkez","name:tr:suffix":"İlçesi","network":"TR72-districts","population":"477456","population:date":"2021","type":"boundary","wikidata":"Q159835","wikipedia":"tr:Batman"}}]},"id":"relation/4676794"},
{"type":"Feature","geometry":{"type":"Polygon","coordinates":[[[41.1156043,37.8771008],[41.1084689,37.8770923],[41.0985039,37.8794585],[41.0890937,37.8777077],[41.0859826,37.8688515],[41.1134844,37.8748357],[41.117327,37.8763123],[41.1156043,37.8771008]]]},"properties":{"@id":"relation/4676975","admin_level":"8","alt_name":"Huzur Mah.","boundary":"administrative","city":"Batman","name":"Huzur Mahallesi","population":"8168","type":"boundary","@relations":[{"role":"subarea","rel":1842145,"reltags":{"admin_level":"6","alt_name":"Batman","boundary":"administrative","name":"Batman Merkez","name:ar":"بطمان","name:de":"Batman","name:en":"Batman","name:ku":"Êlih (navend)","name:tr":"Batman Merkez","name:tr:suffix":"İlçesi","network":"TR72-districts","population":"477456","population:date":"2021","type":"boundary","wikidata":"Q159835","wikipedia":"tr:Batman"}}]},"id":"relation/4676975"},
{"type":"Feature","geometry":{"type":"Polygon","coordinates":[[[41.1098802,37.8810993],[41.1043611,37.8821001],[41.0985039,37.8794585],[41.1084689,37.8770923],[41.1098802,37.8810993]]]},"properties":{"@id":"relation/4677001","admin_level":"8","alt_name":"Yeşiltepe Mah.","boundary":"administrative","city":"Batman","name":"Yeşiltepe Mahallesi","population":"4483","type":"boundary","@relations":[{"role":"subarea","rel":1842145,"reltags":{"admin_level":"6","alt_name":"Batman","boundary":"administrative","name":"Batman Merkez","name:ar":"بطمان","name:de":"Batman","name:en":"Batman","name:ku":"Êlih (navend)","name:tr":"Batman Merkez","name:tr:suffix":"İlçesi","network":"TR72-districts","population":"477456","population:date":"2021","type":"boundary","wikidata":"Q159835","wikipedia":"tr:Batman"}}]},"id":"relation/4677001"},
{"type":"Feature","geometry":{"type":"Polygon","coordinates":[[[41.0859826,37.8688515],[41.0774551,37.8654969],[41.084573,37.8610703],[41.0860956,37.8664054],[41.1122583,37.8693117],[41.1134844,37.8748357],[41.0859826,37.8688515]]]},"properties":{"@id":"relation/4677002","admin_level":"8","alt_name":"Çamlıca Mah.","boundary":"administrative","name":"Çamlıca Mahallesi","population":"13134","type":"boundary","@relations":[{"role":"subarea","rel":1842145,"reltags":{"admin_level":"6","alt_name":"Batman","boundary":"administrative","name":"Batman Merkez","name:ar":"بطمان","name:de":"Batman","name:en":"Batman","name:ku":"Êlih (navend)","name:tr":"Batman Merkez","name:tr:suffix":"İlçesi","network":"TR72-districts","population":"477456","population:date":"2021","type":"boundary","wikidata":"Q159835","wikipedia":"tr:Batman"}}]},"id":"relation/4677002"},
{"type":"Feature","geometry":{"type":"Polygon","coordinates":[[[41.117327,37.8763123],[41.1134844,37.8748357],[41.1122583,37.8693117],[41.1176187,37.8694577],[41.117327,37.8763123]]]},"properties":{"@id":"relation/4677006","admin_level":"8","alt_name":"Hürriyet Mah.","boundary":"administrative","name":"Hürriyet Mahallesi","population":"5820","type":"boundary","@relations":[{"role":"subarea","rel":1842145,"reltags":{"admin_level":"6","alt_name":"Batman","boundary":"administrative","name":"Batman Merkez","name:ar":"بطمان","name:de":"Batman","name:en":"Batman","name:ku":"Êlih (navend)","name:tr":"Batman Merkez","name:tr:suffix":"İlçesi","network":"TR72-districts","population":"477456","population:date":"2021","type":"boundary","wikidata":"Q159835","wikipedia":"tr:Batman"}}]},"id":"relation/4677006"},
{"type":"Feature","geometry":{"type":"Polygon","coordinates":[[[41.117327,37.8763123],[41.1176187,37.8694577],[41.1197963,37.8694226],[41.1283745,37.8698529],[41.1190066,37.8759943],[41.117327,37.8763123]]]},"properties":{"@id":"relation/4677029","admin_level":"8","alt_name":"Karşıyaka Mah.","boundary":"administrative","name":"Karşıyaka Mahallesi","population":"9115","type":"boundary","@relations":[{"role":"subarea","rel":1842145,"reltags":{"admin_level":"6","alt_name":"Batman","boundary":"administrative","name":"Batman Merkez","name:ar":"بطمان","name:de":"Batman","name:en":"Batman","name:ku":"Êlih (navend)","name:tr":"Batman Merkez","name:tr:suffix":"İlçesi","network":"TR72-districts","population":"477456","population:date":"2021","type":"boundary","wikidata":"Q159835","wikipedia":"tr:Batman"}}]},"id":"relation/4677029"},
{"type":"Feature","geometry":{"type":"Polygon","coordinates":[[[41.1338464,37.8672535],[41.1283745,37.8698529],[41.1197963,37.8694226],[41.1225421,37.8529551],[41.1338464,37.8672535]]]},"properties":{"@id":"relation/4677030","admin_level":"8","alt_name":"Petrolkent Mah.","boundary":"administrative","name":"Petrolkent Mahallesi","population":"18655","type":"boundary","@relations":[{"role":"subarea","rel":1842145,"reltags":{"admin_level":"6","alt_name":"Batman","boundary":"administrative","name":"Batman Merkez","name:ar":"بطمان","name:de":"Batman","name:en":"Batman","name:ku":"Êlih (navend)","name:tr":"Batman Merkez","name:tr:suffix":"İlçesi","network":"TR72-districts","population":"477456","population:date":"2021","type":"boundary","wikidata":"Q159835","wikipedia":"tr:Batman"}}]},"id":"relation/4677030"},
{"type":"Feature","geometry":{"type":"Polygon","coordinates":[[[41.1383882,37.8853268],[41.1339459,37.883415],[41.1288928,37.8812356],[41.1190066,37.8759943],[41.1283745,37.8698529],[41.1338464,37.8672535],[41.1482192,37.8686854],[41.1452259,37.8754084],[41.1433535,37.8797912],[41.1383882,37.8853268]]]},"properties":{"@id":"relation/4677061","admin_level":"8","alt_name":"Site Mah.","boundary":"administrative","name":"Site Mahallesi","population":"2656","type":"boundary","@relations":[{"role":"subarea","rel":1842145,"reltags":{"admin_level":"6","alt_name":"Batman","boundary":"administrative","name":"Batman Merkez","name:ar":"بطمان","name:de":"Batman","name:en":"Batman","name:ku":"Êlih (navend)","name:tr":"Batman Merkez","name:tr:suffix":"İlçesi","network":"TR72-districts","population":"477456","population:date":"2021","type":"boundary","wikidata":"Q159835","wikipedia":"tr:Batman"}}]},"id":"relation/4677061"},
{"type":"Feature","geometry":{"type":"Polygon","coordinates":[[[41.127613,37.880904],[41.1236975,37.8791466],[41.117327,37.8763123],[41.1190066,37.8759943],[41.1288928,37.8812356],[41.127613,37.880904]]]},"properties":{"@id":"relation/4677062","admin_level":"8","alt_name":"Akyürek Mahallesi","boundary":"administrative","city":"Batman","name":"Akyürek Mahallesi","population":"2986","type":"boundary","@relations":[{"role":"subarea","rel":1842145,"reltags":{"admin_level":"6","alt_name":"Batman","boundary":"administrative","name":"Batman Merkez","name:ar":"بطمان","name:de":"Batman","name:en":"Batman","name:ku":"Êlih (navend)","name:tr":"Batman Merkez","name:tr:suffix":"İlçesi","network":"TR72-districts","population":"477456","population:date":"2021","type":"boundary","wikidata":"Q159835","wikipedia":"tr:Batman"}}]},"id":"relation/4677062"},
{"type":"Feature","geometry":{"type":"Polygon","coordinates":[[[41.1225421,37.8529551],[41.1197963,37.8694226],[41.1176187,37.8694577],[41.1122583,37.8693117],[41.1003803,37.8544653],[41.1085496,37.852327],[41.1225421,37.8529551]]]},"properties":{"@id":"relation/4677082","admin_level":"8","alt_name":"Seyitler Mah.","boundary":"administrative","name":"Seyitler Mahallesi","population":"14760","type":"boundary","@relations":[{"role":"subarea","rel":1842145,"reltags":{"admin_level":"6","alt_name":"Batman","boundary":"administrative","name":"Batman Merkez","name:ar":"بطمان","name:de":"Batman","name:en":"Batman","name:ku":"Êlih (navend)","name:tr":"Batman Merkez","name:tr:suffix":"İlçesi","network":"TR72-districts","population":"477456","population:date":"2021","type":"boundary","wikidata":"Q159835","wikipedia":"tr:Batman"}}]},"id":"relation/4677082"},
{"type":"Feature","geometry":{"type":"Polygon","coordinates":[[[41.1122583,37.8693117],[41.0860956,37.8664054],[41.084573,37.8610703],[41.1003803,37.8544653],[41.1122583,37.8693117]]]},"properties":{"@id":"relation/4677296","admin_level":"8","alt_name":"Güneykent Mah.","boundary":"administrative","name":"Güneykent Mahallesi","population":"5406","type":"boundary","@relations":[{"role":"subarea","rel":1842145,"reltags":{"admin_level":"6","alt_name":"Batman","boundary":"administrative","name":"Batman Merkez","name:ar":"بطمان","name:de":"Batman","name:en":"Batman","name:ku":"Êlih (navend)","name:tr":"Batman Merkez","name:tr:suffix":"İlçesi","network":"TR72-districts","population":"477456","population:date":"2021","type":"boundary","wikidata":"Q159835","wikipedia":"tr:Batman"}}]},"id":"relation/4677296"},
{"type":"Feature","geometry":{"type":"Polygon","coordinates":[[[41.1419392,37.9021906],[41.1498901,37.9141657],[41.145711,37.9168054],[41.1321083,37.9051572],[41.1385833,37.8969236],[41.1395783,37.8969295],[41.1419392,37.9021906]]]},"properties":{"@id":"relation/4679459","admin_level":"8","alt_name":"Belde Mahallesi","boundary":"administrative","name":"Belde Mahallesi","population":"23011","type":"boundary","@relations":[{"role":"subarea","rel":1842145,"reltags":{"admin_level":"6","alt_name":"Batman","boundary":"administrative","name":"Batman Merkez","name:ar":"بطمان","name:de":"Batman","name:en":"Batman","name:ku":"Êlih (navend)","name:tr":"Batman Merkez","name:tr:suffix":"İlçesi","network":"TR72-districts","population":"477456","population:date":"2021","type":"boundary","wikidata":"Q159835","wikipedia":"tr:Batman"}}]},"id":"relation/4679459"},
{"type":"Feature","geometry":{"type":"Polygon","coordinates":[[[41.0977341,37.9110565],[41.1092305,37.9077256],[41.1126688,37.9072466],[41.1170729,37.9067938],[41.1321083,37.9051572],[41.145711,37.9168054],[41.1424066,37.9542696],[41.1390766,37.9419375],[41.1227409,37.9477101],[41.1087681,37.9333411],[41.0977341,37.9110565]]]},"properties":{"@id":"relation/4679460","admin_level":"8","alt_name":"Gültepe Mahallesi","boundary":"administrative","city":"Batman","name":"Gültepe Mahallesi","population":"32678","population:date":"2022","type":"boundary","@relations":[{"role":"subarea","rel":1842145,"reltags":{"admin_level":"6","alt_name":"Batman","boundary":"administrative","name":"Batman Merkez","name:ar":"بطمان","name:de":"Batman","name:en":"Batman","name:ku":"Êlih (navend)","name:tr":"Batman Merkez","name:tr:suffix":"İlçesi","network":"TR72-districts","population":"477456","population:date":"2021","type":"boundary","wikidata":"Q159835","wikipedia":"tr:Batman"}}]},"id":"relation/4679460"},
{"type":"Feature","geometry":{"type":"Polygon","coordinates":[[[41.153135,37.890947],[41.1599287,37.9069924],[41.1498901,37.9141657],[41.1419392,37.9021906],[41.153135,37.890947]]]},"properties":{"@id":"relation/4680127","admin_level":"8","alt_name":"Çamlıtepe Mahallesi","boundary":"administrative","name":"Çamlıtepe Mahallesi","population":"18951","type":"boundary","@relations":[{"role":"subarea","rel":1842145,"reltags":{"admin_level":"6","alt_name":"Batman","boundary":"administrative","name":"Batman Merkez","name:ar":"بطمان","name:de":"Batman","name:en":"Batman","name:ku":"Êlih (navend)","name:tr":"Batman Merkez","name:tr:suffix":"İlçesi","network":"TR72-districts","population":"477456","population:date":"2021","type":"boundary","wikidata":"Q159835","wikipedia":"tr:Batman"}}]},"id":"relation/4680127"},
{"type":"Feature","geometry":{"type":"Polygon","coordinates":[[[41.0905973,37.8406754],[41.0924002,37.8390214],[41.1003803,37.8544653],[41.084573,37.8610703],[41.0774551,37.8654969],[41.0747579,37.8641044],[41.0781075,37.8475635],[41.0905973,37.8406754]]]},"properties":{"@id":"relation/4683680","admin_level":"8","alt_name":"Yenişehir Mah.","boundary":"administrative","name":"Yenişehir Mahallesi","population":"5775","type":"boundary","@relations":[{"role":"subarea","rel":1842145,"reltags":{"admin_level":"6","alt_name":"Batman","boundary":"administrative","name":"Batman Merkez","name:ar":"بطمان","name:de":"Batman","name:en":"Batman","name:ku":"Êlih (navend)","name:tr":"Batman Merkez","name:tr:suffix":"İlçesi","network":"TR72-districts","population":"477456","population:date":"2021","type":"boundary","wikidata":"Q159835","wikipedia":"tr:Batman"}}]},"id":"relation/4683680"},
{"type":"Feature","geometry":{"type":"Polygon","coordinates":[[[41.0890937,37.8777077],[41.0985039,37.8794585],[41.1043611,37.8821001],[41.1082076,37.8870658],[41.0955134,37.8898063],[41.0895599,37.8800125],[41.0890937,37.8777077]]]},"properties":{"@id":"relation/6935531","admin_level":"8","boundary":"administrative","city":"Batman","name":"Çay Mahallesi","population":"4574","type":"boundary","@relations":[{"role":"subarea","rel":1842145,"reltags":{"admin_level":"6","alt_name":"Batman","boundary":"administrative","name":"Batman Merkez","name:ar":"بطمان","name:de":"Batman","name:en":"Batman","name:ku":"Êlih (navend)","name:tr":"Batman Merkez","name:tr:suffix":"İlçesi","network":"TR72-districts","population":"477456","population:date":"2021","type":"boundary","wikidata":"Q159835","wikipedia":"tr:Batman"}}]},"id":"relation/6935531"},
{"type":"Feature","geometry":{"type":"Polygon","coordinates":[[[41.169905,37.9232228],[41.1599287,37.9069924],[41.153135,37.890947],[41.1578544,37.8872016],[41.1660503,37.8807764],[41.1742835,37.8743129],[41.1828222,37.8780894],[41.1862871,37.905928],[41.1774664,37.9229048],[41.169905,37.9232228]]]},"properties":{"@id":"relation/7053097","admin_level":"8","boundary":"administrative","district":"Merkez","name":"Korik Mahallesi","type":"boundary","@relations":[{"role":"subarea","rel":1842145,"reltags":{"admin_level":"6","alt_name":"Batman","boundary":"administrative","name":"Batman Merkez","name:ar":"بطمان","name:de":"Batman","name:en":"Batman","name:ku":"Êlih (navend)","name:tr":"Batman Merkez","name:tr:suffix":"İlçesi","network":"TR72-districts","population":"477456","population:date":"2021","type":"boundary","wikidata":"Q159835","wikipedia":"tr:Batman"}}]},"id":"relation/7053097"},
{"type":"Feature","geometry":{"type":"Polygon","coordinates":[[[41.3852853,37.5666024],[41.3982217,37.579603],[41.4023627,37.5952383],[41.3773622,37.5980067],[41.3451859,37.5802072],[41.3343422,37.5785861],[41.3252917,37.5682076],[41.3307974,37.5536552],[41.3475796,37.547428],[41.3624105,37.5482274],[41.3651913,37.5589407],[41.3852853,37.5666024]]]},"properties":{"@id":"relation/11267566","admin_level":"8","boundary":"administrative","name":"Pınarbaşı Mahallesi","type":"boundary","@relations":[{"role":"subarea","rel":1842147,"reltags":{"admin_level":"6","alt_name:ku":"Kercos","boundary":"administrative","name":"Gercüş","name:ar":"کەرجەوس","name:ce":"Герджуьш","name:de":"Gercüş","name:en":"Gercüş","name:fa":"گرجوش","name:ku":"Kercews","name:ru":"Герджюш","name:tr":"Gercüş","name:tr:suffix":"İlçesi","name:tt":"Герҗүш","name:uk":"Ґерджюш","name:ur":"گرجوش","network":"TR72-districts","population":"19106","population:date":"2022","type":"boundary","wikidata":"Q1023286","wikipedia":"tr:Gercüş"}}]},"id":"relation/11267566"},
{"type":"Feature","geometry":{"type":"Polygon","coordinates":[[[41.3852853,37.5666024],[41.3965052,37.5573059],[41.3998697,37.542161],[41.4120953,37.5400893],[41.4264284,37.5579116],[41.42393,37.5740095],[41.4122998,37.5773599],[41.4023627,37.5952383],[41.3982217,37.579603],[41.3852853,37.5666024]]]},"properties":{"@id":"relation/11267567","admin_level":"8","boundary":"administrative","name":"Bağlarbaşı Mahallesi","type":"boundary","@relations":[{"role":"subarea","rel":1842147,"reltags":{"admin_level":"6","alt_name:ku":"Kercos","boundary":"administrative","name":"Gercüş","name:ar":"کەرجەوس","name:ce":"Герджуьш","name:de":"Gercüş","name:en":"Gercüş","name:fa":"گرجوش","name:ku":"Kercews","name:ru":"Герджюш","name:tr":"Gercüş","name:tr:suffix":"İlçesi","name:tt":"Герҗүш","name:uk":"Ґерджюш","name:ur":"گرجوش","network":"TR72-districts","population":"19106","population:date":"2022","type":"boundary","wikidata":"Q1023286","wikipedia":"tr:Gercüş"}}]},"id":"relation/11267567"},
{"type":"Feature","geometry":{"type":"Polygon","coordinates":[[[41.3624105,37.5482274],[41.3772574,37.5494765],[41.3998697,37.542161],[41.3965052,37.5573059],[41.3852853,37.5666024],[41.3651913,37.5589407],[41.3624105,37.5482274]]]},"properties":{"@id":"relation/11267568","admin_level":"8","boundary":"administrative","name":"Çukurçeşme Mahallesi","type":"boundary","@relations":[{"role":"subarea","rel":1842147,"reltags":{"admin_level":"6","alt_name:ku":"Kercos","boundary":"administrative","name":"Gercüş","name:ar":"کەرجەوس","name:ce":"Герджуьш","name:de":"Gercüş","name:en":"Gercüş","name:fa":"گرجوش","name:ku":"Kercews","name:ru":"Герджюш","name:tr":"Gercüş","name:tr:suffix":"İlçesi","name:tt":"Герҗүш","name:uk":"Ґерджюш","name:ur":"گرجوش","network":"TR72-districts","population":"19106","population:date":"2022","type":"boundary","wikidata":"Q1023286","wikipedia":"tr:Gercüş"}}]},"id":"relation/11267568"},
{"type":"Feature","geometry":{"type":"Polygon","coordinates":[[[41.1587678,37.8562711],[41.1482192,37.8686854],[41.1338464,37.8672535],[41.1225421,37.8529551],[41.1085496,37.852327],[41.1360798,37.8265406],[41.139761,37.844874],[41.1465091,37.8474451],[41.1587678,37.8562711]]]},"properties":{"@id":"relation/11267716","admin_level":"8","alt_name":"Erköklü;İrmi Mahallesi;Erköklü Mahallesi","boundary":"administrative","name":"İrmi Mahallesi","name:hy":"Էրմի","name:ku":"Ermî","type":"boundary","wikidata":"Q5389710","wikipedia":"ku:Ermê","@relations":[{"role":"subarea","rel":1842145,"reltags":{"admin_level":"6","alt_name":"Batman","boundary":"administrative","name":"Batman Merkez","name:ar":"بطمان","name:de":"Batman","name:en":"Batman","name:ku":"Êlih (navend)","name:tr":"Batman Merkez","name:tr:suffix":"İlçesi","network":"TR72-districts","population":"477456","population:date":"2021","type":"boundary","wikidata":"Q159835","wikipedia":"tr:Batman"}}]},"id":"relation/11267716"},
{"type":"Feature","geometry":{"type":"Polygon","coordinates":[[[41.0977341,37.9110565],[41.0904398,37.9136465],[41.064363,37.8885898],[41.0895599,37.8800125],[41.0955134,37.8898063],[41.0996491,37.8949385],[41.1092305,37.9077256],[41.0977341,37.9110565]]]},"properties":{"@id":"relation/11267771","admin_level":"8","boundary":"administrative","name":"Girbereşik Mahallesi","type":"boundary","@relations":[{"role":"subarea","rel":1842145,"reltags":{"admin_level":"6","alt_name":"Batman","boundary":"administrative","name":"Batman Merkez","name:ar":"بطمان","name:de":"Batman","name:en":"Batman","name:ku":"Êlih (navend)","name:tr":"Batman Merkez","name:tr:suffix":"İlçesi","network":"TR72-districts","population":"477456","population:date":"2021","type":"boundary","wikidata":"Q159835","wikipedia":"tr:Batman"}}]},"id":"relation/11267771"},
{"type":"Feature","geometry":{"type":"Polygon","coordinates":[[[41.145711,37.9168054],[41.1498901,37.9141657],[41.1599287,37.9069924],[41.169905,37.9232228],[41.1641214,37.9329745],[41.1704391,37.9409328],[41.1491335,37.9572572],[41.1424066,37.9542696],[41.145711,37.9168054]]]},"properties":{"@id":"relation/11267772","admin_level":"8","boundary":"administrative","name":"Tilmerc Mahallesi","name:hy":"Թըլմերջ","type":"boundary","wikidata":"Q5255417","wikipedia":"ku:Tilmerc","@relations":[{"role":"subarea","rel":1842145,"reltags":{"admin_level":"6","alt_name":"Batman","boundary":"administrative","name":"Batman Merkez","name:ar":"بطمان","name:de":"Batman","name:en":"Batman","name:ku":"Êlih (navend)","name:tr":"Batman Merkez","name:tr:suffix":"İlçesi","network":"TR72-districts","population":"477456","population:date":"2021","type":"boundary","wikidata":"Q159835","wikipedia":"tr:Batman"}}]},"id":"relation/11267772"},
{"type":"Feature","geometry":{"type":"Polygon","coordinates":[[[41.4281743,37.7377378],[41.4173542,37.7386349],[41.4161431,37.7304552],[41.4281743,37.7377378]]]},"properties":{"@id":"relation/11272510","admin_level":"8","boundary":"administrative","name":"Raman Mahallesi","population":"1271","population:date":"2022","type":"boundary","@relations":[{"role":"subarea","rel":1361162,"reltags":{"admin_level":"6","boundary":"administrative","name":"Hasankeyf","name:ar":"حصن كيفا","name:ce":"ХӀасанкейф","name:de":"Hasankeyf","name:el":"Κίφας","name:en":"Hasankeyf","name:fa":"حصن کیفا","name:hy":"Հասանքեյֆ","name:ko":"하산케이프","name:ku":"Heskîf","name:ru":"Хасанкейф","name:tr":"Hasankeyf","name:tr:suffix":"İlçesi","name:tt":"Хасанкейф","name:uk":"Хасанкейф","name:ur":"حصن کیفا","name:zh":"哈桑凱伊夫","network":"TR72-districts","population":"7319","population:date":"2022","type":"boundary","wikidata":"Q756957","wikipedia":"ku:Heskîf","wikipedia:tr":"Hasankeyf"}}]},"id":"relation/11272510"},
{"type":"Feature","geometry":{"type":"Polygon","coordinates":[[[41.4201686,37.715646],[41.433147,37.723834],[41.4281743,37.7377378],[41.4161431,37.7304552],[41.411875,37.7247115],[41.4201686,37.715646]]]},"properties":{"@id":"relation/11272511","admin_level":"8","boundary":"administrative","name":"Kültür Mahallesi","population":"912","population:date":"2022","type":"boundary","@relations":[{"role":"subarea","rel":1361162,"reltags":{"admin_level":"6","boundary":"administrative","name":"Hasankeyf","name:ar":"حصن كيفا","name:ce":"ХӀасанкейф","name:de":"Hasankeyf","name:el":"Κίφας","name:en":"Hasankeyf","name:fa":"حصن کیفا","name:hy":"Հասանքեյֆ","name:ko":"하산케이프","name:ku":"Heskîf","name:ru":"Хасанкейф","name:tr":"Hasankeyf","name:tr:suffix":"İlçesi","name:tt":"Хасанкейф","name:uk":"Хасанкейф","name:ur":"حصن کیفا","name:zh":"哈桑凱伊夫","network":"TR72-districts","population":"7319","population:date":"2022","type":"boundary","wikidata":"Q756957","wikipedia":"ku:Heskîf","wikipedia:tr":"Hasankeyf"}}]},"id":"relation/11272511"},
{"type":"Feature","geometry":{"type":"Polygon","coordinates":[[[41.4161431,37.7304552],[41.4173542,37.7386349],[41.4068528,37.7392902],[41.4161431,37.7304552]]]},"properties":{"@id":"relation/11272512","admin_level":"8","boundary":"administrative","name":"Eyyubi Mahallesi","population":"785","population:date":"2022","type":"boundary","@relations":[{"role":"subarea","rel":1361162,"reltags":{"admin_level":"6","boundary":"administrative","name":"Hasankeyf","name:ar":"حصن كيفا","name:ce":"ХӀасанкейф","name:de":"Hasankeyf","name:el":"Κίφας","name:en":"Hasankeyf","name:fa":"حصن کیفا","name:hy":"Հասանքեյֆ","name:ko":"하산케이프","name:ku":"Heskîf","name:ru":"Хасанкейф","name:tr":"Hasankeyf","name:tr:suffix":"İlçesi","name:tt":"Хасанкейф","name:uk":"Хасанкейф","name:ur":"حصن کیفا","name:zh":"哈桑凱伊夫","network":"TR72-districts","population":"7319","population:date":"2022","type":"boundary","wikidata":"Q756957","wikipedia":"ku:Heskîf","wikipedia:tr":"Hasankeyf"}}]},"id":"relation/11272512"},
{"type":"Feature","geometry":{"type":"Polygon","coordinates":[[[41.4161431,37.7304552],[41.4068528,37.7392902],[41.411875,37.7247115],[41.4161431,37.7304552]]]},"properties":{"@id":"relation/11272513","admin_level":"8","boundary":"administrative","name":"Dicle Mahallesi","population":"1045","population:date":"2022","type":"boundary","@relations":[{"role":"subarea","rel":1361162,"reltags":{"admin_level":"6","boundary":"administrative","name":"Hasankeyf","name:ar":"حصن كيفا","name:ce":"ХӀасанкейф","name:de":"Hasankeyf","name:el":"Κίφας","name:en":"Hasankeyf","name:fa":"حصن کیفا","name:hy":"Հասանքեյֆ","name:ko":"하산케이프","name:ku":"Heskîf","name:ru":"Хасанкейф","name:tr":"Hasankeyf","name:tr:suffix":"İlçesi","name:tt":"Хасанкейф","name:uk":"Хасанкейф","name:ur":"حصن کیفا","name:zh":"哈桑凱伊夫","network":"TR72-districts","population":"7319","population:date":"2022","type":"boundary","wikidata":"Q756957","wikipedia":"ku:Heskîf","wikipedia:tr":"Hasankeyf"}}]},"id":"relation/11272513"},
{"type":"Feature","geometry":{"type":"Polygon","coordinates":[[[41.0905973,37.8406754],[41.0801165,37.8260898],[41.104296,37.8273776],[41.1055161,37.8389509],[41.0924002,37.8390214],[41.0905973,37.8406754]]]},"properties":{"@id":"relation/11272674","admin_level":"8","boundary":"administrative","name":"Kardelen Mahallesi","type":"boundary","@relations":[{"role":"subarea","rel":1842145,"reltags":{"admin_level":"6","alt_name":"Batman","boundary":"administrative","name":"Batman Merkez","name:ar":"بطمان","name:de":"Batman","name:en":"Batman","name:ku":"Êlih (navend)","name:tr":"Batman Merkez","name:tr:suffix":"İlçesi","network":"TR72-districts","population":"477456","population:date":"2021","type":"boundary","wikidata":"Q159835","wikipedia":"tr:Batman"}}]},"id":"relation/11272674"},
{"type":"Feature","geometry":{"type":"Polygon","coordinates":[[[41.0819357,37.9479739],[41.0720558,37.9542759],[41.0357452,37.9607129],[41.0315634,37.9433272],[41.0329457,37.9273115],[41.077177,37.9233721],[41.0904398,37.9136465],[41.1036031,37.9345998],[41.0819357,37.9479739]]]},"properties":{"@id":"relation/11314389","admin_level":"8","boundary":"administrative","name":"Akoba Köyü","type":"boundary","@relations":[{"role":"subarea","rel":1842145,"reltags":{"admin_level":"6","alt_name":"Batman","boundary":"administrative","name":"Batman Merkez","name:ar":"بطمان","name:de":"Batman","name:en":"Batman","name:ku":"Êlih (navend)","name:tr":"Batman Merkez","name:tr:suffix":"İlçesi","network":"TR72-districts","population":"477456","population:date":"2021","type":"boundary","wikidata":"Q159835","wikipedia":"tr:Batman"}}]},"id":"relation/11314389"},
{"type":"Feature","geometry":{"type":"Polygon","coordinates":[[[41.1828222,37.8780894],[41.200825,37.86152],[41.216949,37.8682302],[41.2170747,37.8866539],[41.2124827,37.9019723],[41.2073819,37.9072662],[41.1862871,37.905928],[41.1828222,37.8780894]]]},"properties":{"@id":"relation/11314631","admin_level":"8","boundary":"administrative","name":"Kösetarla Köyü","type":"boundary","@relations":[{"role":"subarea","rel":1842145,"reltags":{"admin_level":"6","alt_name":"Batman","boundary":"administrative","name":"Batman Merkez","name:ar":"بطمان","name:de":"Batman","name:en":"Batman","name:ku":"Êlih (navend)","name:tr":"Batman Merkez","name:tr:suffix":"İlçesi","network":"TR72-districts","population":"477456","population:date":"2021","type":"boundary","wikidata":"Q159835","wikipedia":"tr:Batman"}}]},"id":"relation/11314631"},
{"type":"Feature","geometry":{"type":"Polygon","coordinates":[[[41.0774551,37.8654969],[41.0509618,37.8669834],[41.0529038,37.8606723],[41.0572351,37.8544469],[41.0747579,37.8641044],[41.0774551,37.8654969]]]},"properties":{"@id":"relation/12210991","admin_level":"8","boundary":"administrative","name":"Seyrantepe Mahallesi","type":"boundary","@relations":[{"role":"subarea","rel":13916964,"reltags":{"admin_level":"8","boundary":"administrative","name":"Balpınar Beldesi","type":"boundary"}}]},"id":"relation/12210991"},
{"type":"Feature","geometry":{"type":"Polygon","coordinates":[[[41.0890937,37.8777077],[41.0736737,37.8740966],[41.0449217,37.8768635],[41.0458592,37.8679984],[41.0509618,37.8669834],[41.0774551,37.8654969],[41.0859826,37.8688515],[41.0890937,37.8777077]]]},"properties":{"@id":"relation/12413811","admin_level":"8","boundary":"administrative","name":"Yenimahalle Mahallesi","type":"boundary","@relations":[{"role":"subarea","rel":13916964,"reltags":{"admin_level":"8","boundary":"administrative","name":"Balpınar Beldesi","type":"boundary"}}]},"id":"relation/12413811"},
{"type":"Feature","geometry":{"type":"Polygon","coordinates":[[[41.2479212,37.8543755],[41.243369,37.845284],[41.245081,37.82423],[41.27099,37.815698],[41.2888056,37.8236904],[41.280389,37.8336607],[41.2844157,37.8486267],[41.2713961,37.8575569],[41.2479212,37.8543755]]]},"properties":{"@id":"relation/13460538","admin_level":"8","boundary":"administrative","name":"Çevrimova Köyü","name:hy":"Բարըսըլ","name:ku":"Barisil","old_name":"Barsil","type":"boundary","wikidata":"Q8077686","wikipedia":"ku:Barisil","@relations":[{"role":"subarea","rel":1842145,"reltags":{"admin_level":"6","alt_name":"Batman","boundary":"administrative","name":"Batman Merkez","name:ar":"بطمان","name:de":"Batman","name:en":"Batman","name:ku":"Êlih (navend)","name:tr":"Batman Merkez","name:tr:suffix":"İlçesi","network":"TR72-districts","population":"477456","population:date":"2021","type":"boundary","wikidata":"Q159835","wikipedia":"tr:Batman"}}]},"id":"relation/13460538"},
{"type":"Feature","geometry":{"type":"Polygon","coordinates":[[[41.1952842,37.8351109],[41.219299,37.822063],[41.243369,37.845284],[41.2479212,37.8543755],[41.2423679,37.8628182],[41.2257225,37.8707484],[41.216949,37.8682302],[41.200825,37.86152],[41.2001535,37.8454134],[41.190534,37.8438575],[41.1952842,37.8351109]]]},"properties":{"@id":"relation/13460539","admin_level":"8","boundary":"administrative","name":"Binatlı Köyü","type":"boundary","@relations":[{"role":"subarea","rel":1842145,"reltags":{"admin_level":"6","alt_name":"Batman","boundary":"administrative","name":"Batman Merkez","name:ar":"بطمان","name:de":"Batman","name:en":"Batman","name:ku":"Êlih (navend)","name:tr":"Batman Merkez","name:tr:suffix":"İlçesi","network":"TR72-districts","population":"477456","population:date":"2021","type":"boundary","wikidata":"Q159835","wikipedia":"tr:Batman"}}]},"id":"relation/13460539"},
{"type":"Feature","geometry":{"type":"Polygon","coordinates":[[[41.200825,37.86152],[41.1828222,37.8780894],[41.1742835,37.8743129],[41.1676606,37.8606955],[41.2001535,37.8454134],[41.200825,37.86152]]]},"properties":{"@id":"relation/13467429","admin_level":"8","boundary":"administrative","name":"Akça Köyü","type":"boundary","@relations":[{"role":"subarea","rel":1842145,"reltags":{"admin_level":"6","alt_name":"Batman","boundary":"administrative","name":"Batman Merkez","name:ar":"بطمان","name:de":"Batman","name:en":"Batman","name:ku":"Êlih (navend)","name:tr":"Batman Merkez","name:tr:suffix":"İlçesi","network":"TR72-districts","population":"477456","population:date":"2021","type":"boundary","wikidata":"Q159835","wikipedia":"tr:Batman"}}]},"id":"relation/13467429"},
{"type":"Feature","geometry":{"type":"Polygon","coordinates":[[[41.184553,37.792833],[41.193326,37.79953],[41.198058,37.822146],[41.1952842,37.8351109],[41.190534,37.8438575],[41.1587678,37.8562711],[41.1465091,37.8474451],[41.15138,37.823344],[41.141916,37.807219],[41.161335,37.796162],[41.184553,37.792833]]]},"properties":{"@id":"relation/13467430","admin_level":"8","boundary":"administrative","name":"Recepler Köyü","type":"boundary","@relations":[{"role":"subarea","rel":1842145,"reltags":{"admin_level":"6","alt_name":"Batman","boundary":"administrative","name":"Batman Merkez","name:ar":"بطمان","name:de":"Batman","name:en":"Batman","name:ku":"Êlih (navend)","name:tr":"Batman Merkez","name:tr:suffix":"İlçesi","network":"TR72-districts","population":"477456","population:date":"2021","type":"boundary","wikidata":"Q159835","wikipedia":"tr:Batman"}}]},"id":"relation/13467430"},
{"type":"Feature","geometry":{"type":"Polygon","coordinates":[[[41.2016666,37.7415949],[41.208782,37.776989],[41.213235,37.785272],[41.184553,37.792833],[41.161335,37.796162],[41.158253,37.779991],[41.1602362,37.7577363],[41.1685584,37.7509412],[41.1709676,37.7376906],[41.2016666,37.7415949]]]},"properties":{"@id":"relation/13467431","admin_level":"8","boundary":"administrative","name":"Çayüstü Köyü","type":"boundary","@relations":[{"role":"subarea","rel":1842145,"reltags":{"admin_level":"6","alt_name":"Batman","boundary":"administrative","name":"Batman Merkez","name:ar":"بطمان","name:de":"Batman","name:en":"Batman","name:ku":"Êlih (navend)","name:tr":"Batman Merkez","name:tr:suffix":"İlçesi","network":"TR72-districts","population":"477456","population:date":"2021","type":"boundary","wikidata":"Q159835","wikipedia":"tr:Batman"}}]},"id":"relation/13467431"},
{"type":"Feature","geometry":{"type":"Polygon","coordinates":[[[41.2921889,37.917016],[41.2918215,37.9174306],[41.2885109,37.9240325],[41.2723758,37.9267024],[41.2556421,37.9127519],[41.256771,37.899176],[41.266035,37.896416],[41.2921889,37.917016]]]},"properties":{"@id":"relation/13523636","admin_level":"8","boundary":"administrative","name":"Bağdu Mahallesi","type":"boundary"},"id":"relation/13523636"},
{"type":"Feature","geometry":{"type":"Polygon","coordinates":[[[41.2918215,37.9174306],[41.301367,37.9287488],[41.293197,37.9345624],[41.2885109,37.9240325],[41.2918215,37.9174306]]]},"properties":{"@id":"relation/13523637","admin_level":"8","boundary":"administrative","name":"Mehmet Yatkın Mahallesi","type":"boundary"},"id":"relation/13523637"},
{"type":"Feature","geometry":{"type":"Polygon","coordinates":[[[41.2927391,37.91626],[41.2921889,37.917016],[41.266035,37.896416],[41.2796991,37.8853645],[41.2876987,37.8991058],[41.2927391,37.91626]]]},"properties":{"@id":"relation/13523638","admin_level":"8","boundary":"administrative","name":"Millî Egemenlik Mahallesi","type":"boundary"},"id":"relation/13523638"},
{"type":"Feature","geometry":{"type":"Polygon","coordinates":[[[41.3072083,37.9282058],[41.2927391,37.91626],[41.2876987,37.8991058],[41.3104021,37.9052852],[41.3128994,37.925667],[41.3072083,37.9282058]]]},"properties":{"@id":"relation/13523639","admin_level":"8","boundary":"administrative","name":"Kobin Mahallesi","type":"boundary"},"id":"relation/13523639"},
{"type":"Feature","geometry":{"type":"Polygon","coordinates":[[[41.2918215,37.9174306],[41.2921889,37.917016],[41.2927391,37.91626],[41.3072083,37.9282058],[41.301367,37.9287488],[41.2918215,37.9174306]]]},"properties":{"@id":"relation/13523640","admin_level":"8","boundary":"administrative","name":"Behrem Yoğun Mahallesi","type":"boundary"},"id":"relation/13523640"},
{"type":"Feature","geometry":{"type":"Polygon","coordinates":[[[41.256771,37.899176],[41.241985,37.883341],[41.2170747,37.8866539],[41.216949,37.8682302],[41.2257225,37.8707484],[41.2423679,37.8628182],[41.2479212,37.8543755],[41.2713961,37.8575569],[41.273297,37.876441],[41.2796991,37.8853645],[41.266035,37.896416],[41.256771,37.899176]]]},"properties":{"@id":"relation/13524139","admin_level":"8","boundary":"administrative","name":"Danalı Köyü","type":"boundary","@relations":[{"role":"subarea","rel":1842146,"reltags":{"admin_level":"6","boundary":"administrative","name":"Beşiri","name:ar":"البشيرية","name:ce":"Бешири","name:de":"Beşiri","name:en":"Beşiri","name:fa":"بشیری","name:hy":"Բշերիկ","name:ku":"Qubîn","name:ru":"Бешири","name:tr":"Beşiri","name:tr:suffix":"İlçesi","name:tt":"Бешири","name:ur":"بشیری","name:zh":"貝希里","network":"TR72-districts","population":"31465","population:date":"2022","type":"boundary","wikidata":"Q854667","wikipedia":"tr:Beşiri"}}]},"id":"relation/13524139"},
{"type":"Feature","geometry":{"type":"Polygon","coordinates":[[[41.2723758,37.9267024],[41.2885109,37.9240325],[41.293197,37.9345624],[41.2723758,37.9267024]]]},"properties":{"@id":"relation/13525503","admin_level":"8","boundary":"administrative","name":"Cumhuriyet Mahallesi","type":"boundary"},"id":"relation/13525503"},
{"type":"Feature","geometry":{"type":"Polygon","coordinates":[[[41.2556421,37.9127519],[41.2422485,37.9225592],[41.232769,37.909247],[41.2124827,37.9019723],[41.2170747,37.8866539],[41.241985,37.883341],[41.256771,37.899176],[41.2556421,37.9127519]]]},"properties":{"@id":"relation/13527787","admin_level":"8","boundary":"administrative","name":"Örmegöze Köyü","type":"boundary","@relations":[{"role":"subarea","rel":1842146,"reltags":{"admin_level":"6","boundary":"administrative","name":"Beşiri","name:ar":"البشيرية","name:ce":"Бешири","name:de":"Beşiri","name:en":"Beşiri","name:fa":"بشیری","name:hy":"Բշերիկ","name:ku":"Qubîn","name:ru":"Бешири","name:tr":"Beşiri","name:tr:suffix":"İlçesi","name:tt":"Бешири","name:ur":"بشیری","name:zh":"貝希里","network":"TR72-districts","population":"31465","population:date":"2022","type":"boundary","wikidata":"Q854667","wikipedia":"tr:Beşiri"}}]},"id":"relation/13527787"},
{"type":"Feature","geometry":{"type":"Polygon","coordinates":[[[40.997853,37.8422092],[41.0288111,37.8422967],[41.0314075,37.8526325],[41.0529038,37.8606723],[41.0509618,37.8669834],[41.0458592,37.8679984],[41.0286049,37.8594068],[41.0101426,37.8622132],[40.997853,37.8422092]]]},"properties":{"@id":"relation/13916962","admin_level":"8","boundary":"administrative","name":"Segirkan Mahallesi","type":"boundary","@relations":[{"role":"subarea","rel":13916964,"reltags":{"admin_level":"8","boundary":"administrative","name":"Balpınar Beldesi","type":"boundary"}}]},"id":"relation/13916962"},
{"type":"Feature","geometry":{"type":"Polygon","coordinates":[[[41.0101426,37.8622132],[41.0286049,37.8594068],[41.0458592,37.8679984],[41.0449217,37.8768635],[41.0736737,37.8740966],[41.0890937,37.8777077],[41.0895599,37.8800125],[41.064363,37.8885898],[41.0431701,37.8915965],[41.0300437,37.8767745],[41.0101426,37.8622132]]]},"properties":{"@id":"relation/13916963","admin_level":"8","boundary":"administrative","name":"Yeniköy Mahallesi","type":"boundary","@relations":[{"role":"subarea","rel":13916964,"reltags":{"admin_level":"8","boundary":"administrative","name":"Balpınar Beldesi","type":"boundary"}}]},"id":"relation/13916963"},
{"type":"Feature","geometry":{"type":"Polygon","coordinates":[[[40.997853,37.8422092],[41.0288111,37.8422967],[41.0314075,37.8526325],[41.0529038,37.8606723],[41.0572351,37.8544469],[41.0747579,37.8641044],[41.0774551,37.8654969],[41.0859826,37.8688515],[41.0890937,37.8777077],[41.0895599,37.8800125],[41.064363,37.8885898],[41.0431701,37.8915965],[41.0300437,37.8767745],[41.0101426,37.8622132],[40.997853,37.8422092]]]},"properties":{"@id":"relation/13916964","admin_level":"8","boundary":"administrative","name":"Balpınar Beldesi","type":"boundary","@relations":[{"role":"subarea","rel":1842145,"reltags":{"admin_level":"6","alt_name":"Batman","boundary":"administrative","name":"Batman Merkez","name:ar":"بطمان","name:de":"Batman","name:en":"Batman","name:ku":"Êlih (navend)","name:tr":"Batman Merkez","name:tr:suffix":"İlçesi","network":"TR72-districts","population":"477456","population:date":"2021","type":"boundary","wikidata":"Q159835","wikipedia":"tr:Batman"}}]},"id":"relation/13916964"},
{"type":"Feature","geometry":{"type":"Polygon","coordinates":[[[41.0300437,37.8767745],[41.0431701,37.8915965],[41.064363,37.8885898],[41.0904398,37.9136465],[41.077177,37.9233721],[41.0329457,37.9273115],[41.0304288,37.9067],[41.0194537,37.899923],[41.0170492,37.8852033],[41.0300437,37.8767745]]]},"properties":{"@id":"relation/13919005","admin_level":"8","boundary":"administrative","name":"Diktepe Köyü","place":"village","type":"boundary","@relations":[{"role":"subarea","rel":1842145,"reltags":{"admin_level":"6","alt_name":"Batman","boundary":"administrative","name":"Batman Merkez","name:ar":"بطمان","name:de":"Batman","name:en":"Batman","name:ku":"Êlih (navend)","name:tr":"Batman Merkez","name:tr:suffix":"İlçesi","network":"TR72-districts","population":"477456","population:date":"2021","type":"boundary","wikidata":"Q159835","wikipedia":"tr:Batman"}}]},"id":"relation/13919005"},
{"type":"Feature","geometry":{"type":"Polygon","coordinates":[[[41.4944468,38.1744214],[41.4971602,38.1670322],[41.4997683,38.1666699],[41.4969144,38.17486],[41.4944468,38.1744214]]]},"properties":{"@id":"relation/13922995","admin_level":"8","boundary":"administrative","name":"Aşağıgüneşli Mahallesi","type":"boundary","@relations":[{"role":"subarea","rel":1842148,"reltags":{"admin_level":"6","boundary":"administrative","name":"Kozluk","name:ce":"Козлук","name:de":"Kozluk","name:en":"Kozluk","name:fa":"کوزلوک","name:hy":"Հազզո","name:kk":"Козлук","name:ku":"Hezo","name:ru":"Козлук","name:tr":"Kozluk","name:tr:suffix":"İlçesi","name:ur":"کوزلوک","name:zh":"科茲盧克","network":"TR72-districts","population":"60128","population:date":"2022","type":"boundary","wikidata":"Q477171","wikipedia":"tr:Kozluk"}}]},"id":"relation/13922995"},
{"type":"Feature","geometry":{"type":"Polygon","coordinates":[[[41.5033455,38.1737812],[41.495914,38.1799525],[41.4969144,38.17486],[41.4997683,38.1666699],[41.5010039,38.1664757],[41.5033455,38.1737812]]]},"properties":{"@id":"relation/13922996","admin_level":"8","boundary":"administrative","name":"Komando Mahallesi","type":"boundary","@relations":[{"role":"subarea","rel":1842148,"reltags":{"admin_level":"6","boundary":"administrative","name":"Kozluk","name:ce":"Козлук","name:de":"Kozluk","name:en":"Kozluk","name:fa":"کوزلوک","name:hy":"Հազզո","name:kk":"Козлук","name:ku":"Hezo","name:ru":"Козлук","name:tr":"Kozluk","name:tr:suffix":"İlçesi","name:ur":"کوزلوک","name:zh":"科茲盧克","network":"TR72-districts","population":"60128","population:date":"2022","type":"boundary","wikidata":"Q477171","wikipedia":"tr:Kozluk"}}]},"id":"relation/13922996"},
{"type":"Feature","geometry":{"type":"Polygon","coordinates":[[[41.4971602,38.1670322],[41.4963802,38.1671331],[41.482814,38.1685671],[41.4801474,38.1549162],[41.4999886,38.157426],[41.4971602,38.1670322]]]},"properties":{"@id":"relation/13922997","admin_level":"8","boundary":"administrative","name":"Tepecik Mahallesi","type":"boundary","@relations":[{"role":"subarea","rel":1842148,"reltags":{"admin_level":"6","boundary":"administrative","name":"Kozluk","name:ce":"Козлук","name:de":"Kozluk","name:en":"Kozluk","name:fa":"کوزلوک","name:hy":"Հազզո","name:kk":"Козлук","name:ku":"Hezo","name:ru":"Козлук","name:tr":"Kozluk","name:tr:suffix":"İlçesi","name:ur":"کوزلوک","name:zh":"科茲盧克","network":"TR72-districts","population":"60128","population:date":"2022","type":"boundary","wikidata":"Q477171","wikipedia":"tr:Kozluk"}}]},"id":"relation/13922997"},
{"type":"Feature","geometry":{"type":"Polygon","coordinates":[[[41.4969144,38.17486],[41.495914,38.1799525],[41.4923458,38.1838619],[41.4944468,38.1744214],[41.4969144,38.17486]]]},"properties":{"@id":"relation/13922998","admin_level":"8","boundary":"administrative","name":"Selahaddini Eyyübi Mahallesi","type":"boundary","@relations":[{"role":"subarea","rel":1842148,"reltags":{"admin_level":"6","boundary":"administrative","name":"Kozluk","name:ce":"Козлук","name:de":"Kozluk","name:en":"Kozluk","name:fa":"کوزلوک","name:hy":"Հազզո","name:kk":"Козлук","name:ku":"Hezo","name:ru":"Козлук","name:tr":"Kozluk","name:tr:suffix":"İlçesi","name:ur":"کوزلوک","name:zh":"科茲盧克","network":"TR72-districts","population":"60128","population:date":"2022","type":"boundary","wikidata":"Q477171","wikipedia":"tr:Kozluk"}}]},"id":"relation/13922998"},
{"type":"Feature","geometry":{"type":"Polygon","coordinates":[[[41.4944468,38.1744214],[41.4923458,38.1838619],[41.4917322,38.1878419],[41.4873386,38.1755581],[41.4963802,38.1671331],[41.4971602,38.1670322],[41.4944468,38.1744214]]]},"properties":{"@id":"relation/13922999","admin_level":"8","boundary":"administrative","name":"Yamaçlı Mahallesi","type":"boundary","@relations":[{"role":"subarea","rel":1842148,"reltags":{"admin_level":"6","boundary":"administrative","name":"Kozluk","name:ce":"Козлук","name:de":"Kozluk","name:en":"Kozluk","name:fa":"کوزلوک","name:hy":"Հազզո","name:kk":"Козлук","name:ku":"Hezo","name:ru":"Козлук","name:tr":"Kozluk","name:tr:suffix":"İlçesi","name:ur":"کوزلوک","name:zh":"科茲盧克","network":"TR72-districts","population":"60128","population:date":"2022","type":"boundary","wikidata":"Q477171","wikipedia":"tr:Kozluk"}}]},"id":"relation/13922999"},
{"type":"Feature","geometry":{"type":"Polygon","coordinates":[[[41.495914,38.1799525],[41.5033455,38.1737812],[41.4917322,38.1878419],[41.4923458,38.1838619],[41.495914,38.1799525]]]},"properties":{"@id":"relation/13923000","admin_level":"8","boundary":"administrative","name":"Yukarı Güneşli Mahallesi","type":"boundary","@relations":[{"role":"subarea","rel":1842148,"reltags":{"admin_level":"6","boundary":"administrative","name":"Kozluk","name:ce":"Козлук","name:de":"Kozluk","name:en":"Kozluk","name:fa":"کوزلوک","name:hy":"Հազզո","name:kk":"Козлук","name:ku":"Hezo","name:ru":"Козлук","name:tr":"Kozluk","name:tr:suffix":"İlçesi","name:ur":"کوزلوک","name:zh":"科茲盧克","network":"TR72-districts","population":"60128","population:date":"2022","type":"boundary","wikidata":"Q477171","wikipedia":"tr:Kozluk"}}]},"id":"relation/13923000"},
{"type":"Feature","geometry":{"type":"Polygon","coordinates":[[[41.4963802,38.1671331],[41.4873386,38.1755581],[41.482814,38.1685671],[41.4963802,38.1671331]]]},"properties":{"@id":"relation/17223396","admin_level":"8","boundary":"administrative","name":"Karşıyaka Mahallesi","type":"boundary","@relations":[{"role":"subarea","rel":1842148,"reltags":{"admin_level":"6","boundary":"administrative","name":"Kozluk","name:ce":"Козлук","name:de":"Kozluk","name:en":"Kozluk","name:fa":"کوزلوک","name:hy":"Հազզո","name:kk":"Козлук","name:ku":"Hezo","name:ru":"Козлук","name:tr":"Kozluk","name:tr:suffix":"İlçesi","name:ur":"کوزلوک","name:zh":"科茲盧克","network":"TR72-districts","population":"60128","population:date":"2022","type":"boundary","wikidata":"Q477171","wikipedia":"tr:Kozluk"}}]},"id":"relation/17223396"},
{"type":"Feature","geometry":{"type":"Polygon","coordinates":[[[41.5084779,38.1653992],[41.5033455,38.1737812],[41.5010039,38.1664757],[41.5084779,38.1653992]]]},"properties":{"@id":"relation/17223397","admin_level":"8","boundary":"administrative","name":"75. Yıl Mahallesi","type":"boundary","@relations":[{"role":"subarea","rel":1842148,"reltags":{"admin_level":"6","boundary":"administrative","name":"Kozluk","name:ce":"Козлук","name:de":"Kozluk","name:en":"Kozluk","name:fa":"کوزلوک","name:hy":"Հազզո","name:kk":"Козлук","name:ku":"Hezo","name:ru":"Козлук","name:tr":"Kozluk","name:tr:suffix":"İlçesi","name:ur":"کوزلوک","name:zh":"科茲盧克","network":"TR72-districts","population":"60128","population:date":"2022","type":"boundary","wikidata":"Q477171","wikipedia":"tr:Kozluk"}}]},"id":"relation/17223397"},
{"type":"Feature","geometry":{"type":"Polygon","coordinates":[[[41.4999886,38.157426],[41.5084779,38.1653992],[41.5010039,38.1664757],[41.4997683,38.1666699],[41.4971602,38.1670322],[41.4999886,38.157426]]]},"properties":{"@id":"relation/17223398","admin_level":"8","boundary":"administrative","name":"Sağlık Mahallesi","type":"boundary","@relations":[{"role":"subarea","rel":1842148,"reltags":{"admin_level":"6","boundary":"administrative","name":"Kozluk","name:ce":"Козлук","name:de":"Kozluk","name:en":"Kozluk","name:fa":"کوزلوک","name:hy":"Հազզո","name:kk":"Козлук","name:ku":"Hezo","name:ru":"Козлук","name:tr":"Kozluk","name:tr:suffix":"İlçesi","name:ur":"کوزلوک","name:zh":"科茲盧克","network":"TR72-districts","population":"60128","population:date":"2022","type":"boundary","wikidata":"Q477171","wikipedia":"tr:Kozluk"}}]},"id":"relation/17223398"}
]}