{"type":"FeatureCollection", "features": [
{"type":"Feature","geometry":{"type":"Polygon","coordinates":[[[39.9682617,40.1933972],[39.9801921,40.2107366],[40.01976,40.2132273],[40.0020673,40.174556],[39.9673175,40.1849062],[39.9555587,40.1748074],[39.9800204,40.1494227],[39.9651757,40.1297562],[39.9372768,40.1193685],[39.9722098,40.0780715],[39.9658551,40.0513254],[40.0008773,40.0542273],[40.0262832,40.0759699],[40.0613592,40.0830928],[40.0949476,40.0404952],[40.1406239,40.0288616],[40.1740587,40.0377795],[40.2587126,40.0261686],[40.2702139,40.0355009],[40.3088377,40.0294548],[40.3531264,40.0393124],[40.3772085,40.0226109],[40.3932951,39.9944819],[40.4177548,39.9946138],[40.4798125,40.0114447],[40.5111839,40.0326965],[40.5105781,40.0641337],[40.5805777,40.0838507],[40.6636932,40.1293423],[40.6962005,40.1555691],[40.6874475,40.1793456],[40.7055578,40.2043533],[40.6743048,40.2302668],[40.646839,40.2235826],[40.6241797,40.1994617],[40.5982588,40.2056238],[40.5784073,40.2394424],[40.4997393,40.2719616],[40.5220722,40.3129646],[40.478429,40.3634235],[40.5038317,40.3740576],[40.556611,40.3470023],[40.5862007,40.3556704],[40.5815582,40.3890306],[40.5661373,40.3954276],[40.5467656,40.4375733],[40.5649741,40.4889888],[40.5948477,40.5137478],[40.5756353,40.5551372],[40.5365467,40.548309],[40.5164989,40.5185086],[40.3784425,40.521801],[40.2760036,40.5153905],[40.270953,40.478473],[40.2745795,40.4272994],[40.2639294,40.4150833],[40.2194082,40.440729],[40.1969376,40.4241168],[40.2549224,40.3943824],[40.2276958,40.3524977],[40.1703856,40.3382731],[40.1348496,40.3456597],[40.0855408,40.3736446],[40.0395101,40.3623955],[40.011139,40.3767322],[39.9816099,40.4106872],[39.9362126,40.4810275],[39.8872898,40.445044],[39.8659009,40.4133034],[39.8556565,40.380088],[39.8265287,40.3462616],[39.8172463,40.3127054],[39.8492082,40.2766316],[39.8612014,40.2182954],[39.8931598,40.2302667],[39.9107551,40.2155869],[39.9682617,40.1933972]]]},"properties":{"@id":"relation/1596962","admin_level":"6","alt_name":"Papert;Baberc;Baybert","boundary":"administrative","name":"Bayburt Merkez","name:ar":"بايبورت","name:ce":"Байбурт","name:de":"Bayburt","name:el":"Μπαϊμπούρτ","name:en":"Bayburt","name:fa":"بایبورد","name:hi":"बेबर्ट","name:hu":"Bayburt","name:hy":"Բաբերդ","name:ja":"バイブルト","name:ka":"ბაიბურთი","name:ko":"바이부르트","name:ku":"Baybûrd","name:os":"Байбурт","name:pa":"ਬੇਬੁਰਤ","name:pnt":"Παϊπούρτ","name:ru":"Байбурт","name:tg":"Бойбурт","name:tr":"Bayburt Merkez","name:tr:suffix":"İlçesi","name:tt":"Байбурт","name:uk":"Байбурт","name:ur":"بایبورت","name:zh":"巴伊布爾特","name:zza":"Bayburt","network":"TR69-districts","type":"boundary","wikidata":"Q211828","wikipedia":"tr:Bayburt"},"id":"relation/1596962"},
{"type":"Feature","geometry":{"type":"Polygon","coordinates":[[[39.9658551,40.0513254],[39.9722098,40.0780715],[39.9372768,40.1193685],[39.9651757,40.1297562],[39.9800204,40.1494227],[39.9555587,40.1748074],[39.9673175,40.1849062],[40.0020673,40.174556],[40.01976,40.2132273],[39.9801921,40.2107366],[39.9682617,40.1933972],[39.9107551,40.2155869],[39.8931598,40.2302667],[39.8612014,40.2182954],[39.8141415,40.1794964],[39.7226767,40.1665339],[39.7209843,40.1380866],[39.6807525,40.1341971],[39.6587561,40.1158898],[39.6546362,40.0816179],[39.6739577,40.0569988],[39.6548079,40.0462775],[39.6518896,40.0215677],[39.6923722,39.9992651],[39.7332571,40.0017146],[39.7453465,39.9766174],[39.7739409,39.9647539],[39.7919653,39.9297479],[39.8385004,39.9615741],[39.8762321,39.9993291],[39.9095534,39.9943504],[39.944685,40.0102062],[39.9394224,40.0383924],[39.9658551,40.0513254]]]},"properties":{"@id":"relation/1596963","admin_level":"6","boundary":"administrative","name":"Demirözü","name:fa":"دمیراوزو","name:hy":"Քսանթագ","name:ku":"Kisante","name:tr":"Demirözü","name:tr:suffix":"İlçesi","network":"TR69-districts","old_name":"Kısanta","population":"10745","population:date":"2016","type":"boundary","wikidata":"Q1185714","wikipedia":"tr:Demirözü"},"id":"relation/1596963"},
{"type":"Feature","geometry":{"type":"Polygon","coordinates":[[[40.2760036,40.5153905],[40.2757071,40.5338941],[40.2426839,40.5585802],[40.2062487,40.5505916],[40.1830498,40.5683545],[40.1271772,40.5374654],[40.1033255,40.5414648],[40.0950917,40.5006039],[40.0136111,40.4969767],[39.9669421,40.4806507],[39.9362126,40.4810275],[39.9816099,40.4106872],[40.011139,40.3767322],[40.0395101,40.3623955],[40.0855408,40.3736446],[40.1348496,40.3456597],[40.1703856,40.3382731],[40.2276958,40.3524977],[40.2549224,40.3943824],[40.1969376,40.4241168],[40.2194082,40.440729],[40.2639294,40.4150833],[40.2745795,40.4272994],[40.270953,40.478473],[40.2760036,40.5153905]]]},"properties":{"@id":"relation/1596964","admin_level":"6","boundary":"administrative","name":"Aydıntepe","name:de":"Aydıntepe","name:en":"Aydıntepe","name:fa":"آیدین‌تپه","name:hy":"Խարտ","name:ku":"Xart","name:ru":"Айдынтепе","name:tr":"Aydıntepe","name:tr:suffix":"İlçesi","network":"TR69-districts","type":"boundary","wikidata":"Q792917","wikipedia":"tr:Aydıntepe"},"id":"relation/1596964"},
{"type":"Feature","geometry":{"type":"Polygon","coordinates":[[[39.9673175,40.1849062],[40.0020673,40.174556],[40.01976,40.2132273],[39.9801921,40.2107366],[39.9682617,40.1933972],[39.9673175,40.1849062]]]},"properties":{"@id":"relation/13264149","admin_level":"8","boundary":"administrative","name":"Yelpınar","name:fa":"یل‌پینار","name:hy":"Բլրակ","name:ku":"Pilûrek","old_name":"Pülürek;Pılrag","type":"boundary","wikidata":"Q1155183","wikipedia":"tr:Yelpınar, Demirözü","@relations":[{"role":"subarea","rel":1596963,"reltags":{"admin_level":"6","boundary":"administrative","name":"Demirözü","name:fa":"دمیراوزو","name:hy":"Քսանթագ","name:ku":"Kisante","name:tr":"Demirözü","name:tr:suffix":"İlçesi","network":"TR69-districts","old_name":"Kısanta","population":"10745","population:date":"2016","type":"boundary","wikidata":"Q1185714","wikipedia":"tr:Demirözü"}}]},"id":"relation/13264149"},
{"type":"Feature","geometry":{"type":"Polygon","coordinates":[[[40.29004,40.27874],[40.23829,40.2606],[40.233897,40.2582781],[40.2515137,40.2397921],[40.3077435,40.2492261],[40.29004,40.27874]]]},"properties":{"@id":"relation/15590220","admin_level":"8","boundary":"administrative","name":"Erenli Köyü","type":"boundary","@relations":[{"role":"subarea","rel":1596962,"reltags":{"admin_level":"6","alt_name":"Papert;Baberc;Baybert","boundary":"administrative","name":"Bayburt Merkez","name:ar":"بايبورت","name:ce":"Байбурт","name:de":"Bayburt","name:el":"Μπαϊμπούρτ","name:en":"Bayburt","name:fa":"بایبورد","name:hi":"बेबर्ट","name:hu":"Bayburt","name:hy":"Բաբերդ","name:ja":"バイブルト","name:ka":"ბაიბურთი","name:ko":"바이부르트","name:ku":"Baybûrd","name:os":"Байбурт","name:pa":"ਬੇਬੁਰਤ","name:pnt":"Παϊπούρτ","name:ru":"Байбурт","name:tg":"Бойбурт","name:tr":"Bayburt Merkez","name:tr:suffix":"İlçesi","name:tt":"Байбурт","name:uk":"Байбурт","name:ur":"بایبورت","name:zh":"巴伊布爾特","name:zza":"Bayburt","network":"TR69-districts","type":"boundary","wikidata":"Q211828","wikipedia":"tr:Bayburt"}}]},"id":"relation/15590220"},
{"type":"Feature","geometry":{"type":"Polygon","coordinates":[[[40.23829,40.2606],[40.29004,40.27874],[40.25043,40.2863],[40.231322,40.3103516],[40.2286184,40.266412],[40.2273712,40.2630574],[40.2296913,40.26168],[40.2313864,40.2614835],[40.23829,40.2606]]]},"properties":{"@id":"relation/15590221","admin_level":"8","boundary":"administrative","name":"Halfikale Mahallesi","type":"boundary","@relations":[{"role":"subarea","rel":1596962,"reltags":{"admin_level":"6","alt_name":"Papert;Baberc;Baybert","boundary":"administrative","name":"Bayburt Merkez","name:ar":"بايبورت","name:ce":"Байбурт","name:de":"Bayburt","name:el":"Μπαϊμπούρτ","name:en":"Bayburt","name:fa":"بایبورد","name:hi":"बेबर्ट","name:hu":"Bayburt","name:hy":"Բաբերդ","name:ja":"バイブルト","name:ka":"ბაიბურთი","name:ko":"바이부르트","name:ku":"Baybûrd","name:os":"Байбурт","name:pa":"ਬੇਬੁਰਤ","name:pnt":"Παϊπούρτ","name:ru":"Байбурт","name:tg":"Бойбурт","name:tr":"Bayburt Merkez","name:tr:suffix":"İlçesi","name:tt":"Байбурт","name:uk":"Байбурт","name:ur":"بایبورت","name:zh":"巴伊布爾特","name:zza":"Bayburt","network":"TR69-districts","type":"boundary","wikidata":"Q211828","wikipedia":"tr:Bayburt"}}]},"id":"relation/15590221"},
{"type":"Feature","geometry":{"type":"Polygon","coordinates":[[[40.2250886,40.2622367],[40.2260542,40.2617434],[40.2273712,40.2630574],[40.2286184,40.266412],[40.2247453,40.2637267],[40.2250886,40.2622367]]]},"properties":{"@id":"relation/15590222","admin_level":"8","boundary":"administrative","name":"Mehmet Çelebi Mahallesi","type":"boundary","@relations":[{"role":"subarea","rel":1596962,"reltags":{"admin_level":"6","alt_name":"Papert;Baberc;Baybert","boundary":"administrative","name":"Bayburt Merkez","name:ar":"بايبورت","name:ce":"Байбурт","name:de":"Bayburt","name:el":"Μπαϊμπούρτ","name:en":"Bayburt","name:fa":"بایبورد","name:hi":"बेबर्ट","name:hu":"Bayburt","name:hy":"Բաբերդ","name:ja":"バイブルト","name:ka":"ბაიბურთი","name:ko":"바이부르트","name:ku":"Baybûrd","name:os":"Байбурт","name:pa":"ਬੇਬੁਰਤ","name:pnt":"Παϊπούρτ","name:ru":"Байбурт","name:tg":"Бойбурт","name:tr":"Bayburt Merkez","name:tr:suffix":"İlçesi","name:tt":"Байбурт","name:uk":"Байбурт","name:ur":"بایبورت","name:zh":"巴伊布爾特","name:zza":"Bayburt","network":"TR69-districts","type":"boundary","wikidata":"Q211828","wikipedia":"tr:Bayburt"}}]},"id":"relation/15590222"},
{"type":"Feature","geometry":{"type":"Polygon","coordinates":[[[40.2296913,40.26168],[40.2273712,40.2630574],[40.2260542,40.2617434],[40.2274957,40.2604361],[40.2278137,40.2603536],[40.2296913,40.26168]]]},"properties":{"@id":"relation/15590223","admin_level":"8","boundary":"administrative","name":"Kadızade Mahallesi","type":"boundary","@relations":[{"role":"subarea","rel":1596962,"reltags":{"admin_level":"6","alt_name":"Papert;Baberc;Baybert","boundary":"administrative","name":"Bayburt Merkez","name:ar":"بايبورت","name:ce":"Байбурт","name:de":"Bayburt","name:el":"Μπαϊμπούρτ","name:en":"Bayburt","name:fa":"بایبورد","name:hi":"बेबर्ट","name:hu":"Bayburt","name:hy":"Բաբերդ","name:ja":"バイブルト","name:ka":"ბაიბურთი","name:ko":"바이부르트","name:ku":"Baybûrd","name:os":"Байбурт","name:pa":"ਬੇਬੁਰਤ","name:pnt":"Παϊπούρτ","name:ru":"Байбурт","name:tg":"Бойбурт","name:tr":"Bayburt Merkez","name:tr:suffix":"İlçesi","name:tt":"Байбурт","name:uk":"Байбурт","name:ur":"بایبورت","name:zh":"巴伊布爾特","name:zza":"Bayburt","network":"TR69-districts","type":"boundary","wikidata":"Q211828","wikipedia":"tr:Bayburt"}}]},"id":"relation/15590223"},
{"type":"Feature","geometry":{"type":"Polygon","coordinates":[[[40.1804459,40.2582249],[40.2195954,40.2628098],[40.2247453,40.2637267],[40.2286184,40.266412],[40.231322,40.3103516],[40.2023542,40.3048781],[40.1747918,40.287121],[40.1804459,40.2582249]]]},"properties":{"@id":"relation/15590224","admin_level":"8","boundary":"administrative","name":"Şingah Mahallesi","type":"boundary","@relations":[{"role":"subarea","rel":1596962,"reltags":{"admin_level":"6","alt_name":"Papert;Baberc;Baybert","boundary":"administrative","name":"Bayburt Merkez","name:ar":"بايبورت","name:ce":"Байбурт","name:de":"Bayburt","name:el":"Μπαϊμπούρτ","name:en":"Bayburt","name:fa":"بایبورد","name:hi":"बेबर्ट","name:hu":"Bayburt","name:hy":"Բաբերդ","name:ja":"バイブルト","name:ka":"ბაიბურთი","name:ko":"바이부르트","name:ku":"Baybûrd","name:os":"Байбурт","name:pa":"ਬੇਬੁਰਤ","name:pnt":"Παϊπούρτ","name:ru":"Байбурт","name:tg":"Бойбурт","name:tr":"Bayburt Merkez","name:tr:suffix":"İlçesi","name:tt":"Байбурт","name:uk":"Байбурт","name:ur":"بایبورت","name:zh":"巴伊布爾特","name:zza":"Bayburt","network":"TR69-districts","type":"boundary","wikidata":"Q211828","wikipedia":"tr:Bayburt"}}]},"id":"relation/15590224"},
{"type":"Feature","geometry":{"type":"Polygon","coordinates":[[[40.2296913,40.26168],[40.2278137,40.2603536],[40.2293773,40.2592232],[40.2313864,40.2614835],[40.2296913,40.26168]]]},"properties":{"@id":"relation/15590225","admin_level":"8","boundary":"administrative","name":"Karasakal Mahallesi","type":"boundary","@relations":[{"role":"subarea","rel":1596962,"reltags":{"admin_level":"6","alt_name":"Papert;Baberc;Baybert","boundary":"administrative","name":"Bayburt Merkez","name:ar":"بايبورت","name:ce":"Байбурт","name:de":"Bayburt","name:el":"Μπαϊμπούρτ","name:en":"Bayburt","name:fa":"بایبورد","name:hi":"बेबर्ट","name:hu":"Bayburt","name:hy":"Բաբերդ","name:ja":"バイブルト","name:ka":"ბაიბურთი","name:ko":"바이부르트","name:ku":"Baybûrd","name:os":"Байбурт","name:pa":"ਬੇਬੁਰਤ","name:pnt":"Παϊπούρτ","name:ru":"Байбурт","name:tg":"Бойбурт","name:tr":"Bayburt Merkez","name:tr:suffix":"İlçesi","name:tt":"Байбурт","name:uk":"Байбурт","name:ur":"بایبورت","name:zh":"巴伊布爾特","name:zza":"Bayburt","network":"TR69-districts","type":"boundary","wikidata":"Q211828","wikipedia":"tr:Bayburt"}}]},"id":"relation/15590225"},
{"type":"Feature","geometry":{"type":"Polygon","coordinates":[[[40.2250886,40.2622367],[40.22479,40.2608],[40.2274957,40.2604361],[40.2260542,40.2617434],[40.2250886,40.2622367]]]},"properties":{"@id":"relation/15590226","admin_level":"8","boundary":"administrative","name":"Camiikebir Mahallesi","type":"boundary","@relations":[{"role":"subarea","rel":1596962,"reltags":{"admin_level":"6","alt_name":"Papert;Baberc;Baybert","boundary":"administrative","name":"Bayburt Merkez","name:ar":"بايبورت","name:ce":"Байбурт","name:de":"Bayburt","name:el":"Μπαϊμπούρτ","name:en":"Bayburt","name:fa":"بایبورد","name:hi":"बेबर्ट","name:hu":"Bayburt","name:hy":"Բաբերդ","name:ja":"バイブルト","name:ka":"ბაიბურთი","name:ko":"바이부르트","name:ku":"Baybûrd","name:os":"Байбурт","name:pa":"ਬੇਬੁਰਤ","name:pnt":"Παϊπούρτ","name:ru":"Байбурт","name:tg":"Бойбурт","name:tr":"Bayburt Merkez","name:tr:suffix":"İlçesi","name:tt":"Байбурт","name:uk":"Байбурт","name:ur":"بایبورت","name:zh":"巴伊布爾特","name:zza":"Bayburt","network":"TR69-districts","type":"boundary","wikidata":"Q211828","wikipedia":"tr:Bayburt"}}]},"id":"relation/15590226"},
{"type":"Feature","geometry":{"type":"Polygon","coordinates":[[[40.2195954,40.2628098],[40.2227604,40.25906],[40.22479,40.2608],[40.2250886,40.2622367],[40.2247453,40.2637267],[40.2195954,40.2628098]]]},"properties":{"@id":"relation/15590227","admin_level":"8","boundary":"administrative","name":"Uzungazi Mahallesi","type":"boundary","@relations":[{"role":"subarea","rel":1596962,"reltags":{"admin_level":"6","alt_name":"Papert;Baberc;Baybert","boundary":"administrative","name":"Bayburt Merkez","name:ar":"بايبورت","name:ce":"Байбурт","name:de":"Bayburt","name:el":"Μπαϊμπούρτ","name:en":"Bayburt","name:fa":"بایبورد","name:hi":"बेबर्ट","name:hu":"Bayburt","name:hy":"Բաբերդ","name:ja":"バイブルト","name:ka":"ბაიბურთი","name:ko":"바이부르트","name:ku":"Baybûrd","name:os":"Байбурт","name:pa":"ਬੇਬੁਰਤ","name:pnt":"Παϊπούρτ","name:ru":"Байбурт","name:tg":"Бойбурт","name:tr":"Bayburt Merkez","name:tr:suffix":"İlçesi","name:tt":"Байбурт","name:uk":"Байбурт","name:ur":"بایبورت","name:zh":"巴伊布爾特","name:zza":"Bayburt","network":"TR69-districts","type":"boundary","wikidata":"Q211828","wikipedia":"tr:Bayburt"}}]},"id":"relation/15590227"},
{"type":"Feature","geometry":{"type":"Polygon","coordinates":[[[40.2265799,40.2574634],[40.2265155,40.2544257],[40.2539867,40.2305329],[40.2515137,40.2397921],[40.233897,40.2582781],[40.2288544,40.2583764],[40.2272419,40.2588297],[40.2265799,40.2574634]]]},"properties":{"@id":"relation/15590228","admin_level":"8","boundary":"administrative","name":"Zahit Mahallesi","type":"boundary","@relations":[{"role":"subarea","rel":1596962,"reltags":{"admin_level":"6","alt_name":"Papert;Baberc;Baybert","boundary":"administrative","name":"Bayburt Merkez","name:ar":"بايبورت","name:ce":"Байбурт","name:de":"Bayburt","name:el":"Μπαϊμπούρτ","name:en":"Bayburt","name:fa":"بایبورد","name:hi":"बेबर्ट","name:hu":"Bayburt","name:hy":"Բաբերդ","name:ja":"バイブルト","name:ka":"ბაიბურთი","name:ko":"바이부르트","name:ku":"Baybûrd","name:os":"Байбурт","name:pa":"ਬੇਬੁਰਤ","name:pnt":"Παϊπούρτ","name:ru":"Байбурт","name:tg":"Бойбурт","name:tr":"Bayburt Merkez","name:tr:suffix":"İlçesi","name:tt":"Байбурт","name:uk":"Байбурт","name:ur":"بایبورت","name:zh":"巴伊布爾特","name:zza":"Bayburt","network":"TR69-districts","type":"boundary","wikidata":"Q211828","wikipedia":"tr:Bayburt"}}]},"id":"relation/15590228"},
{"type":"Feature","geometry":{"type":"Polygon","coordinates":[[[40.2313864,40.2614835],[40.2293773,40.2592232],[40.2288544,40.2583764],[40.233897,40.2582781],[40.23829,40.2606],[40.2313864,40.2614835]]]},"properties":{"@id":"relation/15590229","admin_level":"8","boundary":"administrative","name":"Veysel Mahallesi","type":"boundary","@relations":[{"role":"subarea","rel":1596962,"reltags":{"admin_level":"6","alt_name":"Papert;Baberc;Baybert","boundary":"administrative","name":"Bayburt Merkez","name:ar":"بايبورت","name:ce":"Байбурт","name:de":"Bayburt","name:el":"Μπαϊμπούρτ","name:en":"Bayburt","name:fa":"بایبورد","name:hi":"बेबर्ट","name:hu":"Bayburt","name:hy":"Բաբերդ","name:ja":"バイブルト","name:ka":"ბაიბურთი","name:ko":"바이부르트","name:ku":"Baybûrd","name:os":"Байбурт","name:pa":"ਬੇਬੁਰਤ","name:pnt":"Παϊπούρτ","name:ru":"Байбурт","name:tg":"Бойбурт","name:tr":"Bayburt Merkez","name:tr:suffix":"İlçesi","name:tt":"Байбурт","name:uk":"Байбурт","name:ur":"بایبورت","name:zh":"巴伊布爾特","name:zza":"Bayburt","network":"TR69-districts","type":"boundary","wikidata":"Q211828","wikipedia":"tr:Bayburt"}}]},"id":"relation/15590229"},
{"type":"Feature","geometry":{"type":"Polygon","coordinates":[[[40.2288544,40.2583764],[40.2293773,40.2592232],[40.2278137,40.2603536],[40.2272419,40.2588297],[40.2288544,40.2583764]]]},"properties":{"@id":"relation/15590230","admin_level":"8","boundary":"administrative","name":"Velişaban Mahallesi","type":"boundary","@relations":[{"role":"subarea","rel":1596962,"reltags":{"admin_level":"6","alt_name":"Papert;Baberc;Baybert","boundary":"administrative","name":"Bayburt Merkez","name:ar":"بايبورت","name:ce":"Байбурт","name:de":"Bayburt","name:el":"Μπαϊμπούρτ","name:en":"Bayburt","name:fa":"بایبورد","name:hi":"बेबर्ट","name:hu":"Bayburt","name:hy":"Բաբերդ","name:ja":"バイブルト","name:ka":"ბაიბურთი","name:ko":"바이부르트","name:ku":"Baybûrd","name:os":"Байбурт","name:pa":"ਬੇਬੁਰਤ","name:pnt":"Παϊπούρτ","name:ru":"Байбурт","name:tg":"Бойбурт","name:tr":"Bayburt Merkez","name:tr:suffix":"İlçesi","name:tt":"Байбурт","name:uk":"Байбурт","name:ur":"بایبورت","name:zh":"巴伊布爾特","name:zza":"Bayburt","network":"TR69-districts","type":"boundary","wikidata":"Q211828","wikipedia":"tr:Bayburt"}}]},"id":"relation/15590230"},
{"type":"Feature","geometry":{"type":"Polygon","coordinates":[[[40.2265155,40.2544257],[40.2254426,40.2526448],[40.2159637,40.2460243],[40.2011955,40.2294312],[40.2345085,40.2194373],[40.2539867,40.2305329],[40.2265155,40.2544257]]]},"properties":{"@id":"relation/15590231","admin_level":"8","boundary":"administrative","name":"Gençosman Mahallesi","type":"boundary","@relations":[{"role":"subarea","rel":1596962,"reltags":{"admin_level":"6","alt_name":"Papert;Baberc;Baybert","boundary":"administrative","name":"Bayburt Merkez","name:ar":"بايبورت","name:ce":"Байбурт","name:de":"Bayburt","name:el":"Μπαϊμπούρτ","name:en":"Bayburt","name:fa":"بایبورد","name:hi":"बेबर्ट","name:hu":"Bayburt","name:hy":"Բաբերդ","name:ja":"バイブルト","name:ka":"ბაიბურთი","name:ko":"바이부르트","name:ku":"Baybûrd","name:os":"Байбурт","name:pa":"ਬੇਬੁਰਤ","name:pnt":"Παϊπούρτ","name:ru":"Байбурт","name:tg":"Бойбурт","name:tr":"Bayburt Merkez","name:tr:suffix":"İlçesi","name:tt":"Байбурт","name:uk":"Байбурт","name:ur":"بایبورت","name:zh":"巴伊布爾特","name:zza":"Bayburt","network":"TR69-districts","type":"boundary","wikidata":"Q211828","wikipedia":"tr:Bayburt"}}]},"id":"relation/15590231"},
{"type":"Feature","geometry":{"type":"Polygon","coordinates":[[[40.2272419,40.2588297],[40.2278137,40.2603536],[40.2274957,40.2604361],[40.22479,40.2608],[40.2227604,40.25906],[40.2265799,40.2574634],[40.2272419,40.2588297]]]},"properties":{"@id":"relation/15590232","admin_level":"8","boundary":"administrative","name":"Şeyhhayran Mahallesi","type":"boundary","@relations":[{"role":"subarea","rel":1596962,"reltags":{"admin_level":"6","alt_name":"Papert;Baberc;Baybert","boundary":"administrative","name":"Bayburt Merkez","name:ar":"بايبورت","name:ce":"Байбурт","name:de":"Bayburt","name:el":"Μπαϊμπούρτ","name:en":"Bayburt","name:fa":"بایبورد","name:hi":"बेबर्ट","name:hu":"Bayburt","name:hy":"Բաբերդ","name:ja":"バイブルト","name:ka":"ბაიბურთი","name:ko":"바이부르트","name:ku":"Baybûrd","name:os":"Байбурт","name:pa":"ਬੇਬੁਰਤ","name:pnt":"Παϊπούρτ","name:ru":"Байбурт","name:tg":"Бойбурт","name:tr":"Bayburt Merkez","name:tr:suffix":"İlçesi","name:tt":"Байбурт","name:uk":"Байбурт","name:ur":"بایبورت","name:zh":"巴伊布爾特","name:zza":"Bayburt","network":"TR69-districts","type":"boundary","wikidata":"Q211828","wikipedia":"tr:Bayburt"}}]},"id":"relation/15590232"},
{"type":"Feature","geometry":{"type":"Polygon","coordinates":[[[40.2159637,40.2460243],[40.2254426,40.2526448],[40.2160174,40.2573324],[40.2085125,40.253218],[40.2159637,40.2460243]]]},"properties":{"@id":"relation/15590233","admin_level":"8","boundary":"administrative","name":"Esentepe Mahallesi","type":"boundary","@relations":[{"role":"subarea","rel":1596962,"reltags":{"admin_level":"6","alt_name":"Papert;Baberc;Baybert","boundary":"administrative","name":"Bayburt Merkez","name:ar":"بايبورت","name:ce":"Байбурт","name:de":"Bayburt","name:el":"Μπαϊμπούρτ","name:en":"Bayburt","name:fa":"بایبورد","name:hi":"बेबर्ट","name:hu":"Bayburt","name:hy":"Բաբերդ","name:ja":"バイブルト","name:ka":"ბაიბურთი","name:ko":"바이부르트","name:ku":"Baybûrd","name:os":"Байбурт","name:pa":"ਬੇਬੁਰਤ","name:pnt":"Παϊπούρτ","name:ru":"Байбурт","name:tg":"Бойбурт","name:tr":"Bayburt Merkez","name:tr:suffix":"İlçesi","name:tt":"Байбурт","name:uk":"Байбурт","name:ur":"بایبورت","name:zh":"巴伊布爾特","name:zza":"Bayburt","network":"TR69-districts","type":"boundary","wikidata":"Q211828","wikipedia":"tr:Bayburt"}}]},"id":"relation/15590233"},
{"type":"Feature","geometry":{"type":"Polygon","coordinates":[[[40.2265155,40.2544257],[40.2265799,40.2574634],[40.2227604,40.25906],[40.2195954,40.2628098],[40.1804459,40.2582249],[40.1657903,40.2421671],[40.2011955,40.2294312],[40.2159637,40.2460243],[40.2085125,40.253218],[40.2160174,40.2573324],[40.2254426,40.2526448],[40.2265155,40.2544257]]]},"properties":{"@id":"relation/15590234","admin_level":"8","boundary":"administrative","name":"Tuzcuzade Mahallesi","type":"boundary","@relations":[{"role":"subarea","rel":1596962,"reltags":{"admin_level":"6","alt_name":"Papert;Baberc;Baybert","boundary":"administrative","name":"Bayburt Merkez","name:ar":"بايبورت","name:ce":"Байбурт","name:de":"Bayburt","name:el":"Μπαϊμπούρτ","name:en":"Bayburt","name:fa":"بایبورد","name:hi":"बेबर्ट","name:hu":"Bayburt","name:hy":"Բաբերդ","name:ja":"バイブルト","name:ka":"ბაიბურთი","name:ko":"바이부르트","name:ku":"Baybûrd","name:os":"Байбурт","name:pa":"ਬੇਬੁਰਤ","name:pnt":"Παϊπούρτ","name:ru":"Байбурт","name:tg":"Бойбурт","name:tr":"Bayburt Merkez","name:tr:suffix":"İlçesi","name:tt":"Байбурт","name:uk":"Байбурт","name:ur":"بایبورت","name:zh":"巴伊布爾特","name:zza":"Bayburt","network":"TR69-districts","type":"boundary","wikidata":"Q211828","wikipedia":"tr:Bayburt"}}]},"id":"relation/15590234"}
]}