{"type":"FeatureCollection", "features": [
{"type":"Feature","geometry":{"type":"Polygon","coordinates":[[[30.53368,40.1219358],[30.5884081,40.1356619],[30.6370246,40.1554934],[30.6291486,40.1783199],[30.6421474,40.1984607],[30.6089389,40.219027],[30.6124695,40.2435104],[30.6036358,40.2685368],[30.5880482,40.2860894],[30.5682858,40.2871526],[30.5101596,40.2722166],[30.496587,40.2550459],[30.4672989,40.2403247],[30.3905031,40.2215265],[30.3715693,40.175784],[30.3947569,40.1521081],[30.4288676,40.1485376],[30.4548627,40.1315083],[30.53368,40.1219358]]]},"properties":{"@id":"relation/1238962","admin_level":"6","boundary":"administrative","name":"Yenipazar","name:ce":"Йенипазар","name:de":"Yenipazar","name:en":"Yenipazar","name:tr":"Yenipazar","name:tr:suffix":"İlçesi","name:tt":"Енипазар","network":"TR11-districts","old_name":"Kırka","type":"boundary","wikidata":"Q3056035","wikipedia":"tr:Yenipazar, Bilecik"},"id":"relation/1238962"},
{"type":"Feature","geometry":{"type":"Polygon","coordinates":[[[30.22049,40.3371315],[30.1525314,40.361207],[30.120346,40.4019198],[30.0896888,40.4229007],[30.0739206,40.4475628],[30.0565004,40.4418799],[30.0386942,40.4211548],[30.0114095,40.4301595],[29.9992648,40.464767],[29.9882137,40.4688278],[29.9772462,40.5012952],[29.9920238,40.5163303],[29.9669815,40.551366],[29.9052577,40.5301248],[29.9034373,40.5076831],[29.8865201,40.4904357],[29.8641753,40.4822746],[29.8513075,40.4659835],[29.8802471,40.4542499],[29.8922445,40.4326679],[29.8860048,40.4154732],[29.861193,40.4111474],[29.7980765,40.3697995],[29.8258605,40.3528064],[29.8525008,40.3280368],[29.8433413,40.2934884],[29.8861025,40.296253],[29.9547388,40.3137287],[29.9837127,40.2949329],[30.0078233,40.2919142],[30.0515144,40.3014946],[30.0949653,40.2880673],[30.1342916,40.2805936],[30.1676732,40.311335],[30.2136696,40.3272914],[30.22049,40.3371315]]]},"properties":{"@id":"relation/1238963","admin_level":"6","boundary":"administrative","name":"Osmaneli","name:ce":"Османели","name:de":"Osmaneli","name:el":"Οσμανελί","name:en":"Osmaneli","name:fa":"عثمانلی","name:ru":"Османели","name:tr":"Osmaneli","name:tr:suffix":"İlçesi","name:tt":"Османэли","name:ur":"عثمانلی","name:zh":"奧斯曼內利","network":"TR11-districts","type":"boundary","wikidata":"Q736759","wikipedia":"tr:Osmaneli"},"id":"relation/1238963"},
{"type":"Feature","geometry":{"type":"Polygon","coordinates":[[[30.5880482,40.2860894],[30.5606361,40.2952317],[30.5115475,40.2956775],[30.472092,40.3319869],[30.4811741,40.3442562],[30.4744215,40.3833524],[30.4272136,40.3940754],[30.4122948,40.385095],[30.3627992,40.3772797],[30.3385751,40.3846185],[30.3027883,40.3791148],[30.2807347,40.3669437],[30.2606567,40.366754],[30.2248369,40.3519937],[30.22049,40.3371315],[30.2136696,40.3272914],[30.1676732,40.311335],[30.1342916,40.2805936],[30.0949653,40.2880673],[30.0947834,40.2583807],[30.0680655,40.2367073],[30.0790219,40.2066265],[30.0971337,40.1952311],[30.1568669,40.1774918],[30.1521485,40.1543845],[30.2286389,40.1571983],[30.3369305,40.1264289],[30.3717283,40.1473327],[30.3947569,40.1521081],[30.3715693,40.175784],[30.3905031,40.2215265],[30.4672989,40.2403247],[30.496587,40.2550459],[30.5101596,40.2722166],[30.5682858,40.2871526],[30.5880482,40.2860894]]]},"properties":{"@id":"relation/1238964","admin_level":"6","boundary":"administrative","name":"Gölpazarı","name:ce":"Гоьлпазари","name:de":"Gölpazarı","name:en":"Gölpazarı","name:fa":"گلپازاری","name:tr":"Gölpazarı","name:tr:suffix":"İlçesi","name:tt":"Гөлпазары","name:uk":"Ґьольпазари","name:ur":"گلپازاری","network":"TR11-districts","type":"boundary","wikidata":"Q2597035","wikipedia":"tr:Gölpazarı"},"id":"relation/1238964"},
{"type":"Feature","geometry":{"type":"Polygon","coordinates":[[[29.7980751,39.9318655],[29.7595878,39.9158754],[29.7416306,39.8854732],[29.772043,39.8576429],[29.7775979,39.82701],[29.7348056,39.7899921],[29.7299372,39.7495017],[29.8028685,39.7024813],[29.8477059,39.7115161],[29.9188516,39.690175],[29.9400361,39.6714623],[29.9819832,39.659962],[30.0315834,39.6647903],[29.9920331,39.7006874],[29.9889163,39.7271922],[29.9977737,39.7547007],[30.0162426,39.7801441],[30.0984579,39.840305],[30.1554762,39.8583611],[30.2206832,39.8625755],[30.1897311,39.9018299],[30.1791268,39.9331445],[30.1557925,39.9510808],[30.1033773,39.9566433],[30.0796239,39.9755622],[30.0446807,39.9933092],[29.9946298,39.9627929],[29.9931049,39.9485032],[29.9851635,39.9486649],[29.9407053,39.9338942],[29.9303245,39.9484437],[29.8842396,39.9395179],[29.7980751,39.9318655]]]},"properties":{"@id":"relation/1238965","admin_level":"6","boundary":"administrative","name":"Bozüyük","name:ce":"Бозуьйуьк","name:de":"Bozüyük","name:en":"Bozüyük","name:fa":"بوزویوک","name:tr":"Bozüyük","name:tr:suffix":"İlçesi","name:tt":"Бозүюк","name:zh":"博聚于克","network":"TR11-districts","type":"boundary","wikidata":"Q519741","wikipedia":"tr:Bozüyük"},"id":"relation/1238965"},
{"type":"Feature","geometry":{"type":"Polygon","coordinates":[[[30.3369305,40.1264289],[30.2286389,40.1571983],[30.1521485,40.1543845],[30.1329538,40.1235422],[30.0814479,40.0925201],[30.0681381,40.0679454],[30.0639083,40.013214],[30.0446807,39.9933092],[30.0796239,39.9755622],[30.1033773,39.9566433],[30.1557925,39.9510808],[30.1791268,39.9331445],[30.1897311,39.9018299],[30.2206832,39.8625755],[30.2946024,39.8405349],[30.303599,39.8730433],[30.2911668,39.9027247],[30.2906905,39.9531941],[30.3180182,39.9374016],[30.3523965,39.9397019],[30.3634079,39.9628225],[30.341265,39.9780688],[30.3129914,39.9782062],[30.2956276,39.9913832],[30.2899468,40.0198684],[30.2927456,40.0639388],[30.3205043,40.071381],[30.3345508,40.0862317],[30.3369305,40.1264289]]]},"properties":{"@id":"relation/1238966","admin_level":"6","boundary":"administrative","name":"Söğüt","name:ar":"سوغوت","name:bg":"Сьогют","name:bn":"সুগুত","name:ce":"СоьгӀуьт","name:de":"Söğüt","name:el":"Θηβάσιο","name:en":"Söğüt","name:fa":"سوگوت","name:ja":"ソユット","name:kk":"Сөгүт","name:ko":"쇠위트","name:mk":"Согут","name:ru":"Сёгют","name:tr":"Söğüt","name:tr:suffix":"İlçesi","name:tt":"Сөгүт","name:uk":"Сегют","name:ur":"سوغوت","name:zh":"瑟于特","network":"TR11-districts","type":"boundary","wikidata":"Q768506","wikipedia":"tr:Söğüt, Bilecik"},"id":"relation/1238966"},
{"type":"Feature","geometry":{"type":"Polygon","coordinates":[[[30.3947569,40.1521081],[30.3717283,40.1473327],[30.3369305,40.1264289],[30.3345508,40.0862317],[30.3205043,40.071381],[30.2927456,40.0639388],[30.2899468,40.0198684],[30.2956276,39.9913832],[30.3129914,39.9782062],[30.341265,39.9780688],[30.3694407,39.993978],[30.3763944,40.0174856],[30.4060349,40.0090571],[30.4495417,40.0110818],[30.4851833,40.0362326],[30.5181458,40.0842458],[30.5367853,40.1020285],[30.53368,40.1219358],[30.4548627,40.1315083],[30.4288676,40.1485376],[30.3947569,40.1521081]]]},"properties":{"@id":"relation/1238967","admin_level":"6","boundary":"administrative","name":"İnhisar","name:de":"İnhisar","name:en":"İnhisar","name:tr":"İnhisar","name:tr:suffix":"İlçesi","network":"TR11-districts","type":"boundary","wikidata":"Q2368737","wikipedia":"tr:İnhisar"},"id":"relation/1238967"},
{"type":"Feature","geometry":{"type":"Polygon","coordinates":[[[29.7980751,39.9318655],[29.8842396,39.9395179],[29.9303245,39.9484437],[29.9407053,39.9338942],[29.9851635,39.9486649],[29.9931049,39.9485032],[29.9946298,39.9627929],[30.0446807,39.9933092],[29.9820231,40.0194447],[29.9413582,40.0517908],[29.9004661,40.0611243],[29.8805962,40.0739098],[29.8612788,40.1015969],[29.827782,40.1035742],[29.7351393,40.0704501],[29.7541251,40.0017906],[29.7401811,39.9867761],[29.7602421,39.9556695],[29.7980751,39.9318655]]]},"properties":{"@id":"relation/1238968","admin_level":"6","boundary":"administrative","name":"Pazaryeri","name:ce":"Пазарйери","name:de":"Pazaryeri","name:en":"Pazaryeri","name:tr":"Pazaryeri","name:tr:suffix":"İlçesi","name:tt":"Пазарьери","network":"TR11-districts","old_name":"Pazarcık","type":"boundary","wikidata":"Q3056115","wikipedia":"tr:Pazaryeri"},"id":"relation/1238968"},
{"type":"Feature","geometry":{"type":"Polygon","coordinates":[[[30.0949653,40.2880673],[30.0515144,40.3014946],[30.0078233,40.2919142],[29.9837127,40.2949329],[29.9547388,40.3137287],[29.8861025,40.296253],[29.8433413,40.2934884],[29.8276977,40.2665249],[29.8286008,40.2433108],[29.7970297,40.2234186],[29.7774769,40.1888075],[29.7290517,40.1703783],[29.7216003,40.0994972],[29.7351393,40.0704501],[29.827782,40.1035742],[29.8612788,40.1015969],[29.8805962,40.0739098],[29.9004661,40.0611243],[29.9413582,40.0517908],[29.9820231,40.0194447],[30.0446807,39.9933092],[30.0639083,40.013214],[30.0681381,40.0679454],[30.0814479,40.0925201],[30.1329538,40.1235422],[30.1521485,40.1543845],[30.1568669,40.1774918],[30.0971337,40.1952311],[30.0790219,40.2066265],[30.0680655,40.2367073],[30.0947834,40.2583807],[30.0949653,40.2880673]]]},"properties":{"@id":"relation/1238969","admin_level":"6","boundary":"administrative","name":"Bilecik Merkez","name:ar":"بيلجيك","name:az":"Biləcik","name:bg":"Биледжик","name:ce":"Биледжик","name:cs":"Biledžik","name:de":"Bilecik","name:el":"Μπιλετζίκ","name:en":"Bilecik","name:fa":"استان بیله‌جک","name:hu":"Bilecik","name:hy":"Բիլեջիքի մարզ","name:ja":"ビレジク","name:ka":"ბილეჯიქი","name:ko":"빌레지크","name:ru":"Биледжик","name:tg":"Билеҷик","name:tr":"Bilecik Merkez","name:tr:suffix":"İlçesi","name:tt":"Билеҗик","name:uk":"Біледжик","name:ur":"بیلیجک","name:zh":"比莱吉克省","network":"TR11-districts","type":"boundary","wikidata":"Q208006","wikipedia":"tr:Bilecik"},"id":"relation/1238969"},
{"type":"Feature","geometry":{"type":"Polygon","coordinates":[[[30.044657,39.8970903],[30.0395125,39.9083784],[30.0346684,39.9099749],[30.0304413,39.9019835],[30.044657,39.8970903]]]},"properties":{"@id":"relation/13460064","admin_level":"8","boundary":"administrative","name":"Kasımpaşa Mahallesi","type":"boundary","@relations":[{"role":"subarea","rel":1238965,"reltags":{"admin_level":"6","boundary":"administrative","name":"Bozüyük","name:ce":"Бозуьйуьк","name:de":"Bozüyük","name:en":"Bozüyük","name:fa":"بوزویوک","name:tr":"Bozüyük","name:tr:suffix":"İlçesi","name:tt":"Бозүюк","name:zh":"博聚于克","network":"TR11-districts","type":"boundary","wikidata":"Q519741","wikipedia":"tr:Bozüyük"}}]},"id":"relation/13460064"},
{"type":"Feature","geometry":{"type":"Polygon","coordinates":[[[29.9951005,40.1131],[29.9944246,40.1108025],[29.996463,40.1059529],[29.9987107,40.1121851],[29.9951005,40.1131]]]},"properties":{"@id":"relation/13921980","admin_level":"8","boundary":"administrative","name":"Orhangazi Mahallesi","type":"boundary","@relations":[{"role":"subarea","rel":1238969,"reltags":{"admin_level":"6","boundary":"administrative","name":"Bilecik Merkez","name:ar":"بيلجيك","name:az":"Biləcik","name:bg":"Биледжик","name:ce":"Биледжик","name:cs":"Biledžik","name:de":"Bilecik","name:el":"Μπιλετζίκ","name:en":"Bilecik","name:fa":"استان بیله‌جک","name:hu":"Bilecik","name:hy":"Բիլեջիքի մարզ","name:ja":"ビレジク","name:ka":"ბილეჯიქი","name:ko":"빌레지크","name:ru":"Биледжик","name:tg":"Билеҷик","name:tr":"Bilecik Merkez","name:tr:suffix":"İlçesi","name:tt":"Билеҗик","name:uk":"Біледжик","name:ur":"بیلیجک","name:zh":"比莱吉克省","network":"TR11-districts","type":"boundary","wikidata":"Q208006","wikipedia":"tr:Bilecik"}}]},"id":"relation/13921980"},
{"type":"Feature","geometry":{"type":"Polygon","coordinates":[[[30.0037372,40.1168168],[29.9983191,40.1266289],[29.9742758,40.1215343],[29.9951005,40.1131],[29.9987107,40.1121851],[29.9996441,40.11166],[30.0037372,40.1168168]]]},"properties":{"@id":"relation/13921981","admin_level":"8","boundary":"administrative","name":"İstasyon Mahallesi","type":"boundary","@relations":[{"role":"subarea","rel":1238969,"reltags":{"admin_level":"6","boundary":"administrative","name":"Bilecik Merkez","name:ar":"بيلجيك","name:az":"Biləcik","name:bg":"Биледжик","name:ce":"Биледжик","name:cs":"Biledžik","name:de":"Bilecik","name:el":"Μπιλετζίκ","name:en":"Bilecik","name:fa":"استان بیله‌جک","name:hu":"Bilecik","name:hy":"Բիլեջիքի մարզ","name:ja":"ビレジク","name:ka":"ბილეჯიქი","name:ko":"빌레지크","name:ru":"Биледжик","name:tg":"Билеҷик","name:tr":"Bilecik Merkez","name:tr:suffix":"İlçesi","name:tt":"Билеҗик","name:uk":"Біледжик","name:ur":"بیلیجک","name:zh":"比莱吉克省","network":"TR11-districts","type":"boundary","wikidata":"Q208006","wikipedia":"tr:Bilecik"}}]},"id":"relation/13921981"},
{"type":"Feature","geometry":{"type":"Polygon","coordinates":[[[29.9983191,40.1266289],[30.0037372,40.1168168],[30.01158,40.133741],[30.0449681,40.1462407],[30.0404191,40.1625917],[30.0140369,40.1658549],[30.0009262,40.1415084],[29.9972677,40.1353569],[29.9983191,40.1266289]]]},"properties":{"@id":"relation/13921982","admin_level":"8","boundary":"administrative","name":"Osmangazi Mahallesi","type":"boundary","@relations":[{"role":"subarea","rel":1238969,"reltags":{"admin_level":"6","boundary":"administrative","name":"Bilecik Merkez","name:ar":"بيلجيك","name:az":"Biləcik","name:bg":"Биледжик","name:ce":"Биледжик","name:cs":"Biledžik","name:de":"Bilecik","name:el":"Μπιλετζίκ","name:en":"Bilecik","name:fa":"استان بیله‌جک","name:hu":"Bilecik","name:hy":"Բիլեջիքի մարզ","name:ja":"ビレジク","name:ka":"ბილეჯიქი","name:ko":"빌레지크","name:ru":"Биледжик","name:tg":"Билеҷик","name:tr":"Bilecik Merkez","name:tr:suffix":"İlçesi","name:tt":"Билеҗик","name:uk":"Біледжик","name:ur":"بیلیجک","name:zh":"比莱吉克省","network":"TR11-districts","type":"boundary","wikidata":"Q208006","wikipedia":"tr:Bilecik"}}]},"id":"relation/13921982"},
{"type":"Feature","geometry":{"type":"Polygon","coordinates":[[[29.9996441,40.11166],[30.0283706,40.1151102],[30.0449681,40.1462407],[30.01158,40.133741],[30.0037372,40.1168168],[29.9996441,40.11166]]]},"properties":{"@id":"relation/13921983","admin_level":"8","alt_name":"Aşağıköy Köyü","boundary":"administrative","name":"Kayı Boyu Mahallesi","type":"boundary","@relations":[{"role":"subarea","rel":1238969,"reltags":{"admin_level":"6","boundary":"administrative","name":"Bilecik Merkez","name:ar":"بيلجيك","name:az":"Biləcik","name:bg":"Биледжик","name:ce":"Биледжик","name:cs":"Biledžik","name:de":"Bilecik","name:el":"Μπιλετζίκ","name:en":"Bilecik","name:fa":"استان بیله‌جک","name:hu":"Bilecik","name:hy":"Բիլեջիքի մարզ","name:ja":"ビレジク","name:ka":"ბილეჯიქი","name:ko":"빌레지크","name:ru":"Биледжик","name:tg":"Билеҷик","name:tr":"Bilecik Merkez","name:tr:suffix":"İlçesi","name:tt":"Билеҗик","name:uk":"Біледжик","name:ur":"بیلیجک","name:zh":"比莱吉克省","network":"TR11-districts","type":"boundary","wikidata":"Q208006","wikipedia":"tr:Bilecik"}}]},"id":"relation/13921983"},
{"type":"Feature","geometry":{"type":"Polygon","coordinates":[[[29.98317,40.1903976],[29.9715292,40.1751189],[29.9723775,40.1740453],[29.9911523,40.165363],[29.98317,40.1903976]]]},"properties":{"@id":"relation/13921984","admin_level":"8","boundary":"administrative","name":"Hürriyet 2. OSB Mahallesi","type":"boundary","@relations":[{"role":"subarea","rel":1238969,"reltags":{"admin_level":"6","boundary":"administrative","name":"Bilecik Merkez","name:ar":"بيلجيك","name:az":"Biləcik","name:bg":"Биледжик","name:ce":"Биледжик","name:cs":"Biledžik","name:de":"Bilecik","name:el":"Μπιλετζίκ","name:en":"Bilecik","name:fa":"استان بیله‌جک","name:hu":"Bilecik","name:hy":"Բիլեջիքի մարզ","name:ja":"ビレジク","name:ka":"ბილეჯიქი","name:ko":"빌레지크","name:ru":"Биледжик","name:tg":"Билеҷик","name:tr":"Bilecik Merkez","name:tr:suffix":"İlçesi","name:tt":"Билеҗик","name:uk":"Біледжик","name:ur":"بیلیجک","name:zh":"比莱吉克省","network":"TR11-districts","type":"boundary","wikidata":"Q208006","wikipedia":"tr:Bilecik"}}]},"id":"relation/13921984"},
{"type":"Feature","geometry":{"type":"Polygon","coordinates":[[[29.9911523,40.165363],[29.9723775,40.1740453],[29.9769688,40.1671175],[29.9911523,40.165363]]]},"properties":{"@id":"relation/13921985","admin_level":"8","boundary":"administrative","name":"Hürriyet 1. OSB Mahallesi","type":"boundary","@relations":[{"role":"subarea","rel":1238969,"reltags":{"admin_level":"6","boundary":"administrative","name":"Bilecik Merkez","name:ar":"بيلجيك","name:az":"Biləcik","name:bg":"Биледжик","name:ce":"Биледжик","name:cs":"Biledžik","name:de":"Bilecik","name:el":"Μπιλετζίκ","name:en":"Bilecik","name:fa":"استان بیله‌جک","name:hu":"Bilecik","name:hy":"Բիլեջիքի մարզ","name:ja":"ビレジク","name:ka":"ბილეჯიქი","name:ko":"빌레지크","name:ru":"Биледжик","name:tg":"Билеҷик","name:tr":"Bilecik Merkez","name:tr:suffix":"İlçesi","name:tt":"Билеҗик","name:uk":"Біледжик","name:ur":"بیلیجک","name:zh":"比莱吉克省","network":"TR11-districts","type":"boundary","wikidata":"Q208006","wikipedia":"tr:Bilecik"}}]},"id":"relation/13921985"},
{"type":"Feature","geometry":{"type":"Polygon","coordinates":[[[29.98317,40.1903976],[29.9911523,40.165363],[29.9769688,40.1671175],[29.9768293,40.1474872],[29.9914956,40.1440099],[30.0009262,40.1415084],[30.0140369,40.1658549],[30.0109148,40.1887338],[29.98317,40.1903976]]]},"properties":{"@id":"relation/13921986","admin_level":"8","boundary":"administrative","name":"Hürriyet Mahallesi","type":"boundary","@relations":[{"role":"subarea","rel":1238969,"reltags":{"admin_level":"6","boundary":"administrative","name":"Bilecik Merkez","name:ar":"بيلجيك","name:az":"Biləcik","name:bg":"Биледжик","name:ce":"Биледжик","name:cs":"Biledžik","name:de":"Bilecik","name:el":"Μπιλετζίκ","name:en":"Bilecik","name:fa":"استان بیله‌جک","name:hu":"Bilecik","name:hy":"Բիլեջիքի մարզ","name:ja":"ビレジク","name:ka":"ბილეჯიქი","name:ko":"빌레지크","name:ru":"Биледжик","name:tg":"Билеҷик","name:tr":"Bilecik Merkez","name:tr:suffix":"İlçesi","name:tt":"Билеҗик","name:uk":"Біледжик","name:ur":"بیلیجک","name:zh":"比莱吉克省","network":"TR11-districts","type":"boundary","wikidata":"Q208006","wikipedia":"tr:Bilecik"}}]},"id":"relation/13921986"},
{"type":"Feature","geometry":{"type":"Polygon","coordinates":[[[29.9914956,40.1440099],[29.9768293,40.1474872],[29.9787068,40.1440796],[29.9793184,40.144379],[29.9914956,40.1440099]]]},"properties":{"@id":"relation/13921987","admin_level":"8","boundary":"administrative","name":"Cumhuriyet Mahallesi","type":"boundary","@relations":[{"role":"subarea","rel":1238969,"reltags":{"admin_level":"6","boundary":"administrative","name":"Bilecik Merkez","name:ar":"بيلجيك","name:az":"Biləcik","name:bg":"Биледжик","name:ce":"Биледжик","name:cs":"Biledžik","name:de":"Bilecik","name:el":"Μπιλετζίκ","name:en":"Bilecik","name:fa":"استان بیله‌جک","name:hu":"Bilecik","name:hy":"Բիլեջիքի մարզ","name:ja":"ビレジク","name:ka":"ბილეჯიქი","name:ko":"빌레지크","name:ru":"Биледжик","name:tg":"Билеҷик","name:tr":"Bilecik Merkez","name:tr:suffix":"İlçesi","name:tt":"Билеҗик","name:uk":"Біледжик","name:ur":"بیلیجک","name:zh":"比莱吉克省","network":"TR11-districts","type":"boundary","wikidata":"Q208006","wikipedia":"tr:Bilecik"}}]},"id":"relation/13921987"},
{"type":"Feature","geometry":{"type":"Polygon","coordinates":[[[29.9972677,40.1353569],[30.0009262,40.1415084],[29.9914956,40.1440099],[29.9793184,40.144379],[29.978975,40.1390807],[29.9972677,40.1353569]]]},"properties":{"@id":"relation/13921988","admin_level":"8","boundary":"administrative","name":"İstiklal Mahallesi","type":"boundary","@relations":[{"role":"subarea","rel":1238969,"reltags":{"admin_level":"6","boundary":"administrative","name":"Bilecik Merkez","name:ar":"بيلجيك","name:az":"Biləcik","name:bg":"Биледжик","name:ce":"Биледжик","name:cs":"Biledžik","name:de":"Bilecik","name:el":"Μπιλετζίκ","name:en":"Bilecik","name:fa":"استان بیله‌جک","name:hu":"Bilecik","name:hy":"Բիլեջիքի մարզ","name:ja":"ビレジク","name:ka":"ბილეჯიქი","name:ko":"빌레지크","name:ru":"Биледжик","name:tg":"Билеҷик","name:tr":"Bilecik Merkez","name:tr:suffix":"İlçesi","name:tt":"Билеҗик","name:uk":"Біледжик","name:ur":"بیلیجک","name:zh":"比莱吉克省","network":"TR11-districts","type":"boundary","wikidata":"Q208006","wikipedia":"tr:Bilecik"}}]},"id":"relation/13921988"},
{"type":"Feature","geometry":{"type":"Polygon","coordinates":[[[29.9744475,40.1382113],[29.978975,40.1390807],[29.9793184,40.144379],[29.9787068,40.1440796],[29.9744475,40.1382113]]]},"properties":{"@id":"relation/13921989","admin_level":"8","boundary":"administrative","name":"Gazipaşa Mahallesi","type":"boundary","@relations":[{"role":"subarea","rel":1238969,"reltags":{"admin_level":"6","boundary":"administrative","name":"Bilecik Merkez","name:ar":"بيلجيك","name:az":"Biləcik","name:bg":"Биледжик","name:ce":"Биледжик","name:cs":"Biledžik","name:de":"Bilecik","name:el":"Μπιλετζίκ","name:en":"Bilecik","name:fa":"استان بیله‌جک","name:hu":"Bilecik","name:hy":"Բիլեջիքի մարզ","name:ja":"ビレジク","name:ka":"ბილეჯიქი","name:ko":"빌레지크","name:ru":"Биледжик","name:tg":"Билеҷик","name:tr":"Bilecik Merkez","name:tr:suffix":"İlçesi","name:tt":"Билеҗик","name:uk":"Біледжик","name:ur":"بیلیجک","name:zh":"比莱吉克省","network":"TR11-districts","type":"boundary","wikidata":"Q208006","wikipedia":"tr:Bilecik"}}]},"id":"relation/13921989"},
{"type":"Feature","geometry":{"type":"Polygon","coordinates":[[[29.9679887,40.1456666],[29.9768293,40.1474872],[29.9769688,40.1671175],[29.9723775,40.1740453],[29.9715292,40.1751189],[29.9603176,40.1686834],[29.9504685,40.1378668],[29.9679887,40.1456666]]]},"properties":{"@id":"relation/13921990","admin_level":"8","boundary":"administrative","name":"Bahçelievler Mahallesi","type":"boundary","@relations":[{"role":"subarea","rel":1238969,"reltags":{"admin_level":"6","boundary":"administrative","name":"Bilecik Merkez","name:ar":"بيلجيك","name:az":"Biləcik","name:bg":"Биледжик","name:ce":"Биледжик","name:cs":"Biledžik","name:de":"Bilecik","name:el":"Μπιλετζίκ","name:en":"Bilecik","name:fa":"استان بیله‌جک","name:hu":"Bilecik","name:hy":"Բիլեջիքի մարզ","name:ja":"ビレジク","name:ka":"ბილეჯიქი","name:ko":"빌레지크","name:ru":"Биледжик","name:tg":"Билеҷик","name:tr":"Bilecik Merkez","name:tr:suffix":"İlçesi","name:tt":"Билеҗик","name:uk":"Біледжик","name:ur":"بیلیجک","name:zh":"比莱吉克省","network":"TR11-districts","type":"boundary","wikidata":"Q208006","wikipedia":"tr:Bilecik"}}]},"id":"relation/13921990"},
{"type":"Feature","geometry":{"type":"Polygon","coordinates":[[[29.978975,40.1390807],[29.9744475,40.1382113],[29.9726879,40.1370712],[29.957689,40.1286305],[29.9742758,40.1215343],[29.9983191,40.1266289],[29.9972677,40.1353569],[29.978975,40.1390807]]]},"properties":{"@id":"relation/13921991","admin_level":"8","boundary":"administrative","name":"Ertuğrulgazi Mahallesi","type":"boundary","@relations":[{"role":"subarea","rel":1238969,"reltags":{"admin_level":"6","boundary":"administrative","name":"Bilecik Merkez","name:ar":"بيلجيك","name:az":"Biləcik","name:bg":"Биледжик","name:ce":"Биледжик","name:cs":"Biledžik","name:de":"Bilecik","name:el":"Μπιλετζίκ","name:en":"Bilecik","name:fa":"استان بیله‌جک","name:hu":"Bilecik","name:hy":"Բիլեջիքի մարզ","name:ja":"ビレジク","name:ka":"ბილეჯიქი","name:ko":"빌레지크","name:ru":"Биледжик","name:tg":"Билеҷик","name:tr":"Bilecik Merkez","name:tr:suffix":"İlçesi","name:tt":"Билеҗик","name:uk":"Біледжик","name:ur":"بیلیجک","name:zh":"比莱吉克省","network":"TR11-districts","type":"boundary","wikidata":"Q208006","wikipedia":"tr:Bilecik"}}]},"id":"relation/13921991"},
{"type":"Feature","geometry":{"type":"Polygon","coordinates":[[[29.9504685,40.1378668],[29.957689,40.1286305],[29.9726879,40.1370712],[29.9679887,40.1456666],[29.9504685,40.1378668]]]},"properties":{"@id":"relation/13921992","admin_level":"8","boundary":"administrative","name":"Beşiktaş Mahallesi","type":"boundary","@relations":[{"role":"subarea","rel":1238969,"reltags":{"admin_level":"6","boundary":"administrative","name":"Bilecik Merkez","name:ar":"بيلجيك","name:az":"Biləcik","name:bg":"Биледжик","name:ce":"Биледжик","name:cs":"Biledžik","name:de":"Bilecik","name:el":"Μπιλετζίκ","name:en":"Bilecik","name:fa":"استان بیله‌جک","name:hu":"Bilecik","name:hy":"Բիլեջիքի մարզ","name:ja":"ビレジク","name:ka":"ბილეჯიქი","name:ko":"빌레지크","name:ru":"Биледжик","name:tg":"Билеҷик","name:tr":"Bilecik Merkez","name:tr:suffix":"İlçesi","name:tt":"Билеҗик","name:uk":"Біледжик","name:ur":"بیلیجک","name:zh":"比莱吉克省","network":"TR11-districts","type":"boundary","wikidata":"Q208006","wikipedia":"tr:Bilecik"}}]},"id":"relation/13921992"},
{"type":"Feature","geometry":{"type":"Polygon","coordinates":[[[29.9744475,40.1382113],[29.9787068,40.1440796],[29.9768293,40.1474872],[29.9679887,40.1456666],[29.9726879,40.1370712],[29.9744475,40.1382113]]]},"properties":{"@id":"relation/13921993","admin_level":"8","boundary":"administrative","name":"İsmetpaşa Mahallesi","type":"boundary","@relations":[{"role":"subarea","rel":1238969,"reltags":{"admin_level":"6","boundary":"administrative","name":"Bilecik Merkez","name:ar":"بيلجيك","name:az":"Biləcik","name:bg":"Биледжик","name:ce":"Биледжик","name:cs":"Biledžik","name:de":"Bilecik","name:el":"Μπιλετζίκ","name:en":"Bilecik","name:fa":"استان بیله‌جک","name:hu":"Bilecik","name:hy":"Բիլեջիքի մարզ","name:ja":"ビレジク","name:ka":"ბილეჯიქი","name:ko":"빌레지크","name:ru":"Биледжик","name:tg":"Билеҷик","name:tr":"Bilecik Merkez","name:tr:suffix":"İlçesi","name:tt":"Билеҗик","name:uk":"Біледжик","name:ur":"بیلیجک","name:zh":"比莱吉克省","network":"TR11-districts","type":"boundary","wikidata":"Q208006","wikipedia":"tr:Bilecik"}}]},"id":"relation/13921993"},
{"type":"Feature","geometry":{"type":"Polygon","coordinates":[[[30.0452363,39.8971191],[30.0553429,39.9017777],[30.0637758,39.9213637],[30.0552571,39.9232644],[30.0395125,39.9083784],[30.044657,39.8970903],[30.0452363,39.8971191]]]},"properties":{"@id":"relation/16504585","admin_level":"8","boundary":"administrative","name":"Yeni Mahalle","type":"boundary","@relations":[{"role":"subarea","rel":1238965,"reltags":{"admin_level":"6","boundary":"administrative","name":"Bozüyük","name:ce":"Бозуьйуьк","name:de":"Bozüyük","name:en":"Bozüyük","name:fa":"بوزویوک","name:tr":"Bozüyük","name:tr:suffix":"İlçesi","name:tt":"Бозүюк","name:zh":"博聚于克","network":"TR11-districts","type":"boundary","wikidata":"Q519741","wikipedia":"tr:Bozüyük"}}]},"id":"relation/16504585"},
{"type":"Feature","geometry":{"type":"Polygon","coordinates":[[[30.0552571,39.9232644],[30.0346684,39.9099749],[30.0395125,39.9083784],[30.0552571,39.9232644]]]},"properties":{"@id":"relation/16504586","admin_level":"8","boundary":"administrative","name":"Tekke Mahallesi","type":"boundary","@relations":[{"role":"subarea","rel":1238965,"reltags":{"admin_level":"6","boundary":"administrative","name":"Bozüyük","name:ce":"Бозуьйуьк","name:de":"Bozüyük","name:en":"Bozüyük","name:fa":"بوزویوک","name:tr":"Bozüyük","name:tr:suffix":"İlçesi","name:tt":"Бозүюк","name:zh":"博聚于克","network":"TR11-districts","type":"boundary","wikidata":"Q519741","wikipedia":"tr:Bozüyük"}}]},"id":"relation/16504586"},
{"type":"Feature","geometry":{"type":"Polygon","coordinates":[[[30.0452363,39.8971191],[30.044657,39.8970903],[30.0304413,39.9019835],[30.0304413,39.8863684],[30.0467921,39.8780756],[30.0452363,39.8971191]]]},"properties":{"@id":"relation/16504587","admin_level":"8","boundary":"administrative","name":"Yediler Mahallesi","type":"boundary","@relations":[{"role":"subarea","rel":1238965,"reltags":{"admin_level":"6","boundary":"administrative","name":"Bozüyük","name:ce":"Бозуьйуьк","name:de":"Bozüyük","name:en":"Bozüyük","name:fa":"بوزویوک","name:tr":"Bozüyük","name:tr:suffix":"İlçesi","name:tt":"Бозүюк","name:zh":"博聚于克","network":"TR11-districts","type":"boundary","wikidata":"Q519741","wikipedia":"tr:Bozüyük"}}]},"id":"relation/16504587"},
{"type":"Feature","geometry":{"type":"Polygon","coordinates":[[[29.9931049,39.9485032],[29.9851635,39.9486649],[29.9890157,39.9213737],[29.9733424,39.9076953],[30.0009048,39.9202364],[30.0304413,39.9019835],[30.0346684,39.9099749],[30.0552571,39.9232644],[30.0257206,39.9389452],[29.9931049,39.9485032]]]},"properties":{"@id":"relation/16504588","admin_level":"8","boundary":"administrative","name":"Çarşı Mahallesi","type":"boundary","@relations":[{"role":"subarea","rel":1238965,"reltags":{"admin_level":"6","boundary":"administrative","name":"Bozüyük","name:ce":"Бозуьйуьк","name:de":"Bozüyük","name:en":"Bozüyük","name:fa":"بوزویوک","name:tr":"Bozüyük","name:tr:suffix":"İlçesi","name:tt":"Бозүюк","name:zh":"博聚于克","network":"TR11-districts","type":"boundary","wikidata":"Q519741","wikipedia":"tr:Bozüyük"}}]},"id":"relation/16504588"},
{"type":"Feature","geometry":{"type":"Polygon","coordinates":[[[30.0637758,39.9213637],[30.0553429,39.9017777],[30.0938165,39.8944686],[30.1015627,39.8828942],[30.1336205,39.8806713],[30.1382017,39.8898918],[30.1016807,39.9183274],[30.0637758,39.9213637]]]},"properties":{"@id":"relation/16504589","admin_level":"8","boundary":"administrative","name":"4 Eylül Mahallesi","type":"boundary","@relations":[{"role":"subarea","rel":1238965,"reltags":{"admin_level":"6","boundary":"administrative","name":"Bozüyük","name:ce":"Бозуьйуьк","name:de":"Bozüyük","name:en":"Bozüyük","name:fa":"بوزویوک","name:tr":"Bozüyük","name:tr:suffix":"İlçesi","name:tt":"Бозүюк","name:zh":"博聚于克","network":"TR11-districts","type":"boundary","wikidata":"Q519741","wikipedia":"tr:Bozüyük"}}]},"id":"relation/16504589"},
{"type":"Feature","geometry":{"type":"Polygon","coordinates":[[[29.9407053,39.9338942],[29.9507689,39.9100161],[29.9733424,39.9076953],[29.9890157,39.9213737],[29.9851635,39.9486649],[29.9407053,39.9338942]]]},"properties":{"@id":"relation/18676516","admin_level":"8","boundary":"administrative","name":"Baharözü Mahallesi","type":"boundary","@relations":[{"role":"subarea","rel":1238965,"reltags":{"admin_level":"6","boundary":"administrative","name":"Bozüyük","name:ce":"Бозуьйуьк","name:de":"Bozüyük","name:en":"Bozüyük","name:fa":"بوزویوک","name:tr":"Bozüyük","name:tr:suffix":"İlçesi","name:tt":"Бозүюк","name:zh":"博聚于克","network":"TR11-districts","type":"boundary","wikidata":"Q519741","wikipedia":"tr:Bozüyük"}}]},"id":"relation/18676516"}
]}