{"type":"FeatureCollection", "features": [
{"type":"Feature","geometry":{"type":"Polygon","coordinates":[[[40.4640322,39.3928647],[40.4195249,39.3047796],[40.3764248,39.2622889],[40.3466579,39.2081846],[40.3607654,39.1668029],[40.4255683,39.1504202],[40.4976649,39.1347814],[40.582286,39.0937274],[40.6633294,39.0746335],[40.727022,39.0725874],[40.722012,39.1796326],[40.7462532,39.1898237],[40.7302294,39.2903805],[40.6920186,39.318358],[40.5319975,39.362838],[40.4640322,39.3928647]]]},"properties":{"@id":"relation/1836190","admin_level":"6","boundary":"administrative","name":"Adaklı","name:ar":"أداكلي","name:ce":"Адакли","name:de":"Adaklı","name:en":"Adaklı","name:fa":"اداکلی","name:hy":"Աստղաբերդ","name:ku":"Azarpêrt","name:tr":"Adaklı","name:tr:suffix":"İlçesi","name:tt":"Адаклы","name:ur":"اداکلی","name:zza":"Azarpêrte","network":"TR12-districts","old_name":"Azakpert;Azaxpert","type":"boundary","wikidata":"Q347084","wikipedia":"tr:Adaklı, Bingöl"},"id":"relation/1836190"},
{"type":"Feature","geometry":{"type":"Polygon","coordinates":[[[40.5244919,38.7450329],[40.5297298,38.7512841],[40.5660194,38.7641319],[40.6030917,38.774665],[40.6644642,38.82186],[40.8483346,38.8717431],[40.8456219,38.9831842],[40.8109205,39.0328477],[40.8311264,39.0806009],[40.727022,39.0725874],[40.6633294,39.0746335],[40.582286,39.0937274],[40.4976649,39.1347814],[40.4255683,39.1504202],[40.3581928,39.130447],[40.302096,39.131539],[40.2599246,39.0867528],[40.2356082,39.0311839],[40.2267836,38.9734232],[40.1928168,38.9577872],[40.1802633,38.9186851],[40.2025014,38.8838567],[40.249812,38.8823461],[40.2472113,38.8433178],[40.3459166,38.827673],[40.333557,38.7562253],[40.2873999,38.7384417],[40.3188502,38.7242358],[40.4532828,38.7192666],[40.5244919,38.7450329]]]},"properties":{"@id":"relation/1836191","admin_level":"6","alt_name":"Bingöl","alt_name:ku":"Çolîg;Çebexçûr","boundary":"administrative","name":"Bingöl Merkez","name:ar":"بينكل","name:bg":"Бингьол","name:ce":"Бингоьл","name:de":"Bingöl","name:el":"Μπινγκιόλ","name:fa":"بینگول","name:he":"בינגל","name:hy":"Ճապաղջուր","name:ja":"ビンギョル","name:ka":"ბინგოლი","name:ko":"빙괼","name:ku":"Çewlîg","name:pa":"ਬਿੰਗੋਲ","name:ru":"Бингёль","name:tr":"Bingöl Merkez","name:tr:suffix":"İlçesi","name:tt":"Бингөл","name:uk":"Бінгьоль","name:ur":"بینگول","name:vi":"Bingöl","name:zh":"賓格爾","name:zza":"Çolig","network":"TR12-districts","type":"boundary","wikidata":"Q208472","wikipedia":"tr:Bingöl"},"id":"relation/1836191"},
{"type":"Feature","geometry":{"type":"Polygon","coordinates":[[[40.5244919,38.7450329],[40.4532828,38.7192666],[40.3188502,38.7242358],[40.2873999,38.7384417],[40.2097034,38.6739182],[40.1603077,38.6706012],[40.1484203,38.6249846],[40.1886748,38.5740047],[40.2255412,38.5689488],[40.2682103,38.5046662],[40.3549105,38.4891945],[40.3543737,38.5325035],[40.4433296,38.5811645],[40.4842907,38.6194696],[40.6033615,38.5633017],[40.6720445,38.6012964],[40.7672685,38.6000714],[40.813241,38.561555],[40.946474,38.637791],[40.9423541,38.6664797],[40.9932583,38.6796661],[40.9772014,38.7361427],[40.9033011,38.8062614],[40.8483346,38.8717431],[40.6644642,38.82186],[40.6030917,38.774665],[40.5660194,38.7641319],[40.5297298,38.7512841],[40.5244919,38.7450329]]]},"properties":{"@id":"relation/1836192","admin_level":"6","alt_name":"Darahênî","boundary":"administrative","name":"Genç","name:ce":"Генча","name:de":"Genç","name:diq":"Dara Hênî","name:en":"Genç","name:fa":"گنچ","name:hy":"Գենջ","name:ku":"Dara Hênî","name:ota":"داراهينی","name:tr":"Genç","name:tr:suffix":"İlçesi","name:tt":"Генч","name:ur":"گنچ","name:zh":"根奇","name:zza":"Dara Hênî","network":"TR12-districts","type":"boundary","wikidata":"Q203630","wikipedia":"tr:Genç, Bingöl"},"id":"relation/1836192"},
{"type":"Feature","geometry":{"type":"Polygon","coordinates":[[[40.6791917,39.4136246],[40.6920186,39.318358],[40.7302294,39.2903805],[40.7462532,39.1898237],[40.722012,39.1796326],[40.727022,39.0725874],[40.8311264,39.0806009],[40.9519161,39.0979812],[41.1121274,39.0870655],[41.1612715,39.0611461],[41.2641215,39.0352805],[41.2555008,39.113583],[41.1901397,39.1707378],[41.1772111,39.224174],[41.1326794,39.2368592],[41.14805,39.3623625],[41.1792795,39.4047393],[41.1289233,39.4324112],[41.0538291,39.4297148],[41.002501,39.4740782],[40.9818008,39.4563036],[40.909129,39.4565825],[40.8019654,39.4255744],[40.6791917,39.4136246]]]},"properties":{"@id":"relation/1836193","admin_level":"6","boundary":"administrative","name":"Karlıova","name:ce":"Карлиова","name:de":"Karlıova","name:en":"Karlıova","name:ku":"Kanîreş","name:tr":"Karlıova","name:tr:suffix":"İlçesi","name:tt":"Карлыова","name:ur":"کارلیووا","name:zh":"卡尔勒奥瓦","name:zza":"Qarliova","network":"TR12-districts","type":"boundary","wikidata":"Q1023304","wikipedia":"tr:Karlıova"},"id":"relation/1836193"},
{"type":"Feature","geometry":{"type":"Polygon","coordinates":[[[40.302096,39.131539],[40.3581928,39.130447],[40.4255683,39.1504202],[40.3607654,39.1668029],[40.3466579,39.2081846],[40.3764248,39.2622889],[40.4195249,39.3047796],[40.4640322,39.3928647],[40.3987883,39.4250556],[40.3306387,39.40755],[40.277129,39.4228373],[40.2371868,39.3677787],[40.1473126,39.3398527],[40.1169077,39.3047175],[40.1453766,39.2734431],[40.1959722,39.2524888],[40.231339,39.1914034],[40.2733081,39.1809891],[40.302096,39.131539]]]},"properties":{"@id":"relation/1836194","admin_level":"6","boundary":"administrative","name":"Kiğı","name:ce":"КигӀи","name:de":"Kiğı","name:en":"Kiğı","name:hy":"Քղի","name:ku":"Gêxî","name:ru":"Кигы","name:tr":"Kiğı","name:tr:suffix":"İlçesi","name:ur":"کیغی","name:zh":"基厄","name:zza":"Gêğiye","network":"TR12-districts","type":"boundary","wikidata":"Q1023262","wikipedia":"tr:Kiğı"},"id":"relation/1836194"},
{"type":"Feature","geometry":{"type":"Polygon","coordinates":[[[40.8483346,38.8717431],[40.9033011,38.8062614],[40.9772014,38.7361427],[40.9932583,38.6796661],[41.1391815,38.7145841],[41.1588377,38.7531611],[41.1155093,38.8113431],[41.1094168,38.888493],[41.1332332,38.9446391],[41.1774931,38.9694068],[41.1888024,39.0038379],[41.2641215,39.0352805],[41.1612715,39.0611461],[41.1121274,39.0870655],[40.9519161,39.0979812],[40.8311264,39.0806009],[40.8109205,39.0328477],[40.8456219,38.9831842],[40.8483346,38.8717431]]]},"properties":{"@id":"relation/1836195","admin_level":"6","alt_name:ku":"Solaxan","boundary":"administrative","name":"Solhan","name:ar":"سولحان","name:ce":"СолхӀан","name:de":"Solhan","name:en":"Solhan","name:fa":"سولهان","name:hy":"Բոգլան","name:ku":"Bongilan","name:ru":"Сольхан","name:tr":"Solhan","name:tr:suffix":"İlçesi","name:tt":"Солхан","name:ur":"سولہان","name:zh":"索爾漢","name:zza":"Boglan","network":"TR12-districts","type":"boundary","wikidata":"Q990328","wikipedia":"tr:Solhan"},"id":"relation/1836195"},
{"type":"Feature","geometry":{"type":"Polygon","coordinates":[[[40.1169077,39.3047175],[40.0371837,39.3119216],[40.0072973,39.2692533],[39.9385642,39.2262694],[39.9262527,39.1673625],[39.936345,39.0981144],[40.0221428,39.0958383],[40.0858676,39.1283435],[40.102323,39.1516901],[40.231339,39.1914034],[40.1959722,39.2524888],[40.1453766,39.2734431],[40.1169077,39.3047175]]]},"properties":{"@id":"relation/1836196","admin_level":"6","boundary":"administrative","name":"Yayladere","name:ce":"Йайладере","name:de":"Yayladere","name:en":"Yayladere","name:fa":"یایلادره","name:hy":"Խոլխոլ","name:ku":"Xorxol","name:tr":"Yayladere","name:tr:suffix":"İlçesi","name:tt":"Яйладере","name:ur":"یلدرے","name:zza":"Xorxol","network":"TR12-districts","type":"boundary","wikidata":"Q472878","wikipedia":"tr:Yayladere"},"id":"relation/1836196"},
{"type":"Feature","geometry":{"type":"Polygon","coordinates":[[[40.6791917,39.4136246],[40.6322204,39.4421133],[40.5918761,39.4442339],[40.5967484,39.5263495],[40.520039,39.5273231],[40.4487198,39.5110894],[40.3965631,39.5529655],[40.326321,39.5078521],[40.2820723,39.494102],[40.2945898,39.4479917],[40.277129,39.4228373],[40.3306387,39.40755],[40.3987883,39.4250556],[40.4640322,39.3928647],[40.5319975,39.362838],[40.6920186,39.318358],[40.6791917,39.4136246]]]},"properties":{"@id":"relation/1836197","admin_level":"6","alt_name:ku":"Çêrmik","boundary":"administrative","name":"Yedisu","name:ce":"Йедису","name:de":"Yedisu","name:en":"Yedisu","name:fa":"یدی‌سو","name:hy":"Չերմե","name:ku":"Çêrme","name:tr":"Yedisu","name:tr:suffix":"İlçesi","name:tt":"Едису","name:ur":"یدیسو","name:zh":"耶迪苏","name:zza":"Çêrme","network":"TR12-districts","type":"boundary","wikidata":"Q1023328","wikipedia":"tr:Yedisu"},"id":"relation/1836197"},
{"type":"Feature","geometry":{"type":"Polygon","coordinates":[[[40.5067987,38.8895044],[40.506943,38.888962],[40.5222823,38.8950361],[40.5110622,38.9022409],[40.5042859,38.8964389],[40.5067987,38.8895044]]]},"properties":{"@id":"relation/6346212","addr:city":"Merkez/Bingöl","admin_level":"8","boundary":"administrative","name":"Saray Mahallesi","type":"boundary","@relations":[{"role":"subarea","rel":1836191,"reltags":{"admin_level":"6","alt_name":"Bingöl","alt_name:ku":"Çolîg;Çebexçûr","boundary":"administrative","name":"Bingöl Merkez","name:ar":"بينكل","name:bg":"Бингьол","name:ce":"Бингоьл","name:de":"Bingöl","name:el":"Μπινγκιόλ","name:fa":"بینگول","name:he":"בינגל","name:hy":"Ճապաղջուր","name:ja":"ビンギョル","name:ka":"ბინგოლი","name:ko":"빙괼","name:ku":"Çewlîg","name:pa":"ਬਿੰਗੋਲ","name:ru":"Бингёль","name:tr":"Bingöl Merkez","name:tr:suffix":"İlçesi","name:tt":"Бингөл","name:uk":"Бінгьоль","name:ur":"بینگول","name:vi":"Bingöl","name:zh":"賓格爾","name:zza":"Çolig","network":"TR12-districts","type":"boundary","wikidata":"Q208472","wikipedia":"tr:Bingöl"}}]},"id":"relation/6346212"},
{"type":"Feature","geometry":{"type":"Polygon","coordinates":[[[40.5144143,38.8813751],[40.5242257,38.8867863],[40.5222823,38.8950361],[40.506943,38.888962],[40.5144143,38.8813751]]]},"properties":{"@id":"relation/11821132","admin_level":"8","boundary":"administrative","name":"Kültür Mahallesi","type":"boundary","@relations":[{"role":"subarea","rel":1836191,"reltags":{"admin_level":"6","alt_name":"Bingöl","alt_name:ku":"Çolîg;Çebexçûr","boundary":"administrative","name":"Bingöl Merkez","name:ar":"بينكل","name:bg":"Бингьол","name:ce":"Бингоьл","name:de":"Bingöl","name:el":"Μπινγκιόλ","name:fa":"بینگول","name:he":"בינגל","name:hy":"Ճապաղջուր","name:ja":"ビンギョル","name:ka":"ბინგოლი","name:ko":"빙괼","name:ku":"Çewlîg","name:pa":"ਬਿੰਗੋਲ","name:ru":"Бингёль","name:tr":"Bingöl Merkez","name:tr:suffix":"İlçesi","name:tt":"Бингөл","name:uk":"Бінгьоль","name:ur":"بینگول","name:vi":"Bingöl","name:zh":"賓格爾","name:zza":"Çolig","network":"TR12-districts","type":"boundary","wikidata":"Q208472","wikipedia":"tr:Bingöl"}}]},"id":"relation/11821132"},
{"type":"Feature","geometry":{"type":"Polygon","coordinates":[[[40.4921607,38.8994998],[40.5034718,38.9059801],[40.4902087,38.9112682],[40.4921607,38.8994998]]]},"properties":{"@id":"relation/11821786","admin_level":"8","boundary":"administrative","name":"Recep Tayyip Erdoğan Mahallesi","type":"boundary","@relations":[{"role":"subarea","rel":1836191,"reltags":{"admin_level":"6","alt_name":"Bingöl","alt_name:ku":"Çolîg;Çebexçûr","boundary":"administrative","name":"Bingöl Merkez","name:ar":"بينكل","name:bg":"Бингьол","name:ce":"Бингоьл","name:de":"Bingöl","name:el":"Μπινγκιόλ","name:fa":"بینگول","name:he":"בינגל","name:hy":"Ճապաղջուր","name:ja":"ビンギョル","name:ka":"ბინგოლი","name:ko":"빙괼","name:ku":"Çewlîg","name:pa":"ਬਿੰਗੋਲ","name:ru":"Бингёль","name:tr":"Bingöl Merkez","name:tr:suffix":"İlçesi","name:tt":"Бингөл","name:uk":"Бінгьоль","name:ur":"بینگول","name:vi":"Bingöl","name:zh":"賓格爾","name:zza":"Çolig","network":"TR12-districts","type":"boundary","wikidata":"Q208472","wikipedia":"tr:Bingöl"}}]},"id":"relation/11821786"},
{"type":"Feature","geometry":{"type":"Polygon","coordinates":[[[40.4902087,38.9112682],[40.4806143,38.8969214],[40.4913516,38.8957472],[40.4921607,38.8994998],[40.4902087,38.9112682]]]},"properties":{"@id":"relation/11822067","admin_level":"8","boundary":"administrative","name":"Selahaddin-i Eyyubi Mahallesi","type":"boundary","@relations":[{"role":"subarea","rel":1836191,"reltags":{"admin_level":"6","alt_name":"Bingöl","alt_name:ku":"Çolîg;Çebexçûr","boundary":"administrative","name":"Bingöl Merkez","name:ar":"بينكل","name:bg":"Бингьол","name:ce":"Бингоьл","name:de":"Bingöl","name:el":"Μπινγκιόλ","name:fa":"بینگول","name:he":"בינגל","name:hy":"Ճապաղջուր","name:ja":"ビンギョル","name:ka":"ბინგოლი","name:ko":"빙괼","name:ku":"Çewlîg","name:pa":"ਬਿੰਗੋਲ","name:ru":"Бингёль","name:tr":"Bingöl Merkez","name:tr:suffix":"İlçesi","name:tt":"Бингөл","name:uk":"Бінгьоль","name:ur":"بینگول","name:vi":"Bingöl","name:zh":"賓格爾","name:zza":"Çolig","network":"TR12-districts","type":"boundary","wikidata":"Q208472","wikipedia":"tr:Bingöl"}}]},"id":"relation/11822067"},
{"type":"Feature","geometry":{"type":"Polygon","coordinates":[[[40.5042859,38.8964389],[40.5110622,38.9022409],[40.5034718,38.9059801],[40.4921607,38.8994998],[40.4913516,38.8957472],[40.5042859,38.8964389]]]},"properties":{"@id":"relation/11822068","admin_level":"8","boundary":"administrative","name":"Şehit Mustafa Gündoğdu Mahallesi","type":"boundary","@relations":[{"role":"subarea","rel":1836191,"reltags":{"admin_level":"6","alt_name":"Bingöl","alt_name:ku":"Çolîg;Çebexçûr","boundary":"administrative","name":"Bingöl Merkez","name:ar":"بينكل","name:bg":"Бингьол","name:ce":"Бингоьл","name:de":"Bingöl","name:el":"Μπινγκιόλ","name:fa":"بینگول","name:he":"בינגל","name:hy":"Ճապաղջուր","name:ja":"ビンギョル","name:ka":"ბინგოლი","name:ko":"빙괼","name:ku":"Çewlîg","name:pa":"ਬਿੰਗੋਲ","name:ru":"Бингёль","name:tr":"Bingöl Merkez","name:tr:suffix":"İlçesi","name:tt":"Бингөл","name:uk":"Бінгьоль","name:ur":"بینگول","name:vi":"Bingöl","name:zh":"賓格爾","name:zza":"Çolig","network":"TR12-districts","type":"boundary","wikidata":"Q208472","wikipedia":"tr:Bingöl"}}]},"id":"relation/11822068"},
{"type":"Feature","geometry":{"type":"Polygon","coordinates":[[[40.4781004,38.8938631],[40.4994111,38.8896185],[40.5067987,38.8895044],[40.5042859,38.8964389],[40.4913516,38.8957472],[40.4806143,38.8969214],[40.4781004,38.8938631]]]},"properties":{"@id":"relation/11822069","admin_level":"8","boundary":"administrative","name":"Karşıyaka Mahallesi","type":"boundary","@relations":[{"role":"subarea","rel":1836191,"reltags":{"admin_level":"6","alt_name":"Bingöl","alt_name:ku":"Çolîg;Çebexçûr","boundary":"administrative","name":"Bingöl Merkez","name:ar":"بينكل","name:bg":"Бингьол","name:ce":"Бингоьл","name:de":"Bingöl","name:el":"Μπινγκιόλ","name:fa":"بینگول","name:he":"בינגל","name:hy":"Ճապաղջուր","name:ja":"ビンギョル","name:ka":"ბინგოლი","name:ko":"빙괼","name:ku":"Çewlîg","name:pa":"ਬਿੰਗੋਲ","name:ru":"Бингёль","name:tr":"Bingöl Merkez","name:tr:suffix":"İlçesi","name:tt":"Бингөл","name:uk":"Бінгьоль","name:ur":"بینگول","name:vi":"Bingöl","name:zh":"賓格爾","name:zza":"Çolig","network":"TR12-districts","type":"boundary","wikidata":"Q208472","wikipedia":"tr:Bingöl"}}]},"id":"relation/11822069"},
{"type":"Feature","geometry":{"type":"Polygon","coordinates":[[[40.4944442,38.8868018],[40.4994111,38.8896185],[40.4781004,38.8938631],[40.4779531,38.8892668],[40.489926,38.8851745],[40.4944442,38.8868018]]]},"properties":{"@id":"relation/11822070","admin_level":"8","boundary":"administrative","name":"Bahçelievler Mahallesi","type":"boundary","@relations":[{"role":"subarea","rel":1836191,"reltags":{"admin_level":"6","alt_name":"Bingöl","alt_name:ku":"Çolîg;Çebexçûr","boundary":"administrative","name":"Bingöl Merkez","name:ar":"بينكل","name:bg":"Бингьол","name:ce":"Бингоьл","name:de":"Bingöl","name:el":"Μπινγκιόλ","name:fa":"بینگول","name:he":"בינגל","name:hy":"Ճապաղջուր","name:ja":"ビンギョル","name:ka":"ბინგოლი","name:ko":"빙괼","name:ku":"Çewlîg","name:pa":"ਬਿੰਗੋਲ","name:ru":"Бингёль","name:tr":"Bingöl Merkez","name:tr:suffix":"İlçesi","name:tt":"Бингөл","name:uk":"Бінгьоль","name:ur":"بینگول","name:vi":"Bingöl","name:zh":"賓格爾","name:zza":"Çolig","network":"TR12-districts","type":"boundary","wikidata":"Q208472","wikipedia":"tr:Bingöl"}}]},"id":"relation/11822070"},
{"type":"Feature","geometry":{"type":"Polygon","coordinates":[[[40.5152965,38.8724764],[40.4944442,38.8868018],[40.489926,38.8851745],[40.4929376,38.8830262],[40.5049134,38.8726652],[40.5152965,38.8724764]]]},"properties":{"@id":"relation/11822071","admin_level":"8","boundary":"administrative","name":"Yenişehir Mahallesi","type":"boundary","@relations":[{"role":"subarea","rel":1836191,"reltags":{"admin_level":"6","alt_name":"Bingöl","alt_name:ku":"Çolîg;Çebexçûr","boundary":"administrative","name":"Bingöl Merkez","name:ar":"بينكل","name:bg":"Бингьол","name:ce":"Бингоьл","name:de":"Bingöl","name:el":"Μπινγκιόλ","name:fa":"بینگول","name:he":"בינגל","name:hy":"Ճապաղջուր","name:ja":"ビンギョル","name:ka":"ბინგოლი","name:ko":"빙괼","name:ku":"Çewlîg","name:pa":"ਬਿੰਗੋਲ","name:ru":"Бингёль","name:tr":"Bingöl Merkez","name:tr:suffix":"İlçesi","name:tt":"Бингөл","name:uk":"Бінгьоль","name:ur":"بینگول","name:vi":"Bingöl","name:zh":"賓格爾","name:zza":"Çolig","network":"TR12-districts","type":"boundary","wikidata":"Q208472","wikipedia":"tr:Bingöl"}}]},"id":"relation/11822071"},
{"type":"Feature","geometry":{"type":"Polygon","coordinates":[[[40.506943,38.888962],[40.5067987,38.8895044],[40.4994111,38.8896185],[40.4944442,38.8868018],[40.5152965,38.8724764],[40.519319,38.8746741],[40.5144143,38.8813751],[40.506943,38.888962]]]},"properties":{"@id":"relation/11822072","admin_level":"8","boundary":"administrative","name":"İnönü Mahallesi","type":"boundary","@relations":[{"role":"subarea","rel":1836191,"reltags":{"admin_level":"6","alt_name":"Bingöl","alt_name:ku":"Çolîg;Çebexçûr","boundary":"administrative","name":"Bingöl Merkez","name:ar":"بينكل","name:bg":"Бингьол","name:ce":"Бингоьл","name:de":"Bingöl","name:el":"Μπινγκιόλ","name:fa":"بینگول","name:he":"בינגל","name:hy":"Ճապաղջուր","name:ja":"ビンギョル","name:ka":"ბინგოლი","name:ko":"빙괼","name:ku":"Çewlîg","name:pa":"ਬਿੰਗੋਲ","name:ru":"Бингёль","name:tr":"Bingöl Merkez","name:tr:suffix":"İlçesi","name:tt":"Бингөл","name:uk":"Бінгьоль","name:ur":"بینگول","name:vi":"Bingöl","name:zh":"賓格爾","name:zza":"Çolig","network":"TR12-districts","type":"boundary","wikidata":"Q208472","wikipedia":"tr:Bingöl"}}]},"id":"relation/11822072"},
{"type":"Feature","geometry":{"type":"Polygon","coordinates":[[[40.5049134,38.8726652],[40.4929376,38.8830262],[40.4867703,38.868792],[40.5049134,38.8726652]]]},"properties":{"@id":"relation/11822082","admin_level":"8","boundary":"administrative","name":"Yeşilyurt Mahallesi","type":"boundary","@relations":[{"role":"subarea","rel":1836191,"reltags":{"admin_level":"6","alt_name":"Bingöl","alt_name:ku":"Çolîg;Çebexçûr","boundary":"administrative","name":"Bingöl Merkez","name:ar":"بينكل","name:bg":"Бингьол","name:ce":"Бингоьл","name:de":"Bingöl","name:el":"Μπινγκιόλ","name:fa":"بینگول","name:he":"בינגל","name:hy":"Ճապաղջուր","name:ja":"ビンギョル","name:ka":"ბინგოლი","name:ko":"빙괼","name:ku":"Çewlîg","name:pa":"ਬਿੰਗੋਲ","name:ru":"Бингёль","name:tr":"Bingöl Merkez","name:tr:suffix":"İlçesi","name:tt":"Бингөл","name:uk":"Бінгьоль","name:ur":"بینگول","name:vi":"Bingöl","name:zh":"賓格爾","name:zza":"Çolig","network":"TR12-districts","type":"boundary","wikidata":"Q208472","wikipedia":"tr:Bingöl"}}]},"id":"relation/11822082"},
{"type":"Feature","geometry":{"type":"Polygon","coordinates":[[[40.4929376,38.8830262],[40.489926,38.8851745],[40.456164,38.8768529],[40.4867703,38.868792],[40.4929376,38.8830262]]]},"properties":{"@id":"relation/11822083","admin_level":"8","boundary":"administrative","name":"Yeni Mahalle","type":"boundary","@relations":[{"role":"subarea","rel":1836191,"reltags":{"admin_level":"6","alt_name":"Bingöl","alt_name:ku":"Çolîg;Çebexçûr","boundary":"administrative","name":"Bingöl Merkez","name:ar":"بينكل","name:bg":"Бингьол","name:ce":"Бингоьл","name:de":"Bingöl","name:el":"Μπινγκιόλ","name:fa":"بینگول","name:he":"בינגל","name:hy":"Ճապաղջուր","name:ja":"ビンギョル","name:ka":"ბინგოლი","name:ko":"빙괼","name:ku":"Çewlîg","name:pa":"ਬਿੰਗੋਲ","name:ru":"Бингёль","name:tr":"Bingöl Merkez","name:tr:suffix":"İlçesi","name:tt":"Бингөл","name:uk":"Бінгьоль","name:ur":"بینگول","name:vi":"Bingöl","name:zh":"賓格爾","name:zza":"Çolig","network":"TR12-districts","type":"boundary","wikidata":"Q208472","wikipedia":"tr:Bingöl"}}]},"id":"relation/11822083"},
{"type":"Feature","geometry":{"type":"Polygon","coordinates":[[[40.456164,38.8768529],[40.489926,38.8851745],[40.4779531,38.8892668],[40.456164,38.8768529]]]},"properties":{"@id":"relation/11822084","admin_level":"8","boundary":"administrative","name":"Mirzan Mahallesi","type":"boundary","@relations":[{"role":"subarea","rel":1836191,"reltags":{"admin_level":"6","alt_name":"Bingöl","alt_name:ku":"Çolîg;Çebexçûr","boundary":"administrative","name":"Bingöl Merkez","name:ar":"بينكل","name:bg":"Бингьол","name:ce":"Бингоьл","name:de":"Bingöl","name:el":"Μπινγκιόλ","name:fa":"بینگول","name:he":"בינגל","name:hy":"Ճապաղջուր","name:ja":"ビンギョル","name:ka":"ბინგოლი","name:ko":"빙괼","name:ku":"Çewlîg","name:pa":"ਬਿੰਗੋਲ","name:ru":"Бингёль","name:tr":"Bingöl Merkez","name:tr:suffix":"İlçesi","name:tt":"Бингөл","name:uk":"Бінгьоль","name:ur":"بینگول","name:vi":"Bingöl","name:zh":"賓格爾","name:zza":"Çolig","network":"TR12-districts","type":"boundary","wikidata":"Q208472","wikipedia":"tr:Bingöl"}}]},"id":"relation/11822084"},
{"type":"Feature","geometry":{"type":"Polygon","coordinates":[[[40.519319,38.8746741],[40.5242257,38.8867863],[40.5144143,38.8813751],[40.519319,38.8746741]]]},"properties":{"@id":"relation/11822102","admin_level":"8","boundary":"administrative","name":"İnalı Mahallesi","type":"boundary","@relations":[{"role":"subarea","rel":1836191,"reltags":{"admin_level":"6","alt_name":"Bingöl","alt_name:ku":"Çolîg;Çebexçûr","boundary":"administrative","name":"Bingöl Merkez","name:ar":"بينكل","name:bg":"Бингьол","name:ce":"Бингоьл","name:de":"Bingöl","name:el":"Μπινγκιόλ","name:fa":"بینگول","name:he":"בינגל","name:hy":"Ճապաղջուր","name:ja":"ビンギョル","name:ka":"ბინგოლი","name:ko":"빙괼","name:ku":"Çewlîg","name:pa":"ਬਿੰਗੋਲ","name:ru":"Бингёль","name:tr":"Bingöl Merkez","name:tr:suffix":"İlçesi","name:tt":"Бингөл","name:uk":"Бінгьоль","name:ur":"بینگول","name:vi":"Bingöl","name:zh":"賓格爾","name:zza":"Çolig","network":"TR12-districts","type":"boundary","wikidata":"Q208472","wikipedia":"tr:Bingöl"}}]},"id":"relation/11822102"},
{"type":"Feature","geometry":{"type":"Polygon","coordinates":[[[40.562714,38.746124],[40.5550908,38.7508503],[40.5297298,38.7512841],[40.5244919,38.7450329],[40.562714,38.746124]]]},"properties":{"@id":"relation/12843254","admin_level":"8","boundary":"administrative","name":"Kültür Mahallesi","type":"boundary","@relations":[{"role":"subarea","rel":1836191,"reltags":{"admin_level":"6","alt_name":"Bingöl","alt_name:ku":"Çolîg;Çebexçûr","boundary":"administrative","name":"Bingöl Merkez","name:ar":"بينكل","name:bg":"Бингьол","name:ce":"Бингоьл","name:de":"Bingöl","name:el":"Μπινγκιόλ","name:fa":"بینگول","name:he":"בינגל","name:hy":"Ճապաղջուր","name:ja":"ビンギョル","name:ka":"ბინგოლი","name:ko":"빙괼","name:ku":"Çewlîg","name:pa":"ਬਿੰਗੋਲ","name:ru":"Бингёль","name:tr":"Bingöl Merkez","name:tr:suffix":"İlçesi","name:tt":"Бингөл","name:uk":"Бінгьоль","name:ur":"بینگول","name:vi":"Bingöl","name:zh":"賓格爾","name:zza":"Çolig","network":"TR12-districts","type":"boundary","wikidata":"Q208472","wikipedia":"tr:Bingöl"}},{"role":"subarea","rel":1836192,"reltags":{"admin_level":"6","alt_name":"Darahênî","boundary":"administrative","name":"Genç","name:ce":"Генча","name:de":"Genç","name:diq":"Dara Hênî","name:en":"Genç","name:fa":"گنچ","name:hy":"Գենջ","name:ku":"Dara Hênî","name:ota":"داراهينی","name:tr":"Genç","name:tr:suffix":"İlçesi","name:tt":"Генч","name:ur":"گنچ","name:zh":"根奇","name:zza":"Dara Hênî","network":"TR12-districts","type":"boundary","wikidata":"Q203630","wikipedia":"tr:Genç, Bingöl"}}]},"id":"relation/12843254"},
{"type":"Feature","geometry":{"type":"Polygon","coordinates":[[[40.5550908,38.7508503],[40.562714,38.746124],[40.5630992,38.7583657],[40.5550908,38.7508503]]]},"properties":{"@id":"relation/12843745","admin_level":"8","boundary":"administrative","name":"Cumhuriyet Mahallesi","type":"boundary","@relations":[{"role":"subarea","rel":1836192,"reltags":{"admin_level":"6","alt_name":"Darahênî","boundary":"administrative","name":"Genç","name:ce":"Генча","name:de":"Genç","name:diq":"Dara Hênî","name:en":"Genç","name:fa":"گنچ","name:hy":"Գենջ","name:ku":"Dara Hênî","name:ota":"داراهينی","name:tr":"Genç","name:tr:suffix":"İlçesi","name:tt":"Генч","name:ur":"گنچ","name:zh":"根奇","name:zza":"Dara Hênî","network":"TR12-districts","type":"boundary","wikidata":"Q203630","wikipedia":"tr:Genç, Bingöl"}}]},"id":"relation/12843745"},
{"type":"Feature","geometry":{"type":"Polygon","coordinates":[[[40.5297298,38.7512841],[40.5550908,38.7508503],[40.5630992,38.7583657],[40.5660194,38.7641319],[40.5297298,38.7512841]]]},"properties":{"@id":"relation/12843746","admin_level":"8","boundary":"administrative","name":"Yenişehir Mahallesi","type":"boundary","@relations":[{"role":"subarea","rel":1836191,"reltags":{"admin_level":"6","alt_name":"Bingöl","alt_name:ku":"Çolîg;Çebexçûr","boundary":"administrative","name":"Bingöl Merkez","name:ar":"بينكل","name:bg":"Бингьол","name:ce":"Бингоьл","name:de":"Bingöl","name:el":"Μπινγκιόλ","name:fa":"بینگول","name:he":"בינגל","name:hy":"Ճապաղջուր","name:ja":"ビンギョル","name:ka":"ბინგოლი","name:ko":"빙괼","name:ku":"Çewlîg","name:pa":"ਬਿੰਗੋਲ","name:ru":"Бингёль","name:tr":"Bingöl Merkez","name:tr:suffix":"İlçesi","name:tt":"Бингөл","name:uk":"Бінгьоль","name:ur":"بینگول","name:vi":"Bingöl","name:zh":"賓格爾","name:zza":"Çolig","network":"TR12-districts","type":"boundary","wikidata":"Q208472","wikipedia":"tr:Bingöl"}},{"role":"subarea","rel":1836192,"reltags":{"admin_level":"6","alt_name":"Darahênî","boundary":"administrative","name":"Genç","name:ce":"Генча","name:de":"Genç","name:diq":"Dara Hênî","name:en":"Genç","name:fa":"گنچ","name:hy":"Գենջ","name:ku":"Dara Hênî","name:ota":"داراهينی","name:tr":"Genç","name:tr:suffix":"İlçesi","name:tt":"Генч","name:ur":"گنچ","name:zh":"根奇","name:zza":"Dara Hênî","network":"TR12-districts","type":"boundary","wikidata":"Q203630","wikipedia":"tr:Genç, Bingöl"}}]},"id":"relation/12843746"}
]}