{"type":"FeatureCollection", "features": [
{"type":"Feature","geometry":{"type":"Polygon","coordinates":[[[42.6622008,38.3130516],[42.6451921,38.2981718],[42.6110266,38.2944102],[42.5576543,38.2807561],[42.5676677,38.2685152],[42.5686312,38.2431687],[42.5533103,38.2323485],[42.5279704,38.2490285],[42.5246429,38.270229],[42.4991042,38.2659372],[42.5054794,38.2934439],[42.4797261,38.3065443],[42.465097,38.3240721],[42.429445,38.3241503],[42.4212912,38.3508147],[42.3631141,38.3035047],[42.3468187,38.2651517],[42.3465376,38.2482456],[42.3063465,38.2380982],[42.2615828,38.2399799],[42.2620009,38.2277976],[42.2451781,38.2097255],[42.2481676,38.192128],[42.2363234,38.1802386],[42.256441,38.1523298],[42.2480963,38.1229439],[42.3441409,38.1071419],[42.3706537,38.1079925],[42.3748166,38.0888374],[42.39148,38.0691268],[42.4403571,38.056945],[42.4705695,38.0295688],[42.4896239,38.0203059],[42.48353,37.9995446],[42.5019321,37.981597],[42.5483321,37.9692375],[42.5656699,37.9786421],[42.6495266,37.9943449],[42.6542178,38.0166553],[42.6839635,38.0303549],[42.6766638,38.0464312],[42.6904006,38.0869395],[42.6721073,38.0974431],[42.6721403,38.143882],[42.6857356,38.1503809],[42.7019804,38.1806117],[42.7324596,38.1893372],[42.7404156,38.2152088],[42.7088998,38.2453193],[42.6702063,38.2675066],[42.6622008,38.3130516]]]},"properties":{"@id":"relation/1668092","admin_level":"6","boundary":"administrative","name":"Hizan","name:ce":"ХӀизан","name:de":"Hizan","name:en":"Hizan","name:fa":"خیزان","name:hy":"Խիզան","name:ku":"Xîzan","name:ru":"Хизан","name:tr":"Hizan","name:tr:suffix":"İlçesi","name:tt":"Хизан","name:ur":"خیزان","name:zh":"希赞","name:zza":"Xizan","network":"TR13-districts","population":"32586","population:date":"2021","type":"boundary","wikidata":"Q475253","wikipedia":"tr:Hizan"},"id":"relation/1668092"},
{"type":"Feature","geometry":{"type":"Polygon","coordinates":[[[42.6857249,38.64163],[42.9287715,38.6238444],[43.0021326,38.7024573],[43.0263675,38.7338524],[43.0709766,38.7607993],[43.1346278,38.7826879],[43.1839392,38.8290688],[43.1882449,38.8623012],[43.2009955,38.89387],[43.1598324,38.9159018],[43.083645,38.9203727],[43.0603663,38.9632564],[43.035294,39.0016003],[43.0007683,39.0188218],[42.9551522,39.0217444],[42.9358296,38.9973915],[42.9396342,38.9630795],[42.909638,38.9307798],[42.7714972,38.9308058],[42.7445495,38.9372562],[42.7146572,38.935095],[42.6946398,38.9576246],[42.673874,38.9493381],[42.6611064,38.9275568],[42.6470512,38.9387404],[42.6048858,38.9206287],[42.584875,38.906129],[42.588673,38.880978],[42.585025,38.860296],[42.61425,38.853946],[42.61013,38.814366],[42.615387,38.777189],[42.6857249,38.64163]]]},"properties":{"@id":"relation/1836395","admin_level":"6","boundary":"administrative","name":"Adilcevaz","name:ce":"Адилджеваз","name:de":"Adilcevaz","name:en":"Adilcevaz","name:fa":"آدل‌جوز","name:hy":"Արծկե","name:ku":"Elcewaz","name:tr":"Adilcevaz","name:tr:suffix":"İlçesi","name:tt":"Адилҗеваз","name:ur":"عادل جواز","name:zh":"阿迪爾傑瓦茲","name:zza":"Elcewaz","network":"TR13-districts","population":"30123","population:date":"2021","type":"boundary","wikidata":"Q357251","wikipedia":"tr:Adilcevaz"},"id":"relation/1836395"},
{"type":"Feature","geometry":{"type":"Polygon","coordinates":[[[42.584875,38.906129],[42.5585758,38.9323598],[42.5033451,38.9230347],[42.4555999,38.9547823],[42.4219592,38.957406],[42.4005244,38.9364136],[42.3777996,38.9263783],[42.3331438,38.9482998],[42.3164723,38.945367],[42.2917627,38.9294662],[42.2953352,38.9129441],[42.2735034,38.9050678],[42.2621906,38.8862227],[42.239565,38.8914751],[42.206619,38.8859137],[42.1808178,38.8760258],[42.1657248,38.8442569],[42.131873,38.846065],[42.1190491,38.8361548],[42.113472,38.7953608],[42.0926434,38.7844488],[42.0854365,38.7717496],[42.1167727,38.7631524],[42.11362,38.75072],[42.1181488,38.7375486],[42.14699,38.71047],[42.1777,38.7145],[42.19967,38.68499],[42.21469,38.68752],[42.23095,38.66769],[42.23568,38.63284],[42.2865435,38.6228763],[42.406025,38.660582],[42.423191,38.662928],[42.4345716,38.6772376],[42.4541006,38.683651],[42.6857249,38.64163],[42.615387,38.777189],[42.61013,38.814366],[42.61425,38.853946],[42.585025,38.860296],[42.588673,38.880978],[42.584875,38.906129]]]},"properties":{"@id":"relation/1836396","admin_level":"6","boundary":"administrative","name":"Ahlat","name:ar":"أخلاط","name:az":"Əxlat","name:ce":"АхӀлат","name:de":"Ahlat","name:en":"Ahlat","name:fa":"اخلاط","name:hy":"Խլաթ","name:kk":"Аһлат","name:ku":"Xelat","name:ru":"Ахлат","name:tr":"Ahlat","name:tr:suffix":"İlçesi","name:tt":"Ахлат","name:uk":"Ахлат","name:ur":"اخلاط","name:zh":"阿赫拉特","name:zza":"Xelat","network":"TR13-districts","population":"42131","population:date":"2021","type":"boundary","wikidata":"Q400362","wikipedia":"tr:Ahlat, Bitlis"},"id":"relation/1836396"},
{"type":"Feature","geometry":{"type":"Polygon","coordinates":[[[41.80158,38.23768],[41.8064716,38.221872],[41.8240244,38.2028061],[41.8545508,38.1913099],[41.9148703,38.1898082],[41.9313513,38.185063],[41.9539924,38.1632864],[41.9815076,38.1669383],[41.9976966,38.1988767],[42.0368671,38.2010923],[42.0581101,38.2156264],[42.06905,38.20817],[42.1055185,38.1994776],[42.1095656,38.2240217],[42.1289633,38.2267188],[42.1559141,38.2202456],[42.1811484,38.2369668],[42.2138578,38.2363026],[42.2324751,38.2469437],[42.2615828,38.2399799],[42.3063465,38.2380982],[42.3465376,38.2482456],[42.3468187,38.2651517],[42.3631141,38.3035047],[42.4212912,38.3508147],[42.3918777,38.3620897],[42.3781099,38.3746616],[42.348567,38.374139],[42.3041139,38.3816479],[42.2635755,38.3942169],[42.2314418,38.3933044],[42.2194133,38.400241],[42.2159316,38.4295868],[42.2256652,38.4597965],[42.2057604,38.4841147],[42.2052889,38.4846578],[42.1978748,38.4934698],[42.1849297,38.4886024],[42.1700729,38.5029508],[42.1561275,38.4985513],[42.13688,38.48934],[42.13815,38.46828],[42.11702,38.4556],[42.10217,38.4783],[42.07845,38.47013],[42.05496,38.48271],[41.98769,38.4748],[41.96937,38.48302],[41.95768,38.4753],[41.94302,38.49775],[41.92038,38.48232],[41.91921,38.46836],[41.93282,38.45923],[41.9266524,38.4449407],[41.9545404,38.4205875],[42.00138,38.40475],[42.00703,38.38994],[41.97902,38.36875],[41.94801,38.35942],[41.94272,38.32239],[41.91678,38.32116],[41.89892,38.31289],[41.852,38.30718],[41.82165,38.28751],[41.81419,38.26544],[41.79929,38.25016],[41.80158,38.23768]]]},"properties":{"@id":"relation/1836397","admin_level":"6","alt_name":"Bitlis","boundary":"administrative","name":"Bitlis Merkez","name:ar":"بدليس","name:bg":"Битлис","name:ce":"Битлис","name:de":"Bitlis","name:el":"Μπιτλίς","name:en":"Bitlis","name:fa":"بیتلیس","name:hy":"Բաղեշ","name:ja":"ビトリス","name:ka":"ბითლისი","name:ko":"비틀리스","name:ku":"Bidlîs","name:lt":"Bitlisas","name:ota":"بدليس","name:ru":"Битлис","name:sr":"Битлис","name:th":"บิตลิส","name:tr":"Bitlis Merkez","name:tr:suffix":"İlçesi","name:tt":"Битлис","name:uk":"Бітліс","name:ur":"بتلیس","name:vi":"Bitlis","name:zh":"比特利斯","name:zza":"Bıdlis","network":"TR13-districts","population":"71077","population:date":"2021","type":"boundary","wikidata":"Q83531","wikipedia":"tr:Bitlis"},"id":"relation/1836397"},
{"type":"Feature","geometry":{"type":"Polygon","coordinates":[[[42.1700729,38.5029508],[42.17509,38.52603],[42.14948,38.54119],[42.16104,38.56202],[42.19493,38.56176],[42.20284,38.55413],[42.23478,38.58089],[42.27455,38.59579],[42.27362,38.61014],[42.23568,38.63284],[42.23095,38.66769],[42.21469,38.68752],[42.19967,38.68499],[42.1777,38.7145],[42.14699,38.71047],[42.1181488,38.7375486],[42.11362,38.75072],[42.115834,38.7369915],[42.0788529,38.7100235],[42.0434009,38.702173],[42.0305642,38.6926883],[42.0409865,38.6638184],[41.9985092,38.6499198],[41.9889033,38.6526141],[41.9458431,38.635533],[41.93545,38.60775],[41.94946,38.59336],[41.95409,38.57487],[41.94571,38.54456],[41.89963,38.51524],[41.89479,38.47805],[41.91921,38.46836],[41.92038,38.48232],[41.94302,38.49775],[41.95768,38.4753],[41.96937,38.48302],[41.98769,38.4748],[42.05496,38.48271],[42.07845,38.47013],[42.10217,38.4783],[42.11702,38.4556],[42.13815,38.46828],[42.13688,38.48934],[42.1561275,38.4985513],[42.1700729,38.5029508]]]},"properties":{"@id":"relation/1836398","admin_level":"6","boundary":"administrative","name":"Güroymak","name:de":"Güroymak","name:en":"Güroymak","name:ku":"Norşîn","name:tr":"Güroymak","name:tr:suffix":"İlçesi","network":"TR13-districts","type":"boundary","wikidata":"Q1023310","wikipedia":"tr:Güroymak"},"id":"relation/1836398"},
{"type":"Feature","geometry":{"type":"Polygon","coordinates":[[[41.95409,38.57487],[41.91568,38.55827],[41.89117,38.56046],[41.8796,38.58018],[41.85521,38.58621],[41.8418,38.59713],[41.79459,38.60324],[41.77497,38.59613],[41.71636,38.61642],[41.69267,38.61331],[41.66724,38.59873],[41.65342,38.6084],[41.63275,38.60417],[41.60848,38.61451],[41.59918,38.6023],[41.55858,38.60035],[41.50927,38.57123],[41.48718,38.54212],[41.50506,38.53149],[41.55665,38.53508],[41.58775,38.5132],[41.60863,38.5059],[41.64255,38.50356],[41.66378,38.49611],[41.66776,38.48249],[41.64106,38.47264],[41.60927,38.44101],[41.61377,38.42297],[41.59913,38.39345],[41.59745,38.37252],[41.63208,38.34104],[41.64214,38.33798],[41.64698,38.2865],[41.63735,38.26841],[41.67616,38.25003],[41.69563,38.24655],[41.70587,38.23168],[41.746,38.22448],[41.76192,38.23261],[41.80158,38.23768],[41.79929,38.25016],[41.81419,38.26544],[41.82165,38.28751],[41.852,38.30718],[41.89892,38.31289],[41.91678,38.32116],[41.94272,38.32239],[41.94801,38.35942],[41.97902,38.36875],[42.00703,38.38994],[42.00138,38.40475],[41.9545404,38.4205875],[41.9266524,38.4449407],[41.93282,38.45923],[41.91921,38.46836],[41.89479,38.47805],[41.89963,38.51524],[41.94571,38.54456],[41.95409,38.57487]]]},"properties":{"@id":"relation/1836399","admin_level":"6","boundary":"administrative","name":"Mutki","name:ce":"Мутки","name:de":"Mutki","name:en":"Mutki","name:fa":"موتکی","name:hy":"Մերեթաղ","name:ku":"Motkî","name:tr":"Mutki","name:tr:suffix":"İlçesi","name:tt":"Мутки","name:ur":"موتکی","name:zza":"Motki","network":"TR13-districts","old_name":"Miritak;Mérét'ağ","type":"boundary","wikidata":"Q1027573","wikipedia":"tr:Mutki"},"id":"relation/1836399"},
{"type":"Feature","geometry":{"type":"Polygon","coordinates":[[[42.1849297,38.4886024],[42.1978748,38.4934698],[42.2052889,38.4846578],[42.2057604,38.4841147],[42.2256652,38.4597965],[42.2159316,38.4295868],[42.2194133,38.400241],[42.2314418,38.3933044],[42.2635755,38.3942169],[42.3041139,38.3816479],[42.348567,38.374139],[42.3781099,38.3746616],[42.3918777,38.3620897],[42.4212912,38.3508147],[42.429445,38.3241503],[42.465097,38.3240721],[42.4797261,38.3065443],[42.5054794,38.2934439],[42.4991042,38.2659372],[42.5246429,38.270229],[42.5279704,38.2490285],[42.5533103,38.2323485],[42.5686312,38.2431687],[42.5676677,38.2685152],[42.5576543,38.2807561],[42.6110266,38.2944102],[42.6451921,38.2981718],[42.6622008,38.3130516],[42.6826462,38.3117496],[42.7134846,38.3272581],[42.7702045,38.3191344],[42.7897167,38.329425],[42.7946097,38.355186],[42.7784443,38.3941293],[42.778068,38.4109281],[42.7643895,38.4306479],[42.7467349,38.4394072],[42.7530212,38.4675906],[42.7898595,38.4957923],[42.8572736,38.5313453],[42.8787426,38.5466274],[42.9064025,38.5932883],[42.9287715,38.6238444],[42.6857249,38.64163],[42.4541006,38.683651],[42.4345716,38.6772376],[42.423191,38.662928],[42.406025,38.660582],[42.2865435,38.6228763],[42.23568,38.63284],[42.27362,38.61014],[42.27455,38.59579],[42.23478,38.58089],[42.20284,38.55413],[42.19493,38.56176],[42.16104,38.56202],[42.14948,38.54119],[42.17509,38.52603],[42.1700729,38.5029508],[42.1849297,38.4886024]]]},"properties":{"@id":"relation/1836400","admin_level":"6","boundary":"administrative","name":"Tatvan","name:ar":"تاتوان","name:ce":"Татван","name:de":"Tatvan","name:en":"Tatvan","name:fa":"تاتوان","name:hy":"Դատվան","name:ku":"Tetwan","name:tr":"Tatvan","name:tr:suffix":"İlçesi","name:tt":"Татван","name:ur":"تاتوان","name:zh":"塔特萬","name:zza":"Tetwan","network":"TR13-districts","population":"96884","population:date":"2021","type":"boundary","wikidata":"Q1012862","wikipedia":"tr:Tatvan"},"id":"relation/1836400"},
{"type":"Feature","geometry":{"type":"Polygon","coordinates":[[[42.1074809,38.3992896],[42.1058804,38.398094],[42.1098715,38.3962273],[42.1106923,38.3980267],[42.1095067,38.400545],[42.1074809,38.3992896]]]},"properties":{"@id":"relation/11762057","admin_level":"8","boundary":"administrative","name":"Şemsi Bitlis Mahallesi","type":"boundary","@relations":[{"role":"subarea","rel":1836397,"reltags":{"admin_level":"6","alt_name":"Bitlis","boundary":"administrative","name":"Bitlis Merkez","name:ar":"بدليس","name:bg":"Битлис","name:ce":"Битлис","name:de":"Bitlis","name:el":"Μπιτλίς","name:en":"Bitlis","name:fa":"بیتلیس","name:hy":"Բաղեշ","name:ja":"ビトリス","name:ka":"ბითლისი","name:ko":"비틀리스","name:ku":"Bidlîs","name:lt":"Bitlisas","name:ota":"بدليس","name:ru":"Битлис","name:sr":"Битлис","name:th":"บิตลิส","name:tr":"Bitlis Merkez","name:tr:suffix":"İlçesi","name:tt":"Битлис","name:uk":"Бітліс","name:ur":"بتلیس","name:vi":"Bitlis","name:zh":"比特利斯","name:zza":"Bıdlis","network":"TR13-districts","population":"71077","population:date":"2021","type":"boundary","wikidata":"Q83531","wikipedia":"tr:Bitlis"}}]},"id":"relation/11762057"},
{"type":"Feature","geometry":{"type":"Polygon","coordinates":[[[42.2891021,38.4913957],[42.2903024,38.4898179],[42.2937047,38.4859203],[42.3001058,38.4838905],[42.2933315,38.4930821],[42.2891021,38.4913957]]]},"properties":{"@id":"relation/11978024","admin_level":"8","boundary":"administrative","name":"İşletme Mahallesi","type":"boundary","@relations":[{"role":"subarea","rel":1836400,"reltags":{"admin_level":"6","boundary":"administrative","name":"Tatvan","name:ar":"تاتوان","name:ce":"Татван","name:de":"Tatvan","name:en":"Tatvan","name:fa":"تاتوان","name:hy":"Դատվան","name:ku":"Tetwan","name:tr":"Tatvan","name:tr:suffix":"İlçesi","name:tt":"Татван","name:ur":"تاتوان","name:zh":"塔特萬","name:zza":"Tetwan","network":"TR13-districts","population":"96884","population:date":"2021","type":"boundary","wikidata":"Q1012862","wikipedia":"tr:Tatvan"}}]},"id":"relation/11978024"},
{"type":"Feature","geometry":{"type":"Polygon","coordinates":[[[42.2838664,38.4983736],[42.2852873,38.4964712],[42.2891021,38.4913957],[42.2933315,38.4930821],[42.2891249,38.5008692],[42.2838664,38.4983736]]]},"properties":{"@id":"relation/11978025","admin_level":"8","boundary":"administrative","name":"Sahil Mahallesi","type":"boundary","@relations":[{"role":"subarea","rel":1836400,"reltags":{"admin_level":"6","boundary":"administrative","name":"Tatvan","name:ar":"تاتوان","name:ce":"Татван","name:de":"Tatvan","name:en":"Tatvan","name:fa":"تاتوان","name:hy":"Դատվան","name:ku":"Tetwan","name:tr":"Tatvan","name:tr:suffix":"İlçesi","name:tt":"Татван","name:ur":"تاتوان","name:zh":"塔特萬","name:zza":"Tetwan","network":"TR13-districts","population":"96884","population:date":"2021","type":"boundary","wikidata":"Q1012862","wikipedia":"tr:Tatvan"}}]},"id":"relation/11978025"},
{"type":"Feature","geometry":{"type":"Polygon","coordinates":[[[42.2870925,38.5099253],[42.288007,38.510385],[42.3017133,38.5123373],[42.2958398,38.5174735],[42.2869966,38.518418],[42.2870925,38.5099253]]]},"properties":{"@id":"relation/11980840","admin_level":"8","boundary":"administrative","name":"Şirinevler Mahallesi","type":"boundary","@relations":[{"role":"subarea","rel":1836400,"reltags":{"admin_level":"6","boundary":"administrative","name":"Tatvan","name:ar":"تاتوان","name:ce":"Татван","name:de":"Tatvan","name:en":"Tatvan","name:fa":"تاتوان","name:hy":"Դատվան","name:ku":"Tetwan","name:tr":"Tatvan","name:tr:suffix":"İlçesi","name:tt":"Татван","name:ur":"تاتوان","name:zh":"塔特萬","name:zza":"Tetwan","network":"TR13-districts","population":"96884","population:date":"2021","type":"boundary","wikidata":"Q1012862","wikipedia":"tr:Tatvan"}}]},"id":"relation/11980840"},
{"type":"Feature","geometry":{"type":"Polygon","coordinates":[[[42.2869966,38.518418],[42.2814417,38.5197232],[42.2790062,38.5188082],[42.2857212,38.5086979],[42.2870925,38.5099253],[42.2869966,38.518418]]]},"properties":{"@id":"relation/11980841","admin_level":"8","boundary":"administrative","name":"Bahçelievler Mahallesi","type":"boundary","@relations":[{"role":"subarea","rel":1836400,"reltags":{"admin_level":"6","boundary":"administrative","name":"Tatvan","name:ar":"تاتوان","name:ce":"Татван","name:de":"Tatvan","name:en":"Tatvan","name:fa":"تاتوان","name:hy":"Դատվան","name:ku":"Tetwan","name:tr":"Tatvan","name:tr:suffix":"İlçesi","name:tt":"Татван","name:ur":"تاتوان","name:zh":"塔特萬","name:zza":"Tetwan","network":"TR13-districts","population":"96884","population:date":"2021","type":"boundary","wikidata":"Q1012862","wikipedia":"tr:Tatvan"}}]},"id":"relation/11980841"},
{"type":"Feature","geometry":{"type":"Polygon","coordinates":[[[42.2790062,38.5188082],[42.2769356,38.5172469],[42.2812164,38.5019086],[42.2857212,38.5086979],[42.2790062,38.5188082]]]},"properties":{"@id":"relation/11980842","admin_level":"8","boundary":"administrative","name":"Kültür Mahallesi","type":"boundary","@relations":[{"role":"subarea","rel":1836400,"reltags":{"admin_level":"6","boundary":"administrative","name":"Tatvan","name:ar":"تاتوان","name:ce":"Татван","name:de":"Tatvan","name:en":"Tatvan","name:fa":"تاتوان","name:hy":"Դատվան","name:ku":"Tetwan","name:tr":"Tatvan","name:tr:suffix":"İlçesi","name:tt":"Татван","name:ur":"تاتوان","name:zh":"塔特萬","name:zza":"Tetwan","network":"TR13-districts","population":"96884","population:date":"2021","type":"boundary","wikidata":"Q1012862","wikipedia":"tr:Tatvan"}}]},"id":"relation/11980842"},
{"type":"Feature","geometry":{"type":"Polygon","coordinates":[[[42.2891249,38.5008692],[42.288007,38.510385],[42.2870925,38.5099253],[42.2857212,38.5086979],[42.2812164,38.5019086],[42.2838664,38.4983736],[42.2891249,38.5008692]]]},"properties":{"@id":"relation/11980843","admin_level":"8","boundary":"administrative","name":"Saray Mahallesi","type":"boundary","@relations":[{"role":"subarea","rel":1836400,"reltags":{"admin_level":"6","boundary":"administrative","name":"Tatvan","name:ar":"تاتوان","name:ce":"Татван","name:de":"Tatvan","name:en":"Tatvan","name:fa":"تاتوان","name:hy":"Դատվան","name:ku":"Tetwan","name:tr":"Tatvan","name:tr:suffix":"İlçesi","name:tt":"Татван","name:ur":"تاتوان","name:zh":"塔特萬","name:zza":"Tetwan","network":"TR13-districts","population":"96884","population:date":"2021","type":"boundary","wikidata":"Q1012862","wikipedia":"tr:Tatvan"}}]},"id":"relation/11980843"},
{"type":"Feature","geometry":{"type":"Polygon","coordinates":[[[42.1136178,38.4041014],[42.1095067,38.400545],[42.1106923,38.3980267],[42.1136178,38.4041014]]]},"properties":{"@id":"relation/12312218","admin_level":"8","boundary":"administrative","name":"İnönü Mahallesi","type":"boundary","@relations":[{"role":"subarea","rel":1836397,"reltags":{"admin_level":"6","alt_name":"Bitlis","boundary":"administrative","name":"Bitlis Merkez","name:ar":"بدليس","name:bg":"Битлис","name:ce":"Битлис","name:de":"Bitlis","name:el":"Μπιτλίς","name:en":"Bitlis","name:fa":"بیتلیس","name:hy":"Բաղեշ","name:ja":"ビトリス","name:ka":"ბითლისი","name:ko":"비틀리스","name:ku":"Bidlîs","name:lt":"Bitlisas","name:ota":"بدليس","name:ru":"Битлис","name:sr":"Битлис","name:th":"บิตลิส","name:tr":"Bitlis Merkez","name:tr:suffix":"İlçesi","name:tt":"Битлис","name:uk":"Бітліс","name:ur":"بتلیس","name:vi":"Bitlis","name:zh":"比特利斯","name:zza":"Bıdlis","network":"TR13-districts","population":"71077","population:date":"2021","type":"boundary","wikidata":"Q83531","wikipedia":"tr:Bitlis"}}]},"id":"relation/12312218"},
{"type":"Feature","geometry":{"type":"Polygon","coordinates":[[[42.1095067,38.400545],[42.1136178,38.4041014],[42.140336,38.4092132],[42.1382654,38.4254033],[42.1268974,38.4219977],[42.1079886,38.403143],[42.1064865,38.4024199],[42.1066576,38.3999625],[42.1074809,38.3992896],[42.1095067,38.400545]]]},"properties":{"@id":"relation/12312240","admin_level":"8","boundary":"administrative","name":"Gazi Bey Mahallesi","type":"boundary","@relations":[{"role":"subarea","rel":1836397,"reltags":{"admin_level":"6","alt_name":"Bitlis","boundary":"administrative","name":"Bitlis Merkez","name:ar":"بدليس","name:bg":"Битлис","name:ce":"Битлис","name:de":"Bitlis","name:el":"Μπιτλίς","name:en":"Bitlis","name:fa":"بیتلیس","name:hy":"Բաղեշ","name:ja":"ビトリス","name:ka":"ბითლისი","name:ko":"비틀리스","name:ku":"Bidlîs","name:lt":"Bitlisas","name:ota":"بدليس","name:ru":"Битлис","name:sr":"Битлис","name:th":"บิตลิส","name:tr":"Bitlis Merkez","name:tr:suffix":"İlçesi","name:tt":"Битлис","name:uk":"Бітліс","name:ur":"بتلیس","name:vi":"Bitlis","name:zh":"比特利斯","name:zza":"Bıdlis","network":"TR13-districts","population":"71077","population:date":"2021","type":"boundary","wikidata":"Q83531","wikipedia":"tr:Bitlis"}}]},"id":"relation/12312240"},
{"type":"Feature","geometry":{"type":"Polygon","coordinates":[[[42.1058804,38.398094],[42.1046734,38.3971396],[42.099942,38.3802282],[42.1303689,38.3844417],[42.1098715,38.3962273],[42.1058804,38.398094]]]},"properties":{"@id":"relation/12312276","admin_level":"8","boundary":"administrative","name":"Hersan Mahallesi","type":"boundary","@relations":[{"role":"subarea","rel":1836397,"reltags":{"admin_level":"6","alt_name":"Bitlis","boundary":"administrative","name":"Bitlis Merkez","name:ar":"بدليس","name:bg":"Битлис","name:ce":"Битлис","name:de":"Bitlis","name:el":"Μπιτλίς","name:en":"Bitlis","name:fa":"بیتلیس","name:hy":"Բաղեշ","name:ja":"ビトリス","name:ka":"ბითლისი","name:ko":"비틀리스","name:ku":"Bidlîs","name:lt":"Bitlisas","name:ota":"بدليس","name:ru":"Битлис","name:sr":"Битлис","name:th":"บิตลิส","name:tr":"Bitlis Merkez","name:tr:suffix":"İlçesi","name:tt":"Битлис","name:uk":"Бітліс","name:ur":"بتلیس","name:vi":"Bitlis","name:zh":"比特利斯","name:zza":"Bıdlis","network":"TR13-districts","population":"71077","population:date":"2021","type":"boundary","wikidata":"Q83531","wikipedia":"tr:Bitlis"}}]},"id":"relation/12312276"},
{"type":"Feature","geometry":{"type":"Polygon","coordinates":[[[42.0873999,38.3937593],[42.099942,38.3802282],[42.1046734,38.3971396],[42.0873999,38.3937593]]]},"properties":{"@id":"relation/12312324","admin_level":"8","boundary":"administrative","name":"Saray Mahallesi","type":"boundary","@relations":[{"role":"subarea","rel":1836397,"reltags":{"admin_level":"6","alt_name":"Bitlis","boundary":"administrative","name":"Bitlis Merkez","name:ar":"بدليس","name:bg":"Битлис","name:ce":"Битлис","name:de":"Bitlis","name:el":"Μπιτλίς","name:en":"Bitlis","name:fa":"بیتلیس","name:hy":"Բաղեշ","name:ja":"ビトリス","name:ka":"ბითლისი","name:ko":"비틀리스","name:ku":"Bidlîs","name:lt":"Bitlisas","name:ota":"بدليس","name:ru":"Битлис","name:sr":"Битлис","name:th":"บิตลิส","name:tr":"Bitlis Merkez","name:tr:suffix":"İlçesi","name:tt":"Битлис","name:uk":"Бітліс","name:ur":"بتلیس","name:vi":"Bitlis","name:zh":"比特利斯","name:zza":"Bıdlis","network":"TR13-districts","population":"71077","population:date":"2021","type":"boundary","wikidata":"Q83531","wikipedia":"tr:Bitlis"}}]},"id":"relation/12312324"},
{"type":"Feature","geometry":{"type":"Polygon","coordinates":[[[42.1066576,38.3999625],[42.0945453,38.3971564],[42.0873999,38.3937593],[42.1046734,38.3971396],[42.1058804,38.398094],[42.1074809,38.3992896],[42.1066576,38.3999625]]]},"properties":{"@id":"relation/12312328","admin_level":"8","boundary":"administrative","name":"Muştakbaba Mahallesi","type":"boundary","@relations":[{"role":"subarea","rel":1836397,"reltags":{"admin_level":"6","alt_name":"Bitlis","boundary":"administrative","name":"Bitlis Merkez","name:ar":"بدليس","name:bg":"Битлис","name:ce":"Битлис","name:de":"Bitlis","name:el":"Μπιτλίς","name:en":"Bitlis","name:fa":"بیتلیس","name:hy":"Բաղեշ","name:ja":"ビトリス","name:ka":"ბითლისი","name:ko":"비틀리스","name:ku":"Bidlîs","name:lt":"Bitlisas","name:ota":"بدليس","name:ru":"Битлис","name:sr":"Битлис","name:th":"บิตลิส","name:tr":"Bitlis Merkez","name:tr:suffix":"İlçesi","name:tt":"Битлис","name:uk":"Бітліс","name:ur":"بتلیس","name:vi":"Bitlis","name:zh":"比特利斯","name:zza":"Bıdlis","network":"TR13-districts","population":"71077","population:date":"2021","type":"boundary","wikidata":"Q83531","wikipedia":"tr:Bitlis"}}]},"id":"relation/12312328"},
{"type":"Feature","geometry":{"type":"Polygon","coordinates":[[[42.1136178,38.4041014],[42.1106923,38.3980267],[42.1098715,38.3962273],[42.1303689,38.3844417],[42.140336,38.4092132],[42.1136178,38.4041014]]]},"properties":{"@id":"relation/12312332","admin_level":"8","boundary":"administrative","name":"Sekiz Ağustos Mahallesi","type":"boundary","@relations":[{"role":"subarea","rel":1836397,"reltags":{"admin_level":"6","alt_name":"Bitlis","boundary":"administrative","name":"Bitlis Merkez","name:ar":"بدليس","name:bg":"Битлис","name:ce":"Битлис","name:de":"Bitlis","name:el":"Μπιτλίς","name:en":"Bitlis","name:fa":"بیتلیس","name:hy":"Բաղեշ","name:ja":"ビトリス","name:ka":"ბითლისი","name:ko":"비틀리스","name:ku":"Bidlîs","name:lt":"Bitlisas","name:ota":"بدليس","name:ru":"Битлис","name:sr":"Битлис","name:th":"บิตลิส","name:tr":"Bitlis Merkez","name:tr:suffix":"İlçesi","name:tt":"Битлис","name:uk":"Бітліс","name:ur":"بتلیس","name:vi":"Bitlis","name:zh":"比特利斯","name:zza":"Bıdlis","network":"TR13-districts","population":"71077","population:date":"2021","type":"boundary","wikidata":"Q83531","wikipedia":"tr:Bitlis"}}]},"id":"relation/12312332"},
{"type":"Feature","geometry":{"type":"Polygon","coordinates":[[[42.1079886,38.403143],[42.1268974,38.4219977],[42.1234756,38.4201709],[42.1100163,38.4190319],[42.1079886,38.403143]]]},"properties":{"@id":"relation/12312333","admin_level":"8","boundary":"administrative","name":"Atatürk Mahallesi","type":"boundary","@relations":[{"role":"subarea","rel":1836397,"reltags":{"admin_level":"6","alt_name":"Bitlis","boundary":"administrative","name":"Bitlis Merkez","name:ar":"بدليس","name:bg":"Битлис","name:ce":"Битлис","name:de":"Bitlis","name:el":"Μπιτλίς","name:en":"Bitlis","name:fa":"بیتلیس","name:hy":"Բաղեշ","name:ja":"ビトリス","name:ka":"ბითლისი","name:ko":"비틀리스","name:ku":"Bidlîs","name:lt":"Bitlisas","name:ota":"بدليس","name:ru":"Битлис","name:sr":"Битлис","name:th":"บิตลิส","name:tr":"Bitlis Merkez","name:tr:suffix":"İlçesi","name:tt":"Битлис","name:uk":"Бітліс","name:ur":"بتلیس","name:vi":"Bitlis","name:zh":"比特利斯","name:zza":"Bıdlis","network":"TR13-districts","population":"71077","population:date":"2021","type":"boundary","wikidata":"Q83531","wikipedia":"tr:Bitlis"}}]},"id":"relation/12312333"},
{"type":"Feature","geometry":{"type":"Polygon","coordinates":[[[42.1064865,38.4024199],[42.1079886,38.403143],[42.1100163,38.4190319],[42.1054673,38.4217722],[42.1049309,38.4040006],[42.1064865,38.4024199]]]},"properties":{"@id":"relation/12312336","admin_level":"8","boundary":"administrative","name":"Taş Mahallesi","type":"boundary","@relations":[{"role":"subarea","rel":1836397,"reltags":{"admin_level":"6","alt_name":"Bitlis","boundary":"administrative","name":"Bitlis Merkez","name:ar":"بدليس","name:bg":"Битлис","name:ce":"Битлис","name:de":"Bitlis","name:el":"Μπιτλίς","name:en":"Bitlis","name:fa":"بیتلیس","name:hy":"Բաղեշ","name:ja":"ビトリス","name:ka":"ბითლისი","name:ko":"비틀리스","name:ku":"Bidlîs","name:lt":"Bitlisas","name:ota":"بدليس","name:ru":"Битлис","name:sr":"Битлис","name:th":"บิตลิส","name:tr":"Bitlis Merkez","name:tr:suffix":"İlçesi","name:tt":"Битлис","name:uk":"Бітліс","name:ur":"بتلیس","name:vi":"Bitlis","name:zh":"比特利斯","name:zza":"Bıdlis","network":"TR13-districts","population":"71077","population:date":"2021","type":"boundary","wikidata":"Q83531","wikipedia":"tr:Bitlis"}}]},"id":"relation/12312336"},
{"type":"Feature","geometry":{"type":"Polygon","coordinates":[[[42.1503997,38.4362115],[42.1355744,38.4394323],[42.1234756,38.4201709],[42.1268974,38.4219977],[42.1382654,38.4254033],[42.1503997,38.4362115]]]},"properties":{"@id":"relation/12314101","admin_level":"8","boundary":"administrative","name":"Hüsrev Paşa Mahallesi","type":"boundary","@relations":[{"role":"subarea","rel":1836397,"reltags":{"admin_level":"6","alt_name":"Bitlis","boundary":"administrative","name":"Bitlis Merkez","name:ar":"بدليس","name:bg":"Битлис","name:ce":"Битлис","name:de":"Bitlis","name:el":"Μπιτλίς","name:en":"Bitlis","name:fa":"بیتلیس","name:hy":"Բաղեշ","name:ja":"ビトリス","name:ka":"ბითლისი","name:ko":"비틀리스","name:ku":"Bidlîs","name:lt":"Bitlisas","name:ota":"بدليس","name:ru":"Битлис","name:sr":"Битлис","name:th":"บิตลิส","name:tr":"Bitlis Merkez","name:tr:suffix":"İlçesi","name:tt":"Битлис","name:uk":"Бітліс","name:ur":"بتلیس","name:vi":"Bitlis","name:zh":"比特利斯","name:zza":"Bıdlis","network":"TR13-districts","population":"71077","population:date":"2021","type":"boundary","wikidata":"Q83531","wikipedia":"tr:Bitlis"}}]},"id":"relation/12314101"},
{"type":"Feature","geometry":{"type":"Polygon","coordinates":[[[42.0978284,38.4009906],[42.1049309,38.4040006],[42.1054673,38.4217722],[42.0711135,38.4540256],[42.0527458,38.4520428],[42.0644617,38.4267313],[42.0534753,38.4142572],[42.0978284,38.4009906]]]},"properties":{"@id":"relation/12314102","admin_level":"8","boundary":"administrative","name":"Yükseliş Mahallesi","type":"boundary","@relations":[{"role":"subarea","rel":1836397,"reltags":{"admin_level":"6","alt_name":"Bitlis","boundary":"administrative","name":"Bitlis Merkez","name:ar":"بدليس","name:bg":"Битлис","name:ce":"Битлис","name:de":"Bitlis","name:el":"Μπιτλίς","name:en":"Bitlis","name:fa":"بیتلیس","name:hy":"Բաղեշ","name:ja":"ビトリス","name:ka":"ბითლისი","name:ko":"비틀리스","name:ku":"Bidlîs","name:lt":"Bitlisas","name:ota":"بدليس","name:ru":"Битлис","name:sr":"Битлис","name:th":"บิตลิส","name:tr":"Bitlis Merkez","name:tr:suffix":"İlçesi","name:tt":"Битлис","name:uk":"Бітліс","name:ur":"بتلیس","name:vi":"Bitlis","name:zh":"比特利斯","name:zza":"Bıdlis","network":"TR13-districts","population":"71077","population:date":"2021","type":"boundary","wikidata":"Q83531","wikipedia":"tr:Bitlis"}}]},"id":"relation/12314102"},
{"type":"Feature","geometry":{"type":"Polygon","coordinates":[[[42.1066576,38.3999625],[42.1064865,38.4024199],[42.1049309,38.4040006],[42.0978284,38.4009906],[42.0945453,38.3971564],[42.1066576,38.3999625]]]},"properties":{"@id":"relation/12314103","admin_level":"8","boundary":"administrative","name":"Zeydan Mahallesi","type":"boundary","@relations":[{"role":"subarea","rel":1836397,"reltags":{"admin_level":"6","alt_name":"Bitlis","boundary":"administrative","name":"Bitlis Merkez","name:ar":"بدليس","name:bg":"Битлис","name:ce":"Битлис","name:de":"Bitlis","name:el":"Μπιτλίς","name:en":"Bitlis","name:fa":"بیتلیس","name:hy":"Բաղեշ","name:ja":"ビトリス","name:ka":"ბითლისი","name:ko":"비틀리스","name:ku":"Bidlîs","name:lt":"Bitlisas","name:ota":"بدليس","name:ru":"Битлис","name:sr":"Битлис","name:th":"บิตลิส","name:tr":"Bitlis Merkez","name:tr:suffix":"İlçesi","name:tt":"Битлис","name:uk":"Бітліс","name:ur":"بتلیس","name:vi":"Bitlis","name:zh":"比特利斯","name:zza":"Bıdlis","network":"TR13-districts","population":"71077","population:date":"2021","type":"boundary","wikidata":"Q83531","wikipedia":"tr:Bitlis"}}]},"id":"relation/12314103"},
{"type":"Feature","geometry":{"type":"Polygon","coordinates":[[[42.1355744,38.4394323],[42.1503997,38.4362115],[42.1582746,38.465048],[42.1792388,38.4738176],[42.1915555,38.4883305],[42.2057604,38.4841147],[42.2052889,38.4846578],[42.1978748,38.4934698],[42.1849297,38.4886024],[42.155571,38.4696681],[42.1336412,38.4534711],[42.1355744,38.4394323]]]},"properties":{"@id":"relation/12314110","admin_level":"8","boundary":"administrative","name":"Beş Minare Mahallesi","type":"boundary","@relations":[{"role":"subarea","rel":1836397,"reltags":{"admin_level":"6","alt_name":"Bitlis","boundary":"administrative","name":"Bitlis Merkez","name:ar":"بدليس","name:bg":"Битлис","name:ce":"Битлис","name:de":"Bitlis","name:el":"Μπιτλίς","name:en":"Bitlis","name:fa":"بیتلیس","name:hy":"Բաղեշ","name:ja":"ビトリス","name:ka":"ბითლისი","name:ko":"비틀리스","name:ku":"Bidlîs","name:lt":"Bitlisas","name:ota":"بدليس","name:ru":"Битлис","name:sr":"Битлис","name:th":"บิตลิส","name:tr":"Bitlis Merkez","name:tr:suffix":"İlçesi","name:tt":"Битлис","name:uk":"Бітліс","name:ur":"بتلیس","name:vi":"Bitlis","name:zh":"比特利斯","name:zza":"Bıdlis","network":"TR13-districts","population":"71077","population:date":"2021","type":"boundary","wikidata":"Q83531","wikipedia":"tr:Bitlis"}}]},"id":"relation/12314110"},
{"type":"Feature","geometry":{"type":"Polygon","coordinates":[[[42.3090792,38.5318769],[42.3303866,38.5310125],[42.3528743,38.539472],[42.3535609,38.5540556],[42.3253655,38.5563041],[42.3037576,38.544809],[42.3090792,38.5318769]]]},"properties":{"@id":"relation/12321138","admin_level":"8","boundary":"administrative","name":"Cumhuriyet Mahallesi","type":"boundary","@relations":[{"role":"subarea","rel":1836400,"reltags":{"admin_level":"6","boundary":"administrative","name":"Tatvan","name:ar":"تاتوان","name:ce":"Татван","name:de":"Tatvan","name:en":"Tatvan","name:fa":"تاتوان","name:hy":"Դատվան","name:ku":"Tetwan","name:tr":"Tatvan","name:tr:suffix":"İlçesi","name:tt":"Татван","name:ur":"تاتوان","name:zh":"塔特萬","name:zza":"Tetwan","network":"TR13-districts","population":"96884","population:date":"2021","type":"boundary","wikidata":"Q1012862","wikipedia":"tr:Tatvan"}}]},"id":"relation/12321138"},
{"type":"Feature","geometry":{"type":"Polygon","coordinates":[[[42.3017133,38.5123373],[42.313296,38.5286926],[42.3420006,38.5267473],[42.3594998,38.5403983],[42.3535609,38.5540556],[42.3528743,38.539472],[42.3303866,38.5310125],[42.3090792,38.5318769],[42.2958398,38.5174735],[42.3017133,38.5123373]]]},"properties":{"@id":"relation/12321139","admin_level":"8","boundary":"administrative","name":"Kale Mahallesi","type":"boundary","@relations":[{"role":"subarea","rel":1836400,"reltags":{"admin_level":"6","boundary":"administrative","name":"Tatvan","name:ar":"تاتوان","name:ce":"Татван","name:de":"Tatvan","name:en":"Tatvan","name:fa":"تاتوان","name:hy":"Դատվան","name:ku":"Tetwan","name:tr":"Tatvan","name:tr:suffix":"İlçesi","name:tt":"Татван","name:ur":"تاتوان","name:zh":"塔特萬","name:zza":"Tetwan","network":"TR13-districts","population":"96884","population:date":"2021","type":"boundary","wikidata":"Q1012862","wikipedia":"tr:Tatvan"}}]},"id":"relation/12321139"},
{"type":"Feature","geometry":{"type":"Polygon","coordinates":[[[42.1700729,38.5029508],[42.1849297,38.4886024],[42.1978748,38.4934698],[42.2052889,38.4846578],[42.2077989,38.4861135],[42.2025203,38.4955355],[42.2479248,38.5169783],[42.2750687,38.524919],[42.2814417,38.5197232],[42.2869966,38.518418],[42.2958398,38.5174735],[42.3090792,38.5318769],[42.3037576,38.544809],[42.2659492,38.5447251],[42.2494054,38.5258087],[42.2357368,38.5304418],[42.2168541,38.5121765],[42.1931648,38.5003888],[42.1700729,38.5029508]]]},"properties":{"@id":"relation/12321177","admin_level":"8","boundary":"administrative","name":"Karşıyaka Mahallesi","type":"boundary","@relations":[{"role":"subarea","rel":1836400,"reltags":{"admin_level":"6","boundary":"administrative","name":"Tatvan","name:ar":"تاتوان","name:ce":"Татван","name:de":"Tatvan","name:en":"Tatvan","name:fa":"تاتوان","name:hy":"Դատվան","name:ku":"Tetwan","name:tr":"Tatvan","name:tr:suffix":"İlçesi","name:tt":"Татван","name:ur":"تاتوان","name:zh":"塔特萬","name:zza":"Tetwan","network":"TR13-districts","population":"96884","population:date":"2021","type":"boundary","wikidata":"Q1012862","wikipedia":"tr:Tatvan"}}]},"id":"relation/12321177"},
{"type":"Feature","geometry":{"type":"Polygon","coordinates":[[[42.2838664,38.4983736],[42.2812164,38.5019086],[42.2769356,38.5172469],[42.2759807,38.5046877],[42.277236,38.5001369],[42.2807423,38.4975104],[42.2826229,38.4952808],[42.2852873,38.4964712],[42.2838664,38.4983736]]]},"properties":{"@id":"relation/12321184","admin_level":"8","boundary":"administrative","name":"Aydınlar Mahallesi","type":"boundary","@relations":[{"role":"subarea","rel":1836400,"reltags":{"admin_level":"6","boundary":"administrative","name":"Tatvan","name:ar":"تاتوان","name:ce":"Татван","name:de":"Tatvan","name:en":"Tatvan","name:fa":"تاتوان","name:hy":"Դատվան","name:ku":"Tetwan","name:tr":"Tatvan","name:tr:suffix":"İlçesi","name:tt":"Татван","name:ur":"تاتوان","name:zh":"塔特萬","name:zza":"Tetwan","network":"TR13-districts","population":"96884","population:date":"2021","type":"boundary","wikidata":"Q1012862","wikipedia":"tr:Tatvan"}}]},"id":"relation/12321184"},
{"type":"Feature","geometry":{"type":"Polygon","coordinates":[[[42.2077989,38.4861135],[42.2581172,38.4971309],[42.2645642,38.4999536],[42.2759807,38.5046877],[42.2769356,38.5172469],[42.2750687,38.524919],[42.2479248,38.5169783],[42.2025203,38.4955355],[42.2077989,38.4861135]]]},"properties":{"@id":"relation/12321185","admin_level":"8","boundary":"administrative","name":"Fatih Mahallesi","type":"boundary","@relations":[{"role":"subarea","rel":1836400,"reltags":{"admin_level":"6","boundary":"administrative","name":"Tatvan","name:ar":"تاتوان","name:ce":"Татван","name:de":"Tatvan","name:en":"Tatvan","name:fa":"تاتوان","name:hy":"Դատվան","name:ku":"Tetwan","name:tr":"Tatvan","name:tr:suffix":"İlçesi","name:tt":"Татван","name:ur":"تاتوان","name:zh":"塔特萬","name:zza":"Tetwan","network":"TR13-districts","population":"96884","population:date":"2021","type":"boundary","wikidata":"Q1012862","wikipedia":"tr:Tatvan"}}]},"id":"relation/12321185"},
{"type":"Feature","geometry":{"type":"Polygon","coordinates":[[[42.2750687,38.524919],[42.2769356,38.5172469],[42.2790062,38.5188082],[42.2814417,38.5197232],[42.2750687,38.524919]]]},"properties":{"@id":"relation/12321186","admin_level":"8","boundary":"administrative","name":"Esentepe Mahallesi","type":"boundary","@relations":[{"role":"subarea","rel":1836400,"reltags":{"admin_level":"6","boundary":"administrative","name":"Tatvan","name:ar":"تاتوان","name:ce":"Татван","name:de":"Tatvan","name:en":"Tatvan","name:fa":"تاتوان","name:hy":"Դատվան","name:ku":"Tetwan","name:tr":"Tatvan","name:tr:suffix":"İlçesi","name:tt":"Татван","name:ur":"تاتوان","name:zh":"塔特萬","name:zza":"Tetwan","network":"TR13-districts","population":"96884","population:date":"2021","type":"boundary","wikidata":"Q1012862","wikipedia":"tr:Tatvan"}}]},"id":"relation/12321186"},
{"type":"Feature","geometry":{"type":"Polygon","coordinates":[[[42.2903024,38.4898179],[42.2891021,38.4913957],[42.2852873,38.4964712],[42.2826229,38.4952808],[42.2843814,38.4916476],[42.2863635,38.4890434],[42.2903024,38.4898179]]]},"properties":{"@id":"relation/12321198","admin_level":"8","boundary":"administrative","name":"Tuğ Mahallesi","type":"boundary","@relations":[{"role":"subarea","rel":1836400,"reltags":{"admin_level":"6","boundary":"administrative","name":"Tatvan","name:ar":"تاتوان","name:ce":"Татван","name:de":"Tatvan","name:en":"Tatvan","name:fa":"تاتوان","name:hy":"Դատվան","name:ku":"Tetwan","name:tr":"Tatvan","name:tr:suffix":"İlçesi","name:tt":"Татван","name:ur":"تاتوان","name:zh":"塔特萬","name:zza":"Tetwan","network":"TR13-districts","population":"96884","population:date":"2021","type":"boundary","wikidata":"Q1012862","wikipedia":"tr:Tatvan"}}]},"id":"relation/12321198"},
{"type":"Feature","geometry":{"type":"Polygon","coordinates":[[[42.2843814,38.4916476],[42.2826229,38.4952808],[42.2807423,38.4975104],[42.2770482,38.4960603],[42.2810131,38.4904234],[42.2843814,38.4916476]]]},"properties":{"@id":"relation/12321205","admin_level":"8","boundary":"administrative","name":"Hidayet Mahallesi","type":"boundary","@relations":[{"role":"subarea","rel":1836400,"reltags":{"admin_level":"6","boundary":"administrative","name":"Tatvan","name:ar":"تاتوان","name:ce":"Татван","name:de":"Tatvan","name:en":"Tatvan","name:fa":"تاتوان","name:hy":"Դատվան","name:ku":"Tetwan","name:tr":"Tatvan","name:tr:suffix":"İlçesi","name:tt":"Татван","name:ur":"تاتوان","name:zh":"塔特萬","name:zza":"Tetwan","network":"TR13-districts","population":"96884","population:date":"2021","type":"boundary","wikidata":"Q1012862","wikipedia":"tr:Tatvan"}}]},"id":"relation/12321205"},
{"type":"Feature","geometry":{"type":"Polygon","coordinates":[[[42.2843814,38.4916476],[42.2810131,38.4904234],[42.2746074,38.4865837],[42.2823536,38.4843582],[42.2863635,38.4890434],[42.2843814,38.4916476]]]},"properties":{"@id":"relation/12321206","admin_level":"8","boundary":"administrative","name":"Yeni Mahallesi","type":"boundary","@relations":[{"role":"subarea","rel":1836400,"reltags":{"admin_level":"6","boundary":"administrative","name":"Tatvan","name:ar":"تاتوان","name:ce":"Татван","name:de":"Tatvan","name:en":"Tatvan","name:fa":"تاتوان","name:hy":"Դատվան","name:ku":"Tetwan","name:tr":"Tatvan","name:tr:suffix":"İlçesi","name:tt":"Татван","name:ur":"تاتوان","name:zh":"塔特萬","name:zza":"Tetwan","network":"TR13-districts","population":"96884","population:date":"2021","type":"boundary","wikidata":"Q1012862","wikipedia":"tr:Tatvan"}}]},"id":"relation/12321206"},
{"type":"Feature","geometry":{"type":"Polygon","coordinates":[[[42.2903024,38.4898179],[42.2863635,38.4890434],[42.2823536,38.4843582],[42.2851968,38.4825526],[42.2937047,38.4859203],[42.2903024,38.4898179]]]},"properties":{"@id":"relation/12321207","admin_level":"8","boundary":"administrative","name":"Karataş Mahallesi","type":"boundary","@relations":[{"role":"subarea","rel":1836400,"reltags":{"admin_level":"6","boundary":"administrative","name":"Tatvan","name:ar":"تاتوان","name:ce":"Татван","name:de":"Tatvan","name:en":"Tatvan","name:fa":"تاتوان","name:hy":"Դատվան","name:ku":"Tetwan","name:tr":"Tatvan","name:tr:suffix":"İlçesi","name:tt":"Татван","name:ur":"تاتوان","name:zh":"塔特萬","name:zza":"Tetwan","network":"TR13-districts","population":"96884","population:date":"2021","type":"boundary","wikidata":"Q1012862","wikipedia":"tr:Tatvan"}}]},"id":"relation/12321207"},
{"type":"Feature","geometry":{"type":"Polygon","coordinates":[[[42.2851968,38.4825526],[42.3001058,38.4838905],[42.2937047,38.4859203],[42.2851968,38.4825526]]]},"properties":{"@id":"relation/12321297","admin_level":"8","boundary":"administrative","name":"Fuar Mahallesi","type":"boundary","@relations":[{"role":"subarea","rel":1836400,"reltags":{"admin_level":"6","boundary":"administrative","name":"Tatvan","name:ar":"تاتوان","name:ce":"Татван","name:de":"Tatvan","name:en":"Tatvan","name:fa":"تاتوان","name:hy":"Դատվան","name:ku":"Tetwan","name:tr":"Tatvan","name:tr:suffix":"İlçesi","name:tt":"Татван","name:ur":"تاتوان","name:zh":"塔特萬","name:zza":"Tetwan","network":"TR13-districts","population":"96884","population:date":"2021","type":"boundary","wikidata":"Q1012862","wikipedia":"tr:Tatvan"}}]},"id":"relation/12321297"},
{"type":"Feature","geometry":{"type":"Polygon","coordinates":[[[42.2810131,38.4904234],[42.2770482,38.4960603],[42.2656917,38.4938729],[42.2746074,38.4865837],[42.2810131,38.4904234]]]},"properties":{"@id":"relation/12321299","admin_level":"8","boundary":"administrative","name":"Pınarbaşı Mahallesi","type":"boundary","@relations":[{"role":"subarea","rel":1836400,"reltags":{"admin_level":"6","boundary":"administrative","name":"Tatvan","name:ar":"تاتوان","name:ce":"Татван","name:de":"Tatvan","name:en":"Tatvan","name:fa":"تاتوان","name:hy":"Դատվան","name:ku":"Tetwan","name:tr":"Tatvan","name:tr:suffix":"İlçesi","name:tt":"Татван","name:ur":"تاتوان","name:zh":"塔特萬","name:zza":"Tetwan","network":"TR13-districts","population":"96884","population:date":"2021","type":"boundary","wikidata":"Q1012862","wikipedia":"tr:Tatvan"}}]},"id":"relation/12321299"},
{"type":"Feature","geometry":{"type":"Polygon","coordinates":[[[42.2770482,38.4960603],[42.2807423,38.4975104],[42.277236,38.5001369],[42.2645642,38.4999536],[42.2581172,38.4971309],[42.2656917,38.4938729],[42.2770482,38.4960603]]]},"properties":{"@id":"relation/12321300","admin_level":"8","boundary":"administrative","name":"Sosyal Mahallesi","type":"boundary","@relations":[{"role":"subarea","rel":1836400,"reltags":{"admin_level":"6","boundary":"administrative","name":"Tatvan","name:ar":"تاتوان","name:ce":"Татван","name:de":"Tatvan","name:en":"Tatvan","name:fa":"تاتوان","name:hy":"Դատվան","name:ku":"Tetwan","name:tr":"Tatvan","name:tr:suffix":"İlçesi","name:tt":"Татван","name:ur":"تاتوان","name:zh":"塔特萬","name:zza":"Tetwan","network":"TR13-districts","population":"96884","population:date":"2021","type":"boundary","wikidata":"Q1012862","wikipedia":"tr:Tatvan"}}]},"id":"relation/12321300"},
{"type":"Feature","geometry":{"type":"Polygon","coordinates":[[[42.277236,38.5001369],[42.2759807,38.5046877],[42.2645642,38.4999536],[42.277236,38.5001369]]]},"properties":{"@id":"relation/12321301","admin_level":"8","boundary":"administrative","name":"Dumlupınar Mahallesi","type":"boundary","@relations":[{"role":"subarea","rel":1836400,"reltags":{"admin_level":"6","boundary":"administrative","name":"Tatvan","name:ar":"تاتوان","name:ce":"Татван","name:de":"Tatvan","name:en":"Tatvan","name:fa":"تاتوان","name:hy":"Դատվան","name:ku":"Tetwan","name:tr":"Tatvan","name:tr:suffix":"İlçesi","name:tt":"Татван","name:ur":"تاتوان","name:zh":"塔特萬","name:zza":"Tetwan","network":"TR13-districts","population":"96884","population:date":"2021","type":"boundary","wikidata":"Q1012862","wikipedia":"tr:Tatvan"}}]},"id":"relation/12321301"},
{"type":"Feature","geometry":{"type":"Polygon","coordinates":[[[42.1561275,38.4985513],[42.144885,38.4779333],[42.155571,38.4696681],[42.1849297,38.4886024],[42.1700729,38.5029508],[42.1561275,38.4985513]]]},"properties":{"@id":"relation/14331769","admin_level":"8","boundary":"administrative","name":"Koruk Köyü","type":"boundary"},"id":"relation/14331769"},
{"type":"Feature","geometry":{"type":"Polygon","coordinates":[[[42.406025,38.660582],[42.4044589,38.6469416],[42.438812,38.626929],[42.45637,38.628411],[42.4546155,38.6627913],[42.4345716,38.6772376],[42.423191,38.662928],[42.406025,38.660582]]]},"properties":{"@id":"relation/14590335","admin_level":"8","boundary":"administrative","name":"Adabağ Köyü","type":"boundary","@relations":[{"role":"subarea","rel":1836400,"reltags":{"admin_level":"6","boundary":"administrative","name":"Tatvan","name:ar":"تاتوان","name:ce":"Татван","name:de":"Tatvan","name:en":"Tatvan","name:fa":"تاتوان","name:hy":"Դատվան","name:ku":"Tetwan","name:tr":"Tatvan","name:tr:suffix":"İlçesi","name:tt":"Татван","name:ur":"تاتوان","name:zh":"塔特萬","name:zza":"Tetwan","network":"TR13-districts","population":"96884","population:date":"2021","type":"boundary","wikidata":"Q1012862","wikipedia":"tr:Tatvan"}}]},"id":"relation/14590335"}
]}