{"type":"FeatureCollection", "features": [
{"type":"Feature","geometry":{"type":"Polygon","coordinates":[[[30.4885217,37.6008829],[30.5552273,37.5568051],[30.5778924,37.546918],[30.6750475,37.5455362],[30.7688746,37.5488935],[30.7596257,37.5531994],[30.7439658,37.6173034],[30.7177981,37.6601584],[30.6686033,37.6582865],[30.621226,37.6458302],[30.5910033,37.6668381],[30.5765772,37.6972856],[30.5018062,37.6920726],[30.4876025,37.697176],[30.4675786,37.6630282],[30.4737542,37.6212723],[30.4885217,37.6008829]]]},"properties":{"@id":"relation/1280041","admin_level":"6","boundary":"administrative","name":"Ağlasun","name:ce":"АгӀласун","name:de":"Ağlasun","name:en":"Ağlasun","name:fa":"سلوسا","name:ru":"Агласун","name:tr":"Ağlasun","name:tr:suffix":"İlçesi","network":"TR15-districts","type":"boundary","wikidata":"Q794714","wikipedia":"tr:Ağlasun"},"id":"relation/1280041"},
{"type":"Feature","geometry":{"type":"Polygon","coordinates":[[[30.2413656,37.375768],[30.2487944,37.335361],[30.2656172,37.3206189],[30.3619192,37.3207554],[30.4183958,37.3054642],[30.41934,37.2319002],[30.4349361,37.2065063],[30.4661177,37.210781],[30.4717825,37.2516474],[30.5455969,37.2531504],[30.5668829,37.2486412],[30.6254194,37.258479],[30.6501387,37.2722771],[30.6683348,37.2538336],[30.6923674,37.2568395],[30.7112501,37.2401687],[30.7708166,37.2306019],[30.846176,37.2512908],[30.8283232,37.2844338],[30.8514975,37.2959056],[30.9738491,37.3144413],[30.9889037,37.3442099],[30.9560725,37.3458656],[30.9240618,37.376004],[30.8756612,37.4020941],[30.8635505,37.4320602],[30.8452502,37.4367059],[30.8019637,37.5023834],[30.7817466,37.5181213],[30.7688746,37.5488935],[30.6750475,37.5455362],[30.5778924,37.546918],[30.5552273,37.5568051],[30.5422392,37.5235207],[30.4858183,37.4818504],[30.4293901,37.481296],[30.3976014,37.4687473],[30.3677766,37.4780023],[30.3237551,37.4670659],[30.3270653,37.4469409],[30.2711478,37.3719654],[30.2413656,37.375768]]]},"properties":{"@id":"relation/1280042","admin_level":"6","boundary":"administrative","name":"Bucak","name:de":"Bucak","name:en":"Bucak","name:tr":"Bucak","name:tr:suffix":"İlçesi","name:uk":"Буджак","network":"TR15-districts","type":"boundary","wikidata":"Q581187","wikipedia":"tr:Bucak, Burdur"},"id":"relation/1280042"},
{"type":"Feature","geometry":{"type":"Polygon","coordinates":[[[30.5552273,37.5568051],[30.4885217,37.6008829],[30.4602331,37.5857729],[30.3986477,37.5846973],[30.3628945,37.5509031],[30.3485019,37.52281],[30.3663069,37.5019445],[30.3677766,37.4780023],[30.3976014,37.4687473],[30.4293901,37.481296],[30.4858183,37.4818504],[30.5422392,37.5235207],[30.5552273,37.5568051]]]},"properties":{"@id":"relation/1280043","admin_level":"6","boundary":"administrative","name":"Çeltikçi","name:ce":"Челтикчи","name:de":"Çeltikçi","name:en":"Çeltikçi","name:ru":"Чельтикчи","name:tr":"Çeltikçi","name:tr:suffix":"İlçesi","network":"TR15-districts","type":"boundary","wikidata":"Q272779","wikipedia":"tr:Çeltikçi, Burdur"},"id":"relation/1280043"},
{"type":"Feature","geometry":{"type":"Polygon","coordinates":[[[29.972193,37.7930415],[29.9206932,37.7877545],[29.8970523,37.7774879],[29.8454953,37.7297038],[29.8313684,37.6949879],[29.8043169,37.685236],[29.7643407,37.6940365],[29.7475087,37.7144879],[29.7021222,37.7078299],[29.6864924,37.6861874],[29.6831861,37.6552586],[29.7306766,37.6233646],[29.7102376,37.6074125],[29.6519221,37.6280274],[29.5208758,37.5953683],[29.5117383,37.582074],[29.5559279,37.5662839],[29.586636,37.5407514],[29.5847408,37.5280371],[29.500837,37.5052904],[29.5362803,37.4789102],[29.5623226,37.4404107],[29.6102129,37.4467406],[29.6157318,37.4270466],[29.6744002,37.423605],[29.7478614,37.4324308],[29.8013307,37.4300092],[29.8796034,37.4407714],[29.9434697,37.4551427],[29.9753549,37.4560215],[29.9808185,37.5017686],[29.9642844,37.5676421],[29.9729005,37.5915771],[29.9720923,37.6896603],[29.9798864,37.7158688],[29.972193,37.7930415]]]},"properties":{"@id":"relation/1280044","admin_level":"6","boundary":"administrative","name":"Yeşilova","name:ce":"Йешилова","name:ru":"Ешилова","name:tr":"Yeşilova","name:tr:suffix":"İlçesi","name:uk":"Єшільова","network":"TR15-districts","type":"boundary","wikidata":"Q1582858","wikipedia":"tr:Yeşilova"},"id":"relation/1280044"},
{"type":"Feature","geometry":{"type":"Polygon","coordinates":[[[29.6027335,36.9689164],[29.5985609,37.0051048],[29.5978793,37.0471133],[29.572584,37.0712005],[29.5493048,37.0670004],[29.5244596,37.0367532],[29.4478183,36.9711762],[29.4143404,36.9026804],[29.3653322,36.846254],[29.3817767,36.8124194],[29.4281493,36.799594],[29.4428084,36.8237257],[29.4756565,36.8407677],[29.5001763,36.8412118],[29.5279708,36.8753116],[29.5308532,36.9057744],[29.5489711,36.9350731],[29.6027335,36.9689164]]]},"properties":{"@id":"relation/1280045","admin_level":"6","boundary":"administrative","name":"Altınyayla","name:ce":"Алтинйайла","name:de":"Altınyayla","name:en":"Altınyayla","name:fa":"التینیایلا","name:ru":"Алтынъяйла","name:tr":"Altınyayla","name:tr:suffix":"İlçesi","network":"TR15-districts","old_name":"Dirmil","type":"boundary","wikidata":"Q447230","wikipedia":"tr:Altınyayla, Burdur"},"id":"relation/1280045"},
{"type":"Feature","geometry":{"type":"Polygon","coordinates":[[[29.9705312,37.2808656],[30.0187747,37.235714],[30.0424574,37.2486412],[30.0641727,37.2874384],[30.1224516,37.2871653],[30.1286314,37.3248507],[30.1617621,37.3582874],[30.1873396,37.3619714],[30.1655869,37.4381346],[30.1372167,37.4734209],[30.1073243,37.4800984],[29.9753549,37.4560215],[30.002545,37.388388],[29.9946239,37.3241773],[29.9705312,37.2808656]]]},"properties":{"@id":"relation/1280046","admin_level":"6","boundary":"administrative","name":"Kemer","name:ce":"Кемер","name:de":"Kemer","name:en":"Kemer","name:ru":"Кемер","name:tr":"Kemer","name:tr:suffix":"İlçesi","network":"TR15-districts","old_name":"Bebekler;Böbekler;Kemeri Hamid;Sertac","type":"boundary","wikidata":"Q1023156","wikipedia":"tr:Kemer, Burdur"},"id":"relation/1280046"},
{"type":"Feature","geometry":{"type":"Polygon","coordinates":[[[29.5560867,37.2876043],[29.5241745,37.2931317],[29.5022215,37.2557433],[29.4820365,37.2408886],[29.4617386,37.2060042],[29.438476,37.1878923],[29.4513704,37.1629145],[29.4380733,37.1218606],[29.4415848,37.0655512],[29.4295393,37.0397651],[29.3826999,37.0665492],[29.3681639,37.0332919],[29.3384742,37.0190703],[29.3669154,36.9900601],[29.3914215,36.9817531],[29.3500357,36.9456037],[29.3398222,36.9046065],[29.3256968,36.8836149],[29.3451983,36.8555326],[29.3653322,36.846254],[29.4143404,36.9026804],[29.4478183,36.9711762],[29.5244596,37.0367532],[29.5493048,37.0670004],[29.572584,37.0712005],[29.5978793,37.0471133],[29.5985609,37.0051048],[29.6347232,37.0221552],[29.6567859,37.0946979],[29.6118552,37.1503627],[29.593853,37.214232],[29.5938723,37.2704351],[29.5560867,37.2876043]]]},"properties":{"@id":"relation/1280047","admin_level":"6","boundary":"administrative","name":"Gölhisar","name:ce":"ГоьлхӀисар","name:de":"Gölhisar","name:en":"Gölhisar","name:fa":"گل‌حصار","name:ru":"Гёльхисар","name:tr":"Gölhisar","name:tr:suffix":"İlçesi","name:uk":"ґьольгісар","name:zh":"格爾希薩爾","network":"TR15-districts","type":"boundary","wikidata":"Q990215","wikipedia":"tr:Gölhisar"},"id":"relation/1280047"},
{"type":"Feature","geometry":{"type":"Polygon","coordinates":[[[30.4885217,37.6008829],[30.4737542,37.6212723],[30.4675786,37.6630282],[30.4876025,37.697176],[30.4677503,37.723341],[30.4166952,37.7302974],[30.4111124,37.7575238],[30.4347215,37.787459],[30.4326556,37.8245498],[30.3718521,37.8304045],[30.3302145,37.802211],[30.2105247,37.7712567],[30.1803411,37.7978034],[30.1216185,37.8293351],[30.0478943,37.790497],[30.0256915,37.8074119],[29.972193,37.7930415],[29.9798864,37.7158688],[29.9720923,37.6896603],[29.9729005,37.5915771],[29.9642844,37.5676421],[29.9808185,37.5017686],[29.9753549,37.4560215],[30.1073243,37.4800984],[30.1372167,37.4734209],[30.1655869,37.4381346],[30.1873396,37.3619714],[30.2087973,37.3874812],[30.2413656,37.375768],[30.2711478,37.3719654],[30.3270653,37.4469409],[30.3237551,37.4670659],[30.3677766,37.4780023],[30.3663069,37.5019445],[30.3485019,37.52281],[30.3628945,37.5509031],[30.3986477,37.5846973],[30.4602331,37.5857729],[30.4885217,37.6008829]]]},"properties":{"@id":"relation/1280048","admin_level":"6","alt_name":"Burdur","boundary":"administrative","name":"Burdur Merkez","name:ar":"بوردور","name:ce":"Бурдур","name:el":"Μπουρντούρ","name:fa":"بوردور","name:hu":"Burdur","name:hy":"Բուրդուր","name:ja":"ブルドゥル","name:ka":"ბურდური","name:ko":"부르두르","name:ru":"Бурдур","name:tg":"Бурдур","name:tr":"Burdur Merkez","name:tr:suffix":"İlçesi","name:uk":"Бурдур","name:zh":"布爾杜爾","network":"TR15-districts","type":"boundary","wikidata":"Q211811","wikipedia":"tr:Burdur"},"id":"relation/1280048"},
{"type":"Feature","geometry":{"type":"Polygon","coordinates":[[[30.0187747,37.235714],[29.9705312,37.2808656],[29.9044693,37.2777716],[29.790749,37.3407982],[29.7668048,37.3684298],[29.6245533,37.3537015],[29.5779417,37.3263522],[29.576952,37.2899971],[29.5560867,37.2876043],[29.5938723,37.2704351],[29.6422643,37.2394404],[29.6602223,37.2058736],[29.6914125,37.1790696],[29.7227917,37.1686768],[29.7676866,37.1676223],[29.7915518,37.1561357],[29.8233262,37.1244423],[29.8438452,37.1308978],[29.8786925,37.1600431],[29.924526,37.1707132],[29.9542235,37.168251],[29.991989,37.2161126],[30.0187747,37.235714]]]},"properties":{"@id":"relation/1280049","admin_level":"6","boundary":"administrative","name":"Tefenni","name:ce":"Тефенни","name:de":"Tefenni","name:en":"Tefenni","name:ru":"Тефенни","name:tr":"Tefenni","name:tr:suffix":"İlçesi","network":"TR15-districts","type":"boundary","wikidata":"Q1788162","wikipedia":"tr:Tefenni"},"id":"relation/1280049"},
{"type":"Feature","geometry":{"type":"Polygon","coordinates":[[[29.6027335,36.9689164],[29.6490829,36.980469],[29.7585433,36.9633571],[29.7514914,36.9833577],[29.7732924,36.9940527],[29.8541449,37.004335],[29.8603247,37.0433947],[29.8233262,37.1244423],[29.7915518,37.1561357],[29.7676866,37.1676223],[29.7227917,37.1686768],[29.6914125,37.1790696],[29.6602223,37.2058736],[29.6422643,37.2394404],[29.5938723,37.2704351],[29.593853,37.214232],[29.6118552,37.1503627],[29.6567859,37.0946979],[29.6347232,37.0221552],[29.5985609,37.0051048],[29.6027335,36.9689164]]]},"properties":{"@id":"relation/1280050","admin_level":"6","boundary":"administrative","name":"Çavdır","name:ce":"Чавдир","name:de":"Çavdır","name:en":"Çavdır","name:ru":"Чавдыр","name:tr":"Çavdır","name:tr:suffix":"İlçesi","name:uk":"Чавдир","network":"TR15-districts","type":"boundary","wikidata":"Q272692","wikipedia":"tr:Çavdır"},"id":"relation/1280050"},
{"type":"Feature","geometry":{"type":"Polygon","coordinates":[[[29.6245533,37.3537015],[29.7668048,37.3684298],[29.790749,37.3407982],[29.9044693,37.2777716],[29.9705312,37.2808656],[29.9946239,37.3241773],[30.002545,37.388388],[29.9753549,37.4560215],[29.9434697,37.4551427],[29.8796034,37.4407714],[29.8013307,37.4300092],[29.7478614,37.4324308],[29.6744002,37.423605],[29.6157318,37.4270466],[29.6231387,37.4116898],[29.6245533,37.3537015]]]},"properties":{"@id":"relation/1280051","admin_level":"6","boundary":"administrative","name":"Karamanlı","name:ce":"Караманли","name:de":"Karamanlı","name:en":"Karamanlı","name:ru":"Караманлы","name:tr":"Karamanlı","name:tr:suffix":"İlçesi","network":"TR15-districts","type":"boundary","wikidata":"Q1014443","wikipedia":"tr:Karamanlı"},"id":"relation/1280051"},
{"type":"Feature","geometry":{"type":"Polygon","coordinates":[[[30.28391,37.7149409],[30.2826977,37.7160103],[30.2796207,37.7157231],[30.2834296,37.7138967],[30.28391,37.7149409]]]},"properties":{"@id":"relation/11566152","admin_level":"8","boundary":"administrative","name":"Zafer Mahallesi","type":"boundary","@relations":[{"role":"subarea","rel":1280048,"reltags":{"admin_level":"6","alt_name":"Burdur","boundary":"administrative","name":"Burdur Merkez","name:ar":"بوردور","name:ce":"Бурдур","name:el":"Μπουρντούρ","name:fa":"بوردور","name:hu":"Burdur","name:hy":"Բուրդուր","name:ja":"ブルドゥル","name:ka":"ბურდური","name:ko":"부르두르","name:ru":"Бурдур","name:tg":"Бурдур","name:tr":"Burdur Merkez","name:tr:suffix":"İlçesi","name:uk":"Бурдур","name:zh":"布爾杜爾","network":"TR15-districts","type":"boundary","wikidata":"Q211811","wikipedia":"tr:Burdur"}}]},"id":"relation/11566152"},
{"type":"Feature","geometry":{"type":"Polygon","coordinates":[[[30.2890009,37.7208053],[30.2929866,37.7261347],[30.2915704,37.7301993],[30.2854335,37.7246327],[30.2857447,37.7240811],[30.2865976,37.7192905],[30.2874827,37.7196936],[30.2890009,37.7208053]]]},"properties":{"@id":"relation/11566153","admin_level":"8","boundary":"administrative","name":"Özgür Mahallesi","type":"boundary","@relations":[{"role":"subarea","rel":1280048,"reltags":{"admin_level":"6","alt_name":"Burdur","boundary":"administrative","name":"Burdur Merkez","name:ar":"بوردور","name:ce":"Бурдур","name:el":"Μπουρντούρ","name:fa":"بوردور","name:hu":"Burdur","name:hy":"Բուրդուր","name:ja":"ブルドゥル","name:ka":"ბურდური","name:ko":"부르두르","name:ru":"Бурдур","name:tg":"Бурдур","name:tr":"Burdur Merkez","name:tr:suffix":"İlçesi","name:uk":"Бурдур","name:zh":"布爾杜爾","network":"TR15-districts","type":"boundary","wikidata":"Q211811","wikipedia":"tr:Burdur"}}]},"id":"relation/11566153"},
{"type":"Feature","geometry":{"type":"Polygon","coordinates":[[[30.2894354,37.7173131],[30.2897762,37.7198079],[30.2890009,37.7208053],[30.2874827,37.7196936],[30.2894354,37.7171858],[30.2894354,37.7173131]]]},"properties":{"@id":"relation/11566154","admin_level":"8","boundary":"administrative","name":"İnönü Mahallesi","type":"boundary","@relations":[{"role":"subarea","rel":1280048,"reltags":{"admin_level":"6","alt_name":"Burdur","boundary":"administrative","name":"Burdur Merkez","name:ar":"بوردور","name:ce":"Бурдур","name:el":"Μπουρντούρ","name:fa":"بوردور","name:hu":"Burdur","name:hy":"Բուրդուր","name:ja":"ブルドゥル","name:ka":"ბურდური","name:ko":"부르두르","name:ru":"Бурдур","name:tg":"Бурдур","name:tr":"Burdur Merkez","name:tr:suffix":"İlçesi","name:uk":"Бурдур","name:zh":"布爾杜爾","network":"TR15-districts","type":"boundary","wikidata":"Q211811","wikipedia":"tr:Burdur"}}]},"id":"relation/11566154"},
{"type":"Feature","geometry":{"type":"Polygon","coordinates":[[[30.2865976,37.7192905],[30.2854979,37.718794],[30.286265,37.71719],[30.2881801,37.7157769],[30.288561,37.7161079],[30.2894354,37.7171858],[30.2874827,37.7196936],[30.2865976,37.7192905]]]},"properties":{"@id":"relation/11566155","admin_level":"8","boundary":"administrative","name":"Pazar Mahallesi","type":"boundary","@relations":[{"role":"subarea","rel":1280048,"reltags":{"admin_level":"6","alt_name":"Burdur","boundary":"administrative","name":"Burdur Merkez","name:ar":"بوردور","name:ce":"Бурдур","name:el":"Μπουρντούρ","name:fa":"بوردور","name:hu":"Burdur","name:hy":"Բուրդուր","name:ja":"ブルドゥル","name:ka":"ბურდური","name:ko":"부르두르","name:ru":"Бурдур","name:tg":"Бурдур","name:tr":"Burdur Merkez","name:tr:suffix":"İlçesi","name:uk":"Бурдур","name:zh":"布爾杜爾","network":"TR15-districts","type":"boundary","wikidata":"Q211811","wikipedia":"tr:Burdur"}}]},"id":"relation/11566155"},
{"type":"Feature","geometry":{"type":"Polygon","coordinates":[[[30.286265,37.71719],[30.2850527,37.7165535],[30.2864528,37.7147203],[30.2881801,37.7157769],[30.286265,37.71719]]]},"properties":{"@id":"relation/11566156","admin_level":"8","boundary":"administrative","name":"Üçdibek Mahallesi","type":"boundary","@relations":[{"role":"subarea","rel":1280048,"reltags":{"admin_level":"6","alt_name":"Burdur","boundary":"administrative","name":"Burdur Merkez","name:ar":"بوردور","name:ce":"Бурдур","name:el":"Μπουρντούρ","name:fa":"بوردور","name:hu":"Burdur","name:hy":"Բուրդուր","name:ja":"ブルドゥル","name:ka":"ბურდური","name:ko":"부르두르","name:ru":"Бурдур","name:tg":"Бурдур","name:tr":"Burdur Merkez","name:tr:suffix":"İlçesi","name:uk":"Бурдур","name:zh":"布爾杜爾","network":"TR15-districts","type":"boundary","wikidata":"Q211811","wikipedia":"tr:Burdur"}}]},"id":"relation/11566156"},
{"type":"Feature","geometry":{"type":"Polygon","coordinates":[[[30.2864528,37.7147203],[30.2850527,37.7165535],[30.2826453,37.7161316],[30.2826977,37.7160103],[30.28391,37.7149409],[30.2864098,37.7132435],[30.2864528,37.7147203]]]},"properties":{"@id":"relation/11566157","admin_level":"8","boundary":"administrative","name":"Sakarya Mahallesi","type":"boundary","@relations":[{"role":"subarea","rel":1280048,"reltags":{"admin_level":"6","alt_name":"Burdur","boundary":"administrative","name":"Burdur Merkez","name:ar":"بوردور","name:ce":"Бурдур","name:el":"Μπουρντούρ","name:fa":"بوردور","name:hu":"Burdur","name:hy":"Բուրդուր","name:ja":"ブルドゥル","name:ka":"ბურდური","name:ko":"부르두르","name:ru":"Бурдур","name:tg":"Бурдур","name:tr":"Burdur Merkez","name:tr:suffix":"İlçesi","name:uk":"Бурдур","name:zh":"布爾杜爾","network":"TR15-districts","type":"boundary","wikidata":"Q211811","wikipedia":"tr:Burdur"}}]},"id":"relation/11566157"},
{"type":"Feature","geometry":{"type":"Polygon","coordinates":[[[30.286265,37.71719],[30.2854979,37.718794],[30.2822685,37.7183527],[30.2826453,37.7161316],[30.2850527,37.7165535],[30.286265,37.71719]]]},"properties":{"@id":"relation/11566158","admin_level":"8","boundary":"administrative","name":"Çeşmedamı Mahallesi","type":"boundary","@relations":[{"role":"subarea","rel":1280048,"reltags":{"admin_level":"6","alt_name":"Burdur","boundary":"administrative","name":"Burdur Merkez","name:ar":"بوردور","name:ce":"Бурдур","name:el":"Μπουρντούρ","name:fa":"بوردور","name:hu":"Burdur","name:hy":"Բուրդուր","name:ja":"ブルドゥル","name:ka":"ბურდური","name:ko":"부르두르","name:ru":"Бурдур","name:tg":"Бурдур","name:tr":"Burdur Merkez","name:tr:suffix":"İlçesi","name:uk":"Бурдур","name:zh":"布爾杜爾","network":"TR15-districts","type":"boundary","wikidata":"Q211811","wikipedia":"tr:Burdur"}}]},"id":"relation/11566158"},
{"type":"Feature","geometry":{"type":"Polygon","coordinates":[[[30.2854979,37.718794],[30.2865976,37.7192905],[30.2857447,37.7240811],[30.2822685,37.7183527],[30.2854979,37.718794]]]},"properties":{"@id":"relation/11566159","admin_level":"8","boundary":"administrative","name":"Konak Mahallesi","type":"boundary","@relations":[{"role":"subarea","rel":1280048,"reltags":{"admin_level":"6","alt_name":"Burdur","boundary":"administrative","name":"Burdur Merkez","name:ar":"بوردور","name:ce":"Бурдур","name:el":"Μπουρντούρ","name:fa":"بوردور","name:hu":"Burdur","name:hy":"Բուրդուր","name:ja":"ブルドゥル","name:ka":"ბურდური","name:ko":"부르두르","name:ru":"Бурдур","name:tg":"Бурдур","name:tr":"Burdur Merkez","name:tr:suffix":"İlçesi","name:uk":"Бурдур","name:zh":"布爾杜爾","network":"TR15-districts","type":"boundary","wikidata":"Q211811","wikipedia":"tr:Burdur"}}]},"id":"relation/11566159"},
{"type":"Feature","geometry":{"type":"Polygon","coordinates":[[[30.2854335,37.7246327],[30.2776562,37.7221037],[30.2763408,37.7215012],[30.2781272,37.7154332],[30.2796207,37.7157231],[30.2826977,37.7160103],[30.2826453,37.7161316],[30.2822685,37.7183527],[30.2857447,37.7240811],[30.2854335,37.7246327]]]},"properties":{"@id":"relation/11566160","admin_level":"8","boundary":"administrative","name":"Burç Mahallesi","type":"boundary","@relations":[{"role":"subarea","rel":1280048,"reltags":{"admin_level":"6","alt_name":"Burdur","boundary":"administrative","name":"Burdur Merkez","name:ar":"بوردور","name:ce":"Бурдур","name:el":"Μπουρντούρ","name:fa":"بوردور","name:hu":"Burdur","name:hy":"Բուրդուր","name:ja":"ブルドゥル","name:ka":"ბურდური","name:ko":"부르두르","name:ru":"Бурдур","name:tg":"Бурдур","name:tr":"Burdur Merkez","name:tr:suffix":"İlçesi","name:uk":"Бурдур","name:zh":"布爾杜爾","network":"TR15-districts","type":"boundary","wikidata":"Q211811","wikipedia":"tr:Burdur"}}]},"id":"relation/11566160"},
{"type":"Feature","geometry":{"type":"Polygon","coordinates":[[[30.2885288,37.7111895],[30.2867907,37.7091057],[30.2949929,37.7108755],[30.2885288,37.7111895]]]},"properties":{"@id":"relation/11568965","admin_level":"8","boundary":"administrative","name":"Necati Bey Mahallesi","type":"boundary","@relations":[{"role":"subarea","rel":1280048,"reltags":{"admin_level":"6","alt_name":"Burdur","boundary":"administrative","name":"Burdur Merkez","name:ar":"بوردور","name:ce":"Бурдур","name:el":"Μπουρντούρ","name:fa":"بوردور","name:hu":"Burdur","name:hy":"Բուրդուր","name:ja":"ブルドゥル","name:ka":"ბურდური","name:ko":"부르두르","name:ru":"Бурдур","name:tg":"Бурдур","name:tr":"Burdur Merkez","name:tr:suffix":"İlçesi","name:uk":"Бурдур","name:zh":"布爾杜爾","network":"TR15-districts","type":"boundary","wikidata":"Q211811","wikipedia":"tr:Burdur"}}]},"id":"relation/11568965"},
{"type":"Feature","geometry":{"type":"Polygon","coordinates":[[[30.2313709,37.7158236],[30.253247,37.7130143],[30.2400291,37.7148136],[30.2313709,37.7158236]]]},"properties":{"@id":"relation/11568966","admin_level":"8","boundary":"administrative","name":"Atatürk Mahallesi","type":"boundary","@relations":[{"role":"subarea","rel":1280048,"reltags":{"admin_level":"6","alt_name":"Burdur","boundary":"administrative","name":"Burdur Merkez","name:ar":"بوردور","name:ce":"Бурдур","name:el":"Μπουρντούρ","name:fa":"بوردور","name:hu":"Burdur","name:hy":"Բուրդուր","name:ja":"ブルドゥル","name:ka":"ბურდური","name:ko":"부르두르","name:ru":"Бурдур","name:tg":"Бурдур","name:tr":"Burdur Merkez","name:tr:suffix":"İlçesi","name:uk":"Бурдур","name:zh":"布爾杜爾","network":"TR15-districts","type":"boundary","wikidata":"Q211811","wikipedia":"tr:Burdur"}}]},"id":"relation/11568966"},
{"type":"Feature","geometry":{"type":"Polygon","coordinates":[[[30.2488804,37.7210005],[30.2390206,37.7270936],[30.2313709,37.7158236],[30.2400291,37.7148136],[30.2488804,37.7210005]]]},"properties":{"@id":"relation/11568967","admin_level":"8","boundary":"administrative","name":"Fevzi Çakmak Mahallesi","type":"boundary","@relations":[{"role":"subarea","rel":1280048,"reltags":{"admin_level":"6","alt_name":"Burdur","boundary":"administrative","name":"Burdur Merkez","name:ar":"بوردور","name:ce":"Бурдур","name:el":"Μπουρντούρ","name:fa":"بوردور","name:hu":"Burdur","name:hy":"Բուրդուր","name:ja":"ブルドゥル","name:ka":"ბურდური","name:ko":"부르두르","name:ru":"Бурдур","name:tg":"Бурдур","name:tr":"Burdur Merkez","name:tr:suffix":"İlçesi","name:uk":"Бурдур","name:zh":"布爾杜爾","network":"TR15-districts","type":"boundary","wikidata":"Q211811","wikipedia":"tr:Burdur"}}]},"id":"relation/11568967"},
{"type":"Feature","geometry":{"type":"Polygon","coordinates":[[[30.2611112,37.7170372],[30.2488804,37.7210005],[30.2400291,37.7148136],[30.253247,37.7130143],[30.2610192,37.7149058],[30.2611112,37.7170372]]]},"properties":{"@id":"relation/11568968","admin_level":"8","boundary":"administrative","name":"Emek Mahallesi","type":"boundary","@relations":[{"role":"subarea","rel":1280048,"reltags":{"admin_level":"6","alt_name":"Burdur","boundary":"administrative","name":"Burdur Merkez","name:ar":"بوردور","name:ce":"Бурдур","name:el":"Μπουρντούρ","name:fa":"بوردور","name:hu":"Burdur","name:hy":"Բուրդուր","name:ja":"ブルドゥル","name:ka":"ბურდური","name:ko":"부르두르","name:ru":"Бурдур","name:tg":"Бурдур","name:tr":"Burdur Merkez","name:tr:suffix":"İlçesi","name:uk":"Бурдур","name:zh":"布爾杜爾","network":"TR15-districts","type":"boundary","wikidata":"Q211811","wikipedia":"tr:Burdur"}}]},"id":"relation/11568968"},
{"type":"Feature","geometry":{"type":"Polygon","coordinates":[[[30.2701664,37.7174531],[30.2434087,37.7366819],[30.2390206,37.7270936],[30.2488804,37.7210005],[30.2611112,37.7170372],[30.2701664,37.7174531]]]},"properties":{"@id":"relation/11568969","admin_level":"8","boundary":"administrative","name":"Armağan İlci Mahallesi","type":"boundary","@relations":[{"role":"subarea","rel":1280048,"reltags":{"admin_level":"6","alt_name":"Burdur","boundary":"administrative","name":"Burdur Merkez","name:ar":"بوردور","name:ce":"Бурдур","name:el":"Μπουρντούρ","name:fa":"بوردور","name:hu":"Burdur","name:hy":"Բուրդուր","name:ja":"ブルドゥル","name:ka":"ბურდური","name:ko":"부르두르","name:ru":"Бурдур","name:tg":"Бурдур","name:tr":"Burdur Merkez","name:tr:suffix":"İlçesi","name:uk":"Бурдур","name:zh":"布爾杜爾","network":"TR15-districts","type":"boundary","wikidata":"Q211811","wikipedia":"tr:Burdur"}}]},"id":"relation/11568969"},
{"type":"Feature","geometry":{"type":"Polygon","coordinates":[[[30.2434087,37.7366819],[30.2701664,37.7174531],[30.2763408,37.7215012],[30.2776562,37.7221037],[30.2477646,37.7401267],[30.2434087,37.7366819]]]},"properties":{"@id":"relation/11568970","admin_level":"8","boundary":"administrative","name":"Şekerevler Mahallesi","type":"boundary","@relations":[{"role":"subarea","rel":1280048,"reltags":{"admin_level":"6","alt_name":"Burdur","boundary":"administrative","name":"Burdur Merkez","name:ar":"بوردور","name:ce":"Бурдур","name:el":"Μπουρντούρ","name:fa":"بوردور","name:hu":"Burdur","name:hy":"Բուրդուր","name:ja":"ブルドゥル","name:ka":"ბურდური","name:ko":"부르두르","name:ru":"Бурдур","name:tg":"Бурдур","name:tr":"Burdur Merkez","name:tr:suffix":"İlçesi","name:uk":"Бурдур","name:zh":"布爾杜爾","network":"TR15-districts","type":"boundary","wikidata":"Q211811","wikipedia":"tr:Burdur"}}]},"id":"relation/11568970"},
{"type":"Feature","geometry":{"type":"Polygon","coordinates":[[[30.2776562,37.7221037],[30.2854335,37.7246327],[30.2528071,37.7568389],[30.2477646,37.7401267],[30.2776562,37.7221037]]]},"properties":{"@id":"relation/11568971","admin_level":"8","boundary":"administrative","name":"Bağlar Mahallesi","type":"boundary","@relations":[{"role":"subarea","rel":1280048,"reltags":{"admin_level":"6","alt_name":"Burdur","boundary":"administrative","name":"Burdur Merkez","name:ar":"بوردور","name:ce":"Бурдур","name:el":"Μπουρντούρ","name:fa":"بوردور","name:hu":"Burdur","name:hy":"Բուրդուր","name:ja":"ブルドゥル","name:ka":"ბურდური","name:ko":"부르두르","name:ru":"Бурдур","name:tg":"Бурдур","name:tr":"Burdur Merkez","name:tr:suffix":"İlçesi","name:uk":"Бурдур","name:zh":"布爾杜爾","network":"TR15-districts","type":"boundary","wikidata":"Q211811","wikipedia":"tr:Burdur"}}]},"id":"relation/11568971"},
{"type":"Feature","geometry":{"type":"Polygon","coordinates":[[[30.2915704,37.7301993],[30.2832448,37.7622335],[30.2528071,37.7568389],[30.2854335,37.7246327],[30.2915704,37.7301993]]]},"properties":{"@id":"relation/11568972","admin_level":"8","boundary":"administrative","name":"Hızır İlyas Mahallesi","type":"boundary","@relations":[{"role":"subarea","rel":1280048,"reltags":{"admin_level":"6","alt_name":"Burdur","boundary":"administrative","name":"Burdur Merkez","name:ar":"بوردور","name:ce":"Бурдур","name:el":"Μπουρντούρ","name:fa":"بوردور","name:hu":"Burdur","name:hy":"Բուրդուր","name:ja":"ブルドゥル","name:ka":"ბურდური","name:ko":"부르두르","name:ru":"Бурдур","name:tg":"Бурдур","name:tr":"Burdur Merkez","name:tr:suffix":"İlçesi","name:uk":"Бурдур","name:zh":"布爾杜爾","network":"TR15-districts","type":"boundary","wikidata":"Q211811","wikipedia":"tr:Burdur"}}]},"id":"relation/11568972"},
{"type":"Feature","geometry":{"type":"Polygon","coordinates":[[[30.303576,37.7285956],[30.3007168,37.7261517],[30.2991128,37.7230797],[30.2982049,37.7201268],[30.3140902,37.7424513],[30.3135002,37.7418235],[30.303576,37.7285956]]]},"properties":{"@id":"relation/11568973","admin_level":"8","boundary":"administrative","name":"Mehmet Akif Ersoy Mahallesi","type":"boundary","@relations":[{"role":"subarea","rel":1280048,"reltags":{"admin_level":"6","alt_name":"Burdur","boundary":"administrative","name":"Burdur Merkez","name:ar":"بوردور","name:ce":"Бурдур","name:el":"Μπουρντούρ","name:fa":"بوردور","name:hu":"Burdur","name:hy":"Բուրդուր","name:ja":"ブルドゥル","name:ka":"ბურდური","name:ko":"부르두르","name:ru":"Бурдур","name:tg":"Бурдур","name:tr":"Burdur Merkez","name:tr:suffix":"İlçesi","name:uk":"Бурдур","name:zh":"布爾杜爾","network":"TR15-districts","type":"boundary","wikidata":"Q211811","wikipedia":"tr:Burdur"}}]},"id":"relation/11568973"},
{"type":"Feature","geometry":{"type":"Polygon","coordinates":[[[30.2885288,37.7111895],[30.2949929,37.7108755],[30.2967417,37.7129125],[30.2918011,37.7151234],[30.2902649,37.7152407],[30.288561,37.7161079],[30.2881801,37.7157769],[30.2864528,37.7147203],[30.2864098,37.7132435],[30.28678,37.7129337],[30.2885288,37.7111895]]]},"properties":{"@id":"relation/11568974","admin_level":"8","boundary":"administrative","name":"Değirmenler Mahallesi","type":"boundary","@relations":[{"role":"subarea","rel":1280048,"reltags":{"admin_level":"6","alt_name":"Burdur","boundary":"administrative","name":"Burdur Merkez","name:ar":"بوردور","name:ce":"Бурдур","name:el":"Μπουρντούρ","name:fa":"بوردور","name:hu":"Burdur","name:hy":"Բուրդուր","name:ja":"ブルドゥル","name:ka":"ბურდური","name:ko":"부르두르","name:ru":"Бурдур","name:tg":"Бурдур","name:tr":"Burdur Merkez","name:tr:suffix":"İlçesi","name:uk":"Бурдур","name:zh":"布爾杜爾","network":"TR15-districts","type":"boundary","wikidata":"Q211811","wikipedia":"tr:Burdur"}}]},"id":"relation/11568974"},
{"type":"Feature","geometry":{"type":"Polygon","coordinates":[[[30.2927774,37.7166383],[30.2922517,37.7175167],[30.2908221,37.7168399],[30.2902649,37.7152407],[30.2918011,37.7151234],[30.2927774,37.7166383]]]},"properties":{"@id":"relation/11568975","admin_level":"8","boundary":"administrative","name":"Akın Mahallesi","type":"boundary","@relations":[{"role":"subarea","rel":1280048,"reltags":{"admin_level":"6","alt_name":"Burdur","boundary":"administrative","name":"Burdur Merkez","name:ar":"بوردور","name:ce":"Бурдур","name:el":"Μπουρντούρ","name:fa":"بوردور","name:hu":"Burdur","name:hy":"Բուրդուր","name:ja":"ブルドゥル","name:ka":"ბურდური","name:ko":"부르두르","name:ru":"Бурдур","name:tg":"Бурдур","name:tr":"Burdur Merkez","name:tr:suffix":"İlçesi","name:uk":"Бурдур","name:zh":"布爾杜爾","network":"TR15-districts","type":"boundary","wikidata":"Q211811","wikipedia":"tr:Burdur"}}]},"id":"relation/11568975"},
{"type":"Feature","geometry":{"type":"Polygon","coordinates":[[[30.2927774,37.7166383],[30.2918011,37.7151234],[30.2967417,37.7129125],[30.2982277,37.718026],[30.2942795,37.7198464],[30.2927774,37.7166383]]]},"properties":{"@id":"relation/11568976","admin_level":"8","boundary":"administrative","name":"Dere Mahallesi","type":"boundary","@relations":[{"role":"subarea","rel":1280048,"reltags":{"admin_level":"6","alt_name":"Burdur","boundary":"administrative","name":"Burdur Merkez","name:ar":"بوردور","name:ce":"Бурдур","name:el":"Μπουρντούρ","name:fa":"بوردور","name:hu":"Burdur","name:hy":"Բուրդուր","name:ja":"ブルドゥル","name:ka":"ბურდური","name:ko":"부르두르","name:ru":"Бурдур","name:tg":"Бурдур","name:tr":"Burdur Merkez","name:tr:suffix":"İlçesi","name:uk":"Бурдур","name:zh":"布爾杜爾","network":"TR15-districts","type":"boundary","wikidata":"Q211811","wikipedia":"tr:Burdur"}}]},"id":"relation/11568976"},
{"type":"Feature","geometry":{"type":"Polygon","coordinates":[[[30.2796207,37.7157231],[30.2781272,37.7154332],[30.2755203,37.7136436],[30.2829874,37.7078665],[30.2839047,37.7134854],[30.2834296,37.7138967],[30.2796207,37.7157231]]]},"properties":{"@id":"relation/11568977","admin_level":"8","boundary":"administrative","name":"Karasenir Mahallesi","type":"boundary","@relations":[{"role":"subarea","rel":1280048,"reltags":{"admin_level":"6","alt_name":"Burdur","boundary":"administrative","name":"Burdur Merkez","name:ar":"بوردور","name:ce":"Бурдур","name:el":"Μπουρντούρ","name:fa":"بوردور","name:hu":"Burdur","name:hy":"Բուրդուր","name:ja":"ブルドゥル","name:ka":"ბურდური","name:ko":"부르두르","name:ru":"Бурдур","name:tg":"Бурдур","name:tr":"Burdur Merkez","name:tr:suffix":"İlçesi","name:uk":"Бурдур","name:zh":"布爾杜爾","network":"TR15-districts","type":"boundary","wikidata":"Q211811","wikipedia":"tr:Burdur"}}]},"id":"relation/11568977"},
{"type":"Feature","geometry":{"type":"Polygon","coordinates":[[[30.2839047,37.7134854],[30.2829874,37.7078665],[30.2867907,37.7091057],[30.2885288,37.7111895],[30.28678,37.7129337],[30.2839047,37.7134854]]]},"properties":{"@id":"relation/11568978","admin_level":"8","boundary":"administrative","name":"Tepe Mahallesi","type":"boundary","@relations":[{"role":"subarea","rel":1280048,"reltags":{"admin_level":"6","alt_name":"Burdur","boundary":"administrative","name":"Burdur Merkez","name:ar":"بوردور","name:ce":"Бурдур","name:el":"Μπουρντούρ","name:fa":"بوردور","name:hu":"Burdur","name:hy":"Բուրդուր","name:ja":"ブルドゥル","name:ka":"ბურდური","name:ko":"부르두르","name:ru":"Бурдур","name:tg":"Бурдур","name:tr":"Burdur Merkez","name:tr:suffix":"İlçesi","name:uk":"Бурдур","name:zh":"布爾杜爾","network":"TR15-districts","type":"boundary","wikidata":"Q211811","wikipedia":"tr:Burdur"}}]},"id":"relation/11568978"},
{"type":"Feature","geometry":{"type":"Polygon","coordinates":[[[30.2864098,37.7132435],[30.28391,37.7149409],[30.2834296,37.7138967],[30.2839047,37.7134854],[30.28678,37.7129337],[30.2864098,37.7132435]]]},"properties":{"@id":"relation/11568979","admin_level":"8","boundary":"administrative","name":"Sinan Mahallesi","type":"boundary","@relations":[{"role":"subarea","rel":1280048,"reltags":{"admin_level":"6","alt_name":"Burdur","boundary":"administrative","name":"Burdur Merkez","name:ar":"بوردور","name:ce":"Бурдур","name:el":"Μπουρντούρ","name:fa":"بوردور","name:hu":"Burdur","name:hy":"Բուրդուր","name:ja":"ブルドゥル","name:ka":"ბურდური","name:ko":"부르두르","name:ru":"Бурдур","name:tg":"Бурдур","name:tr":"Burdur Merkez","name:tr:suffix":"İlçesi","name:uk":"Бурдур","name:zh":"布爾杜爾","network":"TR15-districts","type":"boundary","wikidata":"Q211811","wikipedia":"tr:Burdur"}}]},"id":"relation/11568979"},
{"type":"Feature","geometry":{"type":"Polygon","coordinates":[[[30.2763408,37.7215012],[30.2701664,37.7174531],[30.2611112,37.7170372],[30.2610192,37.7149058],[30.2755203,37.7136436],[30.2781272,37.7154332],[30.2763408,37.7215012]]]},"properties":{"@id":"relation/11568980","admin_level":"8","boundary":"administrative","name":"Bahçelievler Mahallesi","type":"boundary","@relations":[{"role":"subarea","rel":1280048,"reltags":{"admin_level":"6","alt_name":"Burdur","boundary":"administrative","name":"Burdur Merkez","name:ar":"بوردور","name:ce":"Бурдур","name:el":"Μπουρντούρ","name:fa":"بوردور","name:hu":"Burdur","name:hy":"Բուրդուր","name:ja":"ブルドゥル","name:ka":"ბურდური","name:ko":"부르두르","name:ru":"Бурдур","name:tg":"Бурдур","name:tr":"Burdur Merkez","name:tr:suffix":"İlçesi","name:uk":"Бурдур","name:zh":"布爾杜爾","network":"TR15-districts","type":"boundary","wikidata":"Q211811","wikipedia":"tr:Burdur"}}]},"id":"relation/11568980"},
{"type":"Feature","geometry":{"type":"Polygon","coordinates":[[[30.2902649,37.7152407],[30.2908221,37.7168399],[30.2894354,37.7173131],[30.2894354,37.7171858],[30.288561,37.7161079],[30.2902649,37.7152407]]]},"properties":{"@id":"relation/11568981","admin_level":"8","boundary":"administrative","name":"Kuyu Mahallesi","type":"boundary","@relations":[{"role":"subarea","rel":1280048,"reltags":{"admin_level":"6","alt_name":"Burdur","boundary":"administrative","name":"Burdur Merkez","name:ar":"بوردور","name:ce":"Бурдур","name:el":"Μπουρντούρ","name:fa":"بوردور","name:hu":"Burdur","name:hy":"Բուրդուր","name:ja":"ブルドゥル","name:ka":"ბურდური","name:ko":"부르두르","name:ru":"Бурдур","name:tg":"Бурдур","name:tr":"Burdur Merkez","name:tr:suffix":"İlçesi","name:uk":"Бурдур","name:zh":"布爾杜爾","network":"TR15-districts","type":"boundary","wikidata":"Q211811","wikipedia":"tr:Burdur"}}]},"id":"relation/11568981"},
{"type":"Feature","geometry":{"type":"Polygon","coordinates":[[[30.3120518,37.7513505],[30.3181457,37.7457091],[30.30231,37.7646083],[30.3120518,37.7513505]]]},"properties":{"@id":"relation/11568982","admin_level":"8","boundary":"administrative","name":"Kışla Mahallesi","type":"boundary","@relations":[{"role":"subarea","rel":1280048,"reltags":{"admin_level":"6","alt_name":"Burdur","boundary":"administrative","name":"Burdur Merkez","name:ar":"بوردور","name:ce":"Бурдур","name:el":"Μπουρντούρ","name:fa":"بوردور","name:hu":"Burdur","name:hy":"Բուրդուր","name:ja":"ブルドゥル","name:ka":"ბურდური","name:ko":"부르두르","name:ru":"Бурдур","name:tg":"Бурдур","name:tr":"Burdur Merkez","name:tr:suffix":"İlçesi","name:uk":"Бурдур","name:zh":"布爾杜爾","network":"TR15-districts","type":"boundary","wikidata":"Q211811","wikipedia":"tr:Burdur"}}]},"id":"relation/11568982"},
{"type":"Feature","geometry":{"type":"Polygon","coordinates":[[[30.2986192,37.7376492],[30.3120518,37.7513505],[30.30231,37.7646083],[30.2832448,37.7622335],[30.2915704,37.7301993],[30.2986192,37.7376492]]]},"properties":{"@id":"relation/11568983","admin_level":"8","boundary":"administrative","name":"Menderes Mahallesi","type":"boundary","@relations":[{"role":"subarea","rel":1280048,"reltags":{"admin_level":"6","alt_name":"Burdur","boundary":"administrative","name":"Burdur Merkez","name:ar":"بوردور","name:ce":"Бурдур","name:el":"Μπουρντούρ","name:fa":"بوردور","name:hu":"Burdur","name:hy":"Բուրդուր","name:ja":"ブルドゥル","name:ka":"ბურდური","name:ko":"부르두르","name:ru":"Бурдур","name:tg":"Бурдур","name:tr":"Burdur Merkez","name:tr:suffix":"İlçesi","name:uk":"Бурдур","name:zh":"布爾杜爾","network":"TR15-districts","type":"boundary","wikidata":"Q211811","wikipedia":"tr:Burdur"}}]},"id":"relation/11568983"},
{"type":"Feature","geometry":{"type":"Polygon","coordinates":[[[30.301162,37.7326601],[30.3135002,37.7418235],[30.3140902,37.7424513],[30.3181457,37.7457091],[30.3120518,37.7513505],[30.2986192,37.7376492],[30.301162,37.7326601]]]},"properties":{"@id":"relation/11568984","admin_level":"8","boundary":"administrative","name":"Aydınlıkevler Mahallesi","type":"boundary","@relations":[{"role":"subarea","rel":1280048,"reltags":{"admin_level":"6","alt_name":"Burdur","boundary":"administrative","name":"Burdur Merkez","name:ar":"بوردور","name:ce":"Бурдур","name:el":"Μπουρντούρ","name:fa":"بوردور","name:hu":"Burdur","name:hy":"Բուրդուր","name:ja":"ブルドゥル","name:ka":"ბურდური","name:ko":"부르두르","name:ru":"Бурдур","name:tg":"Бурдур","name:tr":"Burdur Merkez","name:tr:suffix":"İlçesi","name:uk":"Бурдур","name:zh":"布爾杜爾","network":"TR15-districts","type":"boundary","wikidata":"Q211811","wikipedia":"tr:Burdur"}}]},"id":"relation/11568984"},
{"type":"Feature","geometry":{"type":"Polygon","coordinates":[[[30.3135002,37.7418235],[30.301162,37.7326601],[30.303576,37.7285956],[30.3135002,37.7418235]]]},"properties":{"@id":"relation/11568985","admin_level":"8","boundary":"administrative","name":"Bozkurt Mahallesi","type":"boundary","@relations":[{"role":"subarea","rel":1280048,"reltags":{"admin_level":"6","alt_name":"Burdur","boundary":"administrative","name":"Burdur Merkez","name:ar":"بوردور","name:ce":"Бурдур","name:el":"Μπουρντούρ","name:fa":"بوردور","name:hu":"Burdur","name:hy":"Բուրդուր","name:ja":"ブルドゥル","name:ka":"ბურდური","name:ko":"부르두르","name:ru":"Бурдур","name:tg":"Бурдур","name:tr":"Burdur Merkez","name:tr:suffix":"İlçesi","name:uk":"Бурдур","name:zh":"布爾杜爾","network":"TR15-districts","type":"boundary","wikidata":"Q211811","wikipedia":"tr:Burdur"}}]},"id":"relation/11568985"},
{"type":"Feature","geometry":{"type":"Polygon","coordinates":[[[30.2915704,37.7301993],[30.2929866,37.7261347],[30.3007168,37.7261517],[30.303576,37.7285956],[30.301162,37.7326601],[30.2986192,37.7376492],[30.2915704,37.7301993]]]},"properties":{"@id":"relation/11568986","admin_level":"8","boundary":"administrative","name":"Şirinevler Mahallesi","type":"boundary","@relations":[{"role":"subarea","rel":1280048,"reltags":{"admin_level":"6","alt_name":"Burdur","boundary":"administrative","name":"Burdur Merkez","name:ar":"بوردور","name:ce":"Бурдур","name:el":"Μπουρντούρ","name:fa":"بوردور","name:hu":"Burdur","name:hy":"Բուրդուր","name:ja":"ブルドゥル","name:ka":"ბურდური","name:ko":"부르두르","name:ru":"Бурдур","name:tg":"Бурдур","name:tr":"Burdur Merkez","name:tr:suffix":"İlçesi","name:uk":"Бурдур","name:zh":"布爾杜爾","network":"TR15-districts","type":"boundary","wikidata":"Q211811","wikipedia":"tr:Burdur"}}]},"id":"relation/11568986"},
{"type":"Feature","geometry":{"type":"Polygon","coordinates":[[[30.2944457,37.7202283],[30.2911091,37.7196851],[30.2922517,37.7175167],[30.2927774,37.7166383],[30.2942795,37.7198464],[30.2944457,37.7202283]]]},"properties":{"@id":"relation/11568987","admin_level":"8","boundary":"administrative","name":"Yenice Mahallesi","type":"boundary","@relations":[{"role":"subarea","rel":1280048,"reltags":{"admin_level":"6","alt_name":"Burdur","boundary":"administrative","name":"Burdur Merkez","name:ar":"بوردور","name:ce":"Бурдур","name:el":"Μπουρντούρ","name:fa":"بوردور","name:hu":"Burdur","name:hy":"Բուրդուր","name:ja":"ブルドゥル","name:ka":"ბურდური","name:ko":"부르두르","name:ru":"Бурдур","name:tg":"Бурдур","name:tr":"Burdur Merkez","name:tr:suffix":"İlçesi","name:uk":"Бурдур","name:zh":"布爾杜爾","network":"TR15-districts","type":"boundary","wikidata":"Q211811","wikipedia":"tr:Burdur"}}]},"id":"relation/11568987"},
{"type":"Feature","geometry":{"type":"Polygon","coordinates":[[[30.2982049,37.7201268],[30.2991128,37.7230797],[30.2944457,37.7202283],[30.2942795,37.7198464],[30.2982277,37.718026],[30.2982049,37.7201268]]]},"properties":{"@id":"relation/11568988","admin_level":"8","boundary":"administrative","name":"Cemil Mahallesi","type":"boundary","@relations":[{"role":"subarea","rel":1280048,"reltags":{"admin_level":"6","alt_name":"Burdur","boundary":"administrative","name":"Burdur Merkez","name:ar":"بوردور","name:ce":"Бурдур","name:el":"Μπουρντούρ","name:fa":"بوردور","name:hu":"Burdur","name:hy":"Բուրդուր","name:ja":"ブルドゥル","name:ka":"ბურდური","name:ko":"부르두르","name:ru":"Бурдур","name:tg":"Бурдур","name:tr":"Burdur Merkez","name:tr:suffix":"İlçesi","name:uk":"Бурдур","name:zh":"布爾杜爾","network":"TR15-districts","type":"boundary","wikidata":"Q211811","wikipedia":"tr:Burdur"}}]},"id":"relation/11568988"},
{"type":"Feature","geometry":{"type":"Polygon","coordinates":[[[30.2911091,37.7196851],[30.2944457,37.7202283],[30.2991128,37.7230797],[30.3007168,37.7261517],[30.2929866,37.7261347],[30.2890009,37.7208053],[30.2897762,37.7198079],[30.2911091,37.7196851]]]},"properties":{"@id":"relation/11568989","admin_level":"8","boundary":"administrative","name":"Yeni Mahalle","type":"boundary","@relations":[{"role":"subarea","rel":1280048,"reltags":{"admin_level":"6","alt_name":"Burdur","boundary":"administrative","name":"Burdur Merkez","name:ar":"بوردور","name:ce":"Бурдур","name:el":"Μπουρντούρ","name:fa":"بوردور","name:hu":"Burdur","name:hy":"Բուրդուր","name:ja":"ブルドゥル","name:ka":"ბურდური","name:ko":"부르두르","name:ru":"Бурдур","name:tg":"Бурдур","name:tr":"Burdur Merkez","name:tr:suffix":"İlçesi","name:uk":"Бурдур","name:zh":"布爾杜爾","network":"TR15-districts","type":"boundary","wikidata":"Q211811","wikipedia":"tr:Burdur"}}]},"id":"relation/11568989"},
{"type":"Feature","geometry":{"type":"Polygon","coordinates":[[[30.2911091,37.7196851],[30.2897762,37.7198079],[30.2894354,37.7173131],[30.2908221,37.7168399],[30.2922517,37.7175167],[30.2911091,37.7196851]]]},"properties":{"@id":"relation/11568990","admin_level":"8","boundary":"administrative","name":"Recep Mahallesi","type":"boundary","@relations":[{"role":"subarea","rel":1280048,"reltags":{"admin_level":"6","alt_name":"Burdur","boundary":"administrative","name":"Burdur Merkez","name:ar":"بوردور","name:ce":"Бурдур","name:el":"Μπουρντούρ","name:fa":"بوردور","name:hu":"Burdur","name:hy":"Բուրդուր","name:ja":"ブルドゥル","name:ka":"ბურდური","name:ko":"부르두르","name:ru":"Бурдур","name:tg":"Бурдур","name:tr":"Burdur Merkez","name:tr:suffix":"İlçesi","name:uk":"Бурдур","name:zh":"布爾杜爾","network":"TR15-districts","type":"boundary","wikidata":"Q211811","wikipedia":"tr:Burdur"}}]},"id":"relation/11568990"},
{"type":"Feature","geometry":{"type":"Polygon","coordinates":[[[30.5698389,37.4730317],[30.5749994,37.4644653],[30.5848217,37.4563237],[30.5698389,37.4730317]]]},"properties":{"@id":"relation/15460605","admin_level":"8","boundary":"administrative","name":"Konak Mahallesi","type":"boundary","@relations":[{"role":"subarea","rel":1280042,"reltags":{"admin_level":"6","boundary":"administrative","name":"Bucak","name:de":"Bucak","name:en":"Bucak","name:tr":"Bucak","name:tr:suffix":"İlçesi","name:uk":"Буджак","network":"TR15-districts","type":"boundary","wikidata":"Q581187","wikipedia":"tr:Bucak, Burdur"}}]},"id":"relation/15460605"},
{"type":"Feature","geometry":{"type":"Polygon","coordinates":[[[30.575037,37.4558894],[30.5848217,37.4563237],[30.5749994,37.4644653],[30.575037,37.4558894]]]},"properties":{"@id":"relation/15460606","admin_level":"8","boundary":"administrative","name":"Mehmet Akif Mahallesi","type":"boundary","@relations":[{"role":"subarea","rel":1280042,"reltags":{"admin_level":"6","boundary":"administrative","name":"Bucak","name:de":"Bucak","name:en":"Bucak","name:tr":"Bucak","name:tr:suffix":"İlçesi","name:uk":"Буджак","network":"TR15-districts","type":"boundary","wikidata":"Q581187","wikipedia":"tr:Bucak, Burdur"}}]},"id":"relation/15460606"},
{"type":"Feature","geometry":{"type":"Polygon","coordinates":[[[30.572677,37.455811],[30.575037,37.4558894],[30.5749994,37.4644653],[30.5698389,37.4730317],[30.5600166,37.4552889],[30.572677,37.455811]]]},"properties":{"@id":"relation/15460633","admin_level":"8","boundary":"administrative","name":"Sanayi Mahallesi","type":"boundary","@relations":[{"role":"subarea","rel":1280042,"reltags":{"admin_level":"6","boundary":"administrative","name":"Bucak","name:de":"Bucak","name:en":"Bucak","name:tr":"Bucak","name:tr:suffix":"İlçesi","name:uk":"Буджак","network":"TR15-districts","type":"boundary","wikidata":"Q581187","wikipedia":"tr:Bucak, Burdur"}}]},"id":"relation/15460633"},
{"type":"Feature","geometry":{"type":"Polygon","coordinates":[[[30.5730843,37.4524102],[30.5584234,37.4490884],[30.5627632,37.4417076],[30.5744684,37.4471123],[30.5730843,37.4524102]]]},"properties":{"@id":"relation/15461164","admin_level":"8","boundary":"administrative","name":"Çamlıca Mahallesi","type":"boundary","@relations":[{"role":"subarea","rel":1280042,"reltags":{"admin_level":"6","boundary":"administrative","name":"Bucak","name:de":"Bucak","name:en":"Bucak","name:tr":"Bucak","name:tr:suffix":"İlçesi","name:uk":"Буджак","network":"TR15-districts","type":"boundary","wikidata":"Q581187","wikipedia":"tr:Bucak, Burdur"}}]},"id":"relation/15461164"},
{"type":"Feature","geometry":{"type":"Polygon","coordinates":[[[30.5730843,37.4524102],[30.572677,37.455811],[30.5600166,37.4552889],[30.5584234,37.4490884],[30.5730843,37.4524102]]]},"properties":{"@id":"relation/15461165","admin_level":"8","boundary":"administrative","name":"Fatih Mahallesi","type":"boundary","@relations":[{"role":"subarea","rel":1280042,"reltags":{"admin_level":"6","boundary":"administrative","name":"Bucak","name:de":"Bucak","name:en":"Bucak","name:tr":"Bucak","name:tr:suffix":"İlçesi","name:uk":"Буджак","network":"TR15-districts","type":"boundary","wikidata":"Q581187","wikipedia":"tr:Bucak, Burdur"}}]},"id":"relation/15461165"}
]}