{"type":"FeatureCollection", "features": [
{"type":"Feature","geometry":{"type":"Polygon","coordinates":[[[34.8650468,40.837283],[34.8340918,40.8882639],[34.7500502,40.9001284],[34.6366293,40.8957244],[34.5992018,40.86204],[34.6626339,40.8478524],[34.6932245,40.7883066],[34.772401,40.7576381],[34.8407099,40.8032407],[34.8650468,40.837283]]]},"properties":{"@id":"relation/1330571","admin_level":"6","boundary":"administrative","name":"Dodurga","name:ce":"Додурга","name:de":"Dodurga","name:en":"Dodurga","name:tr":"Dodurga","name:tr:suffix":"İlçesi","network":"TR19-districts","type":"boundary","wikidata":"Q1234499","wikipedia":"tr:Dodurga, Çorum"},"id":"relation/1330571"},
{"type":"Feature","geometry":{"type":"Polygon","coordinates":[[[34.8529884,41.2108053],[34.800825,41.2563879],[34.6827687,41.295853],[34.5331973,41.2999977],[34.486588,41.3454444],[34.4222021,41.2695221],[34.3573206,41.2942979],[34.3109095,41.2642498],[34.2938318,41.2126978],[34.2291,41.1722],[34.2202,41.0957],[34.2418,41.0744],[34.3216,41.0797],[34.3244,41.034],[34.373,40.9947],[34.4434177,40.9718204],[34.4831966,41.0246104],[34.550089,41.0656922],[34.6208585,41.0682559],[34.7285871,41.1113906],[34.8326673,41.1784888],[34.8529884,41.2108053]]]},"properties":{"@id":"relation/1331194","admin_level":"6","boundary":"administrative","name":"Kargı","name:ce":"Карги","name:de":"Kargı","name:en":"Kargı","name:tr":"Kargı","name:tr:suffix":"İlçesi","network":"TR19-districts","type":"boundary","wikidata":"Q946342","wikipedia":"tr:Kargı, Çorum"},"id":"relation/1331194"},
{"type":"Feature","geometry":{"type":"Polygon","coordinates":[[[34.6366293,40.8957244],[34.7500502,40.9001284],[34.8340918,40.8882639],[34.8650468,40.837283],[34.9555893,40.8616201],[35.0061199,40.8542446],[35.0677745,40.9114199],[35.0263488,41.0058822],[35.0995584,41.0459689],[35.0814304,41.0759523],[34.9230319,41.0991774],[34.9825744,41.1478054],[34.9565793,41.197981],[34.8827451,41.24989],[34.8529884,41.2108053],[34.8326673,41.1784888],[34.7285871,41.1113906],[34.6208585,41.0682559],[34.550089,41.0656922],[34.4831966,41.0246104],[34.4434177,40.9718204],[34.5028638,40.9342734],[34.6125778,40.9123946],[34.6366293,40.8957244]]]},"properties":{"@id":"relation/1331195","admin_level":"6","boundary":"administrative","name":"Osmancık","name:ce":"Османджик","name:de":"Osmancık","name:en":"Osmancık","name:fa":"عثمانجیک","name:hy":"Օսմանջիկ","name:tr":"Osmancık","name:tr:suffix":"İlçesi","name:zh":"奧斯曼哲克","network":"TR19-districts","old_name":"Aflanos","type":"boundary","wikidata":"Q1014135","wikipedia":"tr:Osmancık"},"id":"relation/1331195"},
{"type":"Feature","geometry":{"type":"Polygon","coordinates":[[[34.3438155,40.5117894],[34.4116108,40.5651254],[34.4769786,40.5813592],[34.6618527,40.6557875],[34.7167791,40.6901933],[34.6021566,40.7496969],[34.6021566,40.821405],[34.6626339,40.8478524],[34.5992018,40.86204],[34.6366293,40.8957244],[34.6125778,40.9123946],[34.5028638,40.9342734],[34.4434177,40.9718204],[34.373,40.9947],[34.3422,40.9693],[34.2674,40.9747],[34.2401,40.8658],[34.1786,40.8377],[34.2065419,40.8403376],[34.3724886,40.6568077],[34.3658265,40.6180489],[34.3283185,40.5783078],[34.3438155,40.5117894]]]},"properties":{"@id":"relation/1331274","admin_level":"6","boundary":"administrative","name":"İskilip","name:ar":"أسكليب","name:ce":"Искилип","name:de":"İskilip","name:en":"İskilip","name:fa":"اسکلپ","name:tr":"İskilip","name:tr:suffix":"İlçesi","name:zh":"伊斯基利普","network":"TR19-districts","type":"boundary","wikidata":"Q344093","wikipedia":"tr:İskilip"},"id":"relation/1331274"},
{"type":"Feature","geometry":{"type":"Polygon","coordinates":[[[35.0300784,40.7289023],[34.9788445,40.7920618],[35.0061199,40.8542446],[34.9555893,40.8616201],[34.8650468,40.837283],[34.8407099,40.8032407],[34.772401,40.7576381],[34.7240466,40.7254709],[34.8097435,40.7257904],[34.8478756,40.7448023],[34.9267579,40.7491512],[35.0300784,40.7289023]]]},"properties":{"@id":"relation/1331275","admin_level":"6","boundary":"administrative","name":"Laçin","name:ce":"Лачин","name:de":"Laçin","name:en":"Laçin","name:tr":"Laçin","name:tr:suffix":"İlçesi","network":"TR19-districts","type":"boundary","wikidata":"Q166737","wikipedia":"tr:Laçin"},"id":"relation/1331275"},
{"type":"Feature","geometry":{"type":"Polygon","coordinates":[[[35.3538956,40.3857219],[35.3098091,40.3591229],[35.2581911,40.3548668],[35.1729717,40.3130651],[35.0514871,40.2663336],[35.1394676,40.2185892],[35.2427266,40.1930771],[35.385138,40.286226],[35.3538956,40.3857219]]]},"properties":{"@id":"relation/1331276","admin_level":"6","boundary":"administrative","name":"Ortaköy","name:ce":"Ортакоьй","name:de":"Ortaköy","name:en":"Ortaköy","name:tr":"Ortaköy","name:tr:suffix":"İlçesi","network":"TR19-districts","type":"boundary","wikidata":"Q730663","wikipedia":"tr:Ortaköy, Çorum"},"id":"relation/1331276"},
{"type":"Feature","geometry":{"type":"Polygon","coordinates":[[[34.3438155,40.5117894],[34.3283185,40.5783078],[34.3658265,40.6180489],[34.3724886,40.6568077],[34.2065419,40.8403376],[34.1786,40.8377],[34.1232,40.8386],[34.0783717,40.8133361],[34.1000174,40.7849609],[34.0635065,40.7120086],[34.1248548,40.6713507],[34.0766714,40.6140829],[34.1260758,40.5314245],[34.1116192,40.4765029],[34.1749854,40.4819816],[34.168402,40.4364711],[34.2437995,40.4508497],[34.2592663,40.4959834],[34.3438155,40.5117894]]]},"properties":{"@id":"relation/1331277","admin_level":"6","boundary":"administrative","name":"Bayat","name:ce":"Байат","name:de":"Bayat","name:en":"Bayat","name:fa":"بایات","name:tr":"Bayat","name:tr:suffix":"İlçesi","name:zh":"巴亞特","network":"TR19-districts","type":"boundary","wikidata":"Q812112","wikipedia":"tr:Bayat, Çorum"},"id":"relation/1331277"},
{"type":"Feature","geometry":{"type":"Polygon","coordinates":[[[34.6362773,40.259365],[34.6254264,40.3005568],[34.5799393,40.2936712],[34.479716,40.3562617],[34.4007943,40.362506],[34.3345203,40.4017803],[34.3205135,40.4387039],[34.2498967,40.408897],[34.168402,40.4364711],[34.1749854,40.4819816],[34.1116192,40.4765029],[34.1639457,40.3951429],[34.121936,40.3774525],[34.1090646,40.3272628],[34.037197,40.2931933],[33.9791036,40.2948954],[33.9596146,40.2521576],[33.9947305,40.1901148],[34.061618,40.1970729],[34.0913789,40.0697092],[34.1429546,40.0427169],[34.2124121,39.9666691],[34.2498033,39.9451581],[34.3207339,39.9394362],[34.380396,39.9550012],[34.4376826,39.9944979],[34.4580471,40.0577233],[34.5377559,40.1103043],[34.5832904,40.1251661],[34.6646893,40.1148523],[34.691899,40.1627451],[34.6443751,40.1913711],[34.6362773,40.259365]]]},"properties":{"@id":"relation/1331278","admin_level":"6","boundary":"administrative","name":"Sungurlu","name:ce":"Сунгурлу","name:de":"Sungurlu","name:en":"Sungurlu","name:fa":"سونگورلو","name:hy":"Սունկուրլու","name:tr":"Sungurlu","name:tr:suffix":"İlçesi","name:zh":"松古爾盧","network":"TR19-districts","type":"boundary","wikidata":"Q1012915","wikipedia":"tr:Sungurlu"},"id":"relation/1331278"},
{"type":"Feature","geometry":{"type":"Polygon","coordinates":[[[34.4769786,40.5813592],[34.5445571,40.4953278],[34.5637022,40.4488908],[34.479716,40.3562617],[34.5799393,40.2936712],[34.6254264,40.3005568],[34.6362773,40.259365],[34.7356136,40.2954488],[34.8426572,40.3020009],[34.9401483,40.3301073],[35.0080634,40.2779737],[35.0514871,40.2663336],[35.1729717,40.3130651],[35.2091113,40.390683],[35.1933109,40.4282783],[35.1488225,40.4208544],[35.0826027,40.4609919],[35.1070657,40.4916008],[35.1281339,40.5847844],[35.2010175,40.6037782],[35.2625305,40.6534508],[35.2936726,40.6983895],[35.2215025,40.7118316],[35.1045514,40.7048214],[35.0300784,40.7289023],[34.9267579,40.7491512],[34.8478756,40.7448023],[34.8097435,40.7257904],[34.7240466,40.7254709],[34.7167791,40.6901933],[34.6618527,40.6557875],[34.4769786,40.5813592]]]},"properties":{"@id":"relation/1331279","admin_level":"6","boundary":"administrative","name":"Çorum Merkez","name:de":"Çorum","name:en":"Çorum","name:tr":"Çorum Merkez","name:tr:suffix":"İlçesi","network":"TR19-districts","type":"boundary","wikidata":"Q206900","wikipedia":"tr:Çorum"},"id":"relation/1331279"},
{"type":"Feature","geometry":{"type":"Polygon","coordinates":[[[34.6626339,40.8478524],[34.6021566,40.821405],[34.6021566,40.7496969],[34.7167791,40.6901933],[34.7240466,40.7254709],[34.772401,40.7576381],[34.6932245,40.7883066],[34.6626339,40.8478524]]]},"properties":{"@id":"relation/1331280","admin_level":"6","boundary":"administrative","name":"Oğuzlar","name:ce":"ОгӀузлар","name:de":"Oğuzlar","name:en":"Oğuzlar","name:tr":"Oğuzlar","name:tr:suffix":"İlçesi","network":"TR19-districts","type":"boundary","wikidata":"Q2043200","wikipedia":"tr:Oğuzlar, Çorum"},"id":"relation/1331280"},
{"type":"Feature","geometry":{"type":"Polygon","coordinates":[[[34.6511863,40.0050386],[34.683037,40.0176437],[34.7964696,39.9938229],[35.0697711,40.0045445],[35.1529748,40.0199301],[35.1954525,40.08157],[35.1464548,40.1072886],[35.1559291,40.1510391],[35.1394676,40.2185892],[35.0514871,40.2663336],[35.0080634,40.2779737],[34.9401483,40.3301073],[34.8426572,40.3020009],[34.7356136,40.2954488],[34.6362773,40.259365],[34.6443751,40.1913711],[34.691899,40.1627451],[34.6646893,40.1148523],[34.6416092,40.0712148],[34.6511863,40.0050386]]]},"properties":{"@id":"relation/1331281","admin_level":"6","boundary":"administrative","name":"Alaca","name:ce":"Аладжа","name:de":"Alaca","name:en":"Alaca","name:fa":"آلاجه","name:ru":"Аладжа","name:tr":"Alaca","name:tr:suffix":"İlçesi","name:zh":"阿拉賈","network":"TR19-districts","type":"boundary","wikidata":"Q1012817","wikipedia":"tr:Alaca, Çorum"},"id":"relation/1331281"},
{"type":"Feature","geometry":{"type":"Polygon","coordinates":[[[34.4376826,39.9944979],[34.5298128,39.9784467],[34.5844364,39.943551],[34.6344038,39.9627555],[34.6511863,40.0050386],[34.6416092,40.0712148],[34.6646893,40.1148523],[34.5832904,40.1251661],[34.5377559,40.1103043],[34.4580471,40.0577233],[34.4376826,39.9944979]]]},"properties":{"@id":"relation/1331282","admin_level":"6","boundary":"administrative","name":"Boğazkale","name:ar":"بوغاز كوي","name:ce":"БогӀазкале","name:de":"Boğazkale","name:en":"Boğazkale","name:fa":"بغازقلعه","name:ja":"ボアズカレ","name:ko":"보아즈칼레","name:tr":"Boğazkale","name:tr:suffix":"İlçesi","name:zh":"波格斯凱","network":"TR19-districts","old_name":"Boğazköy","type":"boundary","wikidata":"Q848800","wikipedia":"tr:Boğazkale"},"id":"relation/1331282"},
{"type":"Feature","geometry":{"type":"Polygon","coordinates":[[[35.3538956,40.3857219],[35.3957545,40.4057096],[35.4114365,40.4631941],[35.5304532,40.5371581],[35.4869241,40.5694022],[35.45641,40.6219798],[35.3237097,40.6488352],[35.2936726,40.6983895],[35.2625305,40.6534508],[35.2010175,40.6037782],[35.1281339,40.5847844],[35.1070657,40.4916008],[35.0826027,40.4609919],[35.1488225,40.4208544],[35.1933109,40.4282783],[35.2091113,40.390683],[35.1729717,40.3130651],[35.2581911,40.3548668],[35.3098091,40.3591229],[35.3538956,40.3857219]]]},"properties":{"@id":"relation/1331283","admin_level":"6","boundary":"administrative","name":"Mecitözü","name:ce":"Меджитоьзуь","name:de":"Mecitözü","name:en":"Mecitözü","name:hy":"Մեճիտ Էոզի","name:tr":"Mecitözü","name:tr:suffix":"İlçesi","network":"TR19-districts","type":"boundary","wikidata":"Q1440437","wikipedia":"tr:Mecitözü"},"id":"relation/1331283"},
{"type":"Feature","geometry":{"type":"Polygon","coordinates":[[[34.168402,40.4364711],[34.2498967,40.408897],[34.3205135,40.4387039],[34.3345203,40.4017803],[34.4007943,40.362506],[34.479716,40.3562617],[34.5637022,40.4488908],[34.5445571,40.4953278],[34.4769786,40.5813592],[34.4116108,40.5651254],[34.3438155,40.5117894],[34.2592663,40.4959834],[34.2437995,40.4508497],[34.168402,40.4364711]]]},"properties":{"@id":"relation/1331284","admin_level":"6","boundary":"administrative","name":"Uğurludağ","name:de":"Uğurludağ","name:en":"Uğurludağ","name:tr":"Uğurludağ","name:tr:suffix":"İlçesi","network":"TR19-districts","old_name":"Kızılören","type":"boundary","wikidata":"Q2305427","wikipedia":"tr:Uğurludağ"},"id":"relation/1331284"},
{"type":"Feature","geometry":{"type":"Polygon","coordinates":[[[34.9359189,40.5522464],[34.9536214,40.549866],[34.9534927,40.5505019],[34.9442874,40.5562734],[34.9359189,40.5522464]]]},"properties":{"@id":"relation/12021106","admin_level":"8","boundary":"administrative","name":"Kunduzhan Mahallesi","type":"boundary","@relations":[{"role":"subarea","rel":1331279,"reltags":{"admin_level":"6","boundary":"administrative","name":"Çorum Merkez","name:de":"Çorum","name:en":"Çorum","name:tr":"Çorum Merkez","name:tr:suffix":"İlçesi","network":"TR19-districts","type":"boundary","wikidata":"Q206900","wikipedia":"tr:Çorum"}}]},"id":"relation/12021106"},
{"type":"Feature","geometry":{"type":"Polygon","coordinates":[[[34.9514528,40.5557834],[34.9442874,40.5562734],[34.9534927,40.5505019],[34.9514528,40.5557834]]]},"properties":{"@id":"relation/12021107","admin_level":"8","boundary":"administrative","name":"Çöplü Mahallesi","type":"boundary","@relations":[{"role":"subarea","rel":1331279,"reltags":{"admin_level":"6","boundary":"administrative","name":"Çorum Merkez","name:de":"Çorum","name:en":"Çorum","name:tr":"Çorum Merkez","name:tr:suffix":"İlçesi","network":"TR19-districts","type":"boundary","wikidata":"Q206900","wikipedia":"tr:Çorum"}}]},"id":"relation/12021107"},
{"type":"Feature","geometry":{"type":"Polygon","coordinates":[[[34.9534927,40.5505019],[34.9536214,40.549866],[34.9535459,40.548765],[34.9551981,40.5486183],[34.9603051,40.5473302],[34.9582666,40.5514552],[34.9539751,40.5506889],[34.9534927,40.5505019]]]},"properties":{"@id":"relation/12025890","admin_level":"8","boundary":"administrative","name":"Yeniyol Mahallesi","type":"boundary","@relations":[{"role":"subarea","rel":1331279,"reltags":{"admin_level":"6","boundary":"administrative","name":"Çorum Merkez","name:de":"Çorum","name:en":"Çorum","name:tr":"Çorum Merkez","name:tr:suffix":"İlçesi","network":"TR19-districts","type":"boundary","wikidata":"Q206900","wikipedia":"tr:Çorum"}}]},"id":"relation/12025890"},
{"type":"Feature","geometry":{"type":"Polygon","coordinates":[[[34.9739599,40.537793],[34.961729,40.5526636],[34.9582666,40.5514552],[34.9603051,40.5473302],[34.9739599,40.537793]]]},"properties":{"@id":"relation/12025891","admin_level":"8","boundary":"administrative","name":"Yavruturna Mahallesi","type":"boundary","@relations":[{"role":"subarea","rel":1331279,"reltags":{"admin_level":"6","boundary":"administrative","name":"Çorum Merkez","name:de":"Çorum","name:en":"Çorum","name:tr":"Çorum Merkez","name:tr:suffix":"İlçesi","network":"TR19-districts","type":"boundary","wikidata":"Q206900","wikipedia":"tr:Çorum"}}]},"id":"relation/12025891"},
{"type":"Feature","geometry":{"type":"Polygon","coordinates":[[[34.9993776,40.519386],[34.9739599,40.537793],[34.9603051,40.5473302],[34.9551981,40.5486183],[34.9824503,40.5190432],[34.9993776,40.519386]]]},"properties":{"@id":"relation/12025892","admin_level":"8","boundary":"administrative","name":"Kale Mahallesi","type":"boundary","@relations":[{"role":"subarea","rel":1331279,"reltags":{"admin_level":"6","boundary":"administrative","name":"Çorum Merkez","name:de":"Çorum","name:en":"Çorum","name:tr":"Çorum Merkez","name:tr:suffix":"İlçesi","network":"TR19-districts","type":"boundary","wikidata":"Q206900","wikipedia":"tr:Çorum"}}]},"id":"relation/12025892"},
{"type":"Feature","geometry":{"type":"Polygon","coordinates":[[[34.9763729,40.595338],[34.9634553,40.5713988],[34.9514528,40.5557834],[34.9534927,40.5505019],[34.9539751,40.5506889],[34.9859607,40.5684708],[34.9763729,40.595338]]]},"properties":{"@id":"relation/12025946","admin_level":"8","boundary":"administrative","name":"Üçtutlar Mahallesi","type":"boundary","@relations":[{"role":"subarea","rel":1331279,"reltags":{"admin_level":"6","boundary":"administrative","name":"Çorum Merkez","name:de":"Çorum","name:en":"Çorum","name:tr":"Çorum Merkez","name:tr:suffix":"İlçesi","network":"TR19-districts","type":"boundary","wikidata":"Q206900","wikipedia":"tr:Çorum"}}]},"id":"relation/12025946"},
{"type":"Feature","geometry":{"type":"Polygon","coordinates":[[[34.9221519,40.5643838],[34.9307642,40.5531838],[34.9359189,40.5522464],[34.9442874,40.5562734],[34.9514528,40.5557834],[34.9634553,40.5713988],[34.9350038,40.5761894],[34.9221519,40.5643838]]]},"properties":{"@id":"relation/12040182","admin_level":"8","boundary":"administrative","name":"Ulukavak Mahallesi","type":"boundary","@relations":[{"role":"subarea","rel":1331279,"reltags":{"admin_level":"6","boundary":"administrative","name":"Çorum Merkez","name:de":"Çorum","name:en":"Çorum","name:tr":"Çorum Merkez","name:tr:suffix":"İlçesi","network":"TR19-districts","type":"boundary","wikidata":"Q206900","wikipedia":"tr:Çorum"}}]},"id":"relation/12040182"},
{"type":"Feature","geometry":{"type":"Polygon","coordinates":[[[34.9464712,40.5412812],[34.9535459,40.548765],[34.9536214,40.549866],[34.9359189,40.5522464],[34.9307642,40.5531838],[34.9169669,40.5266363],[34.9464712,40.5412812]]]},"properties":{"@id":"relation/12040585","admin_level":"8","boundary":"administrative","name":"Çepni Mahallesi","type":"boundary","@relations":[{"role":"subarea","rel":1331279,"reltags":{"admin_level":"6","boundary":"administrative","name":"Çorum Merkez","name:de":"Çorum","name:en":"Çorum","name:tr":"Çorum Merkez","name:tr:suffix":"İlçesi","network":"TR19-districts","type":"boundary","wikidata":"Q206900","wikipedia":"tr:Çorum"}}]},"id":"relation/12040585"},
{"type":"Feature","geometry":{"type":"Polygon","coordinates":[[[34.9537734,40.5141866],[34.9824503,40.5190432],[34.9551981,40.5486183],[34.9535459,40.548765],[34.9464712,40.5412812],[34.9537734,40.5141866]]]},"properties":{"@id":"relation/12040586","admin_level":"8","boundary":"administrative","name":"Gülabibey Mahallesi","type":"boundary","@relations":[{"role":"subarea","rel":1331279,"reltags":{"admin_level":"6","boundary":"administrative","name":"Çorum Merkez","name:de":"Çorum","name:en":"Çorum","name:tr":"Çorum Merkez","name:tr:suffix":"İlçesi","network":"TR19-districts","type":"boundary","wikidata":"Q206900","wikipedia":"tr:Çorum"}}]},"id":"relation/12040586"},
{"type":"Feature","geometry":{"type":"Polygon","coordinates":[[[34.9169669,40.5266363],[34.9537734,40.5141866],[34.9464712,40.5412812],[34.9169669,40.5266363]]]},"properties":{"@id":"relation/12040587","admin_level":"8","boundary":"administrative","name":"Mimar Sinan Mahallesi","type":"boundary","@relations":[{"role":"subarea","rel":1331279,"reltags":{"admin_level":"6","boundary":"administrative","name":"Çorum Merkez","name:de":"Çorum","name:en":"Çorum","name:tr":"Çorum Merkez","name:tr:suffix":"İlçesi","network":"TR19-districts","type":"boundary","wikidata":"Q206900","wikipedia":"tr:Çorum"}}]},"id":"relation/12040587"},
{"type":"Feature","geometry":{"type":"Polygon","coordinates":[[[34.9993776,40.519386],[34.9859607,40.5684708],[34.961729,40.5526636],[34.9739599,40.537793],[34.9993776,40.519386]]]},"properties":{"@id":"relation/12040591","admin_level":"8","boundary":"administrative","name":"Bahçelievler Mahallesi","type":"boundary","@relations":[{"role":"subarea","rel":1331279,"reltags":{"admin_level":"6","boundary":"administrative","name":"Çorum Merkez","name:de":"Çorum","name:en":"Çorum","name:tr":"Çorum Merkez","name:tr:suffix":"İlçesi","network":"TR19-districts","type":"boundary","wikidata":"Q206900","wikipedia":"tr:Çorum"}}]},"id":"relation/12040591"},
{"type":"Feature","geometry":{"type":"Polygon","coordinates":[[[34.9289796,40.5897856],[34.9350038,40.5761894],[34.9634553,40.5713988],[34.9763729,40.595338],[34.9289796,40.5897856]]]},"properties":{"@id":"relation/12040646","admin_level":"8","boundary":"administrative","name":"Buharaevler Mahallesi","type":"boundary","@relations":[{"role":"subarea","rel":1331279,"reltags":{"admin_level":"6","boundary":"administrative","name":"Çorum Merkez","name:de":"Çorum","name:en":"Çorum","name:tr":"Çorum Merkez","name:tr:suffix":"İlçesi","network":"TR19-districts","type":"boundary","wikidata":"Q206900","wikipedia":"tr:Çorum"}}]},"id":"relation/12040646"},
{"type":"Feature","geometry":{"type":"Polygon","coordinates":[[[34.9289796,40.5897856],[34.9221519,40.5643838],[34.9350038,40.5761894],[34.9289796,40.5897856]]]},"properties":{"@id":"relation/12040747","admin_level":"8","boundary":"administrative","name":"Bayat Mahallesi","type":"boundary","@relations":[{"role":"subarea","rel":1331279,"reltags":{"admin_level":"6","boundary":"administrative","name":"Çorum Merkez","name:de":"Çorum","name:en":"Çorum","name:tr":"Çorum Merkez","name:tr:suffix":"İlçesi","network":"TR19-districts","type":"boundary","wikidata":"Q206900","wikipedia":"tr:Çorum"}}]},"id":"relation/12040747"},
{"type":"Feature","geometry":{"type":"Polygon","coordinates":[[[34.6548559,41.1106801],[34.7154252,41.1216423],[34.7046973,41.2010644],[34.6319716,41.1911341],[34.6387772,41.1590399],[34.6401897,41.1318052],[34.6548559,41.1106801]]]},"properties":{"@id":"relation/17458757","admin_level":"8","boundary":"administrative","name":"Gökçedoğan Köyü","type":"boundary"},"id":"relation/17458757"},
{"type":"Feature","geometry":{"type":"Polygon","coordinates":[[[34.6401897,41.1318052],[34.5961449,41.1120306],[34.6548559,41.1106801],[34.6401897,41.1318052]]]},"properties":{"@id":"relation/17461968","admin_level":"8","boundary":"administrative","name":"Karapürçek Köyü","type":"boundary"},"id":"relation/17461968"},
{"type":"Feature","geometry":{"type":"Polygon","coordinates":[[[34.6387772,41.1590399],[34.6280216,41.1559672],[34.546886,41.1114016],[34.5961449,41.1120306],[34.6401897,41.1318052],[34.6387772,41.1590399]]]},"properties":{"@id":"relation/17468554","admin_level":"8","boundary":"administrative","name":"Demirören Köyü","type":"boundary"},"id":"relation/17468554"},
{"type":"Feature","geometry":{"type":"Polygon","coordinates":[[[34.546886,41.1114016],[34.6280216,41.1559672],[34.566617,41.1512057],[34.546886,41.1114016]]]},"properties":{"@id":"relation/17475784","admin_level":"8","boundary":"administrative","name":"Örencik Köyü","type":"boundary"},"id":"relation/17475784"}
]}