{"type":"FeatureCollection", "features": [
{"type":"Feature","geometry":{"type":"Polygon","coordinates":[[[28.9541999,37.3049681],[28.9348231,37.2746775],[28.9820752,37.2422097],[28.9977126,37.2166315],[28.995163,37.2020115],[29.0051913,37.1546123],[28.995342,37.1513235],[29.0074009,37.1449934],[29.0140005,37.1705529],[29.0271176,37.1941588],[29.0555028,37.2035007],[29.1019995,37.2488593],[29.128685,37.2480475],[29.1351439,37.2855166],[29.1910301,37.2888732],[29.2165602,37.3422933],[29.2478349,37.3763388],[29.240688,37.4008428],[29.2491729,37.4277551],[29.228722,37.4611789],[29.2490642,37.4932068],[29.2557639,37.525315],[29.2378599,37.5249425],[29.2400859,37.5711008],[29.2205428,37.5855968],[29.2417618,37.6271463],[29.2384431,37.6444396],[29.2187467,37.6526507],[29.1783955,37.6471062],[29.1520067,37.6572159],[29.1243896,37.6814376],[29.0868468,37.6666777],[29.0746053,37.6869609],[29.0466413,37.6909922],[29.0052608,37.6933543],[28.9729206,37.712886],[28.9367007,37.7187262],[28.9057159,37.7105784],[28.8782095,37.7323198],[28.8311383,37.7062428],[28.8031381,37.6993938],[28.7902808,37.6447496],[28.7747461,37.6427634],[28.7477666,37.6089145],[28.7527487,37.5923732],[28.7920472,37.5666613],[28.8034353,37.5313545],[28.8200925,37.5101893],[28.8486956,37.5196921],[28.8873918,37.4956484],[28.8710556,37.4565411],[28.8800924,37.4334322],[28.9140866,37.4318126],[28.9152764,37.4062989],[28.9696673,37.3967121],[28.9803755,37.3074017],[28.9541999,37.3049681]]]},"properties":{"@id":"relation/1605440","admin_level":"6","boundary":"administrative","name":"Tavas","name:ar":"تافاس","name:fa":"تاواس","name:ru":"Тавас","name:tr":"Tavas","name:tr:suffix":"İlçesi","name:tt":"Тавас","name:ur":"تاواس","name:zh":"塔瓦斯","network":"TR20-districts","type":"boundary","wikidata":"Q1004555","wikipedia":"tr:Tavas"},"id":"relation/1605440"},
{"type":"Feature","geometry":{"type":"Polygon","coordinates":[[[29.438476,37.1878923],[29.4617386,37.2060042],[29.4820365,37.2408886],[29.5022215,37.2557433],[29.5241745,37.2931317],[29.576952,37.2899971],[29.5779417,37.3263522],[29.6245533,37.3537015],[29.6231387,37.4116898],[29.6102129,37.4467406],[29.5623226,37.4404107],[29.5362803,37.4789102],[29.5128707,37.4890085],[29.500837,37.5052904],[29.5399748,37.5164304],[29.5847408,37.5280371],[29.586636,37.5407514],[29.5559279,37.5662839],[29.5117383,37.582074],[29.5298691,37.5971935],[29.5431398,37.6085873],[29.5501839,37.63777],[29.5136645,37.6561987],[29.4747784,37.6518035],[29.4483769,37.6267453],[29.4084939,37.6350496],[29.3946963,37.6479918],[29.3849596,37.636249],[29.3831621,37.5674155],[29.3885887,37.553251],[29.3750731,37.5243029],[29.3424177,37.5391591],[29.2818565,37.5254579],[29.2557639,37.525315],[29.2490642,37.4932068],[29.228722,37.4611789],[29.2491729,37.4277551],[29.240688,37.4008428],[29.2478349,37.3763388],[29.2165602,37.3422933],[29.1910301,37.2888732],[29.1351439,37.2855166],[29.128685,37.2480475],[29.1019995,37.2488593],[29.0555028,37.2035007],[29.0271176,37.1941588],[29.0140005,37.1705529],[29.0074009,37.1449934],[28.995342,37.1513235],[28.9528916,37.1318771],[29.0369853,37.0374965],[29.1232281,37.0234121],[29.1374619,37.0502117],[29.1657747,37.0695955],[29.170344,37.0921738],[29.2114122,37.127843],[29.255664,37.1530001],[29.3031247,37.1574235],[29.3334855,37.1680426],[29.3499759,37.1949007],[29.3718214,37.2014346],[29.438476,37.1878923]]]},"properties":{"@id":"relation/1605790","admin_level":"6","boundary":"administrative","name":"Acıpayam","name:ce":"Аджипайа","name:fa":"اجی‌پیام","name:ru":"Аджипаям","name:tg":"Аҷипаям","name:tr":"Acıpayam","name:tr:suffix":"İlçesi","name:tt":"Аҗыпаям","name:uk":"Аджипаям","name:ur":"اجیپیام","name:zh":"阿哲帕亚姆","network":"TR20-districts","population":"55141","population:date":"31-12-2021","type":"boundary","wikidata":"Q345120","wikipedia":"tr:Acıpayam"},"id":"relation/1605790"},
{"type":"Feature","geometry":{"type":"Polygon","coordinates":[[[29.1232281,37.0234121],[29.1436702,36.9827981],[29.1031861,36.9618155],[29.0978053,36.9432847],[29.1104652,36.9057073],[29.1437649,36.8946693],[29.1766912,36.8739931],[29.1832922,36.8583345],[29.2111014,36.8476204],[29.2624877,36.8612417],[29.2785747,36.9185015],[29.3200837,36.9155311],[29.3451584,36.9261416],[29.358622,36.9566562],[29.3914215,36.9817531],[29.3669154,36.9900601],[29.3384742,37.0190703],[29.3681639,37.0332919],[29.3826999,37.0665492],[29.4295393,37.0397651],[29.4415848,37.0655512],[29.4380733,37.1218606],[29.4513704,37.1629145],[29.438476,37.1878923],[29.3718214,37.2014346],[29.3499759,37.1949007],[29.3334855,37.1680426],[29.3031247,37.1574235],[29.255664,37.1530001],[29.2114122,37.127843],[29.170344,37.0921738],[29.1657747,37.0695955],[29.1374619,37.0502117],[29.1232281,37.0234121]]]},"properties":{"@id":"relation/1605791","admin_level":"6","boundary":"administrative","name":"Çameli","name:ce":"چاملی","name:de":"Çameli","name:tr":"Çameli","name:tr:suffix":"İlçesi","name:tt":"Чамели","name:ur":"چامیلی","network":"TR20-districts","population":"17749","population:date":"31-12-2021","type":"boundary","wikidata":"Q2195108","wikipedia":"tr:Çameli"},"id":"relation/1605791"},
{"type":"Feature","geometry":{"type":"Polygon","coordinates":[[[29.4993672,37.9279313],[29.4755164,37.9044112],[29.4915586,37.8912235],[29.4748054,37.8651336],[29.433828,37.8433255],[29.4526187,37.8190071],[29.4811445,37.8225839],[29.4951809,37.7885979],[29.4720887,37.7703464],[29.4847668,37.7554913],[29.4815973,37.6904878],[29.4747784,37.6518035],[29.5136645,37.6561987],[29.5194504,37.6812071],[29.5600204,37.7019884],[29.5904478,37.6931033],[29.6145362,37.7034214],[29.6311989,37.7396665],[29.6748477,37.7547038],[29.6791705,37.7791326],[29.6442931,37.7838452],[29.6247326,37.8080034],[29.6426993,37.8421091],[29.6831468,37.8790043],[29.669439,37.8981155],[29.7227018,37.9433465],[29.6668375,37.9631866],[29.6588901,37.9763043],[29.6285429,37.9607069],[29.6044481,37.9334034],[29.5947291,37.9040128],[29.5621302,37.9067288],[29.4993672,37.9279313]]]},"properties":{"@id":"relation/1606199","admin_level":"6","boundary":"administrative","name":"Bozkurt","name:de":"Bozkurt","name:en":"Bozkurt","name:fa":"بوزکورت","name:tr":"Bozkurt","name:tr:suffix":"İlçesi","name:tt":"Бозкурт","name:ur":"بوزکورت","network":"TR20-districts","type":"boundary","wikidata":"Q896161","wikipedia":"tr:Bozkurt, Denizli"},"id":"relation/1606199"},
{"type":"Feature","geometry":{"type":"Polygon","coordinates":[[[28.9460548,37.8057703],[28.9421918,37.8278312],[28.9602005,37.8382835],[28.9618885,37.8610714],[28.9409971,37.8796774],[28.9076065,37.8692474],[28.8836796,37.8493697],[28.8293976,37.8469728],[28.7726447,37.8011439],[28.813432,37.7725564],[28.8638931,37.7522658],[28.8782095,37.7323198],[28.9174521,37.78421],[28.9460548,37.8057703]]]},"properties":{"@id":"relation/1606200","admin_level":"6","boundary":"administrative","name":"Babadağ","name:de":"Babadağ","name:en":"Babadağ","name:fa":"باباداغ","name:tr":"Babadağ","name:tr:suffix":"İlçesi","name:tt":"Бабадаг","name:ur":"باباداغ","network":"TR20-districts","old_name":"Beşikkaya;Kadıkeriyesi;Kadıköy","population":"6404","population:date":"31-12-2021","type":"boundary","wikidata":"Q797558","wikipedia":"tr:Babadağ, Denizli"},"id":"relation/1606200"},
{"type":"Feature","geometry":{"type":"Polygon","coordinates":[[[29.0839737,37.7688483],[29.0814151,37.7680585],[29.0803466,37.7678064],[29.0625096,37.7684739],[29.057395,37.7653074],[29.0558151,37.7530743],[29.0611986,37.7325887],[29.0605335,37.7230033],[29.0466413,37.6909922],[29.0746053,37.6869609],[29.0868468,37.6666777],[29.1243896,37.6814376],[29.1520067,37.6572159],[29.1783955,37.6471062],[29.2187467,37.6526507],[29.2384431,37.6444396],[29.245509,37.6582187],[29.2452657,37.7109303],[29.2323655,37.7422513],[29.2129572,37.7445079],[29.1889133,37.7437463],[29.1782018,37.7625786],[29.2067098,37.7818021],[29.2854201,37.8628895],[29.265837,37.877508],[29.267942,37.9405558],[29.2516038,37.9752461],[29.2485162,38.0288709],[29.2764994,38.0368699],[29.2629914,38.0660962],[29.2151989,38.0803759],[29.2113304,38.0977016],[29.1788623,38.1216331],[29.1514327,38.115564],[29.1054613,38.0679691],[29.0342933,38.0586686],[29.0214842,38.0414217],[28.9764052,38.0561545],[28.9683026,38.0393236],[28.9888521,38.026365],[29.0118219,38.0021693],[29.0335381,37.9649532],[29.0482784,37.9567407],[29.0337274,37.9236053],[29.0643878,37.9128576],[29.0888511,37.9130453],[29.1072647,37.8949299],[29.0948766,37.8786231],[29.0714601,37.8547832],[29.1002112,37.8386064],[29.1290213,37.8188323],[29.1140349,37.8151481],[29.104379,37.7981623],[29.0978473,37.7843517],[29.0963933,37.7832261],[29.0904591,37.7865898],[29.0854732,37.7830929],[29.0844158,37.7806151],[29.0863665,37.7753749],[29.0874216,37.7734936],[29.0839737,37.7688483]]]},"properties":{"@id":"relation/1606201","admin_level":"6","boundary":"administrative","name":"Pamukkale","name:ar":"باموق قلعة","name:be":"Памукале","name:bg":"Памуккале","name:bn":"পামুক্কালে","name:ce":"Памуккале","name:de":"Pamukkale","name:el":"Παμούκαλε","name:en":"Pamukkale","name:fa":"پاموک‌کاله","name:he":"פמוקלה","name:hy":"Փամուքկալե","name:ka":"ფამუქ-ქალე","name:ko":"파묵칼레","name:ml":"പമുക്കേൽ","name:ru":"Памуккале","name:sr":"Памукале","name:ta":"பமுக்கலெ","name:th":"ปามุกกาเล","name:tr":"Pamukkale","name:tr:suffix":"İlçesi","name:tt":"Памуккале","name:uk":"Памуккале","name:ur":"آق کوئے","name:zh":"棉花堡","network":"TR20-districts","population":"347621","population:date":"31-12-2021","type":"boundary","wikidata":"Q420157","wikipedia":"tr:Pamukkale, Denizli"},"id":"relation/1606201"},
{"type":"Feature","geometry":{"type":"Polygon","coordinates":[[[29.5431398,37.6085873],[29.5729968,37.6096126],[29.6519221,37.6280274],[29.684689,37.6102699],[29.7102376,37.6074125],[29.7306766,37.6233646],[29.6831861,37.6552586],[29.6864924,37.6861874],[29.7021222,37.7078299],[29.7475087,37.7144879],[29.7643407,37.6940365],[29.8043169,37.685236],[29.8313684,37.6949879],[29.8454953,37.7297038],[29.8965927,37.7727195],[29.8868858,37.8254386],[29.7702514,37.8125987],[29.7474416,37.8215969],[29.7418215,37.8582439],[29.6831468,37.8790043],[29.6426993,37.8421091],[29.6247326,37.8080034],[29.6442931,37.7838452],[29.6791705,37.7791326],[29.6748477,37.7547038],[29.6311989,37.7396665],[29.6145362,37.7034214],[29.5904478,37.6931033],[29.5600204,37.7019884],[29.5194504,37.6812071],[29.5136645,37.6561987],[29.5501839,37.63777],[29.5431398,37.6085873]]]},"properties":{"@id":"relation/1606202","admin_level":"6","boundary":"administrative","name":"Çardak","name:de":"Çardak","name:en":"Çardak","name:fa":"چارداک","name:tr":"Çardak","name:tr:suffix":"İlçesi","name:tt":"Чардак","name:ur":"چارداک","name:zh":"恰爾達克","network":"TR20-districts","population":"8578","population:date":"31-12-2021","type":"boundary","wikidata":"Q272634","wikipedia":"tr:Çardak, Denizli"},"id":"relation/1606202"},
{"type":"Feature","geometry":{"type":"Polygon","coordinates":[[[29.514851,38.1799024],[29.6184935,38.2254135],[29.6144149,38.2440546],[29.5899098,38.2598282],[29.546122,38.2718138],[29.5307226,38.2890528],[29.4821141,38.27276],[29.4264085,38.302715],[29.4156959,38.3226782],[29.3538305,38.3221529],[29.3374937,38.3063928],[29.2981249,38.2991421],[29.2308665,38.2368164],[29.2194078,38.2113879],[29.2922736,38.2206803],[29.3197069,38.2319565],[29.3679259,38.2005165],[29.4130916,38.1890888],[29.4308091,38.1694783],[29.4678994,38.1906056],[29.514851,38.1799024]]]},"properties":{"@id":"relation/1606203","admin_level":"6","boundary":"administrative","name":"Bekilli","name:de":"Bekilli","name:en":"Bekilli","name:fa":"بکیلی","name:tr":"Bekilli","name:tr:suffix":"İlçesi","name:tt":"Бекилли","name:ur":"بیکیلی","network":"TR20-districts","population":"6464","population:date":"31-12-2021","type":"boundary","wikidata":"Q815026","wikipedia":"tr:Bekilli"},"id":"relation/1606203"},
{"type":"Feature","geometry":{"type":"Polygon","coordinates":[[[28.8953543,38.2443507],[28.7852675,38.1826358],[28.7305996,38.1743323],[28.73011,38.1308589],[28.6798664,38.094399],[28.6389399,38.0905563],[28.6502695,38.0693421],[28.7155555,38.0594252],[28.7701982,37.9825999],[28.8073396,37.9880408],[28.8441894,37.9766987],[28.8427712,38.0038187],[28.8631584,38.008501],[28.8937849,37.9903464],[28.9264227,37.9847261],[28.9888521,38.026365],[28.9683026,38.0393236],[28.9764052,38.0561545],[28.9893367,38.0769722],[28.9678291,38.0931319],[28.9608762,38.1273962],[28.9422129,38.1228861],[28.9121996,38.1827065],[28.9131168,38.2152571],[28.8953543,38.2443507]]]},"properties":{"@id":"relation/1606204","admin_level":"6","boundary":"administrative","name":"Buldan","name:ar":"بولدان","name:de":"Buldan","name:en":"Buldan","name:fa":"بولدان","name:ja":"ブルダン","name:tr":"Buldan","name:tr:suffix":"İlçesi","name:tt":"Булдан","name:ur":"بولدان","name:zh":"布爾丹","network":"TR20-districts","population":"26781","population:date":"31-12-2021","type":"boundary","wikidata":"Q1003598","wikipedia":"tr:Buldan"},"id":"relation/1606204"},
{"type":"Feature","geometry":{"type":"Polygon","coordinates":[[[29.514851,38.1799024],[29.4678994,38.1906056],[29.4308091,38.1694783],[29.4130916,38.1890888],[29.3679259,38.2005165],[29.3197069,38.2319565],[29.2922736,38.2206803],[29.2194078,38.2113879],[29.2067923,38.1658584],[29.2113064,38.1481777],[29.1788623,38.1216331],[29.2113304,38.0977016],[29.2151989,38.0803759],[29.2629914,38.0660962],[29.2764994,38.0368699],[29.2485162,38.0288709],[29.2516038,37.9752461],[29.267942,37.9405558],[29.265837,37.877508],[29.2854201,37.8628895],[29.320471,37.8639638],[29.3386141,37.8545949],[29.4020656,37.8509554],[29.4391755,37.8952363],[29.4755164,37.9044112],[29.4993672,37.9279313],[29.4937968,37.9425966],[29.5023485,37.9799583],[29.5465194,38.0095743],[29.5186919,38.0454538],[29.5356091,38.0553968],[29.5634298,38.1020064],[29.5148917,38.1185951],[29.5275183,38.1372065],[29.5644468,38.1549488],[29.514851,38.1799024]]]},"properties":{"@id":"relation/1606205","admin_level":"6","boundary":"administrative","name":"Çal","name:de":"Çal","name:en":"Çal","name:fa":"چال","name:tr":"Çal","name:tr:suffix":"İlçesi","name:tt":"Чал","name:ur":"چال","network":"TR20-districts","population":"18107","population:date":"31-12-2021","type":"boundary","wikidata":"Q272352","wikipedia":"tr:Çal"},"id":"relation/1606205"},
{"type":"Feature","geometry":{"type":"Polygon","coordinates":[[[29.4755164,37.9044112],[29.4391755,37.8952363],[29.4020656,37.8509554],[29.3386141,37.8545949],[29.320471,37.8639638],[29.2854201,37.8628895],[29.2067098,37.7818021],[29.1782018,37.7625786],[29.1889133,37.7437463],[29.2129572,37.7445079],[29.2323655,37.7422513],[29.2452657,37.7109303],[29.245509,37.6582187],[29.3315413,37.6858755],[29.3564924,37.6871075],[29.3931177,37.6689467],[29.3946963,37.6479918],[29.4084939,37.6350496],[29.4483769,37.6267453],[29.4747784,37.6518035],[29.4815973,37.6904878],[29.4847668,37.7554913],[29.4720887,37.7703464],[29.4951809,37.7885979],[29.4811445,37.8225839],[29.4526187,37.8190071],[29.433828,37.8433255],[29.4748054,37.8651336],[29.4915586,37.8912235],[29.4755164,37.9044112]]]},"properties":{"@id":"relation/1606206","admin_level":"6","boundary":"administrative","name":"Honaz","name:fa":"هوناز","name:fr":"Chônai","name:ru":"Хоназ","name:tr":"Honaz","name:tr:suffix":"İlçesi","name:tt":"Хоназ","name:ur":"ہوناز","name:zh":"霍納茲","network":"TR20-districts","population":"34103","population:date":"31-12-2021","type":"boundary","wikidata":"Q1023136","wikipedia":"tr:Honaz"},"id":"relation/1606206"},
{"type":"Feature","geometry":{"type":"Polygon","coordinates":[[[29.5644468,38.1549488],[29.5275183,38.1372065],[29.5148917,38.1185951],[29.5634298,38.1020064],[29.5356091,38.0553968],[29.5186919,38.0454538],[29.5465194,38.0095743],[29.5023485,37.9799583],[29.4937968,37.9425966],[29.4993672,37.9279313],[29.5621302,37.9067288],[29.5947291,37.9040128],[29.6044481,37.9334034],[29.6285429,37.9607069],[29.6588901,37.9763043],[29.6681494,38.0154021],[29.6326941,38.03769],[29.636933,38.0510433],[29.6235803,38.1177733],[29.5644468,38.1549488]]]},"properties":{"@id":"relation/1606207","admin_level":"6","boundary":"administrative","name":"Baklan","name:de":"Baklan","name:en":"Baklan","name:fa":"باکلان","name:tr":"Baklan","name:tr:suffix":"İlçesi","name:tt":"Баклан","name:ur":"باکلان","network":"TR20-districts","population":"5387","population:date":"31-12-2021","type":"boundary","wikidata":"Q2474230","wikipedia":"tr:Baklan"},"id":"relation/1606207"},
{"type":"Feature","geometry":{"type":"Polygon","coordinates":[[[29.2067923,38.1658584],[29.1880917,38.1772316],[29.1819836,38.2147799],[29.100616,38.2410958],[29.0636229,38.2399161],[29.0450495,38.2192873],[28.9948492,38.2431847],[28.9415249,38.2313094],[28.8953543,38.2443507],[28.9131168,38.2152571],[28.9121996,38.1827065],[28.9422129,38.1228861],[28.9608762,38.1273962],[28.9678291,38.0931319],[28.9893367,38.0769722],[28.9764052,38.0561545],[29.0214842,38.0414217],[29.0342933,38.0586686],[29.1054613,38.0679691],[29.1514327,38.115564],[29.1788623,38.1216331],[29.2113064,38.1481777],[29.2067923,38.1658584]]]},"properties":{"@id":"relation/1606208","admin_level":"6","boundary":"administrative","name":"Güney","name:de":"Güney","name:en":"Güney","name:fa":"گونی","name:ota":"گونه‌ی","name:ru":"Гюней","name:tr":"Güney","name:tr:suffix":"İlçesi","name:tt":"Гүней","name:ur":"گونے","network":"TR20-districts","population":"9506","population:date":"31-12-2021","type":"boundary","wikidata":"Q1027171","wikipedia":"tr:Güney, Denizli"},"id":"relation/1606208"},
{"type":"Feature","geometry":{"type":"Polygon","coordinates":[[[28.9541999,37.3049681],[28.9247117,37.3059041],[28.8932821,37.3347894],[28.862742,37.3142761],[28.808185,37.3061399],[28.7651918,37.2687495],[28.7529783,37.2665667],[28.782109,37.241296],[28.7848526,37.1963338],[28.8178388,37.178913],[28.8575667,37.1359483],[28.9281146,37.1400624],[28.9528916,37.1318771],[28.995342,37.1513235],[29.0051913,37.1546123],[28.995163,37.2020115],[28.9977126,37.2166315],[28.9820752,37.2422097],[28.9348231,37.2746775],[28.9541999,37.3049681]]]},"properties":{"@id":"relation/1606209","admin_level":"6","boundary":"administrative","name":"Beyağaç","name:de":"Beyağaç","name:en":"Beyağaç","name:fa":"بیاغاچ","name:tr":"Beyağaç","name:tr:suffix":"İlçesi","name:tt":"Беягач","name:ur":"بےآغاچ","network":"TR20-districts","population":"6263","population:date":"31-12-2021","type":"boundary","wikidata":"Q853055","wikipedia":"tr:Beyağaç"},"id":"relation/1606209"},
{"type":"Feature","geometry":{"type":"Polygon","coordinates":[[[29.6681494,38.0154021],[29.6837256,37.988441],[29.7101392,37.9793522],[29.7401022,37.9858964],[29.7785566,38.0360475],[29.8117676,38.0506935],[29.8120447,38.070631],[29.8937984,38.0931607],[29.8702176,38.1155617],[29.8671318,38.1357952],[29.9293597,38.170212],[29.9686483,38.1349431],[29.9993449,38.1414641],[30.0033716,38.1686913],[30.0199993,38.1950242],[30.0580578,38.184182],[30.08002,38.1978189],[30.0794521,38.2712081],[30.0442054,38.2929534],[30.0285716,38.3179544],[29.9697287,38.3381835],[29.9795001,38.3749578],[30.0059384,38.392377],[29.9831409,38.4122872],[29.9320539,38.4094307],[29.873535,38.4629123],[29.8142623,38.4740857],[29.7978896,38.4560795],[29.7588614,38.4510233],[29.7363104,38.4618187],[29.6694662,38.4387954],[29.6701372,38.4151036],[29.6232188,38.4176195],[29.6085007,38.3902211],[29.6470884,38.3646879],[29.6228511,38.3527176],[29.6174948,38.3226782],[29.6249936,38.3004031],[29.6078535,38.2546759],[29.6144149,38.2440546],[29.6184935,38.2254135],[29.514851,38.1799024],[29.5644468,38.1549488],[29.6235803,38.1177733],[29.636933,38.0510433],[29.6326941,38.03769],[29.6681494,38.0154021]]]},"properties":{"@id":"relation/1606210","admin_level":"6","boundary":"administrative","name":"Çivril","name:de":"Çivril","name:en":"Çivril","name:fa":"چوریل","name:tr":"Çivril","name:tr:suffix":"İlçesi","name:tt":"Чиврил","name:ur":"چیوریل","name:zh":"奇夫里爾","network":"TR20-districts","population":"60362","population:date":"31-12-2021","type":"boundary","wikidata":"Q272867","wikipedia":"tr:Çivril"},"id":"relation/1606210"},
{"type":"Feature","geometry":{"type":"Polygon","coordinates":[[[29.0839737,37.7688483],[29.0874216,37.7734936],[29.0863665,37.7753749],[29.0844158,37.7806151],[29.0854732,37.7830929],[29.0904591,37.7865898],[29.0963933,37.7832261],[29.0978473,37.7843517],[29.104379,37.7981623],[29.1140349,37.8151481],[29.1290213,37.8188323],[29.1002112,37.8386064],[29.0714601,37.8547832],[29.0948766,37.8786231],[29.1072647,37.8949299],[29.0888511,37.9130453],[29.0643878,37.9128576],[29.0337274,37.9236053],[29.0099017,37.9184417],[29.0015824,37.8939735],[29.0071547,37.8823799],[28.9836869,37.8467579],[29.0006361,37.8340533],[28.966531,37.8227168],[28.9421918,37.8278312],[28.9460548,37.8057703],[28.9174521,37.78421],[28.8782095,37.7323198],[28.9057159,37.7105784],[28.9367007,37.7187262],[28.9729206,37.712886],[29.0052608,37.6933543],[29.0466413,37.6909922],[29.0605335,37.7230033],[29.0611986,37.7325887],[29.0558151,37.7530743],[29.057395,37.7653074],[29.0625096,37.7684739],[29.0803466,37.7678064],[29.0814151,37.7680585],[29.0839737,37.7688483]]]},"properties":{"@id":"relation/1606211","admin_level":"6","boundary":"administrative","name":"Merkezefendi","name:fa":"مرکزفندی","name:tr":"Merkezefendi","name:tr:suffix":"İlçesi","name:tt":"Меркезефенди","name:ur":"مرکیز افندی","network":"TR20-districts","type":"boundary","wikidata":"Q16895027","wikipedia":"tr:Merkezefendi"},"id":"relation/1606211"},
{"type":"Feature","geometry":{"type":"Polygon","coordinates":[[[28.8441894,37.9766987],[28.8413659,37.9448947],[28.8107967,37.9302036],[28.7623897,37.9481798],[28.7375864,37.9445566],[28.7471403,37.9182759],[28.737141,37.901934],[28.7482117,37.8800921],[28.7401727,37.8356791],[28.7444013,37.8136181],[28.7726447,37.8011439],[28.8293976,37.8469728],[28.8836796,37.8493697],[28.9076065,37.8692474],[28.9409971,37.8796774],[28.9618885,37.8610714],[28.9602005,37.8382835],[28.9421918,37.8278312],[28.966531,37.8227168],[29.0006361,37.8340533],[28.9836869,37.8467579],[29.0071547,37.8823799],[29.0015824,37.8939735],[29.0099017,37.9184417],[29.0337274,37.9236053],[29.0482784,37.9567407],[29.0335381,37.9649532],[29.0118219,38.0021693],[28.9888521,38.026365],[28.9264227,37.9847261],[28.8937849,37.9903464],[28.8631584,38.008501],[28.8427712,38.0038187],[28.8441894,37.9766987]]]},"properties":{"@id":"relation/1606212","admin_level":"6","boundary":"administrative","name":"Sarayköy","name:de":"Sarayköy","name:en":"Sarayköy","name:fa":"سرای‌کوی","name:tr":"Sarayköy","name:tr:suffix":"İlçesi","name:tt":"Сарайкөй","name:ur":"سرائےکوئے","name:zh":"薩拉伊柯伊","network":"TR20-districts","population":"30696","population:date":"31-12-2021","type":"boundary","wikidata":"Q1639909","wikipedia":"tr:Sarayköy"},"id":"relation/1606212"},
{"type":"Feature","geometry":{"type":"Polygon","coordinates":[[[28.8710556,37.4565411],[28.8873918,37.4956484],[28.8486956,37.5196921],[28.8200925,37.5101893],[28.8034353,37.5313545],[28.7920472,37.5666613],[28.7527487,37.5923732],[28.7477666,37.6089145],[28.7226538,37.6069709],[28.6906546,37.5852156],[28.6926168,37.5724161],[28.6514107,37.542622],[28.6317887,37.5477681],[28.5707065,37.5312561],[28.5923855,37.5195922],[28.6297273,37.4678758],[28.614192,37.4309438],[28.6440947,37.3743283],[28.7050624,37.363387],[28.7165483,37.339696],[28.7407347,37.323821],[28.7320669,37.2843227],[28.7529783,37.2665667],[28.7651918,37.2687495],[28.808185,37.3061399],[28.862742,37.3142761],[28.8932821,37.3347894],[28.9247117,37.3059041],[28.9541999,37.3049681],[28.9803755,37.3074017],[28.9696673,37.3967121],[28.9152764,37.4062989],[28.9140866,37.4318126],[28.8800924,37.4334322],[28.8710556,37.4565411]]]},"properties":{"@id":"relation/1607200","admin_level":"6","boundary":"administrative","name":"Kale","name:fa":"قلعه","name:tr":"Kale","name:tr:suffix":"İlçesi","name:tt":"Кале","name:ur":"قلعہ","network":"TR20-districts","type":"boundary","wikidata":"Q370464","wikipedia":"tr:Kale, Denizli"},"id":"relation/1607200"},
{"type":"Feature","geometry":{"type":"Polygon","coordinates":[[[29.245509,37.6582187],[29.2384431,37.6444396],[29.2417618,37.6271463],[29.2205428,37.5855968],[29.2400859,37.5711008],[29.2378599,37.5249425],[29.2557639,37.525315],[29.2818565,37.5254579],[29.3424177,37.5391591],[29.3750731,37.5243029],[29.3885887,37.553251],[29.3831621,37.5674155],[29.3849596,37.636249],[29.3946963,37.6479918],[29.3931177,37.6689467],[29.3564924,37.6871075],[29.3315413,37.6858755],[29.245509,37.6582187]]]},"properties":{"@id":"relation/3446022","admin_level":"6","boundary":"administrative","name":"Serinhisar","name:ar":"سرين حصار","name:de":"Serinhisar","name:en":"Serinhisar","name:fa":"سرین‌حصار","name:ru":"Серинхисар","name:tr":"Serinhisar","name:tr:suffix":"İlçesi","name:tt":"Серинхисар","name:ur":"سرین حصار","name:zh":"塞林希薩爾","network":"TR20-districts","population":"14349","population:date":"31-12-2021","type":"boundary","wikidata":"Q1014103","wikipedia":"tr:Serinhisar"},"id":"relation/3446022"},
{"type":"Feature","geometry":{"type":"Polygon","coordinates":[[[29.1290213,37.8188323],[29.1002112,37.8386064],[29.097103,37.8294358],[29.0823505,37.8122581],[29.0904629,37.8039935],[29.093537,37.8060181],[29.1140349,37.8151481],[29.1290213,37.8188323]]]},"properties":{"@id":"relation/3667373","admin_level":"8","boundary":"administrative","name":"Eskihisar Mahallesi","type":"boundary","@relations":[{"role":"subarea","rel":1606211,"reltags":{"admin_level":"6","boundary":"administrative","name":"Merkezefendi","name:fa":"مرکزفندی","name:tr":"Merkezefendi","name:tr:suffix":"İlçesi","name:tt":"Меркезефенди","name:ur":"مرکیز افندی","network":"TR20-districts","type":"boundary","wikidata":"Q16895027","wikipedia":"tr:Merkezefendi"}}]},"id":"relation/3667373"},
{"type":"Feature","geometry":{"type":"Polygon","coordinates":[[[29.0486008,37.8971623],[29.0643878,37.9128576],[29.0337274,37.9236053],[29.0099017,37.9184417],[29.0015824,37.8939735],[29.0239025,37.9041629],[29.0486008,37.8971623]]]},"properties":{"@id":"relation/3667452","admin_level":"8","alt_name":"Aşağışamlı","boundary":"administrative","name":"Aşağışamlı Mahallesi","type":"boundary","@relations":[{"role":"subarea","rel":1606211,"reltags":{"admin_level":"6","boundary":"administrative","name":"Merkezefendi","name:fa":"مرکزفندی","name:tr":"Merkezefendi","name:tr:suffix":"İlçesi","name:tt":"Меркезефенди","name:ur":"مرکیز افندی","network":"TR20-districts","type":"boundary","wikidata":"Q16895027","wikipedia":"tr:Merkezefendi"}}]},"id":"relation/3667452"},
{"type":"Feature","geometry":{"type":"Polygon","coordinates":[[[29.0489247,37.8761426],[29.0948766,37.8786231],[29.1072647,37.8949299],[29.0888511,37.9130453],[29.0643878,37.9128576],[29.0486008,37.8971623],[29.036272,37.8831868],[29.0489247,37.8761426]]]},"properties":{"@id":"relation/3667453","admin_level":"8","boundary":"administrative","name":"Salihağa Mahallesi","type":"boundary","@relations":[{"role":"subarea","rel":1606211,"reltags":{"admin_level":"6","boundary":"administrative","name":"Merkezefendi","name:fa":"مرکزفندی","name:tr":"Merkezefendi","name:tr:suffix":"İlçesi","name:tt":"Меркезефенди","name:ur":"مرکیز افندی","network":"TR20-districts","type":"boundary","wikidata":"Q16895027","wikipedia":"tr:Merkezefendi"}}]},"id":"relation/3667453"},
{"type":"Feature","geometry":{"type":"Polygon","coordinates":[[[29.0978473,37.7843517],[29.104379,37.7981623],[29.093537,37.8060181],[29.0904629,37.8039935],[29.0783534,37.7980938],[29.0831352,37.7920874],[29.0904591,37.7865898],[29.0963933,37.7832261],[29.0978473,37.7843517]]]},"properties":{"@id":"relation/4843980","admin_level":"8","alt_name":"Sümer","boundary":"administrative","name":"Sümer Mahallesi","type":"boundary","@relations":[{"role":"subarea","rel":1606211,"reltags":{"admin_level":"6","boundary":"administrative","name":"Merkezefendi","name:fa":"مرکزفندی","name:tr":"Merkezefendi","name:tr:suffix":"İlçesi","name:tt":"Меркезефенди","name:ur":"مرکیز افندی","network":"TR20-districts","type":"boundary","wikidata":"Q16895027","wikipedia":"tr:Merkezefendi"}}]},"id":"relation/4843980"},
{"type":"Feature","geometry":{"type":"Polygon","coordinates":[[[29.0809636,37.787109],[29.0788729,37.7851141],[29.0844158,37.7806151],[29.0854732,37.7830929],[29.0904591,37.7865898],[29.0831352,37.7920874],[29.0809636,37.787109]]]},"properties":{"@id":"relation/4843992","admin_level":"8","alt_name":"Saraylar","boundary":"administrative","name":"Saraylar Mahallesi","type":"boundary","@relations":[{"role":"subarea","rel":1606211,"reltags":{"admin_level":"6","boundary":"administrative","name":"Merkezefendi","name:fa":"مرکزفندی","name:tr":"Merkezefendi","name:tr:suffix":"İlçesi","name:tt":"Меркезефенди","name:ur":"مرکیز افندی","network":"TR20-districts","type":"boundary","wikidata":"Q16895027","wikipedia":"tr:Merkezefendi"}}]},"id":"relation/4843992"},
{"type":"Feature","geometry":{"type":"Polygon","coordinates":[[[29.0783534,37.7980938],[29.0771107,37.7997078],[29.069536,37.7927174],[29.0809636,37.787109],[29.0831352,37.7920874],[29.0783534,37.7980938]]]},"properties":{"@id":"relation/4843993","admin_level":"8","alt_name":"İlbadı","boundary":"administrative","name":"İlbade Mahallesi","type":"boundary","@relations":[{"role":"subarea","rel":1606211,"reltags":{"admin_level":"6","boundary":"administrative","name":"Merkezefendi","name:fa":"مرکزفندی","name:tr":"Merkezefendi","name:tr:suffix":"İlçesi","name:tt":"Меркезефенди","name:ur":"مرکیز افندی","network":"TR20-districts","type":"boundary","wikidata":"Q16895027","wikipedia":"tr:Merkezefendi"}}]},"id":"relation/4843993"},
{"type":"Feature","geometry":{"type":"Polygon","coordinates":[[[29.0660539,37.7910023],[29.0663866,37.7852346],[29.0730987,37.779068],[29.0751566,37.7810659],[29.0788729,37.7851141],[29.0809636,37.787109],[29.069536,37.7927174],[29.0660539,37.7910023]]]},"properties":{"@id":"relation/5465298","admin_level":"8","alt_name":"Muratdede;Murat Dede","boundary":"administrative","name":"Muratdede Mahallesi","type":"boundary","@relations":[{"role":"subarea","rel":1606211,"reltags":{"admin_level":"6","boundary":"administrative","name":"Merkezefendi","name:fa":"مرکزفندی","name:tr":"Merkezefendi","name:tr:suffix":"İlçesi","name:tt":"Меркезефенди","name:ur":"مرکیز افندی","network":"TR20-districts","type":"boundary","wikidata":"Q16895027","wikipedia":"tr:Merkezefendi"}}]},"id":"relation/5465298"},
{"type":"Feature","geometry":{"type":"Polygon","coordinates":[[[29.0514822,37.7850106],[29.0371697,37.7869789],[29.0357597,37.7785527],[29.0546814,37.7772129],[29.0663866,37.7852346],[29.0660539,37.7910023],[29.0514822,37.7850106]]]},"properties":{"@id":"relation/5512904","admin_level":"8","boundary":"administrative","name":"Mehmet Akif Ersoy Mahallesi","type":"boundary","@relations":[{"role":"subarea","rel":1606211,"reltags":{"admin_level":"6","boundary":"administrative","name":"Merkezefendi","name:fa":"مرکزفندی","name:tr":"Merkezefendi","name:tr:suffix":"İlçesi","name:tt":"Меркезефенди","name:ur":"مرکیز افندی","network":"TR20-districts","type":"boundary","wikidata":"Q16895027","wikipedia":"tr:Merkezefendi"}}]},"id":"relation/5512904"},
{"type":"Feature","geometry":{"type":"Polygon","coordinates":[[[29.0660539,37.7910023],[29.069536,37.7927174],[29.0660671,37.794961],[29.059906,37.7922546],[29.0514822,37.7850106],[29.0660539,37.7910023]]]},"properties":{"@id":"relation/5512905","admin_level":"8","boundary":"administrative","name":"Alpaslan Mahallesi","type":"boundary","@relations":[{"role":"subarea","rel":1606211,"reltags":{"admin_level":"6","boundary":"administrative","name":"Merkezefendi","name:fa":"مرکزفندی","name:tr":"Merkezefendi","name:tr:suffix":"İlçesi","name:tt":"Меркезефенди","name:ur":"مرکیز افندی","network":"TR20-districts","type":"boundary","wikidata":"Q16895027","wikipedia":"tr:Merkezefendi"}}]},"id":"relation/5512905"},
{"type":"Feature","geometry":{"type":"Polygon","coordinates":[[[29.069536,37.7927174],[29.0771107,37.7997078],[29.07517,37.802133],[29.0660671,37.794961],[29.069536,37.7927174]]]},"properties":{"@id":"relation/5512906","admin_level":"8","alt_name":"Yeni Mahalle","boundary":"administrative","name":"Yeni Mahallesi","type":"boundary","@relations":[{"role":"subarea","rel":1606211,"reltags":{"admin_level":"6","boundary":"administrative","name":"Merkezefendi","name:fa":"مرکزفندی","name:tr":"Merkezefendi","name:tr:suffix":"İlçesi","name:tt":"Меркезефенди","name:ur":"مرکیز افندی","network":"TR20-districts","type":"boundary","wikidata":"Q16895027","wikipedia":"tr:Merkezefendi"}}]},"id":"relation/5512906"},
{"type":"Feature","geometry":{"type":"Polygon","coordinates":[[[29.059906,37.7922546],[29.0509755,37.7972656],[29.0385215,37.7935224],[29.0371697,37.7869789],[29.0514822,37.7850106],[29.059906,37.7922546]]]},"properties":{"@id":"relation/5512932","admin_level":"8","boundary":"administrative","name":"Gültepe Mahallesi","type":"boundary","@relations":[{"role":"subarea","rel":1606211,"reltags":{"admin_level":"6","boundary":"administrative","name":"Merkezefendi","name:fa":"مرکزفندی","name:tr":"Merkezefendi","name:tr:suffix":"İlçesi","name:tt":"Меркезефенди","name:ur":"مرکیز افندی","network":"TR20-districts","type":"boundary","wikidata":"Q16895027","wikipedia":"tr:Merkezefendi"}}]},"id":"relation/5512932"},
{"type":"Feature","geometry":{"type":"Polygon","coordinates":[[[29.0509755,37.7972656],[29.062205,37.8043675],[29.0557072,37.8140045],[29.0408085,37.8088565],[29.0361292,37.7961879],[29.0385215,37.7935224],[29.0509755,37.7972656]]]},"properties":{"@id":"relation/5512959","admin_level":"8","boundary":"administrative","name":"Şemikler Mahallesi","type":"boundary","@relations":[{"role":"subarea","rel":1606211,"reltags":{"admin_level":"6","boundary":"administrative","name":"Merkezefendi","name:fa":"مرکزفندی","name:tr":"Merkezefendi","name:tr:suffix":"İlçesi","name:tt":"Меркезефенди","name:ur":"مرکیز افندی","network":"TR20-districts","type":"boundary","wikidata":"Q16895027","wikipedia":"tr:Merkezefendi"}}]},"id":"relation/5512959"},
{"type":"Feature","geometry":{"type":"Polygon","coordinates":[[[29.059906,37.7922546],[29.0660671,37.794961],[29.07517,37.802133],[29.0724675,37.8055328],[29.062205,37.8043675],[29.0509755,37.7972656],[29.059906,37.7922546]]]},"properties":{"@id":"relation/5512960","admin_level":"8","boundary":"administrative","name":"Gümüşçay Mahallesi","type":"boundary","@relations":[{"role":"subarea","rel":1606211,"reltags":{"admin_level":"6","boundary":"administrative","name":"Merkezefendi","name:fa":"مرکزفندی","name:tr":"Merkezefendi","name:tr:suffix":"İlçesi","name:tt":"Меркезефенди","name:ur":"مرکیز افندی","network":"TR20-districts","type":"boundary","wikidata":"Q16895027","wikipedia":"tr:Merkezefendi"}}]},"id":"relation/5512960"},
{"type":"Feature","geometry":{"type":"Polygon","coordinates":[[[29.0724675,37.8055328],[29.0823505,37.8122581],[29.097103,37.8294358],[29.0597734,37.8178087],[29.0557072,37.8140045],[29.062205,37.8043675],[29.0724675,37.8055328]]]},"properties":{"@id":"relation/5513081","admin_level":"8","boundary":"administrative","name":"Akçeşme Mahallesi","type":"boundary","@relations":[{"role":"subarea","rel":1606211,"reltags":{"admin_level":"6","boundary":"administrative","name":"Merkezefendi","name:fa":"مرکزفندی","name:tr":"Merkezefendi","name:tr:suffix":"İlçesi","name:tt":"Меркезефенди","name:ur":"مرکیز افندی","network":"TR20-districts","type":"boundary","wikidata":"Q16895027","wikipedia":"tr:Merkezefendi"}}]},"id":"relation/5513081"},
{"type":"Feature","geometry":{"type":"Polygon","coordinates":[[[29.0904629,37.8039935],[29.0823505,37.8122581],[29.0724675,37.8055328],[29.07517,37.802133],[29.0771107,37.7997078],[29.0783534,37.7980938],[29.0904629,37.8039935]]]},"properties":{"@id":"relation/5513253","admin_level":"8","boundary":"administrative","name":"Zafer Mahallesi","type":"boundary","@relations":[{"role":"subarea","rel":1606211,"reltags":{"admin_level":"6","boundary":"administrative","name":"Merkezefendi","name:fa":"مرکزفندی","name:tr":"Merkezefendi","name:tr:suffix":"İlçesi","name:tt":"Меркезефенди","name:ur":"مرکیز افندی","network":"TR20-districts","type":"boundary","wikidata":"Q16895027","wikipedia":"tr:Merkezefendi"}}]},"id":"relation/5513253"},
{"type":"Feature","geometry":{"type":"Polygon","coordinates":[[[29.1140349,37.8151481],[29.093537,37.8060181],[29.104379,37.7981623],[29.1140349,37.8151481]]]},"properties":{"@id":"relation/5513254","admin_level":"8","boundary":"administrative","name":"Sevindik Mahallesi","type":"boundary","@relations":[{"role":"subarea","rel":1606211,"reltags":{"admin_level":"6","boundary":"administrative","name":"Merkezefendi","name:fa":"مرکزفندی","name:tr":"Merkezefendi","name:tr:suffix":"İlçesi","name:tt":"Меркезефенди","name:ur":"مرکیز افندی","network":"TR20-districts","type":"boundary","wikidata":"Q16895027","wikipedia":"tr:Merkezefendi"}}]},"id":"relation/5513254"},
{"type":"Feature","geometry":{"type":"Polygon","coordinates":[[[29.0417448,37.8215538],[29.0408085,37.8088565],[29.0557072,37.8140045],[29.0597734,37.8178087],[29.0463869,37.8340616],[29.0417448,37.8215538]]]},"properties":{"@id":"relation/5513326","admin_level":"8","boundary":"administrative","name":"Kayalar Mahallesi","type":"boundary","@relations":[{"role":"subarea","rel":1606211,"reltags":{"admin_level":"6","boundary":"administrative","name":"Merkezefendi","name:fa":"مرکزفندی","name:tr":"Merkezefendi","name:tr:suffix":"İlçesi","name:tt":"Меркезефенди","name:ur":"مرکیز افندی","network":"TR20-districts","type":"boundary","wikidata":"Q16895027","wikipedia":"tr:Merkezefendi"}}]},"id":"relation/5513326"},
{"type":"Feature","geometry":{"type":"Polygon","coordinates":[[[29.0357597,37.7785527],[29.0371697,37.7869789],[29.0139692,37.7816461],[29.020309,37.7750938],[29.0357597,37.7785527]]]},"properties":{"@id":"relation/5513346","admin_level":"8","boundary":"administrative","name":"Adalet Mahallesi","type":"boundary","@relations":[{"role":"subarea","rel":1606211,"reltags":{"admin_level":"6","boundary":"administrative","name":"Merkezefendi","name:fa":"مرکزفندی","name:tr":"Merkezefendi","name:tr:suffix":"İlçesi","name:tt":"Меркезефенди","name:ur":"مرکیز افندی","network":"TR20-districts","type":"boundary","wikidata":"Q16895027","wikipedia":"tr:Merkezefendi"}}]},"id":"relation/5513346"},
{"type":"Feature","geometry":{"type":"Polygon","coordinates":[[[29.0546814,37.7772129],[29.0357597,37.7785527],[29.020309,37.7750938],[29.0093961,37.7718846],[29.0180642,37.7637713],[29.0423644,37.7709008],[29.0546814,37.7772129]]]},"properties":{"@id":"relation/5513366","admin_level":"8","boundary":"administrative","name":"Bahçelievler Mahallesi","type":"boundary","@relations":[{"role":"subarea","rel":1606211,"reltags":{"admin_level":"6","boundary":"administrative","name":"Merkezefendi","name:fa":"مرکزفندی","name:tr":"Merkezefendi","name:tr:suffix":"İlçesi","name:tt":"Меркезефенди","name:ur":"مرکیز افندی","network":"TR20-districts","type":"boundary","wikidata":"Q16895027","wikipedia":"tr:Merkezefendi"}}]},"id":"relation/5513366"},
{"type":"Feature","geometry":{"type":"Polygon","coordinates":[[[29.029645,37.7517566],[29.0180642,37.7637713],[29.0093961,37.7718846],[29.0039762,37.7656091],[28.9987004,37.7602964],[29.0004622,37.7569305],[29.029645,37.7517566]]]},"properties":{"@id":"relation/5513392","admin_level":"8","boundary":"administrative","name":"Şirinköy Mahallesi","type":"boundary","@relations":[{"role":"subarea","rel":1606211,"reltags":{"admin_level":"6","boundary":"administrative","name":"Merkezefendi","name:fa":"مرکزفندی","name:tr":"Merkezefendi","name:tr:suffix":"İlçesi","name:tt":"Меркезефенди","name:ur":"مرکیز افندی","network":"TR20-districts","type":"boundary","wikidata":"Q16895027","wikipedia":"tr:Merkezefendi"}}]},"id":"relation/5513392"},
{"type":"Feature","geometry":{"type":"Polygon","coordinates":[[[29.0423644,37.7709008],[29.0180642,37.7637713],[29.029645,37.7517566],[29.047233,37.7655837],[29.0423644,37.7709008]]]},"properties":{"@id":"relation/5513393","admin_level":"8","boundary":"administrative","name":"Yenişehir Mahallesi","type":"boundary","@relations":[{"role":"subarea","rel":1606211,"reltags":{"admin_level":"6","boundary":"administrative","name":"Merkezefendi","name:fa":"مرکزفندی","name:tr":"Merkezefendi","name:tr:suffix":"İlçesi","name:tt":"Меркезефенди","name:ur":"مرکیز افندی","network":"TR20-districts","type":"boundary","wikidata":"Q16895027","wikipedia":"tr:Merkezefendi"}}]},"id":"relation/5513393"},
{"type":"Feature","geometry":{"type":"Polygon","coordinates":[[[29.0625096,37.7684739],[29.0696084,37.7749409],[29.0730987,37.779068],[29.0663866,37.7852346],[29.0546814,37.7772129],[29.0423644,37.7709008],[29.047233,37.7655837],[29.057395,37.7653074],[29.0625096,37.7684739]]]},"properties":{"@id":"relation/5513468","admin_level":"8","alt_name":"Merkez Efendi Mahallesi","boundary":"administrative","name":"Merkezefendi Mahallesi","type":"boundary","@relations":[{"role":"subarea","rel":1606211,"reltags":{"admin_level":"6","boundary":"administrative","name":"Merkezefendi","name:fa":"مرکزفندی","name:tr":"Merkezefendi","name:tr:suffix":"İlçesi","name:tt":"Меркезефенди","name:ur":"مرکیز افندی","network":"TR20-districts","type":"boundary","wikidata":"Q16895027","wikipedia":"tr:Merkezefendi"}}]},"id":"relation/5513468"},
{"type":"Feature","geometry":{"type":"Polygon","coordinates":[[[29.0696084,37.7749409],[29.0625096,37.7684739],[29.0803466,37.7678064],[29.0750469,37.7695116],[29.0696084,37.7749409]]]},"properties":{"@id":"relation/5513475","admin_level":"8","boundary":"administrative","name":"Karaman Mahallesi","type":"boundary","@relations":[{"role":"subarea","rel":1606211,"reltags":{"admin_level":"6","boundary":"administrative","name":"Merkezefendi","name:fa":"مرکزفندی","name:tr":"Merkezefendi","name:tr:suffix":"İlçesi","name:tt":"Меркезефенди","name:ur":"مرکیز افندی","network":"TR20-districts","type":"boundary","wikidata":"Q16895027","wikipedia":"tr:Merkezefendi"}}]},"id":"relation/5513475"},
{"type":"Feature","geometry":{"type":"Polygon","coordinates":[[[29.0839737,37.7688483],[29.0820969,37.775618],[29.078443,37.7758491],[29.0750469,37.7695116],[29.0803466,37.7678064],[29.0814151,37.7680585],[29.0839737,37.7688483]]]},"properties":{"@id":"relation/5513476","admin_level":"8","boundary":"administrative","name":"Değirmenönü Mahallesi","type":"boundary","@relations":[{"role":"subarea","rel":1606211,"reltags":{"admin_level":"6","boundary":"administrative","name":"Merkezefendi","name:fa":"مرکزفندی","name:tr":"Merkezefendi","name:tr:suffix":"İlçesi","name:tt":"Меркезефенди","name:ur":"مرکیز افندی","network":"TR20-districts","type":"boundary","wikidata":"Q16895027","wikipedia":"tr:Merkezefendi"}}]},"id":"relation/5513476"},
{"type":"Feature","geometry":{"type":"Polygon","coordinates":[[[29.0750469,37.7695116],[29.078443,37.7758491],[29.0751566,37.7810659],[29.0730987,37.779068],[29.0696084,37.7749409],[29.0750469,37.7695116]]]},"properties":{"@id":"relation/5513555","admin_level":"8","boundary":"administrative","name":"Akkonak Mahallesi","type":"boundary","@relations":[{"role":"subarea","rel":1606211,"reltags":{"admin_level":"6","boundary":"administrative","name":"Merkezefendi","name:fa":"مرکزفندی","name:tr":"Merkezefendi","name:tr:suffix":"İlçesi","name:tt":"Меркезефенди","name:ur":"مرکیز افندی","network":"TR20-districts","type":"boundary","wikidata":"Q16895027","wikipedia":"tr:Merkezefendi"}}]},"id":"relation/5513555"},
{"type":"Feature","geometry":{"type":"Polygon","coordinates":[[[29.0820969,37.775618],[29.0863665,37.7753749],[29.0844158,37.7806151],[29.0788729,37.7851141],[29.0751566,37.7810659],[29.078443,37.7758491],[29.0820969,37.775618]]]},"properties":{"@id":"relation/5513556","admin_level":"8","boundary":"administrative","name":"Sırakapılar Mahallesi","type":"boundary","@relations":[{"role":"subarea","rel":1606211,"reltags":{"admin_level":"6","boundary":"administrative","name":"Merkezefendi","name:fa":"مرکزفندی","name:tr":"Merkezefendi","name:tr:suffix":"İlçesi","name:tt":"Меркезефенди","name:ur":"مرکیز افندی","network":"TR20-districts","type":"boundary","wikidata":"Q16895027","wikipedia":"tr:Merkezefendi"}}]},"id":"relation/5513556"},
{"type":"Feature","geometry":{"type":"Polygon","coordinates":[[[29.0874216,37.7734936],[29.0863665,37.7753749],[29.0820969,37.775618],[29.0839737,37.7688483],[29.0874216,37.7734936]]]},"properties":{"@id":"relation/5513557","admin_level":"8","boundary":"administrative","name":"Altıntop Mahallesi","type":"boundary","@relations":[{"role":"subarea","rel":1606211,"reltags":{"admin_level":"6","boundary":"administrative","name":"Merkezefendi","name:fa":"مرکزفندی","name:tr":"Merkezefendi","name:tr:suffix":"İlçesi","name:tt":"Меркезефенди","name:ur":"مرکیز افندی","network":"TR20-districts","type":"boundary","wikidata":"Q16895027","wikipedia":"tr:Merkezefendi"}}]},"id":"relation/5513557"},
{"type":"Feature","geometry":{"type":"Polygon","coordinates":[[[29.0200902,37.7989535],[29.017458,37.7941643],[29.0124484,37.7828052],[29.0139692,37.7816461],[29.0371697,37.7869789],[29.0385215,37.7935224],[29.0361292,37.7961879],[29.0200902,37.7989535]]]},"properties":{"@id":"relation/5513965","admin_level":"8","boundary":"administrative","name":"Selçuk Bey Mahallesi","type":"boundary","@relations":[{"role":"subarea","rel":1606211,"reltags":{"admin_level":"6","boundary":"administrative","name":"Merkezefendi","name:fa":"مرکزفندی","name:tr":"Merkezefendi","name:tr:suffix":"İlçesi","name:tt":"Меркезефенди","name:ur":"مرکیز افندی","network":"TR20-districts","type":"boundary","wikidata":"Q16895027","wikipedia":"tr:Merkezefendi"}}]},"id":"relation/5513965"},
{"type":"Feature","geometry":{"type":"Polygon","coordinates":[[[29.0124484,37.7828052],[28.9953746,37.7878355],[29.0053616,37.77677],[29.0124484,37.7828052]]]},"properties":{"@id":"relation/5514582","admin_level":"8","boundary":"administrative","name":"1200 Evler Mahallesi","type":"boundary","@relations":[{"role":"subarea","rel":1606211,"reltags":{"admin_level":"6","boundary":"administrative","name":"Merkezefendi","name:fa":"مرکزفندی","name:tr":"Merkezefendi","name:tr:suffix":"İlçesi","name:tt":"Меркезефенди","name:ur":"مرکیز افندی","network":"TR20-districts","type":"boundary","wikidata":"Q16895027","wikipedia":"tr:Merkezefendi"}}]},"id":"relation/5514582"},
{"type":"Feature","geometry":{"type":"Polygon","coordinates":[[[29.0063419,37.7752438],[29.0053616,37.77677],[28.9953746,37.7878355],[28.99039,37.7877111],[28.9824291,37.7862009],[28.9950633,37.772961],[28.9964727,37.7663698],[28.9999226,37.7681712],[29.0063419,37.7752438]]]},"properties":{"@id":"relation/5514583","admin_level":"8","boundary":"administrative","name":"Hallaçlar Mahallesi","type":"boundary","@relations":[{"role":"subarea","rel":1606211,"reltags":{"admin_level":"6","boundary":"administrative","name":"Merkezefendi","name:fa":"مرکزفندی","name:tr":"Merkezefendi","name:tr:suffix":"İlçesi","name:tt":"Меркезефенди","name:ur":"مرکیز افندی","network":"TR20-districts","type":"boundary","wikidata":"Q16895027","wikipedia":"tr:Merkezefendi"}}]},"id":"relation/5514583"},
{"type":"Feature","geometry":{"type":"Polygon","coordinates":[[[28.9957378,37.7989551],[28.99039,37.7877111],[28.9953746,37.7878355],[29.0124484,37.7828052],[29.017458,37.7941643],[28.9957378,37.7989551]]]},"properties":{"@id":"relation/5515347","admin_level":"8","boundary":"administrative","name":"Çakmak Mahallesi","type":"boundary","@relations":[{"role":"subarea","rel":1606211,"reltags":{"admin_level":"6","boundary":"administrative","name":"Merkezefendi","name:fa":"مرکزفندی","name:tr":"Merkezefendi","name:tr:suffix":"İlçesi","name:tt":"Меркезефенди","name:ur":"مرکیز افندی","network":"TR20-districts","type":"boundary","wikidata":"Q16895027","wikipedia":"tr:Merkezefendi"}}]},"id":"relation/5515347"},
{"type":"Feature","geometry":{"type":"Polygon","coordinates":[[[29.0124484,37.7828052],[29.0053616,37.77677],[29.0063419,37.7752438],[29.0093961,37.7718846],[29.020309,37.7750938],[29.0139692,37.7816461],[29.0124484,37.7828052]]]},"properties":{"@id":"relation/5515492","admin_level":"8","boundary":"administrative","name":"Bereketler Mahallesi","type":"boundary","@relations":[{"role":"subarea","rel":1606211,"reltags":{"admin_level":"6","boundary":"administrative","name":"Merkezefendi","name:fa":"مرکزفندی","name:tr":"Merkezefendi","name:tr:suffix":"İlçesi","name:tt":"Меркезефенди","name:ur":"مرکیز افندی","network":"TR20-districts","type":"boundary","wikidata":"Q16895027","wikipedia":"tr:Merkezefendi"}}]},"id":"relation/5515492"},
{"type":"Feature","geometry":{"type":"Polygon","coordinates":[[[29.0093961,37.7718846],[29.0063419,37.7752438],[28.9999226,37.7681712],[29.0039762,37.7656091],[29.0093961,37.7718846]]]},"properties":{"@id":"relation/5515493","admin_level":"8","boundary":"administrative","name":"Barutçular Mahallesi","type":"boundary","@relations":[{"role":"subarea","rel":1606211,"reltags":{"admin_level":"6","boundary":"administrative","name":"Merkezefendi","name:fa":"مرکزفندی","name:tr":"Merkezefendi","name:tr:suffix":"İlçesi","name:tt":"Меркезефенди","name:ur":"مرکیز افندی","network":"TR20-districts","type":"boundary","wikidata":"Q16895027","wikipedia":"tr:Merkezefendi"}}]},"id":"relation/5515493"},
{"type":"Feature","geometry":{"type":"Polygon","coordinates":[[[29.0039762,37.7656091],[28.9999226,37.7681712],[28.9964727,37.7663698],[28.9987004,37.7602964],[29.0039762,37.7656091]]]},"properties":{"@id":"relation/5515529","admin_level":"8","boundary":"administrative","name":"Hisar Mahallesi","type":"boundary","@relations":[{"role":"subarea","rel":1606211,"reltags":{"admin_level":"6","boundary":"administrative","name":"Merkezefendi","name:fa":"مرکزفندی","name:tr":"Merkezefendi","name:tr:suffix":"İlçesi","name:tt":"Меркезефенди","name:ur":"مرکیز افندی","network":"TR20-districts","type":"boundary","wikidata":"Q16895027","wikipedia":"tr:Merkezefendi"}}]},"id":"relation/5515529"},
{"type":"Feature","geometry":{"type":"Polygon","coordinates":[[[28.9987004,37.7602964],[28.9964727,37.7663698],[28.9950633,37.772961],[28.9825733,37.7564094],[29.0004622,37.7569305],[28.9987004,37.7602964]]]},"properties":{"@id":"relation/5515530","admin_level":"8","boundary":"administrative","name":"Kadılar Mahallesi","type":"boundary","@relations":[{"role":"subarea","rel":1606211,"reltags":{"admin_level":"6","boundary":"administrative","name":"Merkezefendi","name:fa":"مرکزفندی","name:tr":"Merkezefendi","name:tr:suffix":"İlçesi","name:tt":"Меркезефенди","name:ur":"مرکیز افندی","network":"TR20-districts","type":"boundary","wikidata":"Q16895027","wikipedia":"tr:Merkezefendi"}}]},"id":"relation/5515530"},
{"type":"Feature","geometry":{"type":"Polygon","coordinates":[[[28.9825733,37.7564094],[28.9950633,37.772961],[28.9824291,37.7862009],[28.9766164,37.786877],[28.9645076,37.7670359],[28.9825733,37.7564094]]]},"properties":{"@id":"relation/5515566","admin_level":"8","boundary":"administrative","name":"Başkarcı Mahallesi","type":"boundary","@relations":[{"role":"subarea","rel":1606211,"reltags":{"admin_level":"6","boundary":"administrative","name":"Merkezefendi","name:fa":"مرکزفندی","name:tr":"Merkezefendi","name:tr:suffix":"İlçesi","name:tt":"Меркезефенди","name:ur":"مرکیز افندی","network":"TR20-districts","type":"boundary","wikidata":"Q16895027","wikipedia":"tr:Merkezefendi"}}]},"id":"relation/5515566"},
{"type":"Feature","geometry":{"type":"Polygon","coordinates":[[[28.9468954,37.7931356],[28.9645076,37.7670359],[28.9766164,37.786877],[28.9468954,37.7931356]]]},"properties":{"@id":"relation/5515619","admin_level":"8","boundary":"administrative","name":"Göveçlik Mahallesi","type":"boundary","@relations":[{"role":"subarea","rel":1606211,"reltags":{"admin_level":"6","boundary":"administrative","name":"Merkezefendi","name:fa":"مرکزفندی","name:tr":"Merkezefendi","name:tr:suffix":"İlçesi","name:tt":"Меркезефенди","name:ur":"مرکیز افندی","network":"TR20-districts","type":"boundary","wikidata":"Q16895027","wikipedia":"tr:Merkezefendi"}}]},"id":"relation/5515619"},
{"type":"Feature","geometry":{"type":"Polygon","coordinates":[[[29.0417448,37.8215538],[29.0200902,37.7989535],[29.0361292,37.7961879],[29.0408085,37.8088565],[29.0417448,37.8215538]]]},"properties":{"@id":"relation/5518020","admin_level":"8","boundary":"administrative","name":"Yenişafak Mahallesi","type":"boundary","@relations":[{"role":"subarea","rel":1606211,"reltags":{"admin_level":"6","boundary":"administrative","name":"Merkezefendi","name:fa":"مرکزفندی","name:tr":"Merkezefendi","name:tr:suffix":"İlçesi","name:tt":"Меркезефенди","name:ur":"مرکیز افندی","network":"TR20-districts","type":"boundary","wikidata":"Q16895027","wikipedia":"tr:Merkezefendi"}}]},"id":"relation/5518020"},
{"type":"Feature","geometry":{"type":"Polygon","coordinates":[[[29.0417448,37.8215538],[29.0110111,37.818365],[28.9957378,37.7989551],[29.017458,37.7941643],[29.0200902,37.7989535],[29.0417448,37.8215538]]]},"properties":{"@id":"relation/5518021","admin_level":"8","boundary":"administrative","name":"Karahasanlı Mahallesi","type":"boundary","@relations":[{"role":"subarea","rel":1606211,"reltags":{"admin_level":"6","boundary":"administrative","name":"Merkezefendi","name:fa":"مرکزفندی","name:tr":"Merkezefendi","name:tr:suffix":"İlçesi","name:tt":"Меркезефенди","name:ur":"مرکیز افندی","network":"TR20-districts","type":"boundary","wikidata":"Q16895027","wikipedia":"tr:Merkezefendi"}}]},"id":"relation/5518021"},
{"type":"Feature","geometry":{"type":"Polygon","coordinates":[[[29.0463869,37.8340616],[29.0714601,37.8547832],[29.0537382,37.8678379],[29.0322592,37.8477117],[29.0006361,37.8340533],[29.0110111,37.818365],[29.0417448,37.8215538],[29.0463869,37.8340616]]]},"properties":{"@id":"relation/5541168","admin_level":"8","boundary":"administrative","name":"Hacıeyüplü Mahallesi","type":"boundary","@relations":[{"role":"subarea","rel":1606211,"reltags":{"admin_level":"6","boundary":"administrative","name":"Merkezefendi","name:fa":"مرکزفندی","name:tr":"Merkezefendi","name:tr:suffix":"İlçesi","name:tt":"Меркезефенди","name:ur":"مرکیز افندی","network":"TR20-districts","type":"boundary","wikidata":"Q16895027","wikipedia":"tr:Merkezefendi"}}]},"id":"relation/5541168"},
{"type":"Feature","geometry":{"type":"Polygon","coordinates":[[[29.097103,37.8294358],[29.1002112,37.8386064],[29.0714601,37.8547832],[29.0463869,37.8340616],[29.0597734,37.8178087],[29.097103,37.8294358]]]},"properties":{"@id":"relation/5541483","admin_level":"8","boundary":"administrative","name":"Bozburun Mahallesi","type":"boundary","@relations":[{"role":"subarea","rel":1606211,"reltags":{"admin_level":"6","boundary":"administrative","name":"Merkezefendi","name:fa":"مرکزفندی","name:tr":"Merkezefendi","name:tr:suffix":"İlçesi","name:tt":"Меркезефенди","name:ur":"مرکیز افندی","network":"TR20-districts","type":"boundary","wikidata":"Q16895027","wikipedia":"tr:Merkezefendi"}}]},"id":"relation/5541483"},
{"type":"Feature","geometry":{"type":"Polygon","coordinates":[[[29.0948766,37.8786231],[29.0489247,37.8761426],[29.0537382,37.8678379],[29.0714601,37.8547832],[29.0948766,37.8786231]]]},"properties":{"@id":"relation/5541506","admin_level":"8","boundary":"administrative","name":"Çeltikçi Mahallesi","type":"boundary","@relations":[{"role":"subarea","rel":1606211,"reltags":{"admin_level":"6","boundary":"administrative","name":"Merkezefendi","name:fa":"مرکزفندی","name:tr":"Merkezefendi","name:tr:suffix":"İlçesi","name:tt":"Меркезефенди","name:ur":"مرکیز افندی","network":"TR20-districts","type":"boundary","wikidata":"Q16895027","wikipedia":"tr:Merkezefendi"}}]},"id":"relation/5541506"},
{"type":"Feature","geometry":{"type":"Polygon","coordinates":[[[29.0489247,37.8761426],[29.036272,37.8831868],[29.0071547,37.8823799],[28.9836869,37.8467579],[29.0006361,37.8340533],[29.0322592,37.8477117],[29.0537382,37.8678379],[29.0489247,37.8761426]]]},"properties":{"@id":"relation/5541518","admin_level":"8","boundary":"administrative","name":"Kumkısık Mahallesi","type":"boundary","@relations":[{"role":"subarea","rel":1606211,"reltags":{"admin_level":"6","boundary":"administrative","name":"Merkezefendi","name:fa":"مرکزفندی","name:tr":"Merkezefendi","name:tr:suffix":"İlçesi","name:tt":"Меркезефенди","name:ur":"مرکیز افندی","network":"TR20-districts","type":"boundary","wikidata":"Q16895027","wikipedia":"tr:Merkezefendi"}}]},"id":"relation/5541518"},
{"type":"Feature","geometry":{"type":"Polygon","coordinates":[[[29.0015824,37.8939735],[29.0071547,37.8823799],[29.036272,37.8831868],[29.0486008,37.8971623],[29.0239025,37.9041629],[29.0015824,37.8939735]]]},"properties":{"@id":"relation/5544902","admin_level":"8","boundary":"administrative","name":"Üzerlik Mahallesi","type":"boundary","@relations":[{"role":"subarea","rel":1606211,"reltags":{"admin_level":"6","boundary":"administrative","name":"Merkezefendi","name:fa":"مرکزفندی","name:tr":"Merkezefendi","name:tr:suffix":"İlçesi","name:tt":"Меркезефенди","name:ur":"مرکیز افندی","network":"TR20-districts","type":"boundary","wikidata":"Q16895027","wikipedia":"tr:Merkezefendi"}}]},"id":"relation/5544902"},
{"type":"Feature","geometry":{"type":"Polygon","coordinates":[[[28.9824291,37.7862009],[28.99039,37.7877111],[28.9957378,37.7989551],[29.0110111,37.818365],[28.9839325,37.8099643],[28.9766164,37.786877],[28.9824291,37.7862009]]]},"properties":{"@id":"relation/5545000","admin_level":"8","boundary":"administrative","name":"Saruhan Mahallesi","type":"boundary","@relations":[{"role":"subarea","rel":1606211,"reltags":{"admin_level":"6","boundary":"administrative","name":"Merkezefendi","name:fa":"مرکزفندی","name:tr":"Merkezefendi","name:tr:suffix":"İlçesi","name:tt":"Меркезефенди","name:ur":"مرکیز افندی","network":"TR20-districts","type":"boundary","wikidata":"Q16895027","wikipedia":"tr:Merkezefendi"}}]},"id":"relation/5545000"},
{"type":"Feature","geometry":{"type":"Polygon","coordinates":[[[29.0874216,37.7734936],[29.0839737,37.7688483],[29.0860546,37.7657914],[29.091894,37.7708681],[29.0913088,37.7714213],[29.0874216,37.7734936]]]},"properties":{"@id":"relation/5556861","admin_level":"8","boundary":"administrative","name":"Atalar Mahallesi","type":"boundary","@relations":[{"role":"subarea","rel":1606201,"reltags":{"admin_level":"6","boundary":"administrative","name":"Pamukkale","name:ar":"باموق قلعة","name:be":"Памукале","name:bg":"Памуккале","name:bn":"পামুক্কালে","name:ce":"Памуккале","name:de":"Pamukkale","name:el":"Παμούκαλε","name:en":"Pamukkale","name:fa":"پاموک‌کاله","name:he":"פמוקלה","name:hy":"Փամուքկալե","name:ka":"ფამუქ-ქალე","name:ko":"파묵칼레","name:ml":"പമുക്കേൽ","name:ru":"Памуккале","name:sr":"Памукале","name:ta":"பமுக்கலெ","name:th":"ปามุกกาเล","name:tr":"Pamukkale","name:tr:suffix":"İlçesi","name:tt":"Памуккале","name:uk":"Памуккале","name:ur":"آق کوئے","name:zh":"棉花堡","network":"TR20-districts","population":"347621","population:date":"31-12-2021","type":"boundary","wikidata":"Q420157","wikipedia":"tr:Pamukkale, Denizli"}}]},"id":"relation/5556861"},
{"type":"Feature","geometry":{"type":"Polygon","coordinates":[[[29.0913088,37.7714213],[29.0991937,37.7744486],[29.0979376,37.7785694],[29.0926038,37.7752142],[29.0874216,37.7734936],[29.0913088,37.7714213]]]},"properties":{"@id":"relation/5556971","admin_level":"8","boundary":"administrative","name":"Hacıkaplanlar Mahallesi","type":"boundary","@relations":[{"role":"subarea","rel":1606201,"reltags":{"admin_level":"6","boundary":"administrative","name":"Pamukkale","name:ar":"باموق قلعة","name:be":"Памукале","name:bg":"Памуккале","name:bn":"পামুক্কালে","name:ce":"Памуккале","name:de":"Pamukkale","name:el":"Παμούκαλε","name:en":"Pamukkale","name:fa":"پاموک‌کاله","name:he":"פמוקלה","name:hy":"Փամուքկալե","name:ka":"ფამუქ-ქალე","name:ko":"파묵칼레","name:ml":"പമുക്കേൽ","name:ru":"Памуккале","name:sr":"Памукале","name:ta":"பமுக்கலெ","name:th":"ปามุกกาเล","name:tr":"Pamukkale","name:tr:suffix":"İlçesi","name:tt":"Памуккале","name:uk":"Памуккале","name:ur":"آق کوئے","name:zh":"棉花堡","network":"TR20-districts","population":"347621","population:date":"31-12-2021","type":"boundary","wikidata":"Q420157","wikipedia":"tr:Pamukkale, Denizli"}}]},"id":"relation/5556971"},
{"type":"Feature","geometry":{"type":"Polygon","coordinates":[[[29.0874216,37.7734936],[29.0926038,37.7752142],[29.0854732,37.7830929],[29.0844158,37.7806151],[29.0863665,37.7753749],[29.0874216,37.7734936]]]},"properties":{"@id":"relation/5556989","admin_level":"8","boundary":"administrative","name":"15 Mayıs Mahallesi","type":"boundary","@relations":[{"role":"subarea","rel":1606201,"reltags":{"admin_level":"6","boundary":"administrative","name":"Pamukkale","name:ar":"باموق قلعة","name:be":"Памукале","name:bg":"Памуккале","name:bn":"পামুক্কালে","name:ce":"Памуккале","name:de":"Pamukkale","name:el":"Παμούκαλε","name:en":"Pamukkale","name:fa":"پاموک‌کاله","name:he":"פמוקלה","name:hy":"Փամուքկալե","name:ka":"ფამუქ-ქალე","name:ko":"파묵칼레","name:ml":"പമുക്കേൽ","name:ru":"Памуккале","name:sr":"Памукале","name:ta":"பமுக்கலெ","name:th":"ปามุกกาเล","name:tr":"Pamukkale","name:tr:suffix":"İlçesi","name:tt":"Памуккале","name:uk":"Памуккале","name:ur":"آق کوئے","name:zh":"棉花堡","network":"TR20-districts","population":"347621","population:date":"31-12-2021","type":"boundary","wikidata":"Q420157","wikipedia":"tr:Pamukkale, Denizli"}}]},"id":"relation/5556989"},
{"type":"Feature","geometry":{"type":"Polygon","coordinates":[[[29.0854732,37.7830929],[29.0926038,37.7752142],[29.0979376,37.7785694],[29.0963933,37.7832261],[29.0904591,37.7865898],[29.0854732,37.7830929]]]},"properties":{"@id":"relation/5557362","admin_level":"8","boundary":"administrative","name":"Topraklık Mahallesi","type":"boundary","@relations":[{"role":"subarea","rel":1606201,"reltags":{"admin_level":"6","boundary":"administrative","name":"Pamukkale","name:ar":"باموق قلعة","name:be":"Памукале","name:bg":"Памуккале","name:bn":"পামুক্কালে","name:ce":"Памуккале","name:de":"Pamukkale","name:el":"Παμούκαλε","name:en":"Pamukkale","name:fa":"پاموک‌کاله","name:he":"פמוקלה","name:hy":"Փամուքկալե","name:ka":"ფამუქ-ქალე","name:ko":"파묵칼레","name:ml":"പമുക്കേൽ","name:ru":"Памуккале","name:sr":"Памукале","name:ta":"பமுக்கலெ","name:th":"ปามุกกาเล","name:tr":"Pamukkale","name:tr:suffix":"İlçesi","name:tt":"Памуккале","name:uk":"Памуккале","name:ur":"آق کوئے","name:zh":"棉花堡","network":"TR20-districts","population":"347621","population:date":"31-12-2021","type":"boundary","wikidata":"Q420157","wikipedia":"tr:Pamukkale, Denizli"}}]},"id":"relation/5557362"},
{"type":"Feature","geometry":{"type":"Polygon","coordinates":[[[29.0963933,37.7832261],[29.0979376,37.7785694],[29.0991937,37.7744486],[29.1169182,37.7797265],[29.116626,37.7819472],[29.1008902,37.78356],[29.0978473,37.7843517],[29.0963933,37.7832261]]]},"properties":{"@id":"relation/5557456","admin_level":"8","boundary":"administrative","name":"Deliktaş Mahallesi","type":"boundary","@relations":[{"role":"subarea","rel":1606201,"reltags":{"admin_level":"6","boundary":"administrative","name":"Pamukkale","name:ar":"باموق قلعة","name:be":"Памукале","name:bg":"Памуккале","name:bn":"পামুক্কালে","name:ce":"Памуккале","name:de":"Pamukkale","name:el":"Παμούκαλε","name:en":"Pamukkale","name:fa":"پاموک‌کاله","name:he":"פמוקלה","name:hy":"Փամուքկալե","name:ka":"ფამუქ-ქალე","name:ko":"파묵칼레","name:ml":"പമുക്കേൽ","name:ru":"Памуккале","name:sr":"Памукале","name:ta":"பமுக்கலெ","name:th":"ปามุกกาเล","name:tr":"Pamukkale","name:tr:suffix":"İlçesi","name:tt":"Памуккале","name:uk":"Памуккале","name:ur":"آق کوئے","name:zh":"棉花堡","network":"TR20-districts","population":"347621","population:date":"31-12-2021","type":"boundary","wikidata":"Q420157","wikipedia":"tr:Pamukkale, Denizli"}}]},"id":"relation/5557456"},
{"type":"Feature","geometry":{"type":"Polygon","coordinates":[[[29.1122296,37.79354],[29.1008902,37.78356],[29.116626,37.7819472],[29.1122296,37.79354]]]},"properties":{"@id":"relation/5557495","admin_level":"8","boundary":"administrative","name":"Anafartalar Mahallesi","type":"boundary","@relations":[{"role":"subarea","rel":1606201,"reltags":{"admin_level":"6","boundary":"administrative","name":"Pamukkale","name:ar":"باموق قلعة","name:be":"Памукале","name:bg":"Памуккале","name:bn":"পামুক্কালে","name:ce":"Памуккале","name:de":"Pamukkale","name:el":"Παμούκαλε","name:en":"Pamukkale","name:fa":"پاموک‌کاله","name:he":"פמוקלה","name:hy":"Փամուքկալե","name:ka":"ფამუქ-ქალე","name:ko":"파묵칼레","name:ml":"പമുക്കേൽ","name:ru":"Памуккале","name:sr":"Памукале","name:ta":"பமுக்கலெ","name:th":"ปามุกกาเล","name:tr":"Pamukkale","name:tr:suffix":"İlçesi","name:tt":"Памуккале","name:uk":"Памуккале","name:ur":"آق کوئے","name:zh":"棉花堡","network":"TR20-districts","population":"347621","population:date":"31-12-2021","type":"boundary","wikidata":"Q420157","wikipedia":"tr:Pamukkale, Denizli"}}]},"id":"relation/5557495"},
{"type":"Feature","geometry":{"type":"Polygon","coordinates":[[[29.1122296,37.79354],[29.1117774,37.7942956],[29.104379,37.7981623],[29.0978473,37.7843517],[29.1008902,37.78356],[29.1122296,37.79354]]]},"properties":{"@id":"relation/5557708","admin_level":"8","boundary":"administrative","name":"Dokuzkavaklar Mahallesi","type":"boundary","@relations":[{"role":"subarea","rel":1606201,"reltags":{"admin_level":"6","boundary":"administrative","name":"Pamukkale","name:ar":"باموق قلعة","name:be":"Памукале","name:bg":"Памуккале","name:bn":"পামুক্কালে","name:ce":"Памуккале","name:de":"Pamukkale","name:el":"Παμούκαλε","name:en":"Pamukkale","name:fa":"پاموک‌کاله","name:he":"פמוקלה","name:hy":"Փամուքկալե","name:ka":"ფამუქ-ქალე","name:ko":"파묵칼레","name:ml":"പമുക്കേൽ","name:ru":"Памуккале","name:sr":"Памукале","name:ta":"பமுக்கலெ","name:th":"ปามุกกาเล","name:tr":"Pamukkale","name:tr:suffix":"İlçesi","name:tt":"Памуккале","name:uk":"Памуккале","name:ur":"آق کوئے","name:zh":"棉花堡","network":"TR20-districts","population":"347621","population:date":"31-12-2021","type":"boundary","wikidata":"Q420157","wikipedia":"tr:Pamukkale, Denizli"}}]},"id":"relation/5557708"},
{"type":"Feature","geometry":{"type":"Polygon","coordinates":[[[29.126047,37.8013883],[29.1290213,37.8188323],[29.1140349,37.8151481],[29.104379,37.7981623],[29.1117774,37.7942956],[29.126047,37.8013883]]]},"properties":{"@id":"relation/5557771","admin_level":"8","boundary":"administrative","name":"Karşıyaka Mahallesi","type":"boundary","@relations":[{"role":"subarea","rel":1606201,"reltags":{"admin_level":"6","boundary":"administrative","name":"Pamukkale","name:ar":"باموق قلعة","name:be":"Памукале","name:bg":"Памуккале","name:bn":"পামুক্কালে","name:ce":"Памуккале","name:de":"Pamukkale","name:el":"Παμούκαλε","name:en":"Pamukkale","name:fa":"پاموک‌کاله","name:he":"פמוקלה","name:hy":"Փամուքկալե","name:ka":"ფამუქ-ქალე","name:ko":"파묵칼레","name:ml":"പമുക്കേൽ","name:ru":"Памуккале","name:sr":"Памукале","name:ta":"பமுக்கலெ","name:th":"ปามุกกาเล","name:tr":"Pamukkale","name:tr:suffix":"İlçesi","name:tt":"Памуккале","name:uk":"Памуккале","name:ur":"آق کوئے","name:zh":"棉花堡","network":"TR20-districts","population":"347621","population:date":"31-12-2021","type":"boundary","wikidata":"Q420157","wikipedia":"tr:Pamukkale, Denizli"}}]},"id":"relation/5557771"},
{"type":"Feature","geometry":{"type":"Polygon","coordinates":[[[29.1169182,37.7797265],[29.119013,37.7774262],[29.126047,37.8013883],[29.1117774,37.7942956],[29.1122296,37.79354],[29.116626,37.7819472],[29.1169182,37.7797265]]]},"properties":{"@id":"relation/5557782","admin_level":"8","boundary":"administrative","name":"Aktepe Mahallesi","type":"boundary","@relations":[{"role":"subarea","rel":1606201,"reltags":{"admin_level":"6","boundary":"administrative","name":"Pamukkale","name:ar":"باموق قلعة","name:be":"Памукале","name:bg":"Памуккале","name:bn":"পামুক্কালে","name:ce":"Памуккале","name:de":"Pamukkale","name:el":"Παμούκαλε","name:en":"Pamukkale","name:fa":"پاموک‌کاله","name:he":"פמוקלה","name:hy":"Փամուքկալե","name:ka":"ფამუქ-ქალე","name:ko":"파묵칼레","name:ml":"പമുക്കേൽ","name:ru":"Памуккале","name:sr":"Памукале","name:ta":"பமுக்கலெ","name:th":"ปามุกกาเล","name:tr":"Pamukkale","name:tr:suffix":"İlçesi","name:tt":"Памуккале","name:uk":"Памуккале","name:ur":"آق کوئے","name:zh":"棉花堡","network":"TR20-districts","population":"347621","population:date":"31-12-2021","type":"boundary","wikidata":"Q420157","wikipedia":"tr:Pamukkale, Denizli"}}]},"id":"relation/5557782"},
{"type":"Feature","geometry":{"type":"Polygon","coordinates":[[[29.1038331,37.7628849],[29.1055941,37.752004],[29.1108583,37.7526903],[29.1208123,37.7566895],[29.1232301,37.7548542],[29.1176354,37.7672449],[29.1038331,37.7628849]]]},"properties":{"@id":"relation/5560051","admin_level":"8","boundary":"administrative","name":"Cumhuriyet Mahallesi","type":"boundary","@relations":[{"role":"subarea","rel":1606201,"reltags":{"admin_level":"6","boundary":"administrative","name":"Pamukkale","name:ar":"باموق قلعة","name:be":"Памукале","name:bg":"Памуккале","name:bn":"পামুক্কালে","name:ce":"Памуккале","name:de":"Pamukkale","name:el":"Παμούκαλε","name:en":"Pamukkale","name:fa":"پاموک‌کاله","name:he":"פמוקלה","name:hy":"Փամուքկալե","name:ka":"ფამუქ-ქალე","name:ko":"파묵칼레","name:ml":"പമുക്കേൽ","name:ru":"Памуккале","name:sr":"Памукале","name:ta":"பமுக்கலெ","name:th":"ปามุกกาเล","name:tr":"Pamukkale","name:tr:suffix":"İlçesi","name:tt":"Памуккале","name:uk":"Памуккале","name:ur":"آق کوئے","name:zh":"棉花堡","network":"TR20-districts","population":"347621","population:date":"31-12-2021","type":"boundary","wikidata":"Q420157","wikipedia":"tr:Pamukkale, Denizli"}}]},"id":"relation/5560051"},
{"type":"Feature","geometry":{"type":"Polygon","coordinates":[[[29.1169182,37.7797265],[29.0991937,37.7744486],[29.1017378,37.7640487],[29.1038331,37.7628849],[29.1176354,37.7672449],[29.119013,37.7774262],[29.1169182,37.7797265]]]},"properties":{"@id":"relation/5560052","admin_level":"8","boundary":"administrative","name":"Fatih Mahallesi","type":"boundary","@relations":[{"role":"subarea","rel":1606201,"reltags":{"admin_level":"6","boundary":"administrative","name":"Pamukkale","name:ar":"باموق قلعة","name:be":"Памукале","name:bg":"Памуккале","name:bn":"পামুক্কালে","name:ce":"Памуккале","name:de":"Pamukkale","name:el":"Παμούκαλε","name:en":"Pamukkale","name:fa":"پاموک‌کاله","name:he":"פמוקלה","name:hy":"Փամուքկալե","name:ka":"ფამუქ-ქალე","name:ko":"파묵칼레","name:ml":"പമുക്കേൽ","name:ru":"Памуккале","name:sr":"Памукале","name:ta":"பமுக்கலெ","name:th":"ปามุกกาเล","name:tr":"Pamukkale","name:tr:suffix":"İlçesi","name:tt":"Памуккале","name:uk":"Памуккале","name:ur":"آق کوئے","name:zh":"棉花堡","network":"TR20-districts","population":"347621","population:date":"31-12-2021","type":"boundary","wikidata":"Q420157","wikipedia":"tr:Pamukkale, Denizli"}}]},"id":"relation/5560052"},
{"type":"Feature","geometry":{"type":"Polygon","coordinates":[[[29.1208123,37.7566895],[29.1108583,37.7526903],[29.1151853,37.7476003],[29.1208123,37.7566895]]]},"properties":{"@id":"relation/5560480","admin_level":"8","boundary":"administrative","name":"Hürriyet Mahallesi","type":"boundary","@relations":[{"role":"subarea","rel":1606201,"reltags":{"admin_level":"6","boundary":"administrative","name":"Pamukkale","name:ar":"باموق قلعة","name:be":"Памукале","name:bg":"Памуккале","name:bn":"পামুক্কালে","name:ce":"Памуккале","name:de":"Pamukkale","name:el":"Παμούκαλε","name:en":"Pamukkale","name:fa":"پاموک‌کاله","name:he":"פמוקלה","name:hy":"Փամուքկալե","name:ka":"ფამუქ-ქალე","name:ko":"파묵칼레","name:ml":"പമുക്കേൽ","name:ru":"Памуккале","name:sr":"Памукале","name:ta":"பமுக்கலெ","name:th":"ปามุกกาเล","name:tr":"Pamukkale","name:tr:suffix":"İlçesi","name:tt":"Памуккале","name:uk":"Памуккале","name:ur":"آق کوئے","name:zh":"棉花堡","network":"TR20-districts","population":"347621","population:date":"31-12-2021","type":"boundary","wikidata":"Q420157","wikipedia":"tr:Pamukkale, Denizli"}}]},"id":"relation/5560480"},
{"type":"Feature","geometry":{"type":"Polygon","coordinates":[[[29.1108583,37.7526903],[29.1055941,37.752004],[29.1106572,37.7424393],[29.1143498,37.7410817],[29.117817,37.7433559],[29.1151853,37.7476003],[29.1108583,37.7526903]]]},"properties":{"@id":"relation/5560489","admin_level":"8","boundary":"administrative","name":"Asmalıevler Mahallesi","type":"boundary","@relations":[{"role":"subarea","rel":1606201,"reltags":{"admin_level":"6","boundary":"administrative","name":"Pamukkale","name:ar":"باموق قلعة","name:be":"Памукале","name:bg":"Памуккале","name:bn":"পামুক্কালে","name:ce":"Памуккале","name:de":"Pamukkale","name:el":"Παμούκαλε","name:en":"Pamukkale","name:fa":"پاموک‌کاله","name:he":"פמוקלה","name:hy":"Փամուքկալե","name:ka":"ფამუქ-ქალე","name:ko":"파묵칼레","name:ml":"പമുക്കേൽ","name:ru":"Памуккале","name:sr":"Памукале","name:ta":"பமுக்கலெ","name:th":"ปามุกกาเล","name:tr":"Pamukkale","name:tr:suffix":"İlçesi","name:tt":"Памуккале","name:uk":"Памуккале","name:ur":"آق کوئے","name:zh":"棉花堡","network":"TR20-districts","population":"347621","population:date":"31-12-2021","type":"boundary","wikidata":"Q420157","wikipedia":"tr:Pamukkale, Denizli"}}]},"id":"relation/5560489"},
{"type":"Feature","geometry":{"type":"Polygon","coordinates":[[[29.1265677,37.7439999],[29.117817,37.7433559],[29.1143498,37.7410817],[29.104321,37.7192812],[29.1271519,37.7176753],[29.1245287,37.7331325],[29.1265677,37.7439999]]]},"properties":{"@id":"relation/5561114","admin_level":"8","boundary":"administrative","name":"Zeytinköy Mahallesi","type":"boundary","@relations":[{"role":"subarea","rel":1606201,"reltags":{"admin_level":"6","boundary":"administrative","name":"Pamukkale","name:ar":"باموق قلعة","name:be":"Памукале","name:bg":"Памуккале","name:bn":"পামুক্কালে","name:ce":"Памуккале","name:de":"Pamukkale","name:el":"Παμούκαλε","name:en":"Pamukkale","name:fa":"پاموک‌کاله","name:he":"פמוקלה","name:hy":"Փամուքկալե","name:ka":"ფამუქ-ქალე","name:ko":"파묵칼레","name:ml":"പമുക്കേൽ","name:ru":"Памуккале","name:sr":"Памукале","name:ta":"பமுக்கலெ","name:th":"ปามุกกาเล","name:tr":"Pamukkale","name:tr:suffix":"İlçesi","name:tt":"Памуккале","name:uk":"Памуккале","name:ur":"آق کوئے","name:zh":"棉花堡","network":"TR20-districts","population":"347621","population:date":"31-12-2021","type":"boundary","wikidata":"Q420157","wikipedia":"tr:Pamukkale, Denizli"}}]},"id":"relation/5561114"},
{"type":"Feature","geometry":{"type":"Polygon","coordinates":[[[29.1387804,37.7477101],[29.1265677,37.7439999],[29.1245287,37.7331325],[29.1357316,37.7330041],[29.1387804,37.7477101]]]},"properties":{"@id":"relation/5561153","admin_level":"8","boundary":"administrative","name":"Bağbaşı Mahallesi","type":"boundary","@relations":[{"role":"subarea","rel":1606201,"reltags":{"admin_level":"6","boundary":"administrative","name":"Pamukkale","name:ar":"باموق قلعة","name:be":"Памукале","name:bg":"Памуккале","name:bn":"পামুক্কালে","name:ce":"Памуккале","name:de":"Pamukkale","name:el":"Παμούκαλε","name:en":"Pamukkale","name:fa":"پاموک‌کاله","name:he":"פמוקלה","name:hy":"Փամուքկալե","name:ka":"ფამუქ-ქალე","name:ko":"파묵칼레","name:ml":"പമുക്കേൽ","name:ru":"Памуккале","name:sr":"Памукале","name:ta":"பமுக்கலெ","name:th":"ปามุกกาเล","name:tr":"Pamukkale","name:tr:suffix":"İlçesi","name:tt":"Памуккале","name:uk":"Памуккале","name:ur":"آق کوئے","name:zh":"棉花堡","network":"TR20-districts","population":"347621","population:date":"31-12-2021","type":"boundary","wikidata":"Q420157","wikipedia":"tr:Pamukkale, Denizli"}}]},"id":"relation/5561153"},
{"type":"Feature","geometry":{"type":"Polygon","coordinates":[[[29.14729,37.7314946],[29.1357316,37.7330041],[29.1245287,37.7331325],[29.1271519,37.7176753],[29.1620613,37.7086293],[29.14729,37.7314946]]]},"properties":{"@id":"relation/5561154","admin_level":"8","boundary":"administrative","name":"Kervansaray Mahallesi","type":"boundary","@relations":[{"role":"subarea","rel":1606201,"reltags":{"admin_level":"6","boundary":"administrative","name":"Pamukkale","name:ar":"باموق قلعة","name:be":"Памукале","name:bg":"Памуккале","name:bn":"পামুক্কালে","name:ce":"Памуккале","name:de":"Pamukkale","name:el":"Παμούκαλε","name:en":"Pamukkale","name:fa":"پاموک‌کاله","name:he":"פמוקלה","name:hy":"Փամուքկալե","name:ka":"ფამუქ-ქალე","name:ko":"파묵칼레","name:ml":"പമുക്കേൽ","name:ru":"Памуккале","name:sr":"Памукале","name:ta":"பமுக்கலெ","name:th":"ปามุกกาเล","name:tr":"Pamukkale","name:tr:suffix":"İlçesi","name:tt":"Памуккале","name:uk":"Памуккале","name:ur":"آق کوئے","name:zh":"棉花堡","network":"TR20-districts","population":"347621","population:date":"31-12-2021","type":"boundary","wikidata":"Q420157","wikipedia":"tr:Pamukkale, Denizli"}}]},"id":"relation/5561154"},
{"type":"Feature","geometry":{"type":"Polygon","coordinates":[[[29.1494675,37.7490667],[29.1387804,37.7477101],[29.1357316,37.7330041],[29.14729,37.7314946],[29.1494675,37.7490667]]]},"properties":{"@id":"relation/5561155","admin_level":"8","boundary":"administrative","name":"Zümrüt Mahallesi","type":"boundary","@relations":[{"role":"subarea","rel":1606201,"reltags":{"admin_level":"6","boundary":"administrative","name":"Pamukkale","name:ar":"باموق قلعة","name:be":"Памукале","name:bg":"Памуккале","name:bn":"পামুক্কালে","name:ce":"Памуккале","name:de":"Pamukkale","name:el":"Παμούκαλε","name:en":"Pamukkale","name:fa":"پاموک‌کاله","name:he":"פמוקלה","name:hy":"Փամուքկալե","name:ka":"ფამუქ-ქალე","name:ko":"파묵칼레","name:ml":"പമുക്കേൽ","name:ru":"Памуккале","name:sr":"Памукале","name:ta":"பமுக்கலெ","name:th":"ปามุกกาเล","name:tr":"Pamukkale","name:tr:suffix":"İlçesi","name:tt":"Памуккале","name:uk":"Памуккале","name:ur":"آق کوئے","name:zh":"棉花堡","network":"TR20-districts","population":"347621","population:date":"31-12-2021","type":"boundary","wikidata":"Q420157","wikipedia":"tr:Pamukkale, Denizli"}}]},"id":"relation/5561155"},
{"type":"Feature","geometry":{"type":"Polygon","coordinates":[[[29.14729,37.7314946],[29.1620613,37.7086293],[29.1721288,37.709411],[29.1539826,37.7646472],[29.1471345,37.7579302],[29.1494675,37.7490667],[29.14729,37.7314946]]]},"properties":{"@id":"relation/5561623","admin_level":"8","boundary":"administrative","name":"Gökpınar Mahallesi","type":"boundary","@relations":[{"role":"subarea","rel":1606201,"reltags":{"admin_level":"6","boundary":"administrative","name":"Pamukkale","name:ar":"باموق قلعة","name:be":"Памукале","name:bg":"Памуккале","name:bn":"পামুক্কালে","name:ce":"Памуккале","name:de":"Pamukkale","name:el":"Παμούκαλε","name:en":"Pamukkale","name:fa":"پاموک‌کاله","name:he":"פמוקלה","name:hy":"Փամուքկալե","name:ka":"ფამუქ-ქალე","name:ko":"파묵칼레","name:ml":"പമുക്കേൽ","name:ru":"Памуккале","name:sr":"Памукале","name:ta":"பமுக்கலெ","name:th":"ปามุกกาเล","name:tr":"Pamukkale","name:tr:suffix":"İlçesi","name:tt":"Памуккале","name:uk":"Памуккале","name:ur":"آق کوئے","name:zh":"棉花堡","network":"TR20-districts","population":"347621","population:date":"31-12-2021","type":"boundary","wikidata":"Q420157","wikipedia":"tr:Pamukkale, Denizli"}}]},"id":"relation/5561623"},
{"type":"Feature","geometry":{"type":"Polygon","coordinates":[[[29.2129572,37.7445079],[29.1889133,37.7437463],[29.1782018,37.7625786],[29.1539826,37.7646472],[29.1721288,37.709411],[29.2015111,37.7081936],[29.2129572,37.7445079]]]},"properties":{"@id":"relation/5561678","admin_level":"8","boundary":"administrative","name":"Tekke Mahallesi","type":"boundary","@relations":[{"role":"subarea","rel":1606201,"reltags":{"admin_level":"6","boundary":"administrative","name":"Pamukkale","name:ar":"باموق قلعة","name:be":"Памукале","name:bg":"Памуккале","name:bn":"পামুক্কালে","name:ce":"Памуккале","name:de":"Pamukkale","name:el":"Παμούκαλε","name:en":"Pamukkale","name:fa":"پاموک‌کاله","name:he":"פמוקלה","name:hy":"Փամուքկալե","name:ka":"ფამუქ-ქალე","name:ko":"파묵칼레","name:ml":"പമുക്കേൽ","name:ru":"Памуккале","name:sr":"Памукале","name:ta":"பமுக்கலெ","name:th":"ปามุกกาเล","name:tr":"Pamukkale","name:tr:suffix":"İlçesi","name:tt":"Памуккале","name:uk":"Памуккале","name:ur":"آق کوئے","name:zh":"棉花堡","network":"TR20-districts","population":"347621","population:date":"31-12-2021","type":"boundary","wikidata":"Q420157","wikipedia":"tr:Pamukkale, Denizli"}}]},"id":"relation/5561678"},
{"type":"Feature","geometry":{"type":"Polygon","coordinates":[[[29.0982177,37.7653026],[29.1017378,37.7640487],[29.0991937,37.7744486],[29.0913088,37.7714213],[29.091894,37.7708681],[29.0950365,37.7676912],[29.0982177,37.7653026]]]},"properties":{"@id":"relation/5561751","admin_level":"8","boundary":"administrative","name":"Pelitlibağ Mahallesi","type":"boundary","@relations":[{"role":"subarea","rel":1606201,"reltags":{"admin_level":"6","boundary":"administrative","name":"Pamukkale","name:ar":"باموق قلعة","name:be":"Памукале","name:bg":"Памуккале","name:bn":"পামুক্কালে","name:ce":"Памуккале","name:de":"Pamukkale","name:el":"Παμούκαλε","name:en":"Pamukkale","name:fa":"پاموک‌کاله","name:he":"פמוקלה","name:hy":"Փամուքկալե","name:ka":"ფამუქ-ქალე","name:ko":"파묵칼레","name:ml":"പമുക്കേൽ","name:ru":"Памуккале","name:sr":"Памукале","name:ta":"பமுக்கலெ","name:th":"ปามุกกาเล","name:tr":"Pamukkale","name:tr:suffix":"İlçesi","name:tt":"Памуккале","name:uk":"Памуккале","name:ur":"آق کوئے","name:zh":"棉花堡","network":"TR20-districts","population":"347621","population:date":"31-12-2021","type":"boundary","wikidata":"Q420157","wikipedia":"tr:Pamukkale, Denizli"}}]},"id":"relation/5561751"},
{"type":"Feature","geometry":{"type":"Polygon","coordinates":[[[29.0950365,37.7676912],[29.091894,37.7708681],[29.0860546,37.7657914],[29.0892654,37.7629636],[29.0950365,37.7676912]]]},"properties":{"@id":"relation/5561752","admin_level":"8","alt_name":"Fesleğen","boundary":"administrative","name":"Fesleğen Mahallesi","network":"TR20-suburbs","type":"boundary","@relations":[{"role":"subarea","rel":1606201,"reltags":{"admin_level":"6","boundary":"administrative","name":"Pamukkale","name:ar":"باموق قلعة","name:be":"Памукале","name:bg":"Памуккале","name:bn":"পামুক্কালে","name:ce":"Памуккале","name:de":"Pamukkale","name:el":"Παμούκαλε","name:en":"Pamukkale","name:fa":"پاموک‌کاله","name:he":"פמוקלה","name:hy":"Փամուքկալե","name:ka":"ფამუქ-ქალე","name:ko":"파묵칼레","name:ml":"പമുക്കേൽ","name:ru":"Памуккале","name:sr":"Памукале","name:ta":"பமுக்கலெ","name:th":"ปามุกกาเล","name:tr":"Pamukkale","name:tr:suffix":"İlçesi","name:tt":"Памуккале","name:uk":"Памуккале","name:ur":"آق کوئے","name:zh":"棉花堡","network":"TR20-districts","population":"347621","population:date":"31-12-2021","type":"boundary","wikidata":"Q420157","wikipedia":"tr:Pamukkale, Denizli"}}]},"id":"relation/5561752"},
{"type":"Feature","geometry":{"type":"Polygon","coordinates":[[[29.0982177,37.7653026],[29.0950365,37.7676912],[29.0892654,37.7629636],[29.0921924,37.7600601],[29.0982177,37.7653026]]]},"properties":{"@id":"relation/5561821","admin_level":"8","boundary":"administrative","name":"İstiklal Mahallesi","type":"boundary","@relations":[{"role":"subarea","rel":1606201,"reltags":{"admin_level":"6","boundary":"administrative","name":"Pamukkale","name:ar":"باموق قلعة","name:be":"Памукале","name:bg":"Памуккале","name:bn":"পামুক্কালে","name:ce":"Памуккале","name:de":"Pamukkale","name:el":"Παμούκαλε","name:en":"Pamukkale","name:fa":"پاموک‌کاله","name:he":"פמוקלה","name:hy":"Փամուքկալե","name:ka":"ფამუქ-ქალე","name:ko":"파묵칼레","name:ml":"പമുക്കേൽ","name:ru":"Памуккале","name:sr":"Памукале","name:ta":"பமுக்கலெ","name:th":"ปามุกกาเล","name:tr":"Pamukkale","name:tr:suffix":"İlçesi","name:tt":"Памуккале","name:uk":"Памуккале","name:ur":"آق کوئے","name:zh":"棉花堡","network":"TR20-districts","population":"347621","population:date":"31-12-2021","type":"boundary","wikidata":"Q420157","wikipedia":"tr:Pamukkale, Denizli"}}]},"id":"relation/5561821"},
{"type":"Feature","geometry":{"type":"Polygon","coordinates":[[[29.1014859,37.7527531],[29.1055941,37.752004],[29.1038331,37.7628849],[29.1017378,37.7640487],[29.0982177,37.7653026],[29.0921924,37.7600601],[29.0910552,37.7547293],[29.1014859,37.7527531]]]},"properties":{"@id":"relation/5561822","admin_level":"8","boundary":"administrative","name":"İncilipınar Mahallesi","type":"boundary","@relations":[{"role":"subarea","rel":1606201,"reltags":{"admin_level":"6","boundary":"administrative","name":"Pamukkale","name:ar":"باموق قلعة","name:be":"Памукале","name:bg":"Памуккале","name:bn":"পামুক্কালে","name:ce":"Памуккале","name:de":"Pamukkale","name:el":"Παμούκαλε","name:en":"Pamukkale","name:fa":"پاموک‌کاله","name:he":"פמוקלה","name:hy":"Փամուքկալե","name:ka":"ფამუქ-ქალე","name:ko":"파묵칼레","name:ml":"പമുക്കേൽ","name:ru":"Памуккале","name:sr":"Памукале","name:ta":"பமுக்கலெ","name:th":"ปามุกกาเล","name:tr":"Pamukkale","name:tr:suffix":"İlçesi","name:tt":"Памуккале","name:uk":"Памуккале","name:ur":"آق کوئے","name:zh":"棉花堡","network":"TR20-districts","population":"347621","population:date":"31-12-2021","type":"boundary","wikidata":"Q420157","wikipedia":"tr:Pamukkale, Denizli"}}]},"id":"relation/5561822"},
{"type":"Feature","geometry":{"type":"Polygon","coordinates":[[[29.0910552,37.7547293],[29.0917335,37.7520748],[29.0978832,37.7498139],[29.1014859,37.7527531],[29.0910552,37.7547293]]]},"properties":{"@id":"relation/5561924","admin_level":"8","boundary":"administrative","name":"Siteler Mahallesi","type":"boundary","@relations":[{"role":"subarea","rel":1606201,"reltags":{"admin_level":"6","boundary":"administrative","name":"Pamukkale","name:ar":"باموق قلعة","name:be":"Памукале","name:bg":"Памуккале","name:bn":"পামুক্কালে","name:ce":"Памуккале","name:de":"Pamukkale","name:el":"Παμούκαλε","name:en":"Pamukkale","name:fa":"پاموک‌کاله","name:he":"פמוקלה","name:hy":"Փամուքկալե","name:ka":"ფამუქ-ქალე","name:ko":"파묵칼레","name:ml":"പമുക്കേൽ","name:ru":"Памуккале","name:sr":"Памукале","name:ta":"பமுக்கலெ","name:th":"ปามุกกาเล","name:tr":"Pamukkale","name:tr:suffix":"İlçesi","name:tt":"Памуккале","name:uk":"Памуккале","name:ur":"آق کوئے","name:zh":"棉花堡","network":"TR20-districts","population":"347621","population:date":"31-12-2021","type":"boundary","wikidata":"Q420157","wikipedia":"tr:Pamukkale, Denizli"}}]},"id":"relation/5561924"},
{"type":"Feature","geometry":{"type":"Polygon","coordinates":[[[29.1055941,37.752004],[29.1014859,37.7527531],[29.0978832,37.7498139],[29.1106572,37.7424393],[29.1055941,37.752004]]]},"properties":{"@id":"relation/5561997","admin_level":"8","alt_name":"Yunus Emre Mahallesi","boundary":"administrative","name":"Yunusemre Mahallesi","type":"boundary","@relations":[{"role":"subarea","rel":1606201,"reltags":{"admin_level":"6","boundary":"administrative","name":"Pamukkale","name:ar":"باموق قلعة","name:be":"Памукале","name:bg":"Памуккале","name:bn":"পামুক্কালে","name:ce":"Памуккале","name:de":"Pamukkale","name:el":"Παμούκαλε","name:en":"Pamukkale","name:fa":"پاموک‌کاله","name:he":"פמוקלה","name:hy":"Փամուքկալե","name:ka":"ფამუქ-ქალე","name:ko":"파묵칼레","name:ml":"പമുക്കേൽ","name:ru":"Памуккале","name:sr":"Памукале","name:ta":"பமுக்கலெ","name:th":"ปามุกกาเล","name:tr":"Pamukkale","name:tr:suffix":"İlçesi","name:tt":"Памуккале","name:uk":"Памуккале","name:ur":"آق کوئے","name:zh":"棉花堡","network":"TR20-districts","population":"347621","population:date":"31-12-2021","type":"boundary","wikidata":"Q420157","wikipedia":"tr:Pamukkale, Denizli"}}]},"id":"relation/5561997"},
{"type":"Feature","geometry":{"type":"Polygon","coordinates":[[[29.104321,37.7192812],[29.1143498,37.7410817],[29.1106572,37.7424393],[29.0978832,37.7498139],[29.0917335,37.7520748],[29.0852969,37.718498],[29.104321,37.7192812]]]},"properties":{"@id":"relation/5561998","admin_level":"8","boundary":"administrative","name":"Kınıklı Mahallesi","type":"boundary","@relations":[{"role":"subarea","rel":1606201,"reltags":{"admin_level":"6","boundary":"administrative","name":"Pamukkale","name:ar":"باموق قلعة","name:be":"Памукале","name:bg":"Памуккале","name:bn":"পামুক্কালে","name:ce":"Памуккале","name:de":"Pamukkale","name:el":"Παμούκαλε","name:en":"Pamukkale","name:fa":"پاموک‌کاله","name:he":"פמוקלה","name:hy":"Փամուքկալե","name:ka":"ფამუქ-ქალე","name:ko":"파묵칼레","name:ml":"പമുക്കേൽ","name:ru":"Памуккале","name:sr":"Памукале","name:ta":"பமுக்கலெ","name:th":"ปามุกกาเล","name:tr":"Pamukkale","name:tr:suffix":"İlçesi","name:tt":"Памуккале","name:uk":"Памуккале","name:ur":"آق کوئے","name:zh":"棉花堡","network":"TR20-districts","population":"347621","population:date":"31-12-2021","type":"boundary","wikidata":"Q420157","wikipedia":"tr:Pamukkale, Denizli"}}]},"id":"relation/5561998"},
{"type":"Feature","geometry":{"type":"Polygon","coordinates":[[[29.0892654,37.7629636],[29.0860546,37.7657914],[29.0839737,37.7688483],[29.0814151,37.7680585],[29.0892654,37.7629636]]]},"properties":{"@id":"relation/5563310","admin_level":"8","boundary":"administrative","name":"Kuşpınar Mahallesi","type":"boundary","@relations":[{"role":"subarea","rel":1606201,"reltags":{"admin_level":"6","boundary":"administrative","name":"Pamukkale","name:ar":"باموق قلعة","name:be":"Памукале","name:bg":"Памуккале","name:bn":"পামুক্কালে","name:ce":"Памуккале","name:de":"Pamukkale","name:el":"Παμούκαλε","name:en":"Pamukkale","name:fa":"پاموک‌کاله","name:he":"פמוקלה","name:hy":"Փամուքկալե","name:ka":"ფამუქ-ქალე","name:ko":"파묵칼레","name:ml":"പമുക്കേൽ","name:ru":"Памуккале","name:sr":"Памукале","name:ta":"பமுக்கலெ","name:th":"ปามุกกาเล","name:tr":"Pamukkale","name:tr:suffix":"İlçesi","name:tt":"Памуккале","name:uk":"Памуккале","name:ur":"آق کوئے","name:zh":"棉花堡","network":"TR20-districts","population":"347621","population:date":"31-12-2021","type":"boundary","wikidata":"Q420157","wikipedia":"tr:Pamukkale, Denizli"}}]},"id":"relation/5563310"},
{"type":"Feature","geometry":{"type":"Polygon","coordinates":[[[29.0625096,37.7684739],[29.057395,37.7653074],[29.0558151,37.7530743],[29.0611986,37.7325887],[29.0605335,37.7230033],[29.0852969,37.718498],[29.0917335,37.7520748],[29.0910552,37.7547293],[29.0921924,37.7600601],[29.0892654,37.7629636],[29.0814151,37.7680585],[29.0803466,37.7678064],[29.0625096,37.7684739]]]},"properties":{"@id":"relation/5563311","admin_level":"8","boundary":"administrative","name":"Mehmetçik Mahallesi","type":"boundary","@relations":[{"role":"subarea","rel":1606201,"reltags":{"admin_level":"6","boundary":"administrative","name":"Pamukkale","name:ar":"باموق قلعة","name:be":"Памукале","name:bg":"Памуккале","name:bn":"পামুক্কালে","name:ce":"Памуккале","name:de":"Pamukkale","name:el":"Παμούκαλε","name:en":"Pamukkale","name:fa":"پاموک‌کاله","name:he":"פמוקלה","name:hy":"Փամուքկալե","name:ka":"ფამუქ-ქალე","name:ko":"파묵칼레","name:ml":"പമുക്കേൽ","name:ru":"Памуккале","name:sr":"Памукале","name:ta":"பமுக்கலெ","name:th":"ปามุกกาเล","name:tr":"Pamukkale","name:tr:suffix":"İlçesi","name:tt":"Памуккале","name:uk":"Памуккале","name:ur":"آق کوئے","name:zh":"棉花堡","network":"TR20-districts","population":"347621","population:date":"31-12-2021","type":"boundary","wikidata":"Q420157","wikipedia":"tr:Pamukkale, Denizli"}}]},"id":"relation/5563311"},
{"type":"Feature","geometry":{"type":"Polygon","coordinates":[[[29.0420659,37.7300607],[29.0611986,37.7325887],[29.0558151,37.7530743],[29.0420659,37.7300607]]]},"properties":{"@id":"relation/5563313","admin_level":"8","boundary":"administrative","name":"Gerzele Mahallesi","type":"boundary","@relations":[{"role":"subarea","rel":1606211,"reltags":{"admin_level":"6","boundary":"administrative","name":"Merkezefendi","name:fa":"مرکزفندی","name:tr":"Merkezefendi","name:tr:suffix":"İlçesi","name:tt":"Меркезефенди","name:ur":"مرکیز افندی","network":"TR20-districts","type":"boundary","wikidata":"Q16895027","wikipedia":"tr:Merkezefendi"}}]},"id":"relation/5563313"},
{"type":"Feature","geometry":{"type":"Polygon","coordinates":[[[29.0558151,37.7530743],[29.057395,37.7653074],[29.047233,37.7655837],[29.029645,37.7517566],[29.0420659,37.7300607],[29.0558151,37.7530743]]]},"properties":{"@id":"relation/5563322","admin_level":"8","boundary":"administrative","name":"Servergazi Mahallesi","type":"boundary","@relations":[{"role":"subarea","rel":1606211,"reltags":{"admin_level":"6","boundary":"administrative","name":"Merkezefendi","name:fa":"مرکزفندی","name:tr":"Merkezefendi","name:tr:suffix":"İlçesi","name:tt":"Меркезефенди","name:ur":"مرکیز افندی","network":"TR20-districts","type":"boundary","wikidata":"Q16895027","wikipedia":"tr:Merkezefendi"}}]},"id":"relation/5563322"},
{"type":"Feature","geometry":{"type":"Polygon","coordinates":[[[29.1494675,37.7490667],[29.1471345,37.7579302],[29.1232301,37.7548542],[29.1208123,37.7566895],[29.1151853,37.7476003],[29.117817,37.7433559],[29.1265677,37.7439999],[29.1387804,37.7477101],[29.1494675,37.7490667]]]},"properties":{"@id":"relation/5563434","admin_level":"8","boundary":"administrative","name":"Kayıhan Mahallesi","type":"boundary","@relations":[{"role":"subarea","rel":1606201,"reltags":{"admin_level":"6","boundary":"administrative","name":"Pamukkale","name:ar":"باموق قلعة","name:be":"Памукале","name:bg":"Памуккале","name:bn":"পামুক্কালে","name:ce":"Памуккале","name:de":"Pamukkale","name:el":"Παμούκαλε","name:en":"Pamukkale","name:fa":"پاموک‌کاله","name:he":"פמוקלה","name:hy":"Փամուքկալե","name:ka":"ფამუქ-ქალე","name:ko":"파묵칼레","name:ml":"പമുക്കേൽ","name:ru":"Памуккале","name:sr":"Памукале","name:ta":"பமுக்கலெ","name:th":"ปามุกกาเล","name:tr":"Pamukkale","name:tr:suffix":"İlçesi","name:tt":"Памуккале","name:uk":"Памуккале","name:ur":"آق کوئے","name:zh":"棉花堡","network":"TR20-districts","population":"347621","population:date":"31-12-2021","type":"boundary","wikidata":"Q420157","wikipedia":"tr:Pamukkale, Denizli"}}]},"id":"relation/5563434"},
{"type":"Feature","geometry":{"type":"Polygon","coordinates":[[[28.9584934,37.8096982],[28.9468954,37.7931356],[28.9766164,37.786877],[28.9839325,37.8099643],[28.9584934,37.8096982]]]},"properties":{"@id":"relation/5563465","admin_level":"8","boundary":"administrative","name":"Barbaros Mahallesi","type":"boundary","@relations":[{"role":"subarea","rel":1606211,"reltags":{"admin_level":"6","boundary":"administrative","name":"Merkezefendi","name:fa":"مرکزفندی","name:tr":"Merkezefendi","name:tr:suffix":"İlçesi","name:tt":"Меркезефенди","name:ur":"مرکیز افندی","network":"TR20-districts","type":"boundary","wikidata":"Q16895027","wikipedia":"tr:Merkezefendi"}}]},"id":"relation/5563465"},
{"type":"Feature","geometry":{"type":"Polygon","coordinates":[[[28.9460548,37.8057703],[28.9584934,37.8096982],[28.9839325,37.8099643],[29.0110111,37.818365],[29.0006361,37.8340533],[28.966531,37.8227168],[28.9421918,37.8278312],[28.9460548,37.8057703]]]},"properties":{"@id":"relation/14385043","admin_level":"8","boundary":"administrative","name":"Yeşilyayla Mahallesi","type":"boundary","wikidata":"Q1635125","wikipedia":"tr:Yeşilyayla, Merkezefendi","@relations":[{"role":"subarea","rel":1606211,"reltags":{"admin_level":"6","boundary":"administrative","name":"Merkezefendi","name:fa":"مرکزفندی","name:tr":"Merkezefendi","name:tr:suffix":"İlçesi","name:tt":"Меркезефенди","name:ur":"مرکیز افندی","network":"TR20-districts","type":"boundary","wikidata":"Q16895027","wikipedia":"tr:Merkezefendi"}}]},"id":"relation/14385043"},
{"type":"Feature","geometry":{"type":"Polygon","coordinates":[[[29.2060259,36.9451663],[29.2423087,36.9417847],[29.264092,36.9516099],[29.2994033,36.9448687],[29.2981158,36.9779424],[29.2788683,36.989975],[29.2302087,36.9778993],[29.2060259,36.9451663]]]},"properties":{"@id":"relation/14487557","admin_level":"8","boundary":"administrative","name":"Elmalı Mahallesi","type":"boundary"},"id":"relation/14487557"},
{"type":"Feature","geometry":{"type":"Polygon","coordinates":[[[28.8360939,37.4498829],[28.8409927,37.4437122],[28.8443884,37.4417152],[28.8499329,37.451907],[28.8442447,37.4552304],[28.8360939,37.4498829]]]},"properties":{"@id":"relation/14520208","admin_level":"8","boundary":"administrative","name":"Hürriyet Mahallesi","type":"boundary"},"id":"relation/14520208"},
{"type":"Feature","geometry":{"type":"Polygon","coordinates":[[[28.8108767,37.4055889],[28.8409927,37.4437122],[28.8360939,37.4498829],[28.801514,37.4283435],[28.8108767,37.4055889]]]},"properties":{"@id":"relation/14520382","admin_level":"8","boundary":"administrative","name":"Toki Mahallesi","type":"boundary"},"id":"relation/14520382"},
{"type":"Feature","geometry":{"type":"Polygon","coordinates":[[[28.8232602,37.4063015],[28.8500848,37.4290012],[28.8443884,37.4417152],[28.8409927,37.4437122],[28.8108767,37.4055889],[28.8232602,37.4063015]]]},"properties":{"@id":"relation/14520392","admin_level":"8","boundary":"administrative","name":"Cevherpaşa Mahallesi","type":"boundary"},"id":"relation/14520392"},
{"type":"Feature","geometry":{"type":"Polygon","coordinates":[[[28.8873918,37.4956484],[28.8442447,37.4552304],[28.8499329,37.451907],[28.8649536,37.4471562],[28.8710556,37.4565411],[28.8873918,37.4956484]]]},"properties":{"@id":"relation/14525881","admin_level":"8","boundary":"administrative","name":"Uluçam Mahallesi","type":"boundary"},"id":"relation/14525881"},
{"type":"Feature","geometry":{"type":"Polygon","coordinates":[[[28.8443884,37.4417152],[28.8500848,37.4290012],[28.8232602,37.4063015],[28.8382229,37.3877187],[28.8658628,37.3864563],[28.8586729,37.4141015],[28.8649536,37.4471562],[28.8499329,37.451907],[28.8443884,37.4417152]]]},"properties":{"@id":"relation/14525882","admin_level":"8","boundary":"administrative","name":"Cumhuriyet Mahallesi","type":"boundary"},"id":"relation/14525882"},
{"type":"Feature","geometry":{"type":"Polygon","coordinates":[[[29.728102,38.2975145],[29.7403167,38.2996482],[29.7441918,38.3023091],[29.7406697,38.3032599],[29.7301888,38.3047625],[29.7258904,38.2961892],[29.728102,38.2975145]]]},"properties":{"@id":"relation/14697482","admin_level":"8","boundary":"administrative","name":"Çarşı Mahallesi","type":"boundary"},"id":"relation/14697482"},
{"type":"Feature","geometry":{"type":"Polygon","coordinates":[[[29.7323438,38.3081575],[29.7301888,38.3047625],[29.7406697,38.3032599],[29.7426762,38.3131456],[29.7373722,38.3163039],[29.7323438,38.3081575]]]},"properties":{"@id":"relation/14697511","admin_level":"8","boundary":"administrative","name":"Yukarı Mahallesi","type":"boundary"},"id":"relation/14697511"},
{"type":"Feature","geometry":{"type":"Polygon","coordinates":[[[29.7682501,38.3057903],[29.7426762,38.3131456],[29.7406697,38.3032599],[29.7441918,38.3023091],[29.7682501,38.3057903]]]},"properties":{"@id":"relation/14697530","admin_level":"8","boundary":"administrative","name":"Hamam Mahallesi","type":"boundary"},"id":"relation/14697530"},
{"type":"Feature","geometry":{"type":"Polygon","coordinates":[[[29.7540434,38.2878999],[29.7682501,38.3057903],[29.7441918,38.3023091],[29.7403167,38.2996482],[29.739267,38.2985037],[29.7426402,38.2924162],[29.7540434,38.2878999]]]},"properties":{"@id":"relation/14697611","admin_level":"8","boundary":"administrative","name":"Çatlar Mahalesi","type":"boundary"},"id":"relation/14697611"},
{"type":"Feature","geometry":{"type":"Polygon","coordinates":[[[29.7426402,38.2924162],[29.739267,38.2985037],[29.7370924,38.2937695],[29.7426402,38.2924162]]]},"properties":{"@id":"relation/14697660","admin_level":"8","boundary":"administrative","name":"Saray Mahallesi","type":"boundary"},"id":"relation/14697660"},
{"type":"Feature","geometry":{"type":"Polygon","coordinates":[[[29.7426402,38.2924162],[29.7370924,38.2937695],[29.7314614,38.2878383],[29.7540434,38.2878999],[29.7426402,38.2924162]]]},"properties":{"@id":"relation/14697664","admin_level":"8","boundary":"administrative","name":"Stadyum Mahallesi","type":"boundary"},"id":"relation/14697664"},
{"type":"Feature","geometry":{"type":"Polygon","coordinates":[[[29.714055,38.2910051],[29.7356689,38.2725357],[29.7540434,38.2878999],[29.7314614,38.2878383],[29.7258904,38.2961892],[29.714055,38.2910051]]]},"properties":{"@id":"relation/14697727","admin_level":"8","boundary":"administrative","name":"Kızılcasöğüt Mahallesi","type":"boundary"},"id":"relation/14697727"},
{"type":"Feature","geometry":{"type":"Polygon","coordinates":[[[29.7370924,38.2937695],[29.728102,38.2975145],[29.7258904,38.2961892],[29.7314614,38.2878383],[29.7370924,38.2937695]]]},"properties":{"@id":"relation/14697739","admin_level":"8","boundary":"administrative","name":"Çayır Mahallesi","type":"boundary"},"id":"relation/14697739"},
{"type":"Feature","geometry":{"type":"Polygon","coordinates":[[[29.739267,38.2985037],[29.7403167,38.2996482],[29.728102,38.2975145],[29.7370924,38.2937695],[29.739267,38.2985037]]]},"properties":{"@id":"relation/14697742","admin_level":"8","boundary":"administrative","name":"Aşağı Mahallesi","type":"boundary"},"id":"relation/14697742"},
{"type":"Feature","geometry":{"type":"Polygon","coordinates":[[[29.7323438,38.3081575],[29.7085273,38.3117525],[29.714055,38.2910051],[29.7258904,38.2961892],[29.7301888,38.3047625],[29.7323438,38.3081575]]]},"properties":{"@id":"relation/14697797","admin_level":"8","boundary":"administrative","name":"Şehitler Mahallesi","type":"boundary"},"id":"relation/14697797"},
{"type":"Feature","geometry":{"type":"Polygon","coordinates":[[[29.7373722,38.3163039],[29.7275594,38.3680272],[29.6954463,38.3642106],[29.7085273,38.3117525],[29.7323438,38.3081575],[29.7373722,38.3163039]]]},"properties":{"@id":"relation/14698021","admin_level":"8","boundary":"administrative","name":"Akpınar Mahallesi","type":"boundary"},"id":"relation/14698021"},
{"type":"Feature","geometry":{"type":"Polygon","coordinates":[[[29.5075935,37.4886512],[29.5016068,37.4332959],[29.5545429,37.4290361],[29.5623226,37.4404107],[29.5362803,37.4789102],[29.5128707,37.4890085],[29.5075935,37.4886512]]]},"properties":{"@id":"relation/17001424","admin_level":"8","boundary":"administrative","name":"Kurtlar Mahallesi","type":"boundary"},"id":"relation/17001424"},
{"type":"Feature","geometry":{"type":"Polygon","coordinates":[[[29.4832698,37.5544129],[29.484686,37.5282792],[29.4582931,37.4990041],[29.5075935,37.4886512],[29.5128707,37.4890085],[29.500837,37.5052904],[29.5399748,37.5164304],[29.5051567,37.5161451],[29.4871322,37.532159],[29.4832698,37.5544129]]]},"properties":{"@id":"relation/17001425","admin_level":"8","boundary":"administrative","name":"Sırçalık Mahallesi","type":"boundary"},"id":"relation/17001425"},
{"type":"Feature","geometry":{"type":"Polygon","coordinates":[[[29.4832698,37.5544129],[29.4871322,37.532159],[29.5051567,37.5161451],[29.5399748,37.5164304],[29.5847408,37.5280371],[29.586636,37.5407514],[29.5559279,37.5662839],[29.5117383,37.582074],[29.5298691,37.5971935],[29.5098559,37.6037797],[29.4843427,37.5852306],[29.4832698,37.5544129]]]},"properties":{"@id":"relation/17001426","admin_level":"8","boundary":"administrative","name":"Pınarbaşı Mahallesi","type":"boundary"},"id":"relation/17001426"}
]}