{"type":"FeatureCollection", "features": [
{"type":"Feature","geometry":{"type":"Polygon","coordinates":[[[40.4466703,38.298361],[40.4203512,38.2574955],[40.4392062,38.2396453],[40.4680863,38.2270465],[40.4532191,38.2129608],[40.4601224,38.1883571],[40.4959695,38.1896255],[40.5068155,38.1686675],[40.5855608,38.1577687],[40.5831977,38.1826168],[40.5985998,38.1897788],[40.6329616,38.2299946],[40.6110839,38.2466356],[40.6175006,38.2800146],[40.6360516,38.310862],[40.6604752,38.3075833],[40.6454183,38.336473],[40.6065939,38.3254123],[40.587717,38.3127888],[40.5343771,38.3196652],[40.4713748,38.3435996],[40.454646,38.331969],[40.4466703,38.298361]]]},"properties":{"@id":"relation/1354018","admin_level":"6","boundary":"administrative","name":"Kocaköy","name:ce":"Коджакоьй","name:de":"Kocaköy","name:en":"Kocaköy","name:fa":"کوجاکوی","name:ku":"Karaz","name:ru":"Коджакёй","name:tr":"Kocaköy","name:tr:suffix":"İlçesi","name:tt":"Коҗакөй","name:ur":"کوچکاؤے","name:zza":"Karaz","network":"TR21-districts","old_name":"Karas;Karaz","type":"boundary","wikidata":"Q1023277","wikipedia":"tr:Kocaköy"},"id":"relation/1354018"},
{"type":"Feature","geometry":{"type":"Polygon","coordinates":[[[39.5478545,38.2256729],[39.5743549,38.188029],[39.6060189,38.1654138],[39.6284732,38.140084],[39.6451798,38.140555],[39.6448043,38.108334],[39.6597666,38.0703364],[39.633658,38.0784549],[39.6170341,38.034959],[39.6277102,37.9978174],[39.5882667,38.0127912],[39.5776028,37.9953098],[39.5904269,37.9478462],[39.5846717,37.8991457],[39.5632263,37.8810473],[39.5687269,37.8547325],[39.6035297,37.8455877],[39.6260857,37.8021106],[39.6753893,37.7959223],[39.7094473,37.8413953],[39.7739051,37.8650527],[39.8087489,37.8488853],[39.8207938,37.8587016],[39.8233739,37.8955324],[39.8031799,37.9492167],[39.8209311,37.9613359],[39.8457537,37.954898],[39.8492461,37.9851237],[39.8771446,38.0259549],[39.8762222,38.0885399],[39.924673,38.1126201],[39.9398783,38.1332896],[39.9308999,38.1433628],[39.9450556,38.1651886],[39.951549,38.2082276],[39.9435155,38.2613827],[39.9585519,38.2906205],[39.9406232,38.3294312],[39.9096641,38.3519051],[39.8728358,38.3564646],[39.8507202,38.3718709],[39.8211742,38.3721901],[39.8045109,38.3819471],[39.7535889,38.3550989],[39.7012685,38.339515],[39.6811987,38.3443947],[39.6548761,38.3177562],[39.6071759,38.3053127],[39.5848654,38.2916736],[39.5806523,38.2734842],[39.5519211,38.2432225],[39.5478545,38.2256729]]]},"properties":{"@id":"relation/1354885","admin_level":"6","boundary":"administrative","name":"Ergani","name:ce":"Эргани","name:de":"Ergani","name:diq":"Erẍenî","name:en":"Ergani","name:fa":"ارگانی","name:hy":"Արկնի","name:ku":"Erxenî","name:ru":"Эргани","name:tr":"Ergani","name:tr:suffix":"İlçesi","name:ur":"عرگانی","name:zh":"埃爾加尼","name:zza":"Erğeni","network":"TR21-districts","type":"boundary","wikidata":"Q945363","wikipedia":"ku:Erxenî"},"id":"relation/1354885"},
{"type":"Feature","geometry":{"type":"Polygon","coordinates":[[[40.666503,37.738211],[40.69116,37.71778],[40.72105,37.711802],[40.788225,37.686792],[40.84045,37.702203],[40.835618,37.680273],[40.861104,37.619614],[40.877829,37.619628],[40.917655,37.674352],[40.944867,37.674402],[40.951655,37.696698],[40.989358,37.69616],[41.002253,37.720151],[41.0451669,37.7450313],[41.0633146,37.7685812],[41.027959,37.7735444],[40.9877057,37.8039376],[41.0023792,37.8317846],[40.998258,37.8437845],[41.0304288,37.9067],[41.0357452,37.9607129],[41.0720558,37.9542759],[41.0920093,37.9579163],[41.0847183,37.9800233],[41.0482838,37.9828768],[40.9797539,37.9787306],[40.9508292,37.9825746],[40.9054678,37.9973325],[40.8799407,38.026031],[40.8327536,38.0273079],[40.818586,38.0146235],[40.7844005,38.0053316],[40.7812656,37.9886267],[40.7904279,37.9521056],[40.7556527,37.9514317],[40.7385791,37.9715163],[40.6758496,38.0175797],[40.6660985,38.043924],[40.6467631,38.0450787],[40.636399,38.0723806],[40.5755749,38.0684131],[40.5752906,38.0517477],[40.547861,38.0387994],[40.5229871,38.0489134],[40.4984161,38.0329488],[40.4744969,38.0025841],[40.475838,37.9769522],[40.5001056,37.949334],[40.5167149,37.9123514],[40.4841524,37.8945185],[40.4626162,37.8472956],[40.4675846,37.8328425],[40.5101317,37.8034848],[40.54605,37.7580392],[40.5841429,37.7298662],[40.5735169,37.7165317],[40.5757343,37.6932805],[40.5979532,37.6926987],[40.6064792,37.7236854],[40.6224442,37.743991],[40.6522654,37.7531564],[40.666503,37.738211]]]},"properties":{"@id":"relation/1357023","admin_level":"6","boundary":"administrative","name":"Bismil","name:ar":"بسمل","name:ce":"Бисмил","name:de":"Bismil","name:diq":"Bismil","name:en":"Bismil","name:fa":"بسمل","name:hi":"बिस्मिल","name:ku":"Bismil","name:pa":"ਬਿਸਮਿਲ","name:ru":"Бисмиль","name:ta":"பிசுமில் மாவட்டம்","name:tr":"Bismil","name:tr:suffix":"İlçesi","name:tt":"Бисмил","name:ur":"بسمل","name:zh":"比爾米爾","name:zza":"Bısmıl","network":"TR21-districts","type":"boundary","wikidata":"Q546905","wikipedia":"tr:Bismil"},"id":"relation/1357023"},
{"type":"Feature","geometry":{"type":"Polygon","coordinates":[[[39.8292254,37.7593106],[39.8444885,37.7309706],[39.8286969,37.713606],[39.8370386,37.6337177],[39.8353712,37.5806071],[39.8558939,37.5625958],[39.8663046,37.5295625],[39.8930096,37.520925],[39.9463905,37.5371285],[39.9951303,37.5128299],[40.0805414,37.5372528],[40.1019724,37.5553075],[40.1453815,37.5611677],[40.1576037,37.5486211],[40.218649,37.524266],[40.280063,37.519589],[40.289726,37.538209],[40.346923,37.518127],[40.361851,37.52952],[40.37318,37.558838],[40.419242,37.565214],[40.418056,37.600052],[40.369592,37.624681],[40.383066,37.663525],[40.417892,37.642086],[40.437226,37.646886],[40.453779,37.60722],[40.468723,37.600545],[40.524514,37.613262],[40.553945,37.602418],[40.611511,37.596848],[40.63481,37.604539],[40.636997,37.654708],[40.621466,37.688155],[40.666503,37.738211],[40.6522654,37.7531564],[40.6224442,37.743991],[40.6064792,37.7236854],[40.5979532,37.6926987],[40.5757343,37.6932805],[40.5735169,37.7165317],[40.5841429,37.7298662],[40.54605,37.7580392],[40.5101317,37.8034848],[40.4675846,37.8328425],[40.4054581,37.8124095],[40.371601,37.826702],[40.3243303,37.8304294],[40.3045921,37.8248039],[40.2877711,37.8010989],[40.2531231,37.7898484],[40.2171266,37.7677727],[40.1605306,37.8060992],[40.1533855,37.7863776],[40.1589966,37.7571777],[40.1775944,37.7643148],[40.2257933,37.7430044],[40.2266668,37.7202312],[40.1996724,37.7173876],[40.1777098,37.726701],[40.1597792,37.7537753],[40.1277608,37.7617352],[40.1169074,37.7858928],[40.0935574,37.7829299],[40.0544586,37.7990041],[40.0325702,37.8196634],[40.0040133,37.8100568],[39.982112,37.779234],[39.9683311,37.7363151],[39.9225845,37.7275574],[39.9086302,37.7375776],[39.8994339,37.7651819],[39.8799693,37.7544869],[39.848595,37.7666557],[39.8292254,37.7593106]]]},"properties":{"@id":"relation/1404649","admin_level":"6","boundary":"administrative","name":"Çınar","name:ce":"Чинар","name:de":"Çınar","name:diq":"Çinar","name:en":"Çınar","name:fa":"چنار","name:ku":"Çinar","name:ru":"Чинар","name:tr":"Çınar","name:tr:suffix":"İlçesi","name:tt":"Чынар","name:ur":"چنار","name:zh":"徹納爾","name:zza":"Çınar","network":"TR21-districts","old_name":"Melkis;Akpınar;Hanakpınar","type":"boundary","wikidata":"Q272992","wikipedia":"tr:Çınar, Diyarbakır"},"id":"relation/1404649"},
{"type":"Feature","geometry":{"type":"Polygon","coordinates":[[[40.5985998,38.1897788],[40.5831977,38.1826168],[40.5855608,38.1577687],[40.5068155,38.1686675],[40.4959695,38.1896255],[40.4601224,38.1883571],[40.4532191,38.2129608],[40.4680863,38.2270465],[40.4392062,38.2396453],[40.4203512,38.2574955],[40.4466703,38.298361],[40.4012992,38.2962282],[40.37707,38.2851397],[40.3650408,38.262667],[40.3244607,38.2532627],[40.2916749,38.2329874],[40.2879574,38.209258],[40.2619546,38.194507],[40.2597764,38.1700293],[40.2768309,38.141812],[40.2713001,38.1213857],[40.2767986,38.1011477],[40.25413,38.0777458],[40.2511612,38.0026839],[40.2396559,37.992353],[40.2506611,37.9653709],[40.2440559,37.9448925],[40.2428432,37.9398469],[40.2417285,37.9264694],[40.2447916,37.9179885],[40.2424311,37.9173993],[40.2380198,37.9165293],[40.2318489,37.9151945],[40.2287962,37.9141625],[40.2270196,37.9109152],[40.2281983,37.9086783],[40.2263401,37.9068053],[40.2355397,37.9065541],[40.2358163,37.906047],[40.2298784,37.8661176],[40.2281875,37.8650105],[40.2209575,37.8459902],[40.2314464,37.826896],[40.2531231,37.7898484],[40.2877711,37.8010989],[40.3045921,37.8248039],[40.3243303,37.8304294],[40.371601,37.826702],[40.4054581,37.8124095],[40.4675846,37.8328425],[40.4626162,37.8472956],[40.4841524,37.8945185],[40.5167149,37.9123514],[40.5001056,37.949334],[40.475838,37.9769522],[40.4744969,38.0025841],[40.4984161,38.0329488],[40.5229871,38.0489134],[40.547861,38.0387994],[40.5752906,38.0517477],[40.5755749,38.0684131],[40.636399,38.0723806],[40.6677745,38.0950203],[40.6701551,38.1257617],[40.6400472,38.142394],[40.6553112,38.175097],[40.5985998,38.1897788]]]},"properties":{"@id":"relation/1664708","admin_level":"6","boundary":"administrative","name":"Sur","name:ar":"السور","name:azb":"سور","name:ce":"Сур","name:ckb":"سوور","name:de":"Sur","name:en":"Sur","name:es":"Sur","name:ku":"Sûr","name:tr":"Sur","name:tr:suffix":"İlçesi","name:tt":"Сур","name:ur":"سور","network":"TR21-districts","type":"boundary","wikidata":"Q664716","wikipedia":"tr:Sur, Diyarbakır"},"id":"relation/1664708"},
{"type":"Feature","geometry":{"type":"Polygon","coordinates":[[[40.1601506,37.9724242],[40.1835998,37.9538483],[40.1903793,37.9484545],[40.205815,37.9362378],[40.2175178,37.9208875],[40.2170246,37.9188316],[40.2161587,37.9152251],[40.2148617,37.9143877],[40.2144224,37.9121383],[40.2140992,37.9067621],[40.2237377,37.8743459],[40.2281875,37.8650105],[40.2298784,37.8661176],[40.2358163,37.906047],[40.2355397,37.9065541],[40.2263401,37.9068053],[40.2281983,37.9086783],[40.2270196,37.9109152],[40.2287962,37.9141625],[40.2318489,37.9151945],[40.2380198,37.9165293],[40.2424311,37.9173993],[40.2447916,37.9179885],[40.2417285,37.9264694],[40.2428432,37.9398469],[40.2440559,37.9448925],[40.2506611,37.9653709],[40.2396559,37.992353],[40.2511612,38.0026839],[40.25413,38.0777458],[40.2767986,38.1011477],[40.2713001,38.1213857],[40.2481483,38.1314957],[40.1881095,38.1133285],[40.197839,38.1316595],[40.1693941,38.1410182],[40.1496367,38.1346632],[40.1226635,38.0939715],[40.0497734,38.1098046],[40.0230482,38.1065132],[39.9986368,38.1239059],[40.004081,38.1550888],[39.9450556,38.1651886],[39.9308999,38.1433628],[39.9398783,38.1332896],[39.924673,38.1126201],[39.9592752,38.0853519],[39.9747545,38.0860941],[40.0006613,38.0673931],[40.0240903,38.0657172],[40.0205977,38.0450422],[40.0702889,38.044751],[40.1011053,38.0214969],[40.0917916,38.0060522],[40.127018,37.994347],[40.1601506,37.9724242]]]},"properties":{"@id":"relation/1665091","admin_level":"6","alt_name:ku":"Yenîşehir","boundary":"administrative","name":"Yenişehir","name:de":"Yenişehir","name:en":"Yenişehir","name:ku":"Bajarê Nû","name:tr":"Yenişehir","name:tr:suffix":"İlçesi","name:tt":"Енишеһир","name:uk":"Єнішегір","name:ur":"ینی شہر","network":"TR21-districts","type":"boundary","wikidata":"Q990218","wikipedia":"tr:Yenişehir, Diyarbakır"},"id":"relation/1665091"},
{"type":"Feature","geometry":{"type":"Polygon","coordinates":[[[40.2175178,37.9208875],[40.205815,37.9362378],[40.1958446,37.9336818],[40.1904333,37.9322554],[40.1836368,37.9305607],[40.1719422,37.9274934],[40.1285229,37.9161914],[40.0814008,37.9113001],[40.1064229,37.9006896],[40.0839941,37.9007102],[40.0570029,37.9184059],[40.0083828,37.8800733],[39.9600784,37.9039988],[39.9013668,37.8962331],[39.8815366,37.8769811],[39.8690417,37.9006756],[39.8233739,37.8955324],[39.8207938,37.8587016],[39.8087489,37.8488853],[39.8154559,37.8210134],[39.8122933,37.8020111],[39.8292254,37.7593106],[39.848595,37.7666557],[39.8799693,37.7544869],[39.8994339,37.7651819],[39.9086302,37.7375776],[39.9225845,37.7275574],[39.9683311,37.7363151],[39.982112,37.779234],[40.0040133,37.8100568],[40.0325702,37.8196634],[40.0544586,37.7990041],[40.0935574,37.7829299],[40.1169074,37.7858928],[40.1277608,37.7617352],[40.1597792,37.7537753],[40.1777098,37.726701],[40.1996724,37.7173876],[40.2266668,37.7202312],[40.2257933,37.7430044],[40.1775944,37.7643148],[40.1589966,37.7571777],[40.1533855,37.7863776],[40.1605306,37.8060992],[40.2171266,37.7677727],[40.2531231,37.7898484],[40.2314464,37.826896],[40.2209575,37.8459902],[40.2281875,37.8650105],[40.2237377,37.8743459],[40.2140992,37.9067621],[40.2144224,37.9121383],[40.2148617,37.9143877],[40.2161587,37.9152251],[40.2170246,37.9188316],[40.2175178,37.9208875]]]},"properties":{"@id":"relation/1665230","admin_level":"6","boundary":"administrative","name":"Bağlar","name:ce":"БагӀлар","name:de":"Bağlar","name:en":"Bağlar","name:ku":"Rezik","name:tr":"Bağlar","name:tr:suffix":"İlçesi","name:tt":"Баглар","name:ur":"باغلار","network":"TR21-districts","type":"boundary","wikidata":"Q812731","wikipedia":"tr:Bağlar"},"id":"relation/1665230"},
{"type":"Feature","geometry":{"type":"Polygon","coordinates":[[[39.8815366,37.8769811],[39.9013668,37.8962331],[39.9600784,37.9039988],[40.0083828,37.8800733],[40.0570029,37.9184059],[40.0839941,37.9007102],[40.1064229,37.9006896],[40.0814008,37.9113001],[40.1285229,37.9161914],[40.1719422,37.9274934],[40.1836368,37.9305607],[40.1904333,37.9322554],[40.1958446,37.9336818],[40.205815,37.9362378],[40.1903793,37.9484545],[40.1835998,37.9538483],[40.1601506,37.9724242],[40.127018,37.994347],[40.0917916,38.0060522],[40.1011053,38.0214969],[40.0702889,38.044751],[40.0205977,38.0450422],[40.0240903,38.0657172],[40.0006613,38.0673931],[39.9747545,38.0860941],[39.9592752,38.0853519],[39.924673,38.1126201],[39.8762222,38.0885399],[39.8771446,38.0259549],[39.8492461,37.9851237],[39.8457537,37.954898],[39.8209311,37.9613359],[39.8031799,37.9492167],[39.8233739,37.8955324],[39.8690417,37.9006756],[39.8815366,37.8769811]]]},"properties":{"@id":"relation/1665231","admin_level":"6","boundary":"administrative","name":"Kayapınar","name:ce":"Кайапинар","name:de":"Kayapınar","name:en":"Kayapınar","name:hy":"Բեյազ","name:ku":"Payas","name:sr":"Кајапинар","name:tr":"Kayapınar","name:tr:suffix":"İlçesi","name:tt":"Каяпынар","name:ur":"کایاپینار","network":"TR21-districts","type":"boundary","wikidata":"Q690433","wikipedia":"tr:Kayapınar"},"id":"relation/1665231"},
{"type":"Feature","geometry":{"type":"Polygon","coordinates":[[[39.5687269,37.8547325],[39.5632263,37.8810473],[39.5846717,37.8991457],[39.5904269,37.9478462],[39.5776028,37.9953098],[39.5882667,38.0127912],[39.6277102,37.9978174],[39.6170341,38.034959],[39.633658,38.0784549],[39.6597666,38.0703364],[39.6448043,38.108334],[39.6451798,38.140555],[39.6284732,38.140084],[39.6060189,38.1654138],[39.5743549,38.188029],[39.5478545,38.2256729],[39.4902256,38.2157154],[39.4267753,38.1818548],[39.4036155,38.1869902],[39.3538914,38.1851851],[39.3072061,38.1549186],[39.3010855,38.1410426],[39.3113401,38.1170326],[39.278885,38.1047439],[39.2361298,38.1148866],[39.2223263,38.0717695],[39.1594209,38.0180994],[39.1813263,38.0053064],[39.2511345,37.9865104],[39.2696561,37.9703489],[39.3038682,37.960275],[39.3514498,37.9601781],[39.4027275,37.9338141],[39.4891095,37.9096529],[39.5256302,37.8821988],[39.5429063,37.8515275],[39.5687269,37.8547325]]]},"properties":{"@id":"relation/1665601","admin_level":"6","alt_name:ku":"Çêrmûge","boundary":"administrative","name":"Çermik","name:ar":"جرمك","name:azb":"چرمیک","name:ce":"Чермик","name:de":"Çermik","name:diq":"Çêrmûge","name:en":"Çermik","name:fa":"چرمیک","name:he":"צ'רמיק","name:hy":"Վաղարշակուպոլիս","name:kmr":"چێرمووگ","name:ku":"Çêrmûg","name:ku-Arab":"چێرمووگ","name:ota":"چرميک","name:ru":"Чермик","name:tr":"Çermik","name:tr:suffix":"İlçesi","name:ur":"چرمیک","name:zh":"切爾米克","name:zza":"Çermug","network":"TR21-districts","type":"boundary","wikidata":"Q1911118","wikipedia":"tr:Çermik"},"id":"relation/1665601"},
{"type":"Feature","geometry":{"type":"Polygon","coordinates":[[[39.5519211,38.2432225],[39.5151359,38.2730233],[39.478372,38.267211],[39.467108,38.283006],[39.4722,38.313477],[39.448793,38.312868],[39.397783,38.324774],[39.376539,38.303982],[39.344611,38.338211],[39.3048711,38.3554334],[39.2725181,38.3352185],[39.2390442,38.3058588],[39.1826414,38.308921],[39.1514252,38.2992522],[39.1388564,38.2310565],[39.10654,38.2038182],[39.125989,38.1868672],[39.163188,38.1836717],[39.1952249,38.2068301],[39.2200999,38.2077979],[39.2567722,38.1778617],[39.2629315,38.1461335],[39.2361298,38.1148866],[39.278885,38.1047439],[39.3113401,38.1170326],[39.3010855,38.1410426],[39.3072061,38.1549186],[39.3538914,38.1851851],[39.4036155,38.1869902],[39.4267753,38.1818548],[39.4902256,38.2157154],[39.5478545,38.2256729],[39.5519211,38.2432225]]]},"properties":{"@id":"relation/1665602","admin_level":"6","alt_name:ku":"Çinguş","boundary":"administrative","name":"Çüngüş","name:ce":"Чуьнгуьш","name:de":"Çüngüş","name:en":"Çüngüş","name:hy":"Չնքուշ","name:ku":"Şankuş","name:ru":"Чюнгюш","name:tr":"Çüngüş","name:tr:suffix":"İlçesi","name:ur":"چونگوش","name:zza":"Şankuş","network":"TR21-districts","type":"boundary","wikidata":"Q272978","wikipedia":"tr:Çüngüş"},"id":"relation/1665602"},
{"type":"Feature","geometry":{"type":"Polygon","coordinates":[[[40.6701551,38.1257617],[40.6948185,38.1316536],[40.7045288,38.1546443],[40.7545933,38.141401],[40.7807685,38.1578399],[40.8055647,38.1529654],[40.830361,38.1601337],[40.8799311,38.221319],[40.9182417,38.2432351],[40.9077217,38.2769546],[40.8553204,38.2968807],[40.8498045,38.329267],[40.8204335,38.3272432],[40.784974,38.3116484],[40.7674467,38.3130436],[40.7339162,38.3317765],[40.6604752,38.3075833],[40.6360516,38.310862],[40.6175006,38.2800146],[40.6110839,38.2466356],[40.6329616,38.2299946],[40.5985998,38.1897788],[40.6553112,38.175097],[40.6400472,38.142394],[40.6701551,38.1257617]]]},"properties":{"@id":"relation/1842158","admin_level":"6","boundary":"administrative","name":"Hazro","name:ce":"ХӀазро","name:de":"Hazro","name:en":"Hazro","name:hy":"Հազրո","name:ku":"Hezro","name:ru":"Хазро","name:tr":"Hazro","name:tr:suffix":"İlçesi","name:ur":"حضرو","name:zza":"Hezro","network":"TR21-districts","type":"boundary","wikidata":"Q1025104","wikipedia":"tr:Hazro"},"id":"relation/1842158"},
{"type":"Feature","geometry":{"type":"Polygon","coordinates":[[[41.1783278,38.2656352],[41.1872391,38.2891364],[41.178257,38.3115206],[41.1971291,38.3193269],[41.2315005,38.3671259],[41.2400502,38.4101379],[41.2639093,38.4161493],[41.2816437,38.4438151],[41.3459897,38.4594309],[41.3650664,38.4836117],[41.3361601,38.4958248],[41.3073038,38.5184057],[41.2928507,38.5396496],[41.2734965,38.5958002],[41.2740663,38.6298945],[41.2616286,38.6503206],[41.2254979,38.656965],[41.1930892,38.653269],[41.1192728,38.6632384],[41.0870519,38.6994422],[41.0314464,38.6843038],[41.0147094,38.6736501],[40.9932583,38.6796661],[40.9423541,38.6664797],[40.946474,38.637791],[40.9014129,38.6178094],[40.8473453,38.5764446],[40.8252811,38.57689],[40.8088678,38.5610685],[40.8062345,38.5411336],[40.8119249,38.4831957],[40.8472195,38.4235287],[40.8916499,38.4114439],[40.8930467,38.3908597],[40.909859,38.373476],[40.9029109,38.3446917],[40.9670315,38.3311222],[40.9884605,38.3218068],[41.0962846,38.2377192],[41.1416271,38.2652102],[41.1783278,38.2656352]]]},"properties":{"@id":"relation/1842159","admin_level":"6","alt_name:ku":"Qulb","boundary":"administrative","name":"Kulp","name:ce":"Кулп","name:de":"Kulp","name:en":"Kulp","name:fa":"کولپ","name:hy":"Խուլփ","name:ku":"Pasûr","name:ru":"Кулп","name:tr":"Kulp","name:tr:suffix":"İlçesi","name:ur":"قولب","network":"TR21-districts","type":"boundary","wikidata":"Q955561","wikipedia":"tr:Kulp"},"id":"relation/1842159"},
{"type":"Feature","geometry":{"type":"Polygon","coordinates":[[[40.6701551,38.1257617],[40.6677745,38.0950203],[40.636399,38.0723806],[40.6467631,38.0450787],[40.6660985,38.043924],[40.6758496,38.0175797],[40.7385791,37.9715163],[40.7556527,37.9514317],[40.7904279,37.9521056],[40.7812656,37.9886267],[40.7844005,38.0053316],[40.818586,38.0146235],[40.8327536,38.0273079],[40.8799407,38.026031],[40.9054678,37.9973325],[40.9508292,37.9825746],[40.9797539,37.9787306],[41.0482838,37.9828768],[41.0847183,37.9800233],[41.122595,37.9751325],[41.1550434,37.9913683],[41.1468008,38.0020324],[41.1733142,38.0356123],[41.1823364,38.0691361],[41.2088225,38.0816432],[41.2053064,38.106098],[41.2208325,38.1619343],[41.2194365,38.1891553],[41.2023409,38.2327893],[41.175092,38.2440861],[41.1783278,38.2656352],[41.1416271,38.2652102],[41.0962846,38.2377192],[40.9884605,38.3218068],[40.9670315,38.3311222],[40.9029109,38.3446917],[40.8611162,38.3415645],[40.8498045,38.329267],[40.8553204,38.2968807],[40.9077217,38.2769546],[40.9182417,38.2432351],[40.8799311,38.221319],[40.830361,38.1601337],[40.8055647,38.1529654],[40.7807685,38.1578399],[40.7545933,38.141401],[40.7045288,38.1546443],[40.6948185,38.1316536],[40.6701551,38.1257617]]]},"properties":{"@id":"relation/1842160","admin_level":"6","alt_name:ku":"Silîvan","boundary":"administrative","name":"Silvan","name:ar":"ميافارقين","name:bg":"Силван","name:ce":"Силван","name:de":"Silvan","name:el":"Σιλβάν","name:en":"Silvan","name:fa":"سیلوان","name:hy":"Սիլվան","name:ku":"Farqîn","name:la":"Martyropolis","name:ru":"Сильван","name:sr":"Силван","name:tr":"Silvan","name:tr:suffix":"İlçesi","name:tt":"Силван","name:uk":"Сильван","name:ur":"سیلوان","name:zh":"錫爾萬","name:zza":"Sıliwan","network":"TR21-districts","type":"boundary","wikidata":"Q945404","wikipedia":"tr:Silvan"},"id":"relation/1842160"},
{"type":"Feature","geometry":{"type":"Polygon","coordinates":[[[39.8728358,38.3564646],[39.9096641,38.3519051],[39.9406232,38.3294312],[39.9585519,38.2906205],[40.0198055,38.2979913],[40.0548167,38.2935227],[40.0974897,38.307858],[40.1665179,38.3024331],[40.1805389,38.2814086],[40.1731953,38.2630973],[40.2283308,38.2629149],[40.2916749,38.2329874],[40.3244607,38.2532627],[40.3650408,38.262667],[40.37707,38.2851397],[40.3517593,38.2904293],[40.3381996,38.319961],[40.3234311,38.3329949],[40.3020986,38.3838009],[40.3062298,38.3992433],[40.2901647,38.4185649],[40.2511721,38.4023414],[40.2147662,38.4014929],[40.2126475,38.4200207],[40.2479866,38.4538034],[40.2444801,38.4611447],[40.2057792,38.4664258],[40.1806281,38.4566782],[40.1352854,38.455757],[40.0809575,38.4666184],[40.0177614,38.4609126],[39.9978047,38.4660178],[39.983816,38.444859],[39.951593,38.449065],[39.916974,38.443593],[39.947535,38.419034],[39.919381,38.379766],[39.901057,38.389775],[39.880003,38.375616],[39.8728358,38.3564646]]]},"properties":{"@id":"relation/1846360","admin_level":"6","boundary":"administrative","name":"Dicle","name:ar":"پیران","name:ce":"Диджле","name:de":"Dicle","name:en":"Dicle","name:fa":"دجله","name:hy":"Փիրան","name:ku":"Pîran","name:ru":"Диджле","name:tr":"Dicle","name:tr:suffix":"İlçesi","name:tt":"Диджле","name:ur":"دجلہ","name:zh":"迪季萊","name:zza":"Piran","network":"TR21-districts","type":"boundary","wikidata":"Q1003877","wikipedia":"tr:Dicle, Diyarbakır"},"id":"relation/1846360"},
{"type":"Feature","geometry":{"type":"Polygon","coordinates":[[[40.2713001,38.1213857],[40.2768309,38.141812],[40.2597764,38.1700293],[40.2619546,38.194507],[40.2879574,38.209258],[40.2916749,38.2329874],[40.2283308,38.2629149],[40.1731953,38.2630973],[40.1805389,38.2814086],[40.1665179,38.3024331],[40.0974897,38.307858],[40.0548167,38.2935227],[40.0198055,38.2979913],[39.9585519,38.2906205],[39.9435155,38.2613827],[39.951549,38.2082276],[39.9450556,38.1651886],[40.004081,38.1550888],[39.9986368,38.1239059],[40.0230482,38.1065132],[40.0497734,38.1098046],[40.1226635,38.0939715],[40.1496367,38.1346632],[40.1693941,38.1410182],[40.197839,38.1316595],[40.1881095,38.1133285],[40.2481483,38.1314957],[40.2713001,38.1213857]]]},"properties":{"@id":"relation/1846361","admin_level":"6","boundary":"administrative","name":"Eğil","name:ce":"ЭгӀил","name:de":"Eğil","name:en":"Eğil","name:hy":"Ագիլ","name:ku":"Gêl","name:ru":"Эгиль","name:tr":"Eğil","name:tr:suffix":"İlçesi","name:tt":"Егыйл","name:ur":"اگیل","network":"TR21-districts","type":"boundary","wikidata":"Q1023322","wikipedia":"tr:Eğil"},"id":"relation/1846361"},
{"type":"Feature","geometry":{"type":"Polygon","coordinates":[[[40.37707,38.2851397],[40.4012992,38.2962282],[40.4466703,38.298361],[40.454646,38.331969],[40.4713748,38.3435996],[40.4925306,38.3598808],[40.5455839,38.3573503],[40.5355392,38.3835537],[40.5152251,38.4091871],[40.4847513,38.4334169],[40.5018976,38.4868732],[40.4858103,38.4972105],[40.4378426,38.5088216],[40.4314219,38.5437437],[40.4433296,38.5811645],[40.400589,38.5649688],[40.3543737,38.5325035],[40.3549105,38.4891945],[40.3191329,38.4848741],[40.2444801,38.4611447],[40.2479866,38.4538034],[40.2126475,38.4200207],[40.2147662,38.4014929],[40.2511721,38.4023414],[40.2901647,38.4185649],[40.3062298,38.3992433],[40.3020986,38.3838009],[40.3234311,38.3329949],[40.3381996,38.319961],[40.3517593,38.2904293],[40.37707,38.2851397]]]},"properties":{"@id":"relation/1846362","admin_level":"6","boundary":"administrative","name":"Hani","name:ce":"ХӀани","name:de":"Hani","name:en":"Hani","name:fa":"هانی","name:hy":"Հայնի","name:ko":"하니","name:ku":"Hênê","name:ru":"Хани","name:tr":"Hani","name:tr:suffix":"İlçesi","name:ur":"ہانی","name:zh":"哈尼","name:zza":"Hêni","network":"TR21-districts","type":"boundary","wikidata":"Q975198","wikipedia":"tr:Hani"},"id":"relation/1846362"},
{"type":"Feature","geometry":{"type":"Polygon","coordinates":[[[40.9029109,38.3446917],[40.909859,38.373476],[40.8930467,38.3908597],[40.8916499,38.4114439],[40.8472195,38.4235287],[40.8119249,38.4831957],[40.8062345,38.5411336],[40.8088678,38.5610685],[40.7841603,38.5926034],[40.7672685,38.6000714],[40.7175288,38.5965501],[40.6720445,38.6012964],[40.6463325,38.5780994],[40.6033615,38.5633017],[40.5855513,38.580397],[40.5609595,38.5827357],[40.4842907,38.6194696],[40.4574375,38.6184369],[40.4381508,38.5993237],[40.4433296,38.5811645],[40.4314219,38.5437437],[40.4378426,38.5088216],[40.4858103,38.4972105],[40.5018976,38.4868732],[40.4847513,38.4334169],[40.5152251,38.4091871],[40.5355392,38.3835537],[40.5455839,38.3573503],[40.4925306,38.3598808],[40.4713748,38.3435996],[40.5343771,38.3196652],[40.587717,38.3127888],[40.6065939,38.3254123],[40.6454183,38.336473],[40.6604752,38.3075833],[40.7339162,38.3317765],[40.7674467,38.3130436],[40.784974,38.3116484],[40.8204335,38.3272432],[40.8498045,38.329267],[40.8611162,38.3415645],[40.9029109,38.3446917]]]},"properties":{"@id":"relation/1846363","admin_level":"6","boundary":"administrative","name":"Lice","name:ce":"Лидже","name:de":"Lice","name:en":"Lice","name:fa":"لیجه","name:hy":"Լճե","name:ku":"Licê","name:ru":"Лидже","name:tr":"Lice","name:tr:suffix":"İlçesi","name:uk":"Лідже","name:ur":"لیجہ","name:zh":"利傑","name:zza":"Lıcê","network":"TR21-districts","type":"boundary","wikidata":"Q1012828","wikipedia":"tr:Lice"},"id":"relation/1846363"},
{"type":"Feature","geometry":{"type":"Polygon","coordinates":[[[40.2263401,37.9068053],[40.2281983,37.9086783],[40.2270196,37.9109152],[40.2181546,37.9131172],[40.2148617,37.9143877],[40.2144224,37.9121383],[40.2140992,37.9067621],[40.2237377,37.8743459],[40.2281875,37.8650105],[40.2298784,37.8661176],[40.2358163,37.906047],[40.2355397,37.9065541],[40.2263401,37.9068053]]]},"properties":{"@id":"relation/5421377","admin_level":"8","boundary":"administrative","name":"Şehitlik Mahallesi","name:ku":"Taxa Şehîdî","type":"boundary","wikidata":"Q109384228","wikipedia":"tr:Şehitlik, Yenişehir","@relations":[{"role":"subarea","rel":1665091,"reltags":{"admin_level":"6","alt_name:ku":"Yenîşehir","boundary":"administrative","name":"Yenişehir","name:de":"Yenişehir","name:en":"Yenişehir","name:ku":"Bajarê Nû","name:tr":"Yenişehir","name:tr:suffix":"İlçesi","name:tt":"Енишеһир","name:uk":"Єнішегір","name:ur":"ینی شہر","network":"TR21-districts","type":"boundary","wikidata":"Q990218","wikipedia":"tr:Yenişehir, Diyarbakır"}}]},"id":"relation/5421377"},
{"type":"Feature","geometry":{"type":"Polygon","coordinates":[[[40.2381302,37.9242202],[40.2266595,37.9421118],[40.2115841,37.933106],[40.2281651,37.9209571],[40.2181546,37.9131172],[40.2270196,37.9109152],[40.2287962,37.9141625],[40.2318489,37.9151945],[40.2380198,37.9165293],[40.2424311,37.9173993],[40.2381302,37.9242202]]]},"properties":{"@id":"relation/5421392","admin_level":"8","boundary":"administrative","city":"Yenişehir/Diyarbakır","name":"Yenişehir Mahallesi","name:ku":"Taxa Bajarê Nû","type":"boundary","wikidata":"Q109384232","wikipedia":"tr:Yenişehir, Yenişehir","@relations":[{"role":"subarea","rel":1665091,"reltags":{"admin_level":"6","alt_name:ku":"Yenîşehir","boundary":"administrative","name":"Yenişehir","name:de":"Yenişehir","name:en":"Yenişehir","name:ku":"Bajarê Nû","name:tr":"Yenişehir","name:tr:suffix":"İlçesi","name:tt":"Енишеһир","name:uk":"Єнішегір","name:ur":"ینی شہر","network":"TR21-districts","type":"boundary","wikidata":"Q990218","wikipedia":"tr:Yenişehir, Diyarbakır"}}]},"id":"relation/5421392"},
{"type":"Feature","geometry":{"type":"Polygon","coordinates":[[[40.2148617,37.9143877],[40.2181546,37.9131172],[40.2281651,37.9209571],[40.2115841,37.933106],[40.2077192,37.9367411],[40.205815,37.9362378],[40.2175178,37.9208875],[40.2170246,37.9188316],[40.2161587,37.9152251],[40.2148617,37.9143877]]]},"properties":{"@id":"relation/5421477","admin_level":"8","boundary":"administrative","name":"Kooperatifler Mahallesi","type":"boundary","wikidata":"Q109384226","wikipedia":"tr:Kooperatifler, Yenişehir","@relations":[{"role":"subarea","rel":1665091,"reltags":{"admin_level":"6","alt_name:ku":"Yenîşehir","boundary":"administrative","name":"Yenişehir","name:de":"Yenişehir","name:en":"Yenişehir","name:ku":"Bajarê Nû","name:tr":"Yenişehir","name:tr:suffix":"İlçesi","name:tt":"Енишеһир","name:uk":"Єнішегір","name:ur":"ینی شہر","network":"TR21-districts","type":"boundary","wikidata":"Q990218","wikipedia":"tr:Yenişehir, Diyarbakır"}}]},"id":"relation/5421477"},
{"type":"Feature","geometry":{"type":"Polygon","coordinates":[[[40.2447916,37.9179885],[40.2417285,37.9264694],[40.2381302,37.9242202],[40.2424311,37.9173993],[40.2447916,37.9179885]]]},"properties":{"@id":"relation/5421489","admin_level":"8","boundary":"administrative","city":"Yenişehir/Diyarbakır","name":"Dicle Mahallesi","name:ku":"Taxa Dîcle","type":"boundary","wikidata":"Q109384211","wikipedia":"tr:Dicle, Yenişehir","@relations":[{"role":"subarea","rel":1665091,"reltags":{"admin_level":"6","alt_name:ku":"Yenîşehir","boundary":"administrative","name":"Yenişehir","name:de":"Yenişehir","name:en":"Yenişehir","name:ku":"Bajarê Nû","name:tr":"Yenişehir","name:tr:suffix":"İlçesi","name:tt":"Енишеһир","name:uk":"Єнішегір","name:ur":"ینی شہر","network":"TR21-districts","type":"boundary","wikidata":"Q990218","wikipedia":"tr:Yenişehir, Diyarbakır"}}]},"id":"relation/5421489"},
{"type":"Feature","geometry":{"type":"Polygon","coordinates":[[[40.2381302,37.9242202],[40.2417285,37.9264694],[40.2428432,37.9398469],[40.2266595,37.9421118],[40.2381302,37.9242202]]]},"properties":{"@id":"relation/5421501","admin_level":"8","alt_name:ku":"Taxa Qesra Ferîd Efendî","boundary":"administrative","name":"Ferit Köşk Mahallesi","name:ku":"Taxa Koşka Ferîd","type":"boundary","wikidata":"Q109384218","wikipedia":"tr:Ferit Köşk, Yenişehir","@relations":[{"role":"subarea","rel":1665091,"reltags":{"admin_level":"6","alt_name:ku":"Yenîşehir","boundary":"administrative","name":"Yenişehir","name:de":"Yenişehir","name:en":"Yenişehir","name:ku":"Bajarê Nû","name:tr":"Yenişehir","name:tr:suffix":"İlçesi","name:tt":"Енишеһир","name:uk":"Єнішегір","name:ur":"ینی شہر","network":"TR21-districts","type":"boundary","wikidata":"Q990218","wikipedia":"tr:Yenişehir, Diyarbakır"}}]},"id":"relation/5421501"},
{"type":"Feature","geometry":{"type":"Polygon","coordinates":[[[40.2428432,37.9398469],[40.2440559,37.9448925],[40.2312424,37.9467946],[40.2141158,37.9377296],[40.2077192,37.9367411],[40.2115841,37.933106],[40.2266595,37.9421118],[40.2428432,37.9398469]]]},"properties":{"@id":"relation/5421502","admin_level":"8","boundary":"administrative","name":"Cumhuriyet Mahallesi","name:ku":"Taxa Balika","type":"boundary","wikidata":"Q109384210","wikipedia":"tr:Cumhuriyet, Yenişehir","@relations":[{"role":"subarea","rel":1665091,"reltags":{"admin_level":"6","alt_name:ku":"Yenîşehir","boundary":"administrative","name":"Yenişehir","name:de":"Yenişehir","name:en":"Yenişehir","name:ku":"Bajarê Nû","name:tr":"Yenişehir","name:tr:suffix":"İlçesi","name:tt":"Енишеһир","name:uk":"Єнішегір","name:ur":"ینی شہر","network":"TR21-districts","type":"boundary","wikidata":"Q990218","wikipedia":"tr:Yenişehir, Diyarbakır"}}]},"id":"relation/5421502"},
{"type":"Feature","geometry":{"type":"Polygon","coordinates":[[[40.2461264,37.9069855],[40.2411346,37.905872],[40.2358163,37.906047],[40.2298784,37.8661176],[40.236976,37.8551388],[40.2693473,37.8619421],[40.2692623,37.8803925],[40.2461264,37.9069855]]]},"properties":{"@id":"relation/5427975","admin_level":"8","alt_name":"Dicle Mahallesi","boundary":"administrative","name":"Bağıvar Mahallesi","type":"boundary","@relations":[{"role":"subarea","rel":1664708,"reltags":{"admin_level":"6","boundary":"administrative","name":"Sur","name:ar":"السور","name:azb":"سور","name:ce":"Сур","name:ckb":"سوور","name:de":"Sur","name:en":"Sur","name:es":"Sur","name:ku":"Sûr","name:tr":"Sur","name:tr:suffix":"İlçesi","name:tt":"Сур","name:ur":"سور","network":"TR21-districts","type":"boundary","wikidata":"Q664716","wikipedia":"tr:Sur, Diyarbakır"}}]},"id":"relation/5427975"},
{"type":"Feature","geometry":{"type":"Polygon","coordinates":[[[40.1836368,37.9305607],[40.1904333,37.9322554],[40.1958446,37.9336818],[40.1845681,37.943841],[40.1736381,37.9426588],[40.1712784,37.9335282],[40.1719422,37.9274934],[40.1836368,37.9305607]]]},"properties":{"@id":"relation/5488101","admin_level":"8","boundary":"administrative","name":"Peyas Mahallesi","name:ku":"Taxa Payas","old_name":"Kayapınar/Diyarbakır","type":"boundary","wikidata":"Q109390417","wikipedia":"tr:Peyas, Kayapınar","@relations":[{"role":"subarea","rel":1665231,"reltags":{"admin_level":"6","boundary":"administrative","name":"Kayapınar","name:ce":"Кайапинар","name:de":"Kayapınar","name:en":"Kayapınar","name:hy":"Բեյազ","name:ku":"Payas","name:sr":"Кајапинар","name:tr":"Kayapınar","name:tr:suffix":"İlçesi","name:tt":"Каяпынар","name:ur":"کایاپینار","network":"TR21-districts","type":"boundary","wikidata":"Q690433","wikipedia":"tr:Kayapınar"}}]},"id":"relation/5488101"},
{"type":"Feature","geometry":{"type":"Polygon","coordinates":[[[40.205815,37.9362378],[40.1903793,37.9484545],[40.1845681,37.943841],[40.1958446,37.9336818],[40.205815,37.9362378]]]},"properties":{"@id":"relation/5488118","admin_level":"8","boundary":"administrative","name":"Huzurevleri Mahallesi","type":"boundary","wikidata":"Q109390414","wikipedia":"tr:Huzurevleri, Kayapınar","@relations":[{"role":"subarea","rel":1665231,"reltags":{"admin_level":"6","boundary":"administrative","name":"Kayapınar","name:ce":"Кайапинар","name:de":"Kayapınar","name:en":"Kayapınar","name:hy":"Բեյազ","name:ku":"Payas","name:sr":"Кајапинар","name:tr":"Kayapınar","name:tr:suffix":"İlçesi","name:tt":"Каяпынар","name:ur":"کایاپینار","network":"TR21-districts","type":"boundary","wikidata":"Q690433","wikipedia":"tr:Kayapınar"}}]},"id":"relation/5488118"},
{"type":"Feature","geometry":{"type":"Polygon","coordinates":[[[40.1736381,37.9426588],[40.1465541,37.9526635],[40.124788,37.9426668],[40.1285743,37.9413508],[40.1712784,37.9335282],[40.1736381,37.9426588]]]},"properties":{"@id":"relation/5501698","admin_level":"8","boundary":"administrative","name":"Mezopotamya Mahallesi","name:ku":"Taxa Mezopotamya","type":"boundary","wikidata":"Q109390416","wikipedia":"tr:Mezopotamya, Kayapınar","@relations":[{"role":"subarea","rel":1665231,"reltags":{"admin_level":"6","boundary":"administrative","name":"Kayapınar","name:ce":"Кайапинар","name:de":"Kayapınar","name:en":"Kayapınar","name:hy":"Բեյազ","name:ku":"Payas","name:sr":"Кајапинар","name:tr":"Kayapınar","name:tr:suffix":"İlçesi","name:tt":"Каяпынар","name:ur":"کایاپینار","network":"TR21-districts","type":"boundary","wikidata":"Q690433","wikipedia":"tr:Kayapınar"}}]},"id":"relation/5501698"},
{"type":"Feature","geometry":{"type":"Polygon","coordinates":[[[40.1719422,37.9274934],[40.1712784,37.9335282],[40.1285743,37.9413508],[40.1285229,37.9161914],[40.1719422,37.9274934]]]},"properties":{"@id":"relation/5502431","admin_level":"8","boundary":"administrative","name":"Fırat Mahallesi","name:ku":"Taxa Firat","type":"boundary","wikidata":"Q109390409","wikipedia":"tr:Fırat, Kayapınar","@relations":[{"role":"subarea","rel":1665231,"reltags":{"admin_level":"6","boundary":"administrative","name":"Kayapınar","name:ce":"Кайапинар","name:de":"Kayapınar","name:en":"Kayapınar","name:hy":"Բեյազ","name:ku":"Payas","name:sr":"Кајапинар","name:tr":"Kayapınar","name:tr:suffix":"İlçesi","name:tt":"Каяпынар","name:ur":"کایاپینار","network":"TR21-districts","type":"boundary","wikidata":"Q690433","wikipedia":"tr:Kayapınar"}}]},"id":"relation/5502431"},
{"type":"Feature","geometry":{"type":"Polygon","coordinates":[[[40.1601506,37.9724242],[40.1504178,37.9598211],[40.1845681,37.943841],[40.1903793,37.9484545],[40.1835998,37.9538483],[40.1601506,37.9724242]]]},"properties":{"@id":"relation/5502464","admin_level":"8","boundary":"administrative","name":"Medya Mahallesi","type":"boundary","wikidata":"Q109390415","wikipedia":"tr:Medya, Kayapınar","@relations":[{"role":"subarea","rel":1665231,"reltags":{"admin_level":"6","boundary":"administrative","name":"Kayapınar","name:ce":"Кайапинар","name:de":"Kayapınar","name:en":"Kayapınar","name:hy":"Բեյազ","name:ku":"Payas","name:sr":"Кајапинар","name:tr":"Kayapınar","name:tr:suffix":"İlçesi","name:tt":"Каяпынар","name:ur":"کایاپینار","network":"TR21-districts","type":"boundary","wikidata":"Q690433","wikipedia":"tr:Kayapınar"}}]},"id":"relation/5502464"},
{"type":"Feature","geometry":{"type":"Polygon","coordinates":[[[40.1285229,37.9161914],[40.1285743,37.9413508],[40.124788,37.9426668],[40.0814008,37.9113001],[40.1285229,37.9161914]]]},"properties":{"@id":"relation/5502470","admin_level":"8","boundary":"administrative","name":"Barış Mahallesi","name:ku":"Taxa Aşitî","type":"boundary","@relations":[{"role":"subarea","rel":1665231,"reltags":{"admin_level":"6","boundary":"administrative","name":"Kayapınar","name:ce":"Кайапинар","name:de":"Kayapınar","name:en":"Kayapınar","name:hy":"Բեյազ","name:ku":"Payas","name:sr":"Кајапинар","name:tr":"Kayapınar","name:tr:suffix":"İlçesi","name:tt":"Каяпынар","name:ur":"کایاپینار","network":"TR21-districts","type":"boundary","wikidata":"Q690433","wikipedia":"tr:Kayapınar"}}]},"id":"relation/5502470"},
{"type":"Feature","geometry":{"type":"Polygon","coordinates":[[[40.1845681,37.943841],[40.1504178,37.9598211],[40.1465541,37.9526635],[40.1736381,37.9426588],[40.1845681,37.943841]]]},"properties":{"@id":"relation/5502778","admin_level":"8","boundary":"administrative","name":"Diclekent Mahallesi","type":"boundary","wikidata":"Q109390408","wikipedia":"tr:Diclekent, Kayapınar","@relations":[{"role":"subarea","rel":1665231,"reltags":{"admin_level":"6","boundary":"administrative","name":"Kayapınar","name:ce":"Кайапинар","name:de":"Kayapınar","name:en":"Kayapınar","name:hy":"Բեյազ","name:ku":"Payas","name:sr":"Кајапинар","name:tr":"Kayapınar","name:tr:suffix":"İlçesi","name:tt":"Каяпынар","name:ur":"کایاپینار","network":"TR21-districts","type":"boundary","wikidata":"Q690433","wikipedia":"tr:Kayapınar"}}]},"id":"relation/5502778"},
{"type":"Feature","geometry":{"type":"Polygon","coordinates":[[[40.1285229,37.9161914],[40.0814008,37.9113001],[40.1064229,37.9006896],[40.1129231,37.909094],[40.1748158,37.8973212],[40.1846032,37.886481],[40.1899971,37.9138341],[40.1951043,37.9223349],[40.1836368,37.9305607],[40.1719422,37.9274934],[40.1285229,37.9161914]]]},"properties":{"@id":"relation/5504100","admin_level":"8","boundary":"administrative","name":"Bağcılar Mahallesi","name:ku":"Taxa Rezvan","type":"boundary","wikidata":"Q108929072","wikipedia":"tr:Bağcılar, Bağlar","@relations":[{"role":"subarea","rel":1665230,"reltags":{"admin_level":"6","boundary":"administrative","name":"Bağlar","name:ce":"БагӀлар","name:de":"Bağlar","name:en":"Bağlar","name:ku":"Rezik","name:tr":"Bağlar","name:tr:suffix":"İlçesi","name:tt":"Баглар","name:ur":"باغلار","network":"TR21-districts","type":"boundary","wikidata":"Q812731","wikipedia":"tr:Bağlar"}}]},"id":"relation/5504100"},
{"type":"Feature","geometry":{"type":"Polygon","coordinates":[[[40.1904333,37.9322554],[40.1836368,37.9305607],[40.1951043,37.9223349],[40.1997396,37.9192158],[40.2026481,37.9261135],[40.1904333,37.9322554]]]},"properties":{"@id":"relation/5504210","admin_level":"8","boundary":"administrative","name":"Şeyh Şamil Mahallesi","type":"boundary","wikidata":"Q109387608","wikipedia":"tr:Şeyh Şamil, Bağlar","@relations":[{"role":"subarea","rel":1665230,"reltags":{"admin_level":"6","boundary":"administrative","name":"Bağlar","name:ce":"БагӀлар","name:de":"Bağlar","name:en":"Bağlar","name:ku":"Rezik","name:tr":"Bağlar","name:tr:suffix":"İlçesi","name:tt":"Баглар","name:ur":"باغلار","network":"TR21-districts","type":"boundary","wikidata":"Q812731","wikipedia":"tr:Bağlar"}}]},"id":"relation/5504210"},
{"type":"Feature","geometry":{"type":"Polygon","coordinates":[[[40.2175178,37.9208875],[40.1958446,37.9336818],[40.1904333,37.9322554],[40.2026481,37.9261135],[40.2103348,37.9234756],[40.2175178,37.9208875]]]},"properties":{"@id":"relation/5504226","admin_level":"8","boundary":"administrative","name":"Mevlana Halit Mahallesi","name:ku":"Taxa Mewlana Xalid","type":"boundary","wikidata":"Q109387601","wikipedia":"tr:Mevlana Halit, Bağlar","@relations":[{"role":"subarea","rel":1665230,"reltags":{"admin_level":"6","boundary":"administrative","name":"Bağlar","name:ce":"БагӀлар","name:de":"Bağlar","name:en":"Bağlar","name:ku":"Rezik","name:tr":"Bağlar","name:tr:suffix":"İlçesi","name:tt":"Баглар","name:ur":"باغلار","network":"TR21-districts","type":"boundary","wikidata":"Q812731","wikipedia":"tr:Bağlar"}}]},"id":"relation/5504226"},
{"type":"Feature","geometry":{"type":"Polygon","coordinates":[[[40.205815,37.9362378],[40.1958446,37.9336818],[40.2175178,37.9208875],[40.205815,37.9362378]]]},"properties":{"@id":"relation/5504645","admin_level":"8","boundary":"administrative","name":"Selahattin Eyyubi Mahallesi","name:ku":"Selahedînê Eyûbî","type":"boundary","wikidata":"Q109387606","wikipedia":"tr:Selahattin Eyyubi, Bağlar","@relations":[{"role":"subarea","rel":1665230,"reltags":{"admin_level":"6","boundary":"administrative","name":"Bağlar","name:ce":"БагӀлар","name:de":"Bağlar","name:en":"Bağlar","name:ku":"Rezik","name:tr":"Bağlar","name:tr:suffix":"İlçesi","name:tt":"Баглар","name:ur":"باغلار","network":"TR21-districts","type":"boundary","wikidata":"Q812731","wikipedia":"tr:Bağlar"}}]},"id":"relation/5504645"},
{"type":"Feature","geometry":{"type":"Polygon","coordinates":[[[40.2103348,37.9234756],[40.2083275,37.9173686],[40.2170246,37.9188316],[40.2175178,37.9208875],[40.2103348,37.9234756]]]},"properties":{"@id":"relation/5504778","admin_level":"8","boundary":"administrative","name":"Kaynartepe Mahallesi","type":"boundary","wikidata":"Q109387594","wikipedia":"tr:Kaynartepe, Bağlar","@relations":[{"role":"subarea","rel":1665230,"reltags":{"admin_level":"6","boundary":"administrative","name":"Bağlar","name:ce":"БагӀлар","name:de":"Bağlar","name:en":"Bağlar","name:ku":"Rezik","name:tr":"Bağlar","name:tr:suffix":"İlçesi","name:tt":"Баглар","name:ur":"باغلار","network":"TR21-districts","type":"boundary","wikidata":"Q812731","wikipedia":"tr:Bağlar"}}]},"id":"relation/5504778"},
{"type":"Feature","geometry":{"type":"Polygon","coordinates":[[[40.2161587,37.9152251],[40.2170246,37.9188316],[40.2083275,37.9173686],[40.2161587,37.9152251]]]},"properties":{"@id":"relation/5504781","admin_level":"8","boundary":"administrative","name":"Muradiye Mahallesi","name:ku":"Taxa Mûradiye","type":"boundary","wikidata":"Q109387602","wikipedia":"tr:Muradiye, Bağlar","@relations":[{"role":"subarea","rel":1665230,"reltags":{"admin_level":"6","boundary":"administrative","name":"Bağlar","name:ce":"БагӀлар","name:de":"Bağlar","name:en":"Bağlar","name:ku":"Rezik","name:tr":"Bağlar","name:tr:suffix":"İlçesi","name:tt":"Баглар","name:ur":"باغلار","network":"TR21-districts","type":"boundary","wikidata":"Q812731","wikipedia":"tr:Bağlar"}}]},"id":"relation/5504781"},
{"type":"Feature","geometry":{"type":"Polygon","coordinates":[[[40.2144224,37.9121383],[40.2148617,37.9143877],[40.2161587,37.9152251],[40.2083275,37.9173686],[40.2089544,37.9116524],[40.2144224,37.9121383]]]},"properties":{"@id":"relation/5504801","admin_level":"8","boundary":"administrative","name":"Fatih Mahallesi","type":"boundary","wikidata":"Q109390908","wikipedia":"tr:Fatih, Bağlar","@relations":[{"role":"subarea","rel":1665230,"reltags":{"admin_level":"6","boundary":"administrative","name":"Bağlar","name:ce":"БагӀлар","name:de":"Bağlar","name:en":"Bağlar","name:ku":"Rezik","name:tr":"Bağlar","name:tr:suffix":"İlçesi","name:tt":"Баглар","name:ur":"باغلار","network":"TR21-districts","type":"boundary","wikidata":"Q812731","wikipedia":"tr:Bağlar"}}]},"id":"relation/5504801"},
{"type":"Feature","geometry":{"type":"Polygon","coordinates":[[[40.2197484,37.8822582],[40.2140992,37.9067621],[40.2144224,37.9121383],[40.2089544,37.9116524],[40.1992714,37.9157671],[40.1899971,37.9138341],[40.1846032,37.886481],[40.1979806,37.874272],[40.2197484,37.8822582]]]},"properties":{"@id":"relation/5504802","admin_level":"8","boundary":"administrative","name":"Körhat Mahallesi","name:ku":"Taxa Korhat","type":"boundary","wikidata":"Q109387599","wikipedia":"tr:Körhat, Bağlar","@relations":[{"role":"subarea","rel":1665230,"reltags":{"admin_level":"6","boundary":"administrative","name":"Bağlar","name:ce":"БагӀлар","name:de":"Bağlar","name:en":"Bağlar","name:ku":"Rezik","name:tr":"Bağlar","name:tr:suffix":"İlçesi","name:tt":"Баглар","name:ur":"باغلار","network":"TR21-districts","type":"boundary","wikidata":"Q812731","wikipedia":"tr:Bağlar"}}]},"id":"relation/5504802"},
{"type":"Feature","geometry":{"type":"Polygon","coordinates":[[[40.2237377,37.8743459],[40.2140992,37.9067621],[40.2197484,37.8822582],[40.2237377,37.8743459]]]},"properties":{"@id":"relation/5504839","admin_level":"8","boundary":"administrative","name":"Alipınar Mahallesi","name:ku":"Taxa Elîpînar","type":"boundary","wikidata":"Q108929063","wikipedia":"tr:Alipınar, Bağlar","@relations":[{"role":"subarea","rel":1665230,"reltags":{"admin_level":"6","boundary":"administrative","name":"Bağlar","name:ce":"БагӀлар","name:de":"Bağlar","name:en":"Bağlar","name:ku":"Rezik","name:tr":"Bağlar","name:tr:suffix":"İlçesi","name:tt":"Баглар","name:ur":"باغلار","network":"TR21-districts","type":"boundary","wikidata":"Q812731","wikipedia":"tr:Bağlar"}}]},"id":"relation/5504839"},
{"type":"Feature","geometry":{"type":"Polygon","coordinates":[[[40.1992714,37.9157671],[40.2089544,37.9116524],[40.2083275,37.9173686],[40.2034565,37.9166542],[40.1992714,37.9157671]]]},"properties":{"@id":"relation/5505132","admin_level":"8","boundary":"administrative","name":"Yunus Emre Mahallesi","name:ku":"Taxa Yûnus Emre","type":"boundary","wikidata":"Q109387618","wikipedia":"tr:Yunus Emre, Bağlar","@relations":[{"role":"subarea","rel":1665230,"reltags":{"admin_level":"6","boundary":"administrative","name":"Bağlar","name:ce":"БагӀлар","name:de":"Bağlar","name:en":"Bağlar","name:ku":"Rezik","name:tr":"Bağlar","name:tr:suffix":"İlçesi","name:tt":"Баглар","name:ur":"باغلار","network":"TR21-districts","type":"boundary","wikidata":"Q812731","wikipedia":"tr:Bağlar"}}]},"id":"relation/5505132"},
{"type":"Feature","geometry":{"type":"Polygon","coordinates":[[[40.2103348,37.9234756],[40.2026481,37.9261135],[40.1997396,37.9192158],[40.2034565,37.9166542],[40.2083275,37.9173686],[40.2103348,37.9234756]]]},"properties":{"@id":"relation/5505299","admin_level":"8","boundary":"administrative","name":"5 Nisan Mahallesi","name:ku":"Taxa 5ê Nîsan","type":"boundary","wikidata":"Q108928894","wikipedia":"tr:5 Nisan, Bağlar","@relations":[{"role":"subarea","rel":1665230,"reltags":{"admin_level":"6","boundary":"administrative","name":"Bağlar","name:ce":"БагӀлар","name:de":"Bağlar","name:en":"Bağlar","name:ku":"Rezik","name:tr":"Bağlar","name:tr:suffix":"İlçesi","name:tt":"Баглар","name:ur":"باغلار","network":"TR21-districts","type":"boundary","wikidata":"Q812731","wikipedia":"tr:Bağlar"}}]},"id":"relation/5505299"},
{"type":"Feature","geometry":{"type":"Polygon","coordinates":[[[40.1997396,37.9192158],[40.1951043,37.9223349],[40.1899971,37.9138341],[40.1992714,37.9157671],[40.2034565,37.9166542],[40.1997396,37.9192158]]]},"properties":{"@id":"relation/5505300","admin_level":"8","boundary":"administrative","city":"Bağlar/Diyarbakır","name":"Yeniköy Mahallesi","type":"boundary","wikidata":"Q109387615","wikipedia":"tr:Yeniköy, Bağlar","@relations":[{"role":"subarea","rel":1665230,"reltags":{"admin_level":"6","boundary":"administrative","name":"Bağlar","name:ce":"БагӀлар","name:de":"Bağlar","name:en":"Bağlar","name:ku":"Rezik","name:tr":"Bağlar","name:tr:suffix":"İlçesi","name:tt":"Баглар","name:ur":"باغلار","network":"TR21-districts","type":"boundary","wikidata":"Q812731","wikipedia":"tr:Bağlar"}}]},"id":"relation/5505300"},
{"type":"Feature","geometry":{"type":"Polygon","coordinates":[[[40.236976,37.8551388],[40.2298784,37.8661176],[40.2281875,37.8650105],[40.2209575,37.8459902],[40.2314464,37.826896],[40.2489742,37.8306429],[40.236976,37.8551388]]]},"properties":{"@id":"relation/5506082","admin_level":"8","alt_name":"Yeşilvadi Mahallesi","boundary":"administrative","name":"Çarıklı Mahallesi","type":"boundary","@relations":[{"role":"subarea","rel":1664708,"reltags":{"admin_level":"6","boundary":"administrative","name":"Sur","name:ar":"السور","name:azb":"سور","name:ce":"Сур","name:ckb":"سوور","name:de":"Sur","name:en":"Sur","name:es":"Sur","name:ku":"Sûr","name:tr":"Sur","name:tr:suffix":"İlçesi","name:tt":"Сур","name:ur":"سور","network":"TR21-districts","type":"boundary","wikidata":"Q664716","wikipedia":"tr:Sur, Diyarbakır"}}]},"id":"relation/5506082"},
{"type":"Feature","geometry":{"type":"Polygon","coordinates":[[[40.2125768,37.9532883],[40.2141158,37.9377296],[40.2312424,37.9467946],[40.2120489,37.9562685],[40.2125768,37.9532883]]]},"properties":{"@id":"relation/5506934","admin_level":"8","boundary":"administrative","city":"Yenişehir/Diyarbakır","name":"Gürdoğan Mahallesi","type":"boundary","wikidata":"Q109384219","wikipedia":"tr:Gürdoğan, Yenişehir","@relations":[{"role":"subarea","rel":1665091,"reltags":{"admin_level":"6","alt_name:ku":"Yenîşehir","boundary":"administrative","name":"Yenişehir","name:de":"Yenişehir","name:en":"Yenişehir","name:ku":"Bajarê Nû","name:tr":"Yenişehir","name:tr:suffix":"İlçesi","name:tt":"Енишеһир","name:uk":"Єнішегір","name:ur":"ینی شہر","network":"TR21-districts","type":"boundary","wikidata":"Q990218","wikipedia":"tr:Yenişehir, Diyarbakır"}}]},"id":"relation/5506934"},
{"type":"Feature","geometry":{"type":"Polygon","coordinates":[[[40.2116024,37.9614472],[40.2120489,37.9562685],[40.2312424,37.9467946],[40.2116024,37.9614472]]]},"properties":{"@id":"relation/5506952","admin_level":"8","boundary":"administrative","city":"Yenişehir/Diyarbakır","name":"Dönümlü Mahallesi","name:ku":"Exika Misilmanan","type":"boundary","wikidata":"Q109384214","wikipedia":"tr:Dönümlü, Yenişehir","@relations":[{"role":"subarea","rel":1665091,"reltags":{"admin_level":"6","alt_name:ku":"Yenîşehir","boundary":"administrative","name":"Yenişehir","name:de":"Yenişehir","name:en":"Yenişehir","name:ku":"Bajarê Nû","name:tr":"Yenişehir","name:tr:suffix":"İlçesi","name:tt":"Енишеһир","name:uk":"Єнішегір","name:ur":"ینی شہر","network":"TR21-districts","type":"boundary","wikidata":"Q990218","wikipedia":"tr:Yenişehir, Diyarbakır"}}]},"id":"relation/5506952"},
{"type":"Feature","geometry":{"type":"Polygon","coordinates":[[[40.2077192,37.9367411],[40.2141158,37.9377296],[40.2125768,37.9532883],[40.1975031,37.9470316],[40.2077192,37.9367411]]]},"properties":{"@id":"relation/5506976","admin_level":"8","alt_name:ku":"Ezîziye","boundary":"administrative","name":"Aziziye Mahallesi","name:ku":"Evdilezîz Taxa","type":"boundary","wikidata":"Q109391570","wikipedia":"tr:Aziziye, Yenişehir","@relations":[{"role":"subarea","rel":1665091,"reltags":{"admin_level":"6","alt_name:ku":"Yenîşehir","boundary":"administrative","name":"Yenişehir","name:de":"Yenişehir","name:en":"Yenişehir","name:ku":"Bajarê Nû","name:tr":"Yenişehir","name:tr:suffix":"İlçesi","name:tt":"Енишеһир","name:uk":"Єнішегір","name:ur":"ینی شہر","network":"TR21-districts","type":"boundary","wikidata":"Q990218","wikipedia":"tr:Yenişehir, Diyarbakır"}}]},"id":"relation/5506976"},
{"type":"Feature","geometry":{"type":"Polygon","coordinates":[[[40.1975031,37.9470316],[40.2125768,37.9532883],[40.2120489,37.9562685],[40.2116024,37.9614472],[40.1876891,37.955972],[40.1975031,37.9470316]]]},"properties":{"@id":"relation/5507115","admin_level":"8","boundary":"administrative","name":"Yolaltı Mahallesi","name:ku":"Taxa Şilbê","type":"boundary","wikidata":"Q109384234","wikipedia":"tr:Yolaltı, Yenişehir","@relations":[{"role":"subarea","rel":1665091,"reltags":{"admin_level":"6","alt_name:ku":"Yenîşehir","boundary":"administrative","name":"Yenişehir","name:de":"Yenişehir","name:en":"Yenişehir","name:ku":"Bajarê Nû","name:tr":"Yenişehir","name:tr:suffix":"İlçesi","name:tt":"Енишеһир","name:uk":"Єнішегір","name:ur":"ینی شہر","network":"TR21-districts","type":"boundary","wikidata":"Q990218","wikipedia":"tr:Yenişehir, Diyarbakır"}}]},"id":"relation/5507115"},
{"type":"Feature","geometry":{"type":"Polygon","coordinates":[[[40.1876891,37.955972],[40.1835998,37.9538483],[40.1903793,37.9484545],[40.205815,37.9362378],[40.2077192,37.9367411],[40.1975031,37.9470316],[40.1876891,37.955972]]]},"properties":{"@id":"relation/5507225","admin_level":"8","boundary":"administrative","name":"Seyrantepe Sanayi Mahallesi","type":"boundary","wikidata":"Q109384229","wikipedia":"tr:Seyrantepe Sanayi, Yenişehir","@relations":[{"role":"subarea","rel":1665091,"reltags":{"admin_level":"6","alt_name:ku":"Yenîşehir","boundary":"administrative","name":"Yenişehir","name:de":"Yenişehir","name:en":"Yenişehir","name:ku":"Bajarê Nû","name:tr":"Yenişehir","name:tr:suffix":"İlçesi","name:tt":"Енишеһир","name:uk":"Єнішегір","name:ur":"ینی شہر","network":"TR21-districts","type":"boundary","wikidata":"Q990218","wikipedia":"tr:Yenişehir, Diyarbakır"}}]},"id":"relation/5507225"},
{"type":"Feature","geometry":{"type":"Polygon","coordinates":[[[40.2358735,37.9075977],[40.2363123,37.9091977],[40.2345109,37.9094574],[40.2342996,37.9084237],[40.2358735,37.9075977]]]},"properties":{"@id":"relation/5509013","admin_level":"8","boundary":"administrative","name":"Abdaldede Mahallesi","name:ku":"Taxa Evdaldede","type":"boundary","wikidata":"Q88522853","wikipedia":"tr:Abdaldede, Sur","@relations":[{"role":"subarea","rel":1664708,"reltags":{"admin_level":"6","boundary":"administrative","name":"Sur","name:ar":"السور","name:azb":"سور","name:ce":"Сур","name:ckb":"سوور","name:de":"Sur","name:en":"Sur","name:es":"Sur","name:ku":"Sûr","name:tr":"Sur","name:tr:suffix":"İlçesi","name:tt":"Сур","name:ur":"سور","network":"TR21-districts","type":"boundary","wikidata":"Q664716","wikipedia":"tr:Sur, Diyarbakır"}}]},"id":"relation/5509013"},
{"type":"Feature","geometry":{"type":"Polygon","coordinates":[[[40.2351986,37.9109599],[40.2345109,37.9094574],[40.2363123,37.9091977],[40.2367405,37.9110166],[40.2351986,37.9109599]]]},"properties":{"@id":"relation/5509014","admin_level":"8","boundary":"administrative","name":"Süleyman Nazif Mahallesi","name:ku":"Taxa Silêman Nezîf","type":"boundary","wikidata":"Q109391559","wikipedia":"tr:Süleyman Nazif, Sur","@relations":[{"role":"subarea","rel":1664708,"reltags":{"admin_level":"6","boundary":"administrative","name":"Sur","name:ar":"السور","name:azb":"سور","name:ce":"Сур","name:ckb":"سوور","name:de":"Sur","name:en":"Sur","name:es":"Sur","name:ku":"Sûr","name:tr":"Sur","name:tr:suffix":"İlçesi","name:tt":"Сур","name:ur":"سور","network":"TR21-districts","type":"boundary","wikidata":"Q664716","wikipedia":"tr:Sur, Diyarbakır"}}]},"id":"relation/5509014"},
{"type":"Feature","geometry":{"type":"Polygon","coordinates":[[[40.232623,37.9118705],[40.2351986,37.9109599],[40.2367405,37.9110166],[40.236748,37.9121728],[40.236876,37.9133693],[40.2345873,37.9131522],[40.232623,37.9118705]]]},"properties":{"@id":"relation/5509015","admin_level":"8","boundary":"administrative","name":"Cami Kebir Mahallesi","type":"boundary","wikidata":"Q109391978","wikipedia":"tr:Cami Kebir, Sur","@relations":[{"role":"subarea","rel":1664708,"reltags":{"admin_level":"6","boundary":"administrative","name":"Sur","name:ar":"السور","name:azb":"سور","name:ce":"Сур","name:ckb":"سوور","name:de":"Sur","name:en":"Sur","name:es":"Sur","name:ku":"Sûr","name:tr":"Sur","name:tr:suffix":"İlçesi","name:tt":"Сур","name:ur":"سور","network":"TR21-districts","type":"boundary","wikidata":"Q664716","wikipedia":"tr:Sur, Diyarbakır"}}]},"id":"relation/5509015"},
{"type":"Feature","geometry":{"type":"Polygon","coordinates":[[[40.2358735,37.9075977],[40.2342996,37.9084237],[40.2327049,37.9085863],[40.2263401,37.9068053],[40.2355397,37.9065541],[40.2358735,37.9075977]]]},"properties":{"@id":"relation/5511207","admin_level":"8","boundary":"administrative","name":"Ali Paşa Mahallesi","name:ar":"محلة علي باشا","name:ku":"Taxa Elî Paşa","type":"boundary","wikidata":"Q97235291","wikipedia":"tr:Ali Paşa, Sur","@relations":[{"role":"subarea","rel":1664708,"reltags":{"admin_level":"6","boundary":"administrative","name":"Sur","name:ar":"السور","name:azb":"سور","name:ce":"Сур","name:ckb":"سوور","name:de":"Sur","name:en":"Sur","name:es":"Sur","name:ku":"Sûr","name:tr":"Sur","name:tr:suffix":"İlçesi","name:tt":"Сур","name:ur":"سور","network":"TR21-districts","type":"boundary","wikidata":"Q664716","wikipedia":"tr:Sur, Diyarbakır"}}]},"id":"relation/5511207"},
{"type":"Feature","geometry":{"type":"Polygon","coordinates":[[[40.2263401,37.9068053],[40.2327049,37.9085863],[40.2321403,37.9107048],[40.2281983,37.9086783],[40.2263401,37.9068053]]]},"properties":{"@id":"relation/5511244","admin_level":"8","boundary":"administrative","name":"Lalebey Mahallesi","name:ku":"Taxa Lala Beg","type":"boundary","wikidata":"Q109391553","wikipedia":"tr:Lalebey, Sur","@relations":[{"role":"subarea","rel":1664708,"reltags":{"admin_level":"6","boundary":"administrative","name":"Sur","name:ar":"السور","name:azb":"سور","name:ce":"Сур","name:ckb":"سوور","name:de":"Sur","name:en":"Sur","name:es":"Sur","name:ku":"Sûr","name:tr":"Sur","name:tr:suffix":"İlçesi","name:tt":"Сур","name:ur":"سور","network":"TR21-districts","type":"boundary","wikidata":"Q664716","wikipedia":"tr:Sur, Diyarbakır"}}]},"id":"relation/5511244"},
{"type":"Feature","geometry":{"type":"Polygon","coordinates":[[[40.2287962,37.9141625],[40.2270196,37.9109152],[40.2281983,37.9086783],[40.2321403,37.9107048],[40.232623,37.9118705],[40.2287962,37.9141625]]]},"properties":{"@id":"relation/5511274","admin_level":"8","boundary":"administrative","name":"Melikahmet Mahallesi","name:ku":"Taxa Melek Ehmed","type":"boundary","wikidata":"Q109391557","wikipedia":"tr:Melikahmet, Sur","@relations":[{"role":"subarea","rel":1664708,"reltags":{"admin_level":"6","boundary":"administrative","name":"Sur","name:ar":"السور","name:azb":"سور","name:ce":"Сур","name:ckb":"سوور","name:de":"Sur","name:en":"Sur","name:es":"Sur","name:ku":"Sûr","name:tr":"Sur","name:tr:suffix":"İlçesi","name:tt":"Сур","name:ur":"سور","network":"TR21-districts","type":"boundary","wikidata":"Q664716","wikipedia":"tr:Sur, Diyarbakır"}}]},"id":"relation/5511274"},
{"type":"Feature","geometry":{"type":"Polygon","coordinates":[[[40.232623,37.9118705],[40.2321403,37.9107048],[40.2327049,37.9085863],[40.2342996,37.9084237],[40.2345109,37.9094574],[40.2351986,37.9109599],[40.232623,37.9118705]]]},"properties":{"@id":"relation/5511275","admin_level":"8","boundary":"administrative","name":"Ziya Gökalp Mahallesi","name:ku":"Taxa Ziya Gokalp","type":"boundary","wikidata":"Q109391568","wikipedia":"tr:Ziya Gökalp, Sur","@relations":[{"role":"subarea","rel":1664708,"reltags":{"admin_level":"6","boundary":"administrative","name":"Sur","name:ar":"السور","name:azb":"سور","name:ce":"Сур","name:ckb":"سوور","name:de":"Sur","name:en":"Sur","name:es":"Sur","name:ku":"Sûr","name:tr":"Sur","name:tr:suffix":"İlçesi","name:tt":"Сур","name:ur":"سور","network":"TR21-districts","type":"boundary","wikidata":"Q664716","wikipedia":"tr:Sur, Diyarbakır"}}]},"id":"relation/5511275"},
{"type":"Feature","geometry":{"type":"Polygon","coordinates":[[[40.232623,37.9118705],[40.2345873,37.9131522],[40.2318489,37.9151945],[40.2287962,37.9141625],[40.232623,37.9118705]]]},"properties":{"@id":"relation/5511295","admin_level":"8","boundary":"administrative","name":"İskenderpaşa Mahallesi","name:ku":"Taxa Îskender Paşa","type":"boundary","wikidata":"Q109391083","wikipedia":"tr:İskenderpaşa, Sur","@relations":[{"role":"subarea","rel":1664708,"reltags":{"admin_level":"6","boundary":"administrative","name":"Sur","name:ar":"السور","name:azb":"سور","name:ce":"Сур","name:ckb":"سوور","name:de":"Sur","name:en":"Sur","name:es":"Sur","name:ku":"Sûr","name:tr":"Sur","name:tr:suffix":"İlçesi","name:tt":"Сур","name:ur":"سور","network":"TR21-districts","type":"boundary","wikidata":"Q664716","wikipedia":"tr:Sur, Diyarbakır"}}]},"id":"relation/5511295"},
{"type":"Feature","geometry":{"type":"Polygon","coordinates":[[[40.2380198,37.9165293],[40.2318489,37.9151945],[40.2345873,37.9131522],[40.236876,37.9133693],[40.2375721,37.9133523],[40.2380198,37.9165293]]]},"properties":{"@id":"relation/5511296","admin_level":"8","boundary":"administrative","name":"Cami Nebi Mahallesi","name:ku":"Taxa Mizgefta Mezin (?)","type":"boundary","wikidata":"Q109391979","wikipedia":"tr:Cami Nebi, Sur","@relations":[{"role":"subarea","rel":1664708,"reltags":{"admin_level":"6","boundary":"administrative","name":"Sur","name:ar":"السور","name:azb":"سور","name:ce":"Сур","name:ckb":"سوور","name:de":"Sur","name:en":"Sur","name:es":"Sur","name:ku":"Sûr","name:tr":"Sur","name:tr:suffix":"İlçesi","name:tt":"Сур","name:ur":"سور","network":"TR21-districts","type":"boundary","wikidata":"Q664716","wikipedia":"tr:Sur, Diyarbakır"}}]},"id":"relation/5511296"},
{"type":"Feature","geometry":{"type":"Polygon","coordinates":[[[40.2380198,37.9165293],[40.2375721,37.9133523],[40.2419699,37.9136379],[40.2460898,37.9159148],[40.2447916,37.9179885],[40.2424311,37.9173993],[40.2380198,37.9165293]]]},"properties":{"@id":"relation/5511528","admin_level":"8","boundary":"administrative","city":"Sur/Diyarbakır","name":"Cevat Paşa Mahallesi","name:ku":"Taxa Cewad Paşa","type":"boundary","wikidata":"Q109391982","wikipedia":"tr:Cevat Paşa, Sur","@relations":[{"role":"subarea","rel":1664708,"reltags":{"admin_level":"6","boundary":"administrative","name":"Sur","name:ar":"السور","name:azb":"سور","name:ce":"Сур","name:ckb":"سوور","name:de":"Sur","name:en":"Sur","name:es":"Sur","name:ku":"Sûr","name:tr":"Sur","name:tr:suffix":"İlçesi","name:tt":"Сур","name:ur":"سور","network":"TR21-districts","type":"boundary","wikidata":"Q664716","wikipedia":"tr:Sur, Diyarbakır"}}]},"id":"relation/5511528"},
{"type":"Feature","geometry":{"type":"Polygon","coordinates":[[[40.236876,37.9133693],[40.236748,37.9121728],[40.2397355,37.9115935],[40.2419699,37.9136379],[40.2375721,37.9133523],[40.236876,37.9133693]]]},"properties":{"@id":"relation/5511550","admin_level":"8","boundary":"administrative","name":"Dabanoğlu Mahallesi","name:ku":"Taxa Dabanoglu","type":"boundary","wikidata":"Q109391984","wikipedia":"tr:Dabanoğlu, Sur","@relations":[{"role":"subarea","rel":1664708,"reltags":{"admin_level":"6","boundary":"administrative","name":"Sur","name:ar":"السور","name:azb":"سور","name:ce":"Сур","name:ckb":"سوور","name:de":"Sur","name:en":"Sur","name:es":"Sur","name:ku":"Sûr","name:tr":"Sur","name:tr:suffix":"İlçesi","name:tt":"Сур","name:ur":"سور","network":"TR21-districts","type":"boundary","wikidata":"Q664716","wikipedia":"tr:Sur, Diyarbakır"}}]},"id":"relation/5511550"},
{"type":"Feature","geometry":{"type":"Polygon","coordinates":[[[40.2367405,37.9110166],[40.2363123,37.9091977],[40.2379221,37.9085869],[40.2395078,37.9104548],[40.2397355,37.9115935],[40.236748,37.9121728],[40.2367405,37.9110166]]]},"properties":{"@id":"relation/5511551","admin_level":"8","boundary":"administrative","name":"Savaş Mahallesi","type":"boundary","wikidata":"Q97232258","wikipedia":"tr:Savaş, Sur","@relations":[{"role":"subarea","rel":1664708,"reltags":{"admin_level":"6","boundary":"administrative","name":"Sur","name:ar":"السور","name:azb":"سور","name:ce":"Сур","name:ckb":"سوور","name:de":"Sur","name:en":"Sur","name:es":"Sur","name:ku":"Sûr","name:tr":"Sur","name:tr:suffix":"İlçesi","name:tt":"Сур","name:ur":"سور","network":"TR21-districts","type":"boundary","wikidata":"Q664716","wikipedia":"tr:Sur, Diyarbakır"}}]},"id":"relation/5511551"},
{"type":"Feature","geometry":{"type":"Polygon","coordinates":[[[40.2358735,37.9075977],[40.2355397,37.9065541],[40.2358163,37.906047],[40.2411346,37.905872],[40.2379221,37.9085869],[40.2363123,37.9091977],[40.2358735,37.9075977]]]},"properties":{"@id":"relation/5511552","admin_level":"8","boundary":"administrative","name":"Cemal Yılmaz Mahallesi","name:ku":"Taxa Cemalyilmez","type":"boundary","wikidata":"Q109391980","wikipedia":"tr:Cemal Yılmaz, Sur","@relations":[{"role":"subarea","rel":1664708,"reltags":{"admin_level":"6","boundary":"administrative","name":"Sur","name:ar":"السور","name:azb":"سور","name:ce":"Сур","name:ckb":"سوور","name:de":"Sur","name:en":"Sur","name:es":"Sur","name:ku":"Sûr","name:tr":"Sur","name:tr:suffix":"İlçesi","name:tt":"Сур","name:ur":"سور","network":"TR21-districts","type":"boundary","wikidata":"Q664716","wikipedia":"tr:Sur, Diyarbakır"}}]},"id":"relation/5511552"},
{"type":"Feature","geometry":{"type":"Polygon","coordinates":[[[40.2411346,37.905872],[40.2461264,37.9069855],[40.2470208,37.9099237],[40.2395078,37.9104548],[40.2379221,37.9085869],[40.2411346,37.905872]]]},"properties":{"@id":"relation/5511567","admin_level":"8","boundary":"administrative","name":"Hasırlı Mahallesi","name:ku":"Taxa Hesirlî","type":"boundary","wikidata":"Q109391079","wikipedia":"tr:Hasırlı, Sur","@relations":[{"role":"subarea","rel":1664708,"reltags":{"admin_level":"6","boundary":"administrative","name":"Sur","name:ar":"السور","name:azb":"سور","name:ce":"Сур","name:ckb":"سوور","name:de":"Sur","name:en":"Sur","name:es":"Sur","name:ku":"Sûr","name:tr":"Sur","name:tr:suffix":"İlçesi","name:tt":"Сур","name:ur":"سور","network":"TR21-districts","type":"boundary","wikidata":"Q664716","wikipedia":"tr:Sur, Diyarbakır"}}]},"id":"relation/5511567"},
{"type":"Feature","geometry":{"type":"Polygon","coordinates":[[[40.2395078,37.9104548],[40.2470208,37.9099237],[40.2460898,37.9159148],[40.2419699,37.9136379],[40.2397355,37.9115935],[40.2395078,37.9104548]]]},"properties":{"@id":"relation/5511576","admin_level":"8","boundary":"administrative","name":"Fatihpaşa Mahallesi","name:ar":"محلة فاتح باشا","name:ku":"Taxa Fatihpaşa","type":"boundary","wikidata":"Q109391986","wikipedia":"tr:Fatihpaşa, Sur","@relations":[{"role":"subarea","rel":1664708,"reltags":{"admin_level":"6","boundary":"administrative","name":"Sur","name:ar":"السور","name:azb":"سور","name:ce":"Сур","name:ckb":"سوور","name:de":"Sur","name:en":"Sur","name:es":"Sur","name:ku":"Sûr","name:tr":"Sur","name:tr:suffix":"İlçesi","name:tt":"Сур","name:ur":"سور","network":"TR21-districts","type":"boundary","wikidata":"Q664716","wikipedia":"tr:Sur, Diyarbakır"}}]},"id":"relation/5511576"},
{"type":"Feature","geometry":{"type":"Polygon","coordinates":[[[40.7047321,37.8462396],[40.6860544,37.856961],[40.6819452,37.8490968],[40.7047321,37.8462396]]]},"properties":{"@id":"relation/7735715","admin_level":"8","boundary":"administrative","name":"Seyrantepe Mahallesi","type":"boundary","wikidata":"Q109387630","wikipedia":"tr:Seyrantepe, Bismil","@relations":[{"role":"subarea","rel":1357023,"reltags":{"admin_level":"6","boundary":"administrative","name":"Bismil","name:ar":"بسمل","name:ce":"Бисмил","name:de":"Bismil","name:diq":"Bismil","name:en":"Bismil","name:fa":"بسمل","name:hi":"बिस्मिल","name:ku":"Bismil","name:pa":"ਬਿਸਮਿਲ","name:ru":"Бисмиль","name:ta":"பிசுமில் மாவட்டம்","name:tr":"Bismil","name:tr:suffix":"İlçesi","name:tt":"Бисмил","name:ur":"بسمل","name:zh":"比爾米爾","name:zza":"Bısmıl","network":"TR21-districts","type":"boundary","wikidata":"Q546905","wikipedia":"tr:Bismil"}}]},"id":"relation/7735715"},
{"type":"Feature","geometry":{"type":"Polygon","coordinates":[[[40.6747334,37.8514577],[40.6819452,37.8490968],[40.6860544,37.856961],[40.6703408,37.8635375],[40.6688769,37.852986],[40.6687153,37.8522771],[40.6747334,37.8514577]]]},"properties":{"@id":"relation/7735716","admin_level":"8","boundary":"administrative","city":"Diyarbakır","district":"Bismil","name":"Esentepe Mahallesi","type":"boundary","wikidata":"Q109387624","wikipedia":"tr:Esentepe, Bismil","@relations":[{"role":"subarea","rel":1357023,"reltags":{"admin_level":"6","boundary":"administrative","name":"Bismil","name:ar":"بسمل","name:ce":"Бисмил","name:de":"Bismil","name:diq":"Bismil","name:en":"Bismil","name:fa":"بسمل","name:hi":"बिस्मिल","name:ku":"Bismil","name:pa":"ਬਿਸਮਿਲ","name:ru":"Бисмиль","name:ta":"பிசுமில் மாவட்டம்","name:tr":"Bismil","name:tr:suffix":"İlçesi","name:tt":"Бисмил","name:ur":"بسمل","name:zh":"比爾米爾","name:zza":"Bısmıl","network":"TR21-districts","type":"boundary","wikidata":"Q546905","wikipedia":"tr:Bismil"}}]},"id":"relation/7735716"},
{"type":"Feature","geometry":{"type":"Polygon","coordinates":[[[40.6628743,37.8535685],[40.6688769,37.852986],[40.6703408,37.8635375],[40.660509,37.8645798],[40.6592529,37.8539575],[40.6628743,37.8535685]]]},"properties":{"@id":"relation/7735717","admin_level":"8","boundary":"administrative","city":"Diyarbakır","district":"Bismil","name":"Şentepe Mahallesi","type":"boundary","wikidata":"Q109387629","wikipedia":"tr:Şentepe, Bismil","@relations":[{"role":"subarea","rel":1357023,"reltags":{"admin_level":"6","boundary":"administrative","name":"Bismil","name:ar":"بسمل","name:ce":"Бисмил","name:de":"Bismil","name:diq":"Bismil","name:en":"Bismil","name:fa":"بسمل","name:hi":"बिस्मिल","name:ku":"Bismil","name:pa":"ਬਿਸਮਿਲ","name:ru":"Бисмиль","name:ta":"பிசுமில் மாவட்டம்","name:tr":"Bismil","name:tr:suffix":"İlçesi","name:tt":"Бисмил","name:ur":"بسمل","name:zh":"比爾米爾","name:zza":"Bısmıl","network":"TR21-districts","type":"boundary","wikidata":"Q546905","wikipedia":"tr:Bismil"}}]},"id":"relation/7735717"},
{"type":"Feature","geometry":{"type":"Polygon","coordinates":[[[40.6514245,37.8546896],[40.6592529,37.8539575],[40.660509,37.8645798],[40.6514245,37.8546896]]]},"properties":{"@id":"relation/7735718","addr:city":"Diyarbakır","addr:district":"Bismil","admin_level":"8","boundary":"administrative","name":"Tekel Mahallesi","type":"boundary","wikidata":"Q109387631","wikipedia":"tr:Tekel, Bismil","@relations":[{"role":"subarea","rel":1357023,"reltags":{"admin_level":"6","boundary":"administrative","name":"Bismil","name:ar":"بسمل","name:ce":"Бисмил","name:de":"Bismil","name:diq":"Bismil","name:en":"Bismil","name:fa":"بسمل","name:hi":"बिस्मिल","name:ku":"Bismil","name:pa":"ਬਿਸਮਿਲ","name:ru":"Бисмиль","name:ta":"பிசுமில் மாவட்டம்","name:tr":"Bismil","name:tr:suffix":"İlçesi","name:tt":"Бисмил","name:ur":"بسمل","name:zh":"比爾米爾","name:zza":"Bısmıl","network":"TR21-districts","type":"boundary","wikidata":"Q546905","wikipedia":"tr:Bismil"}}]},"id":"relation/7735718"},
{"type":"Feature","geometry":{"type":"Polygon","coordinates":[[[40.6634202,37.8481099],[40.6628743,37.8535685],[40.6592529,37.8539575],[40.6605296,37.847839],[40.6634253,37.8478352],[40.6634202,37.8481099]]]},"properties":{"@id":"relation/7735859","admin_level":"8","boundary":"administrative","city":"Diyarbakır","district":"Bismil","name":"Kurtuluş Mahallesi","type":"boundary"},"id":"relation/7735859"},
{"type":"Feature","geometry":{"type":"Polygon","coordinates":[[[40.6688769,37.852986],[40.6628743,37.8535685],[40.6634202,37.8481099],[40.6685995,37.8480588],[40.6687153,37.8522771],[40.6688769,37.852986]]]},"properties":{"@id":"relation/7736054","admin_level":"8","boundary":"administrative","city":"Diyarbakır","district":"Bismil","name":"Altıok Mahallesi","type":"boundary","wikidata":"Q109387620","wikipedia":"tr:Altıok, Bismil","@relations":[{"role":"subarea","rel":1357023,"reltags":{"admin_level":"6","boundary":"administrative","name":"Bismil","name:ar":"بسمل","name:ce":"Бисмил","name:de":"Bismil","name:diq":"Bismil","name:en":"Bismil","name:fa":"بسمل","name:hi":"बिस्मिल","name:ku":"Bismil","name:pa":"ਬਿਸਮਿਲ","name:ru":"Бисмиль","name:ta":"பிசுமில் மாவட்டம்","name:tr":"Bismil","name:tr:suffix":"İlçesi","name:tt":"Бисмил","name:ur":"بسمل","name:zh":"比爾米爾","name:zza":"Bısmıl","network":"TR21-districts","type":"boundary","wikidata":"Q546905","wikipedia":"tr:Bismil"}}]},"id":"relation/7736054"},
{"type":"Feature","geometry":{"type":"Polygon","coordinates":[[[40.7047321,37.8462396],[40.6819452,37.8490968],[40.6747334,37.8514577],[40.6736238,37.8479755],[40.6721319,37.8421539],[40.7047321,37.8462396]]]},"properties":{"@id":"relation/7736078","admin_level":"8","boundary":"administrative","city":"Diyarbakır","district":"Bismil","name":"Sanayi Mahallesi","type":"boundary","wikidata":"Q109387628","wikipedia":"tr:Sanayi, Bismil","@relations":[{"role":"subarea","rel":1357023,"reltags":{"admin_level":"6","boundary":"administrative","name":"Bismil","name:ar":"بسمل","name:ce":"Бисмил","name:de":"Bismil","name:diq":"Bismil","name:en":"Bismil","name:fa":"بسمل","name:hi":"बिस्मिल","name:ku":"Bismil","name:pa":"ਬਿਸਮਿਲ","name:ru":"Бисмиль","name:ta":"பிசுமில் மாவட்டம்","name:tr":"Bismil","name:tr:suffix":"İlçesi","name:tt":"Бисмил","name:ur":"بسمل","name:zh":"比爾米爾","name:zza":"Bısmıl","network":"TR21-districts","type":"boundary","wikidata":"Q546905","wikipedia":"tr:Bismil"}}]},"id":"relation/7736078"},
{"type":"Feature","geometry":{"type":"Polygon","coordinates":[[[40.6685995,37.8480588],[40.6634202,37.8481099],[40.6634253,37.8478352],[40.6635718,37.8431063],[40.6721319,37.8421539],[40.6736238,37.8479755],[40.6685995,37.8480588]]]},"properties":{"@id":"relation/7736084","addr:city":"Diyarbakır","addr:district":"Bismil","admin_level":"8","boundary":"administrative","name":"Akpınar Mahallesi","type":"boundary","wikidata":"Q109387619","wikipedia":"tr:Akpınar, Bismil","@relations":[{"role":"subarea","rel":1357023,"reltags":{"admin_level":"6","boundary":"administrative","name":"Bismil","name:ar":"بسمل","name:ce":"Бисмил","name:de":"Bismil","name:diq":"Bismil","name:en":"Bismil","name:fa":"بسمل","name:hi":"बिस्मिल","name:ku":"Bismil","name:pa":"ਬਿਸਮਿਲ","name:ru":"Бисмиль","name:ta":"பிசுமில் மாவட்டம்","name:tr":"Bismil","name:tr:suffix":"İlçesi","name:tt":"Бисмил","name:ur":"بسمل","name:zh":"比爾米爾","name:zza":"Bısmıl","network":"TR21-districts","type":"boundary","wikidata":"Q546905","wikipedia":"tr:Bismil"}}]},"id":"relation/7736084"},
{"type":"Feature","geometry":{"type":"Polygon","coordinates":[[[40.6605296,37.847839],[40.6526784,37.8429767],[40.6635718,37.8431063],[40.6634253,37.8478352],[40.6605296,37.847839]]]},"properties":{"@id":"relation/7736283","addr:city":"Diyarbakır","addr:district":"Bismil","admin_level":"8","boundary":"administrative","name":"Fırat Mahallesi","type":"boundary","wikidata":"Q109387626","wikipedia":"tr:Fırat, Bismil","@relations":[{"role":"subarea","rel":1357023,"reltags":{"admin_level":"6","boundary":"administrative","name":"Bismil","name:ar":"بسمل","name:ce":"Бисмил","name:de":"Bismil","name:diq":"Bismil","name:en":"Bismil","name:fa":"بسمل","name:hi":"बिस्मिल","name:ku":"Bismil","name:pa":"ਬਿਸਮਿਲ","name:ru":"Бисмиль","name:ta":"பிசுமில் மாவட்டம்","name:tr":"Bismil","name:tr:suffix":"İlçesi","name:tt":"Бисмил","name:ur":"بسمل","name:zh":"比爾米爾","name:zza":"Bısmıl","network":"TR21-districts","type":"boundary","wikidata":"Q546905","wikipedia":"tr:Bismil"}}]},"id":"relation/7736283"},
{"type":"Feature","geometry":{"type":"Polygon","coordinates":[[[40.6514245,37.8546896],[40.6526784,37.8429767],[40.6605296,37.847839],[40.6592529,37.8539575],[40.6514245,37.8546896]]]},"properties":{"@id":"relation/7736291","addr:city":"Diyarbakır","addr:district":"Bismil","admin_level":"8","boundary":"administrative","name":"Dumlupınar Mahallesi","type":"boundary","wikidata":"Q109387623","wikipedia":"tr:Dumlupınar, Bismil","@relations":[{"role":"subarea","rel":1357023,"reltags":{"admin_level":"6","boundary":"administrative","name":"Bismil","name:ar":"بسمل","name:ce":"Бисмил","name:de":"Bismil","name:diq":"Bismil","name:en":"Bismil","name:fa":"بسمل","name:hi":"बिस्मिल","name:ku":"Bismil","name:pa":"ਬਿਸਮਿਲ","name:ru":"Бисмиль","name:ta":"பிசுமில் மாவட்டம்","name:tr":"Bismil","name:tr:suffix":"İlçesi","name:tt":"Бисмил","name:ur":"بسمل","name:zh":"比爾米爾","name:zza":"Bısmıl","network":"TR21-districts","type":"boundary","wikidata":"Q546905","wikipedia":"tr:Bismil"}}]},"id":"relation/7736291"},
{"type":"Feature","geometry":{"type":"Polygon","coordinates":[[[39.7595537,38.2694709],[39.7609277,38.2689845],[39.7545903,38.2797798],[39.7595537,38.2694709]]]},"properties":{"@id":"relation/12724843","admin_level":"8","boundary":"administrative","name":"Saray Mahallesi","type":"boundary","wikidata":"Q109961299","wikipedia":"tr:Saray, Ergani","@relations":[{"role":"subarea","rel":1354885,"reltags":{"admin_level":"6","boundary":"administrative","name":"Ergani","name:ce":"Эргани","name:de":"Ergani","name:diq":"Erẍenî","name:en":"Ergani","name:fa":"ارگانی","name:hy":"Արկնի","name:ku":"Erxenî","name:ru":"Эргани","name:tr":"Ergani","name:tr:suffix":"İlçesi","name:ur":"عرگانی","name:zh":"埃爾加尼","name:zza":"Erğeni","network":"TR21-districts","type":"boundary","wikidata":"Q945363","wikipedia":"ku:Erxenî"}}]},"id":"relation/12724843"},
{"type":"Feature","geometry":{"type":"Polygon","coordinates":[[[39.7545903,38.2797798],[39.7537923,38.2694625],[39.7595537,38.2694709],[39.7545903,38.2797798]]]},"properties":{"@id":"relation/12724844","admin_level":"8","boundary":"administrative","name":"Kemertaş Mahallesi","type":"boundary","wikidata":"Q109961294","wikipedia":"tr:Kemertaş, Ergani","@relations":[{"role":"subarea","rel":1354885,"reltags":{"admin_level":"6","boundary":"administrative","name":"Ergani","name:ce":"Эргани","name:de":"Ergani","name:diq":"Erẍenî","name:en":"Ergani","name:fa":"ارگانی","name:hy":"Արկնի","name:ku":"Erxenî","name:ru":"Эргани","name:tr":"Ergani","name:tr:suffix":"İlçesi","name:ur":"عرگانی","name:zh":"埃爾加尼","name:zza":"Erğeni","network":"TR21-districts","type":"boundary","wikidata":"Q945363","wikipedia":"ku:Erxenî"}}]},"id":"relation/12724844"},
{"type":"Feature","geometry":{"type":"Polygon","coordinates":[[[39.7609277,38.2689845],[39.7595537,38.2694709],[39.7537923,38.2694625],[39.7609277,38.2689845]]]},"properties":{"@id":"relation/12724845","admin_level":"8","boundary":"administrative","name":"Aziziye Mahallesi","type":"boundary","wikidata":"Q109961279","wikipedia":"tr:Aziziye, Ergani","@relations":[{"role":"subarea","rel":1354885,"reltags":{"admin_level":"6","boundary":"administrative","name":"Ergani","name:ce":"Эргани","name:de":"Ergani","name:diq":"Erẍenî","name:en":"Ergani","name:fa":"ارگانی","name:hy":"Արկնի","name:ku":"Erxenî","name:ru":"Эргани","name:tr":"Ergani","name:tr:suffix":"İlçesi","name:ur":"عرگانی","name:zh":"埃爾加尼","name:zza":"Erğeni","network":"TR21-districts","type":"boundary","wikidata":"Q945363","wikipedia":"ku:Erxenî"}}]},"id":"relation/12724845"},
{"type":"Feature","geometry":{"type":"Polygon","coordinates":[[[39.8233739,37.8955324],[39.8207938,37.8587016],[39.8532379,37.867862],[39.8815366,37.8769811],[39.8690417,37.9006756],[39.8233739,37.8955324]]]},"properties":{"@id":"relation/13017518","admin_level":"8","boundary":"administrative","name":"Yukarıakdibek Mahallesi","type":"boundary","@relations":[{"role":"subarea","rel":1665230,"reltags":{"admin_level":"6","boundary":"administrative","name":"Bağlar","name:ce":"БагӀлар","name:de":"Bağlar","name:en":"Bağlar","name:ku":"Rezik","name:tr":"Bağlar","name:tr:suffix":"İlçesi","name:tt":"Баглар","name:ur":"باغلار","network":"TR21-districts","type":"boundary","wikidata":"Q812731","wikipedia":"tr:Bağlar"}}]},"id":"relation/13017518"},
{"type":"Feature","geometry":{"type":"Polygon","coordinates":[[[39.8207938,37.8587016],[39.8087489,37.8488853],[39.8154559,37.8210134],[39.8365974,37.8365473],[39.8532379,37.867862],[39.8207938,37.8587016]]]},"properties":{"@id":"relation/13017519","admin_level":"8","boundary":"administrative","name":"Kamışpınar Mahallesi","type":"boundary","@relations":[{"role":"subarea","rel":1665230,"reltags":{"admin_level":"6","boundary":"administrative","name":"Bağlar","name:ce":"БагӀлар","name:de":"Bağlar","name:en":"Bağlar","name:ku":"Rezik","name:tr":"Bağlar","name:tr:suffix":"İlçesi","name:tt":"Баглар","name:ur":"باغلار","network":"TR21-districts","type":"boundary","wikidata":"Q812731","wikipedia":"tr:Bağlar"}}]},"id":"relation/13017519"},
{"type":"Feature","geometry":{"type":"Polygon","coordinates":[[[40.2197484,37.8822582],[40.1979806,37.874272],[40.1935335,37.8483283],[40.2209575,37.8459902],[40.2281875,37.8650105],[40.2237377,37.8743459],[40.2197484,37.8822582]]]},"properties":{"@id":"relation/13080513","admin_level":"8","boundary":"administrative","name":"Özdemir Mahallesi","type":"boundary","wikidata":"Q109387603","wikipedia":"tr:Özdemir, Bağlar","@relations":[{"role":"subarea","rel":1665230,"reltags":{"admin_level":"6","boundary":"administrative","name":"Bağlar","name:ce":"БагӀлар","name:de":"Bağlar","name:en":"Bağlar","name:ku":"Rezik","name:tr":"Bağlar","name:tr:suffix":"İlçesi","name:tt":"Баглар","name:ur":"باغلار","network":"TR21-districts","type":"boundary","wikidata":"Q812731","wikipedia":"tr:Bağlar"}}]},"id":"relation/13080513"},
{"type":"Feature","geometry":{"type":"Polygon","coordinates":[[[40.6687153,37.8522771],[40.6685995,37.8480588],[40.6736238,37.8479755],[40.6747334,37.8514577],[40.6687153,37.8522771]]]},"properties":{"@id":"relation/14354913","admin_level":"8","alt_name":"Fatih;Fatih Mah.","boundary":"administrative","name":"Fatih Mahallesi","type":"boundary","wikidata":"Q109387625","wikipedia":"tr:Fatih, Bismil","@relations":[{"role":"subarea","rel":1357023,"reltags":{"admin_level":"6","boundary":"administrative","name":"Bismil","name:ar":"بسمل","name:ce":"Бисмил","name:de":"Bismil","name:diq":"Bismil","name:en":"Bismil","name:fa":"بسمل","name:hi":"बिस्मिल","name:ku":"Bismil","name:pa":"ਬਿਸਮਿਲ","name:ru":"Бисмиль","name:ta":"பிசுமில் மாவட்டம்","name:tr":"Bismil","name:tr:suffix":"İlçesi","name:tt":"Бисмил","name:ur":"بسمل","name:zh":"比爾米爾","name:zza":"Bısmıl","network":"TR21-districts","type":"boundary","wikidata":"Q546905","wikipedia":"tr:Bismil"}}]},"id":"relation/14354913"},
{"type":"Feature","geometry":{"type":"Polygon","coordinates":[[[40.607041,38.4513266],[40.639764,38.4350246],[40.644363,38.4553895],[40.6286382,38.4703156],[40.607041,38.4513266]]]},"properties":{"@id":"relation/14654188","admin_level":"8","boundary":"administrative","name":"Karahasan Mahallesi","type":"boundary"},"id":"relation/14654188"}
]}