{"type":"FeatureCollection", "features": [
{"type":"Feature","geometry":{"type":"Polygon","coordinates":[[[30.9864266,40.9477423],[30.9826302,40.9432716],[30.9636458,40.9446397],[30.9517937,40.9487152],[30.9531948,40.9587958],[30.9448492,40.9615679],[30.9387105,40.9696263],[30.9286165,40.9562997],[30.903452,40.9419931],[30.8981305,40.9365306],[30.8821607,40.9327414],[30.8789849,40.9271403],[30.8651447,40.9184744],[30.8123374,40.9188149],[30.80634,40.9118424],[30.806694,40.9023554],[30.8001494,40.8977816],[30.8156794,40.8969006],[30.8108777,40.900771],[30.8206194,40.9114907],[30.8432206,40.9093781],[30.848253,40.904826],[30.8660923,40.9034003],[30.8673669,40.8992162],[30.8798638,40.8966041],[30.8806297,40.8900944],[30.8679888,40.879712],[30.8790455,40.8776181],[30.8784451,40.8669555],[30.8842866,40.8660088],[30.8948556,40.8794553],[30.9104549,40.8762004],[30.9181012,40.8613617],[30.9388271,40.8644054],[30.9669159,40.8592507],[30.9747341,40.8638006],[30.9730845,40.8715587],[30.9909617,40.8941957],[31.0001356,40.8998727],[31.0009234,40.9060535],[30.9845778,40.9052567],[30.991915,40.9159214],[30.9890068,40.9232248],[31.0050236,40.9248327],[31.003479,40.9304345],[30.9906111,40.939772],[30.9864266,40.9477423]]]},"properties":{"@id":"relation/1393949","admin_level":"6","boundary":"administrative","name":"Cumayeri","name:ce":"Джумайери","name:de":"Cumayeri","name:en":"Cumayeri","name:fa":"جمعه‌یری","name:tr":"Cumayeri","name:tr:suffix":"İlçesi","name:tt":"Җумаери","name:ur":"جومایری","network":"TR81-districts","type":"boundary","wikidata":"Q2349440","wikipedia":"tr:Cumayeri"},"id":"relation/1393949"},
{"type":"Feature","geometry":{"type":"Polygon","coordinates":[[[31.0793186,40.9343047],[31.0753656,40.9411214],[31.0319899,40.9294006],[31.0305414,40.9410916],[31.0162598,40.9441513],[31.010672,40.9518389],[30.9864266,40.9477423],[30.9906111,40.939772],[31.003479,40.9304345],[31.0050236,40.9248327],[30.9890068,40.9232248],[30.991915,40.9159214],[30.9845778,40.9052567],[31.0009234,40.9060535],[31.0001356,40.8998727],[30.9909617,40.8941957],[30.9730845,40.8715587],[30.9747341,40.8638006],[30.9836011,40.8676654],[31.0019997,40.8649068],[31.0204979,40.8592794],[31.0237543,40.8436232],[31.0280187,40.8433135],[31.0366027,40.8502155],[31.081488,40.8487844],[31.1035516,40.8589294],[31.1089618,40.8680175],[31.1195954,40.8765359],[31.1013198,40.8951106],[31.0922404,40.9101618],[31.1002462,40.9188638],[31.0991892,40.9260373],[31.0847249,40.9235138],[31.0793186,40.9343047]]]},"properties":{"@id":"relation/1393950","admin_level":"6","boundary":"administrative","name":"Çilimli","name:ce":"Чилимли","name:de":"Çilimli","name:en":"Çilimli","name:fa":"چیلیملی","name:tr":"Çilimli","name:tr:suffix":"İlçesi","name:tt":"Чилимли","name:ur":"چیلیملی","name:zh":"奇利姆利","network":"TR81-districts","type":"boundary","wikidata":"Q2900960","wikipedia":"tr:Çilimli"},"id":"relation/1393950"},
{"type":"Feature","geometry":{"type":"Polygon","coordinates":[[[30.8715328,40.7600783],[30.8726267,40.7513259],[30.8840506,40.7543427],[30.893099,40.7422068],[30.8924099,40.7293258],[30.9101751,40.7253218],[30.9257963,40.7105221],[30.9381248,40.7127277],[30.9414941,40.7039047],[30.9354447,40.6921194],[30.9355978,40.683584],[30.9254134,40.6733632],[30.9186354,40.6599218],[30.9230317,40.6549652],[30.9407908,40.6504102],[30.9398746,40.6316276],[30.9543199,40.6299836],[30.9766387,40.6420936],[30.9998988,40.6392279],[31.0280513,40.6403351],[31.0498645,40.6577943],[31.0577145,40.6789336],[31.061488,40.6820722],[31.0584448,40.7085598],[31.0629487,40.7291335],[31.0573493,40.7535599],[31.0504688,40.7664003],[31.0442364,40.786449],[31.0345876,40.8076872],[31.0213451,40.8275661],[31.007122,40.8348665],[30.999986,40.8279264],[30.9748948,40.8172949],[30.9638865,40.8002362],[30.9388682,40.7910028],[30.9302659,40.791999],[30.9276618,40.7807439],[30.9089936,40.774177],[30.8782328,40.7584657],[30.8715328,40.7600783]]]},"properties":{"@id":"relation/1393951","admin_level":"6","boundary":"administrative","name":"Gölyaka","name:ce":"Гоьлйака","name:de":"Gölyaka","name:en":"Gölyaka","name:fa":"گل‌یاکا","name:tr":"Gölyaka","name:tr:suffix":"İlçesi","name:tt":"Гөльяка","name:ur":"گل یاکا","name:zh":"格利亞卡","network":"TR81-districts","type":"boundary","wikidata":"Q2901102","wikipedia":"tr:Gölyaka"},"id":"relation/1393951"},
{"type":"Feature","geometry":{"type":"Polygon","coordinates":[[[31.4180519,40.7671322],[31.4070392,40.7793805],[31.3104858,40.8089813],[31.2932808,40.8085731],[31.2951994,40.82466],[31.2871538,40.8409002],[31.2792881,40.8497871],[31.2590564,40.831638],[31.2633553,40.8163784],[31.256828,40.7992987],[31.24577,40.8025724],[31.2248069,40.7963139],[31.2321497,40.7836076],[31.2306655,40.7754316],[31.2374944,40.772072],[31.2347,40.7543241],[31.2457638,40.7520843],[31.2515498,40.7433531],[31.2632821,40.7345168],[31.2714397,40.7072851],[31.2842501,40.7031971],[31.2810231,40.6891676],[31.2711932,40.6773651],[31.2473198,40.6440339],[31.2644626,40.6396999],[31.2793353,40.6281611],[31.3027852,40.6290475],[31.3112426,40.6408466],[31.339277,40.6443269],[31.3640573,40.6516872],[31.3858374,40.6709219],[31.3848864,40.6874045],[31.4017873,40.7151387],[31.409168,40.7384848],[31.4025738,40.7466475],[31.4060351,40.7584131],[31.4180519,40.7671322]]]},"properties":{"@id":"relation/1393952","admin_level":"6","boundary":"administrative","name":"Kaynaşlı","name:de":"Kaynaşlı","name:en":"Kaynaşlı","name:tr":"Kaynaşlı","name:tr:suffix":"İlçesi","name:zh":"卡伊納什勒","network":"TR81-districts","type":"boundary","wikidata":"Q2901058","wikipedia":"tr:Kaynaşlı"},"id":"relation/1393952"},
{"type":"Feature","geometry":{"type":"Polygon","coordinates":[[[31.0498645,40.6577943],[31.0605382,40.6663167],[31.0975864,40.6743049],[31.098175,40.6620197],[31.1339664,40.6506248],[31.1447932,40.6495896],[31.1601998,40.6392478],[31.189511,40.6242074],[31.2263155,40.6230662],[31.2336749,40.6357701],[31.2473198,40.6440339],[31.2711932,40.6773651],[31.2810231,40.6891676],[31.2842501,40.7031971],[31.2714397,40.7072851],[31.2632821,40.7345168],[31.2515498,40.7433531],[31.2457638,40.7520843],[31.2347,40.7543241],[31.2374944,40.772072],[31.2306655,40.7754316],[31.2321497,40.7836076],[31.2248069,40.7963139],[31.24577,40.8025724],[31.256828,40.7992987],[31.2633553,40.8163784],[31.2590564,40.831638],[31.2792881,40.8497871],[31.2871538,40.8409002],[31.2951994,40.82466],[31.2932808,40.8085731],[31.3104858,40.8089813],[31.4070392,40.7793805],[31.3607096,40.8308832],[31.3562223,40.8344199],[31.3570325,40.8616695],[31.3520795,40.8758717],[31.3434165,40.8863127],[31.3102611,40.8879019],[31.3005752,40.8910672],[31.3074532,40.9094149],[31.3004937,40.9212525],[31.2707018,40.919142],[31.2666002,40.9349257],[31.2649034,40.9704029],[31.2773121,40.975228],[31.2778916,40.9946274],[31.2562778,40.9964724],[31.2397936,40.9895645],[31.2295881,40.9882708],[31.2161105,40.9914462],[31.1877532,40.9907994],[31.1705363,40.982684],[31.1546437,40.9813901],[31.1394523,40.9845659],[31.0934105,40.9771555],[31.0811132,40.9682782],[31.0814962,40.9412195],[31.0793186,40.9343047],[31.0847249,40.9235138],[31.0991892,40.9260373],[31.1002462,40.9188638],[31.0922404,40.9101618],[31.1013198,40.8951106],[31.1195954,40.8765359],[31.1089618,40.8680175],[31.1035516,40.8589294],[31.081488,40.8487844],[31.0366027,40.8502155],[31.0280187,40.8433135],[31.0213211,40.8429276],[31.0111537,40.845355],[31.007122,40.8348665],[31.0213451,40.8275661],[31.0345876,40.8076872],[31.0442364,40.786449],[31.0504688,40.7664003],[31.0573493,40.7535599],[31.0629487,40.7291335],[31.0584448,40.7085598],[31.061488,40.6820722],[31.0577145,40.6789336],[31.0498645,40.6577943]]]},"properties":{"@id":"relation/1393953","admin_level":"6","alt_name":"Düzce","boundary":"administrative","name":"Düzce Merkez","name:ar":"دوزجة","name:az":"Düzcə","name:be":"Дзюзджэ","name:ce":"Дуьздже","name:de":"Düzce","name:el":"Ντούζτζε","name:en":"Düzce","name:fa":"دوزجه","name:hy":"Դյուզջե","name:ja":"デュズジェ","name:ka":"დუზჯე","name:ko":"뒤즈제","name:ky":"Дүзже","name:lv":"Dizdže","name:os":"Дюздже","name:ru":"Дюздже","name:sq":"Dyzxhe","name:sr":"Дузџе","name:tg":"Дузҷе","name:tr":"Düzce Merkez","name:tr:suffix":"İlçesi","name:tt":"Дүзҗе","name:uk":"Дюздже","name:ur":"دوزجہ","name:zh":"迪茲傑","name:zza":"Duzca","network":"TR81-districts","type":"boundary","wikidata":"Q206885","wikipedia":"tr:Düzce"},"id":"relation/1393953"},
{"type":"Feature","geometry":{"type":"Polygon","coordinates":[[[31.4180519,40.7671322],[31.4247498,40.7668003],[31.4428498,40.7788239],[31.4728007,40.7820638],[31.5190106,40.8018237],[31.5456455,40.8027145],[31.5330362,40.8612412],[31.5382508,40.867538],[31.5672389,40.8740899],[31.5945156,40.8849274],[31.6100259,40.8949545],[31.6205087,40.9084564],[31.6369015,40.9135622],[31.6429987,40.9207562],[31.6439724,40.9505188],[31.6500559,40.9555147],[31.6629992,40.9550989],[31.6920569,40.9699988],[31.705468,40.9704778],[31.7176368,40.9792587],[31.7502521,40.9878246],[31.7763731,40.9729939],[31.795834,40.972056],[31.8387584,40.9979991],[31.8536456,41.0082997],[31.8075203,41.0187327],[31.7903435,41.0296298],[31.75872,41.0241927],[31.7432783,41.0179878],[31.6978703,41.0395975],[31.6488935,41.050371],[31.6017204,41.0540736],[31.5916663,41.0456258],[31.5818341,41.0453706],[31.5707586,41.0357296],[31.5534208,41.027442],[31.5287016,41.0311975],[31.5160945,41.0308957],[31.5024374,41.0204486],[31.482868,41.0194125],[31.47274,41.0217438],[31.4556481,41.0155633],[31.4371303,41.0178419],[31.4221936,41.0258029],[31.4092253,41.028219],[31.3926316,41.0200663],[31.3650456,41.0164833],[31.3231091,41.0227818],[31.312224,41.0204307],[31.297632,41.0111739],[31.2764863,41.0038836],[31.2778916,40.9946274],[31.2773121,40.975228],[31.2649034,40.9704029],[31.2666002,40.9349257],[31.2707018,40.919142],[31.3004937,40.9212525],[31.3074532,40.9094149],[31.3005752,40.8910672],[31.3102611,40.8879019],[31.3434165,40.8863127],[31.3520795,40.8758717],[31.3570325,40.8616695],[31.3562223,40.8344199],[31.3607096,40.8308832],[31.4070392,40.7793805],[31.4180519,40.7671322]]]},"properties":{"@id":"relation/1393954","admin_level":"6","boundary":"administrative","name":"Yığılca","name:ce":"ЙигӀилджа","name:de":"Yığılca","name:en":"Yığılca","name:fa":"ییغیلجا","name:tr":"Yığılca","name:tr:suffix":"İlçesi","name:tt":"Егылҗа","name:ur":"ییغیلجا","network":"TR81-districts","type":"boundary","wikidata":"Q2674064","wikipedia":"tr:Yığılca"},"id":"relation/1393954"},
{"type":"Feature","geometry":{"type":"Polygon","coordinates":[[[31.3231091,41.0227818],[31.3274608,41.0466678],[31.3123222,41.0738298],[31.3073881,41.0869858],[31.3086955,41.1019397],[31.2952264,41.1105049],[31.2828409,41.1127282],[31.2517404,41.1043671],[31.2074849,41.0970178],[31.1532,41.091578],[31.1088621,41.0891282],[31.0935187,41.0864818],[31.0709862,41.0779998],[31.0472512,41.0762065],[31.020303,41.076407],[31.00787,41.07247],[30.9682998,41.0735957],[30.9631655,41.0635622],[30.9799378,41.0604681],[30.9844153,41.0536361],[30.9828615,41.0440402],[30.993615,41.0404128],[31.0045174,41.048396],[31.0126662,41.0449545],[31.0044265,41.0303152],[30.9935152,41.0304162],[30.9804153,41.0128229],[30.9620408,41.0015125],[30.9516175,40.9982022],[30.9623833,40.9859191],[30.9419525,40.977622],[30.9387105,40.9696263],[30.9448492,40.9615679],[30.9531948,40.9587958],[30.9517937,40.9487152],[30.9636458,40.9446397],[30.9826302,40.9432716],[30.9864266,40.9477423],[31.010672,40.9518389],[31.0162598,40.9441513],[31.0305414,40.9410916],[31.0319899,40.9294006],[31.0753656,40.9411214],[31.0793186,40.9343047],[31.0814962,40.9412195],[31.0811132,40.9682782],[31.0934105,40.9771555],[31.1394523,40.9845659],[31.1546437,40.9813901],[31.1705363,40.982684],[31.1877532,40.9907994],[31.2161105,40.9914462],[31.2295881,40.9882708],[31.2397936,40.9895645],[31.2562778,40.9964724],[31.2778916,40.9946274],[31.2764863,41.0038836],[31.297632,41.0111739],[31.312224,41.0204307],[31.3231091,41.0227818]]]},"properties":{"@id":"relation/1393955","admin_level":"6","boundary":"administrative","name":"Akçakoca","name:ce":"Акчакоджа","name:de":"Akçakoca","name:en":"Akçakoca","name:fa":"آقچه‌قوچه","name:tr":"Akçakoca","name:tr:suffix":"İlçesi","name:tt":"Акчакоҗа","name:ur":"اکچاکوچا","name:zh":"阿克恰科賈","network":"TR81-districts","type":"boundary","wikidata":"Q610268","wikipedia":"tr:Akçakoca"},"id":"relation/1393955"},
{"type":"Feature","geometry":{"type":"MultiPolygon","coordinates":[[[[30.8001494,40.8977816],[30.7878113,40.8932725],[30.7788848,40.8820145],[30.7921123,40.8748916],[30.7972899,40.8784618],[30.8077404,40.8696695],[30.8025047,40.8523538],[30.8171878,40.8524358],[30.8261479,40.848195],[30.8448649,40.8530388],[30.8576975,40.8745345],[30.8732543,40.8715166],[30.8790455,40.8776181],[30.8679888,40.879712],[30.8806297,40.8900944],[30.8798638,40.8966041],[30.8673669,40.8992162],[30.8660923,40.9034003],[30.848253,40.904826],[30.8432206,40.9093781],[30.8206194,40.9114907],[30.8108777,40.900771],[30.8156794,40.8969006],[30.8001494,40.8977816]]],[[[30.9747341,40.8638006],[30.9669159,40.8592507],[30.9388271,40.8644054],[30.9181012,40.8613617],[30.9104549,40.8762004],[30.8948556,40.8794553],[30.8842866,40.8660088],[30.8784451,40.8669555],[30.8656328,40.8598986],[30.874573,40.8549476],[30.8741867,40.8451765],[30.8656895,40.8351117],[30.8936942,40.8334486],[30.9024575,40.8277673],[30.8824626,40.822398],[30.8780904,40.8186871],[30.8394969,40.8044878],[30.8369995,40.7871987],[30.8627142,40.7691282],[30.8715328,40.7600783],[30.8782328,40.7584657],[30.9089936,40.774177],[30.9276618,40.7807439],[30.9302659,40.791999],[30.9388682,40.7910028],[30.9638865,40.8002362],[30.9748948,40.8172949],[30.999986,40.8279264],[31.007122,40.8348665],[31.0111537,40.845355],[31.0213211,40.8429276],[31.0280187,40.8433135],[31.0237543,40.8436232],[31.0204979,40.8592794],[31.0019997,40.8649068],[30.9836011,40.8676654],[30.9747341,40.8638006]]]]},"properties":{"@id":"relation/1393956","admin_level":"6","boundary":"administrative","name":"Gümüşova","name:ce":"Гуьмуьшова","name:de":"Gümüşova","name:en":"Gümüşova","name:fa":"گوموشووا","name:tr":"Gümüşova","name:tr:suffix":"İlçesi","name:tt":"Гүмүшова","name:ur":"گوموشووا","network":"TR81-districts","type":"boundary","wikidata":"Q2671034","wikipedia":"tr:Gümüşova"},"id":"relation/1393956"},
{"type":"Feature","geometry":{"type":"Polygon","coordinates":[[[31.1500972,40.8372841],[31.1508805,40.8403441],[31.1396608,40.8404363],[31.143161,40.8348691],[31.1500972,40.8372841]]]},"properties":{"@id":"relation/12281404","admin_level":"8","boundary":"administrative","name":"Kiremitocağı Mahallesi","type":"boundary","@relations":[{"role":"subarea","rel":1393953,"reltags":{"admin_level":"6","alt_name":"Düzce","boundary":"administrative","name":"Düzce Merkez","name:ar":"دوزجة","name:az":"Düzcə","name:be":"Дзюзджэ","name:ce":"Дуьздже","name:de":"Düzce","name:el":"Ντούζτζε","name:en":"Düzce","name:fa":"دوزجه","name:hy":"Դյուզջե","name:ja":"デュズジェ","name:ka":"დუზჯე","name:ko":"뒤즈제","name:ky":"Дүзже","name:lv":"Dizdže","name:os":"Дюздже","name:ru":"Дюздже","name:sq":"Dyzxhe","name:sr":"Дузџе","name:tg":"Дузҷе","name:tr":"Düzce Merkez","name:tr:suffix":"İlçesi","name:tt":"Дүзҗе","name:uk":"Дюздже","name:ur":"دوزجہ","name:zh":"迪茲傑","name:zza":"Duzca","network":"TR81-districts","type":"boundary","wikidata":"Q206885","wikipedia":"tr:Düzce"}}]},"id":"relation/12281404"},
{"type":"Feature","geometry":{"type":"Polygon","coordinates":[[[31.1396608,40.8404363],[31.1508805,40.8403441],[31.1593685,40.8392331],[31.1607773,40.8467978],[31.1553344,40.8476405],[31.1521947,40.848156],[31.1406344,40.8435867],[31.1396608,40.8404363]]]},"properties":{"@id":"relation/12281407","admin_level":"8","boundary":"administrative","name":"Kültür Mahallesi","type":"boundary","@relations":[{"role":"subarea","rel":1393953,"reltags":{"admin_level":"6","alt_name":"Düzce","boundary":"administrative","name":"Düzce Merkez","name:ar":"دوزجة","name:az":"Düzcə","name:be":"Дзюзджэ","name:ce":"Дуьздже","name:de":"Düzce","name:el":"Ντούζτζε","name:en":"Düzce","name:fa":"دوزجه","name:hy":"Դյուզջե","name:ja":"デュズジェ","name:ka":"დუზჯე","name:ko":"뒤즈제","name:ky":"Дүзже","name:lv":"Dizdže","name:os":"Дюздже","name:ru":"Дюздже","name:sq":"Dyzxhe","name:sr":"Дузџе","name:tg":"Дузҷе","name:tr":"Düzce Merkez","name:tr:suffix":"İlçesi","name:tt":"Дүзҗе","name:uk":"Дюздже","name:ur":"دوزجہ","name:zh":"迪茲傑","name:zza":"Duzca","network":"TR81-districts","type":"boundary","wikidata":"Q206885","wikipedia":"tr:Düzce"}}]},"id":"relation/12281407"},
{"type":"Feature","geometry":{"type":"Polygon","coordinates":[[[31.1406344,40.8435867],[31.1521947,40.848156],[31.1442231,40.8483823],[31.1419165,40.8483914],[31.1406344,40.8435867]]]},"properties":{"@id":"relation/12281413","admin_level":"8","boundary":"administrative","name":"Uzunmustafa Mahallesi","type":"boundary","@relations":[{"role":"subarea","rel":1393953,"reltags":{"admin_level":"6","alt_name":"Düzce","boundary":"administrative","name":"Düzce Merkez","name:ar":"دوزجة","name:az":"Düzcə","name:be":"Дзюзджэ","name:ce":"Дуьздже","name:de":"Düzce","name:el":"Ντούζτζε","name:en":"Düzce","name:fa":"دوزجه","name:hy":"Դյուզջե","name:ja":"デュズジェ","name:ka":"დუზჯე","name:ko":"뒤즈제","name:ky":"Дүзже","name:lv":"Dizdže","name:os":"Дюздже","name:ru":"Дюздже","name:sq":"Dyzxhe","name:sr":"Дузџе","name:tg":"Дузҷе","name:tr":"Düzce Merkez","name:tr:suffix":"İlçesi","name:tt":"Дүзҗе","name:uk":"Дюздже","name:ur":"دوزجہ","name:zh":"迪茲傑","name:zza":"Duzca","network":"TR81-districts","type":"boundary","wikidata":"Q206885","wikipedia":"tr:Düzce"}}]},"id":"relation/12281413"},
{"type":"Feature","geometry":{"type":"Polygon","coordinates":[[[31.1521947,40.848156],[31.1553344,40.8476405],[31.1410689,40.8513454],[31.1442231,40.8483823],[31.1521947,40.848156]]]},"properties":{"@id":"relation/12281416","admin_level":"8","boundary":"administrative","name":"Yeni Mahallesi","type":"boundary","@relations":[{"role":"subarea","rel":1393953,"reltags":{"admin_level":"6","alt_name":"Düzce","boundary":"administrative","name":"Düzce Merkez","name:ar":"دوزجة","name:az":"Düzcə","name:be":"Дзюзджэ","name:ce":"Дуьздже","name:de":"Düzce","name:el":"Ντούζτζε","name:en":"Düzce","name:fa":"دوزجه","name:hy":"Դյուզջե","name:ja":"デュズジェ","name:ka":"დუზჯე","name:ko":"뒤즈제","name:ky":"Дүзже","name:lv":"Dizdže","name:os":"Дюздже","name:ru":"Дюздже","name:sq":"Dyzxhe","name:sr":"Дузџе","name:tg":"Дузҷе","name:tr":"Düzce Merkez","name:tr:suffix":"İlçesi","name:tt":"Дүзҗе","name:uk":"Дюздже","name:ur":"دوزجہ","name:zh":"迪茲傑","name:zza":"Duzca","network":"TR81-districts","type":"boundary","wikidata":"Q206885","wikipedia":"tr:Düzce"}}]},"id":"relation/12281416"},
{"type":"Feature","geometry":{"type":"Polygon","coordinates":[[[31.1508805,40.8403441],[31.1500972,40.8372841],[31.158793,40.8371054],[31.1595923,40.8391915],[31.1593685,40.8392331],[31.1508805,40.8403441]]]},"properties":{"@id":"relation/12679481","admin_level":"8","boundary":"administrative","name":"Camikebir Mahallesi","type":"boundary","@relations":[{"role":"subarea","rel":1393953,"reltags":{"admin_level":"6","alt_name":"Düzce","boundary":"administrative","name":"Düzce Merkez","name:ar":"دوزجة","name:az":"Düzcə","name:be":"Дзюзджэ","name:ce":"Дуьздже","name:de":"Düzce","name:el":"Ντούζτζε","name:en":"Düzce","name:fa":"دوزجه","name:hy":"Դյուզջե","name:ja":"デュズジェ","name:ka":"დუზჯე","name:ko":"뒤즈제","name:ky":"Дүзже","name:lv":"Dizdže","name:os":"Дюздже","name:ru":"Дюздже","name:sq":"Dyzxhe","name:sr":"Дузџе","name:tg":"Дузҷе","name:tr":"Düzce Merkez","name:tr:suffix":"İlçesi","name:tt":"Дүзҗе","name:uk":"Дюздже","name:ur":"دوزجہ","name:zh":"迪茲傑","name:zza":"Duzca","network":"TR81-districts","type":"boundary","wikidata":"Q206885","wikipedia":"tr:Düzce"}}]},"id":"relation/12679481"},
{"type":"Feature","geometry":{"type":"Polygon","coordinates":[[[31.158793,40.8371054],[31.1500972,40.8372841],[31.143161,40.8348691],[31.1523592,40.8288782],[31.158793,40.8371054]]]},"properties":{"@id":"relation/12679482","admin_level":"8","boundary":"administrative","name":"Çay Mahallesi","type":"boundary","@relations":[{"role":"subarea","rel":1393953,"reltags":{"admin_level":"6","alt_name":"Düzce","boundary":"administrative","name":"Düzce Merkez","name:ar":"دوزجة","name:az":"Düzcə","name:be":"Дзюзджэ","name:ce":"Дуьздже","name:de":"Düzce","name:el":"Ντούζτζε","name:en":"Düzce","name:fa":"دوزجه","name:hy":"Դյուզջե","name:ja":"デュズジェ","name:ka":"დუზჯე","name:ko":"뒤즈제","name:ky":"Дүзже","name:lv":"Dizdže","name:os":"Дюздже","name:ru":"Дюздже","name:sq":"Dyzxhe","name:sr":"Дузџе","name:tg":"Дузҷе","name:tr":"Düzce Merkez","name:tr:suffix":"İlçesi","name:tt":"Дүзҗе","name:uk":"Дюздже","name:ur":"دوزجہ","name:zh":"迪茲傑","name:zza":"Duzca","network":"TR81-districts","type":"boundary","wikidata":"Q206885","wikipedia":"tr:Düzce"}}]},"id":"relation/12679482"},
{"type":"Feature","geometry":{"type":"Polygon","coordinates":[[[31.1714948,40.8324782],[31.158793,40.8371054],[31.1523592,40.8288782],[31.1714948,40.8324782]]]},"properties":{"@id":"relation/12679494","admin_level":"8","boundary":"administrative","name":"Azmimilli Mahallesi","type":"boundary","@relations":[{"role":"subarea","rel":1393953,"reltags":{"admin_level":"6","alt_name":"Düzce","boundary":"administrative","name":"Düzce Merkez","name:ar":"دوزجة","name:az":"Düzcə","name:be":"Дзюзджэ","name:ce":"Дуьздже","name:de":"Düzce","name:el":"Ντούζτζε","name:en":"Düzce","name:fa":"دوزجه","name:hy":"Դյուզջե","name:ja":"デュズジェ","name:ka":"დუზჯე","name:ko":"뒤즈제","name:ky":"Дүзже","name:lv":"Dizdže","name:os":"Дюздже","name:ru":"Дюздже","name:sq":"Dyzxhe","name:sr":"Дузџе","name:tg":"Дузҷе","name:tr":"Düzce Merkez","name:tr:suffix":"İlçesi","name:tt":"Дүзҗе","name:uk":"Дюздже","name:ur":"دوزجہ","name:zh":"迪茲傑","name:zza":"Duzca","network":"TR81-districts","type":"boundary","wikidata":"Q206885","wikipedia":"tr:Düzce"}}]},"id":"relation/12679494"},
{"type":"Feature","geometry":{"type":"Polygon","coordinates":[[[30.8673669,40.8992162],[30.8660923,40.9034003],[30.848253,40.904826],[30.8432206,40.9093781],[30.8206194,40.9114907],[30.8108777,40.900771],[30.8156794,40.8969006],[30.8496023,40.8923114],[30.8673669,40.8992162]]]},"properties":{"@id":"relation/14118958","admin_level":"8","boundary":"administrative","name":"Pazarcık Köyü","type":"boundary","@relations":[{"role":"subarea","rel":1393956,"reltags":{"admin_level":"6","boundary":"administrative","name":"Gümüşova","name:ce":"Гуьмуьшова","name:de":"Gümüşova","name:en":"Gümüşova","name:fa":"گوموشووا","name:tr":"Gümüşova","name:tr:suffix":"İlçesi","name:tt":"Гүмүшова","name:ur":"گوموشووا","network":"TR81-districts","type":"boundary","wikidata":"Q2671034","wikipedia":"tr:Gümüşova"}}]},"id":"relation/14118958"},
{"type":"Feature","geometry":{"type":"Polygon","coordinates":[[[30.8001494,40.8977816],[30.7878113,40.8932725],[30.7788848,40.8820145],[30.7921123,40.8748916],[30.7972899,40.8784618],[30.8077404,40.8696695],[30.8025047,40.8523538],[30.8171878,40.8524358],[30.8261479,40.848195],[30.8448649,40.8530388],[30.8576975,40.8745345],[30.8732543,40.8715166],[30.8790455,40.8776181],[30.8679888,40.879712],[30.8806297,40.8900944],[30.8798638,40.8966041],[30.8673669,40.8992162],[30.8496023,40.8923114],[30.8156794,40.8969006],[30.8001494,40.8977816]]]},"properties":{"@id":"relation/14126544","admin_level":"8","boundary":"administrative","name":"Dededüzü Köyü","type":"boundary","@relations":[{"role":"subarea","rel":1393956,"reltags":{"admin_level":"6","boundary":"administrative","name":"Gümüşova","name:ce":"Гуьмуьшова","name:de":"Gümüşova","name:en":"Gümüşova","name:fa":"گوموشووا","name:tr":"Gümüşova","name:tr:suffix":"İlçesi","name:tt":"Гүмүшова","name:ur":"گوموشووا","network":"TR81-districts","type":"boundary","wikidata":"Q2671034","wikipedia":"tr:Gümüşova"}}]},"id":"relation/14126544"},
{"type":"Feature","geometry":{"type":"Polygon","coordinates":[[[31.22,40.8677469],[31.215675,40.8640553],[31.2139627,40.8524994],[31.2251251,40.8491772],[31.2250338,40.8512907],[31.2268689,40.8617028],[31.2268409,40.8684766],[31.22,40.8677469]]]},"properties":{"@id":"relation/14153073","admin_level":"8","boundary":"administrative","name":"Nalbantoğlu Mahallesi","type":"boundary","@relations":[{"role":"subarea","rel":1393953,"reltags":{"admin_level":"6","alt_name":"Düzce","boundary":"administrative","name":"Düzce Merkez","name:ar":"دوزجة","name:az":"Düzcə","name:be":"Дзюзджэ","name:ce":"Дуьздже","name:de":"Düzce","name:el":"Ντούζτζε","name:en":"Düzce","name:fa":"دوزجه","name:hy":"Դյուզջե","name:ja":"デュズジェ","name:ka":"დუზჯე","name:ko":"뒤즈제","name:ky":"Дүзже","name:lv":"Dizdže","name:os":"Дюздже","name:ru":"Дюздже","name:sq":"Dyzxhe","name:sr":"Дузџе","name:tg":"Дузҷе","name:tr":"Düzce Merkez","name:tr:suffix":"İlçesi","name:tt":"Дүзҗе","name:uk":"Дюздже","name:ur":"دوزجہ","name:zh":"迪茲傑","name:zza":"Duzca","network":"TR81-districts","type":"boundary","wikidata":"Q206885","wikipedia":"tr:Düzce"}}]},"id":"relation/14153073"},
{"type":"Feature","geometry":{"type":"Polygon","coordinates":[[[31.2324962,40.8570686],[31.2385955,40.86592],[31.2322129,40.8663963],[31.2268409,40.8684766],[31.2268689,40.8617028],[31.2324962,40.8570686]]]},"properties":{"@id":"relation/14153074","admin_level":"8","boundary":"administrative","name":"Bahçelievler Mahallesi","type":"boundary","@relations":[{"role":"subarea","rel":1393953,"reltags":{"admin_level":"6","alt_name":"Düzce","boundary":"administrative","name":"Düzce Merkez","name:ar":"دوزجة","name:az":"Düzcə","name:be":"Дзюзджэ","name:ce":"Дуьздже","name:de":"Düzce","name:el":"Ντούζτζε","name:en":"Düzce","name:fa":"دوزجه","name:hy":"Դյուզջե","name:ja":"デュズジェ","name:ka":"დუზჯე","name:ko":"뒤즈제","name:ky":"Дүзже","name:lv":"Dizdže","name:os":"Дюздже","name:ru":"Дюздже","name:sq":"Dyzxhe","name:sr":"Дузџе","name:tg":"Дузҷе","name:tr":"Düzce Merkez","name:tr:suffix":"İlçesi","name:tt":"Дүзҗе","name:uk":"Дюздже","name:ur":"دوزجہ","name:zh":"迪茲傑","name:zza":"Duzca","network":"TR81-districts","type":"boundary","wikidata":"Q206885","wikipedia":"tr:Düzce"}}]},"id":"relation/14153074"},
{"type":"Feature","geometry":{"type":"Polygon","coordinates":[[[31.2189332,40.8708437],[31.22,40.8677469],[31.2268409,40.8684766],[31.2322129,40.8663963],[31.2363004,40.8715103],[31.2189332,40.8708437]]]},"properties":{"@id":"relation/14153075","admin_level":"8","boundary":"administrative","name":"Çamlıevler Mahallesi","type":"boundary","@relations":[{"role":"subarea","rel":1393953,"reltags":{"admin_level":"6","alt_name":"Düzce","boundary":"administrative","name":"Düzce Merkez","name:ar":"دوزجة","name:az":"Düzcə","name:be":"Дзюзджэ","name:ce":"Дуьздже","name:de":"Düzce","name:el":"Ντούζτζε","name:en":"Düzce","name:fa":"دوزجه","name:hy":"Դյուզջե","name:ja":"デュズジェ","name:ka":"დუზჯე","name:ko":"뒤즈제","name:ky":"Дүзже","name:lv":"Dizdže","name:os":"Дюздже","name:ru":"Дюздже","name:sq":"Dyzxhe","name:sr":"Дузџе","name:tg":"Дузҷе","name:tr":"Düzce Merkez","name:tr:suffix":"İlçesi","name:tt":"Дүзҗе","name:uk":"Дюздже","name:ur":"دوزجہ","name:zh":"迪茲傑","name:zza":"Duzca","network":"TR81-districts","type":"boundary","wikidata":"Q206885","wikipedia":"tr:Düzce"}}]},"id":"relation/14153075"},
{"type":"Feature","geometry":{"type":"Polygon","coordinates":[[[31.2189332,40.8708437],[31.215675,40.8640553],[31.22,40.8677469],[31.2189332,40.8708437]]]},"properties":{"@id":"relation/14153076","admin_level":"8","boundary":"administrative","name":"Demetevler Mahallesi","type":"boundary","@relations":[{"role":"subarea","rel":1393953,"reltags":{"admin_level":"6","alt_name":"Düzce","boundary":"administrative","name":"Düzce Merkez","name:ar":"دوزجة","name:az":"Düzcə","name:be":"Дзюзджэ","name:ce":"Дуьздже","name:de":"Düzce","name:el":"Ντούζτζε","name:en":"Düzce","name:fa":"دوزجه","name:hy":"Դյուզջե","name:ja":"デュズジェ","name:ka":"დუზჯე","name:ko":"뒤즈제","name:ky":"Дүзже","name:lv":"Dizdže","name:os":"Дюздже","name:ru":"Дюздже","name:sq":"Dyzxhe","name:sr":"Дузџе","name:tg":"Дузҷе","name:tr":"Düzce Merkez","name:tr:suffix":"İlçesi","name:tt":"Дүзҗе","name:uk":"Дюздже","name:ur":"دوزجہ","name:zh":"迪茲傑","name:zza":"Duzca","network":"TR81-districts","type":"boundary","wikidata":"Q206885","wikipedia":"tr:Düzce"}}]},"id":"relation/14153076"},
{"type":"Feature","geometry":{"type":"Polygon","coordinates":[[[31.2324962,40.8570686],[31.2319071,40.8544081],[31.2413862,40.858071],[31.2421857,40.8583448],[31.2385955,40.86592],[31.2324962,40.8570686]]]},"properties":{"@id":"relation/14153077","admin_level":"8","boundary":"administrative","name":"Esentepe Mahallesi","type":"boundary","@relations":[{"role":"subarea","rel":1393953,"reltags":{"admin_level":"6","alt_name":"Düzce","boundary":"administrative","name":"Düzce Merkez","name:ar":"دوزجة","name:az":"Düzcə","name:be":"Дзюзджэ","name:ce":"Дуьздже","name:de":"Düzce","name:el":"Ντούζτζε","name:en":"Düzce","name:fa":"دوزجه","name:hy":"Դյուզջե","name:ja":"デュズジェ","name:ka":"დუზჯე","name:ko":"뒤즈제","name:ky":"Дүзже","name:lv":"Dizdže","name:os":"Дюздже","name:ru":"Дюздже","name:sq":"Dyzxhe","name:sr":"Дузџе","name:tg":"Дузҷе","name:tr":"Düzce Merkez","name:tr:suffix":"İlçesi","name:tt":"Дүзҗе","name:uk":"Дюздже","name:ur":"دوزجہ","name:zh":"迪茲傑","name:zza":"Duzca","network":"TR81-districts","type":"boundary","wikidata":"Q206885","wikipedia":"tr:Düzce"}}]},"id":"relation/14153077"},
{"type":"Feature","geometry":{"type":"Polygon","coordinates":[[[31.2394616,40.848964],[31.2421857,40.8583448],[31.2413862,40.858071],[31.2394616,40.848964]]]},"properties":{"@id":"relation/14153078","admin_level":"8","boundary":"administrative","name":"Yeşiltepe Mahallesi","type":"boundary","@relations":[{"role":"subarea","rel":1393953,"reltags":{"admin_level":"6","alt_name":"Düzce","boundary":"administrative","name":"Düzce Merkez","name:ar":"دوزجة","name:az":"Düzcə","name:be":"Дзюзджэ","name:ce":"Дуьздже","name:de":"Düzce","name:el":"Ντούζτζε","name:en":"Düzce","name:fa":"دوزجه","name:hy":"Դյուզջե","name:ja":"デュズジェ","name:ka":"დუზჯე","name:ko":"뒤즈제","name:ky":"Дүзже","name:lv":"Dizdže","name:os":"Дюздже","name:ru":"Дюздже","name:sq":"Dyzxhe","name:sr":"Дузџе","name:tg":"Дузҷе","name:tr":"Düzce Merkez","name:tr:suffix":"İlçesi","name:tt":"Дүзҗе","name:uk":"Дюздже","name:ur":"دوزجہ","name:zh":"迪茲傑","name:zza":"Duzca","network":"TR81-districts","type":"boundary","wikidata":"Q206885","wikipedia":"tr:Düzce"}}]},"id":"relation/14153078"},
{"type":"Feature","geometry":{"type":"Polygon","coordinates":[[[31.2319071,40.8544081],[31.2324962,40.8570686],[31.2268689,40.8617028],[31.2250338,40.8512907],[31.2319071,40.8544081]]]},"properties":{"@id":"relation/14153079","admin_level":"8","boundary":"administrative","name":"Güzelbahçe Mahallesi","type":"boundary","@relations":[{"role":"subarea","rel":1393953,"reltags":{"admin_level":"6","alt_name":"Düzce","boundary":"administrative","name":"Düzce Merkez","name:ar":"دوزجة","name:az":"Düzcə","name:be":"Дзюзджэ","name:ce":"Дуьздже","name:de":"Düzce","name:el":"Ντούζτζε","name:en":"Düzce","name:fa":"دوزجه","name:hy":"Դյուզջե","name:ja":"デュズジェ","name:ka":"დუზჯე","name:ko":"뒤즈제","name:ky":"Дүзже","name:lv":"Dizdže","name:os":"Дюздже","name:ru":"Дюздже","name:sq":"Dyzxhe","name:sr":"Дузџе","name:tg":"Дузҷе","name:tr":"Düzce Merkez","name:tr:suffix":"İlçesi","name:tt":"Дүзҗе","name:uk":"Дюздже","name:ur":"دوزجہ","name:zh":"迪茲傑","name:zza":"Duzca","network":"TR81-districts","type":"boundary","wikidata":"Q206885","wikipedia":"tr:Düzce"}}]},"id":"relation/14153079"},
{"type":"Feature","geometry":{"type":"Polygon","coordinates":[[[31.2413862,40.858071],[31.2319071,40.8544081],[31.2250338,40.8512907],[31.2251251,40.8491772],[31.2394616,40.848964],[31.2413862,40.858071]]]},"properties":{"@id":"relation/14153080","admin_level":"8","boundary":"administrative","name":"Sallar Mahallesi","type":"boundary","@relations":[{"role":"subarea","rel":1393953,"reltags":{"admin_level":"6","alt_name":"Düzce","boundary":"administrative","name":"Düzce Merkez","name:ar":"دوزجة","name:az":"Düzcə","name:be":"Дзюзджэ","name:ce":"Дуьздже","name:de":"Düzce","name:el":"Ντούζτζε","name:en":"Düzce","name:fa":"دوزجه","name:hy":"Դյուզջե","name:ja":"デュズジェ","name:ka":"დუზჯე","name:ko":"뒤즈제","name:ky":"Дүзже","name:lv":"Dizdže","name:os":"Дюздже","name:ru":"Дюздже","name:sq":"Dyzxhe","name:sr":"Дузџе","name:tg":"Дузҷе","name:tr":"Düzce Merkez","name:tr:suffix":"İlçesi","name:tt":"Дүзҗе","name:uk":"Дюздже","name:ur":"دوزجہ","name:zh":"迪茲傑","name:zza":"Duzca","network":"TR81-districts","type":"boundary","wikidata":"Q206885","wikipedia":"tr:Düzce"}}]},"id":"relation/14153080"},
{"type":"Feature","geometry":{"type":"Polygon","coordinates":[[[31.1595923,40.8391915],[31.1626027,40.8387768],[31.1648282,40.8458594],[31.1607773,40.8467978],[31.1593685,40.8392331],[31.1595923,40.8391915]]]},"properties":{"@id":"relation/14153765","admin_level":"8","boundary":"administrative","name":"Şerefiye Mahallesi","type":"boundary","@relations":[{"role":"subarea","rel":1393953,"reltags":{"admin_level":"6","alt_name":"Düzce","boundary":"administrative","name":"Düzce Merkez","name:ar":"دوزجة","name:az":"Düzcə","name:be":"Дзюзджэ","name:ce":"Дуьздже","name:de":"Düzce","name:el":"Ντούζτζε","name:en":"Düzce","name:fa":"دوزجه","name:hy":"Դյուզջե","name:ja":"デュズジェ","name:ka":"დუზჯე","name:ko":"뒤즈제","name:ky":"Дүзже","name:lv":"Dizdže","name:os":"Дюздже","name:ru":"Дюздже","name:sq":"Dyzxhe","name:sr":"Дузџе","name:tg":"Дузҷе","name:tr":"Düzce Merkez","name:tr:suffix":"İlçesi","name:tt":"Дүзҗе","name:uk":"Дюздже","name:ur":"دوزجہ","name:zh":"迪茲傑","name:zza":"Duzca","network":"TR81-districts","type":"boundary","wikidata":"Q206885","wikipedia":"tr:Düzce"}}]},"id":"relation/14153765"},
{"type":"Feature","geometry":{"type":"Polygon","coordinates":[[[31.1694648,40.8427366],[31.1648282,40.8458594],[31.1626027,40.8387768],[31.1648556,40.8379815],[31.1694648,40.8427366]]]},"properties":{"@id":"relation/14153766","admin_level":"8","boundary":"administrative","name":"Burhaniye Mahallesi","type":"boundary","@relations":[{"role":"subarea","rel":1393953,"reltags":{"admin_level":"6","alt_name":"Düzce","boundary":"administrative","name":"Düzce Merkez","name:ar":"دوزجة","name:az":"Düzcə","name:be":"Дзюзджэ","name:ce":"Дуьздже","name:de":"Düzce","name:el":"Ντούζτζε","name:en":"Düzce","name:fa":"دوزجه","name:hy":"Դյուզջե","name:ja":"デュズジェ","name:ka":"დუზჯე","name:ko":"뒤즈제","name:ky":"Дүзже","name:lv":"Dizdže","name:os":"Дюздже","name:ru":"Дюздже","name:sq":"Dyzxhe","name:sr":"Дузџе","name:tg":"Дузҷе","name:tr":"Düzce Merkez","name:tr:suffix":"İlçesi","name:tt":"Дүзҗе","name:uk":"Дюздже","name:ur":"دوزجہ","name:zh":"迪茲傑","name:zza":"Duzca","network":"TR81-districts","type":"boundary","wikidata":"Q206885","wikipedia":"tr:Düzce"}}]},"id":"relation/14153766"},
{"type":"Feature","geometry":{"type":"Polygon","coordinates":[[[31.1626027,40.8387768],[31.1595923,40.8391915],[31.158793,40.8371054],[31.1714948,40.8324782],[31.1730116,40.8349678],[31.1648556,40.8379815],[31.1626027,40.8387768]]]},"properties":{"@id":"relation/14153767","admin_level":"8","boundary":"administrative","name":"Cedidiye Mahallesi","type":"boundary","@relations":[{"role":"subarea","rel":1393953,"reltags":{"admin_level":"6","alt_name":"Düzce","boundary":"administrative","name":"Düzce Merkez","name:ar":"دوزجة","name:az":"Düzcə","name:be":"Дзюзджэ","name:ce":"Дуьздже","name:de":"Düzce","name:el":"Ντούζτζε","name:en":"Düzce","name:fa":"دوزجه","name:hy":"Դյուզջե","name:ja":"デュズジェ","name:ka":"დუზჯე","name:ko":"뒤즈제","name:ky":"Дүзже","name:lv":"Dizdže","name:os":"Дюздже","name:ru":"Дюздже","name:sq":"Dyzxhe","name:sr":"Дузџе","name:tg":"Дузҷе","name:tr":"Düzce Merkez","name:tr:suffix":"İlçesi","name:tt":"Дүзҗе","name:uk":"Дюздже","name:ur":"دوزجہ","name:zh":"迪茲傑","name:zza":"Duzca","network":"TR81-districts","type":"boundary","wikidata":"Q206885","wikipedia":"tr:Düzce"}}]},"id":"relation/14153767"},
{"type":"Feature","geometry":{"type":"Polygon","coordinates":[[[31.1730116,40.8349678],[31.1694648,40.8427366],[31.1648556,40.8379815],[31.1730116,40.8349678]]]},"properties":{"@id":"relation/14153768","admin_level":"8","boundary":"administrative","name":"Nusrettin Mahallesi","type":"boundary","@relations":[{"role":"subarea","rel":1393953,"reltags":{"admin_level":"6","alt_name":"Düzce","boundary":"administrative","name":"Düzce Merkez","name:ar":"دوزجة","name:az":"Düzcə","name:be":"Дзюзджэ","name:ce":"Дуьздже","name:de":"Düzce","name:el":"Ντούζτζε","name:en":"Düzce","name:fa":"دوزجه","name:hy":"Դյուզջե","name:ja":"デュズジェ","name:ka":"დუზჯე","name:ko":"뒤즈제","name:ky":"Дүзже","name:lv":"Dizdže","name:os":"Дюздже","name:ru":"Дюздже","name:sq":"Dyzxhe","name:sr":"Дузџе","name:tg":"Дузҷе","name:tr":"Düzce Merkez","name:tr:suffix":"İlçesi","name:tt":"Дүзҗе","name:uk":"Дюздже","name:ur":"دوزجہ","name:zh":"迪茲傑","name:zza":"Duzca","network":"TR81-districts","type":"boundary","wikidata":"Q206885","wikipedia":"tr:Düzce"}}]},"id":"relation/14153768"},
{"type":"Feature","geometry":{"type":"Polygon","coordinates":[[[31.1442231,40.8483823],[31.1410689,40.8513454],[31.1419165,40.8483914],[31.1442231,40.8483823]]]},"properties":{"@id":"relation/14153769","admin_level":"8","boundary":"administrative","name":"Fatih Mahallesi","type":"boundary","@relations":[{"role":"subarea","rel":1393953,"reltags":{"admin_level":"6","alt_name":"Düzce","boundary":"administrative","name":"Düzce Merkez","name:ar":"دوزجة","name:az":"Düzcə","name:be":"Дзюзджэ","name:ce":"Дуьздже","name:de":"Düzce","name:el":"Ντούζτζε","name:en":"Düzce","name:fa":"دوزجه","name:hy":"Դյուզջե","name:ja":"デュズジェ","name:ka":"დუზჯე","name:ko":"뒤즈제","name:ky":"Дүзже","name:lv":"Dizdže","name:os":"Дюздже","name:ru":"Дюздже","name:sq":"Dyzxhe","name:sr":"Дузџе","name:tg":"Дузҷе","name:tr":"Düzce Merkez","name:tr:suffix":"İlçesi","name:tt":"Дүзҗе","name:uk":"Дюздже","name:ur":"دوزجہ","name:zh":"迪茲傑","name:zza":"Duzca","network":"TR81-districts","type":"boundary","wikidata":"Q206885","wikipedia":"tr:Düzce"}}]},"id":"relation/14153769"}
]}