{"type":"FeatureCollection", "features": [
{"type":"Feature","geometry":{"type":"Polygon","coordinates":[[[39.4023493,39.4864127],[39.4497016,39.5066263],[39.4933597,39.5000187],[39.5370242,39.5165103],[39.5423975,39.4734907],[39.5820256,39.4412085],[39.625012,39.4492481],[39.6867985,39.4842096],[39.7208854,39.4925033],[39.8080337,39.5311242],[39.7887914,39.5791542],[39.8019051,39.6149985],[39.7680788,39.6369514],[39.708372,39.6479486],[39.6734571,39.6371388],[39.6307037,39.6632011],[39.6358123,39.7220705],[39.657378,39.7361777],[39.6782427,39.7782073],[39.6490826,39.7782409],[39.5973534,39.8361941],[39.5434235,39.8409177],[39.5243601,39.8792265],[39.4849822,39.8615403],[39.4471407,39.8623058],[39.3726102,39.8849255],[39.2941257,39.8930112],[39.2715694,39.9217963],[39.1612488,39.9416085],[39.1377435,39.9523813],[39.1431028,39.9138526],[39.130223,39.8604235],[39.1539712,39.8506631],[39.1456092,39.8204165],[39.1653655,39.7725172],[39.2065882,39.7421835],[39.2243881,39.7466875],[39.2773929,39.7209085],[39.3042832,39.6836986],[39.3371706,39.6808698],[39.3669591,39.6574939],[39.4150597,39.6449794],[39.4149687,39.5847483],[39.4376193,39.5620193],[39.4023493,39.4864127]]]},"properties":{"@id":"relation/1754243","admin_level":"6","alt_name":"Erzincan","boundary":"administrative","name":"Erzincan Merkez","name:ar":"أرزنجان","name:az":"Ərzincan","name:bg":"Ерзинджан","name:ce":"Эрзинджан","name:de":"Erzincan","name:el":"Ερζιντζάν","name:en":"Erzincan","name:fa":"ارزنجان","name:he":"ארזינג'אן","name:hy":"Երզնկա","name:ja":"エルズィンジャン","name:ka":"ერზინჯანი","name:ko":"에르진잔","name:ku":"Ezirgan","name:lt":"Erzindžanas","name:os":"Эрзинджан","name:pa":"ਏਰਜਿੰਕਾਨ","name:pt":"Erzincã","name:ru":"Эрзинджан","name:so":"Arzanjaan","name:sq":"Erzinxhani","name:sr":"Ерзинџан","name:tg":"Ерзинҷан","name:th":"แอร์ซินจัน","name:tr":"Erzincan Merkez","name:tr:suffix":"İlçesi","name:tt":"Эрзинҗан","name:uk":"Ерзінджан","name:ur":"ارزنجان","name:zh":"埃尔津詹","name:zza":"Erzıngan","network":"TR24-districts","type":"boundary","wikidata":"Q136217","wikipedia":"tr:Erzincan"},"id":"relation/1754243"},
{"type":"Feature","geometry":{"type":"Polygon","coordinates":[[[38.4029307,39.7804951],[38.3566005,39.7638384],[38.3628627,39.7309518],[38.3177996,39.6486363],[38.297224,39.6395376],[38.3367061,39.5883605],[38.2856367,39.5190061],[38.3175657,39.4972855],[38.3393667,39.4283705],[38.4135245,39.4250556],[38.416357,39.398066],[38.4439308,39.3814766],[38.5009486,39.3849476],[38.5671746,39.3590519],[38.6323354,39.3591418],[38.6831669,39.3413822],[38.7511883,39.2840115],[38.8038687,39.2811381],[38.8230995,39.3263383],[38.8615606,39.3143787],[38.9064573,39.3206998],[38.8526664,39.3762341],[38.7635215,39.427026],[38.7290242,39.4774892],[38.6754488,39.4984931],[38.6614586,39.5240528],[38.6746672,39.5413707],[38.6529539,39.5692859],[38.6622613,39.6071817],[38.6507784,39.6469387],[38.6820656,39.7024693],[38.6165336,39.7477749],[38.5907351,39.750605],[38.4862385,39.73738],[38.4561202,39.7628387],[38.4029307,39.7804951]]]},"properties":{"@id":"relation/1754244","admin_level":"6","boundary":"administrative","name":"İliç","name:ce":"Илич","name:de":"İliç","name:en":"İliç","name:fa":"ایلیچ","name:hy":"Լիճք","name:ku":"Îlîç","name:ru":"Илич","name:tr":"İliç","name:tr:suffix":"İlçesi","name:tt":"Илич","name:ur":"الیچ","name:zza":"Êlic","network":"TR24-districts","type":"boundary","wikidata":"Q343776","wikipedia":"tr:İliç"},"id":"relation/1754244"},
{"type":"Feature","geometry":{"type":"Polygon","coordinates":[[[38.9064573,39.3206998],[38.933529,39.3242405],[38.9553549,39.3524626],[38.9781902,39.3286613],[39.0435602,39.384147],[39.0750096,39.4529127],[39.1227697,39.4682673],[39.1969884,39.4676192],[39.2646585,39.4884862],[39.298496,39.4544365],[39.3299273,39.4583446],[39.4023493,39.4864127],[39.4376193,39.5620193],[39.4149687,39.5847483],[39.4150597,39.6449794],[39.3669591,39.6574939],[39.3371706,39.6808698],[39.3042832,39.6836986],[39.2773929,39.7209085],[39.2243881,39.7466875],[39.2065882,39.7421835],[39.1653655,39.7725172],[39.1456092,39.8204165],[39.1539712,39.8506631],[39.130223,39.8604235],[39.0203417,39.8579518],[38.9998145,39.8323025],[39.0014245,39.7930375],[38.9885446,39.7726232],[38.9432639,39.757057],[38.8613119,39.7111998],[38.7715744,39.6985318],[38.7137157,39.7086926],[38.6820656,39.7024693],[38.6507784,39.6469387],[38.6622613,39.6071817],[38.6529539,39.5692859],[38.6746672,39.5413707],[38.6614586,39.5240528],[38.6754488,39.4984931],[38.7290242,39.4774892],[38.7635215,39.427026],[38.8526664,39.3762341],[38.9064573,39.3206998]]]},"properties":{"@id":"relation/1754245","admin_level":"6","boundary":"administrative","name":"Kemah","name:az":"Kəmax","name:ce":"КемахӀ","name:de":"Kemah","name:el":"Κάμαχα","name:en":"Kemah","name:hy":"Կամախ","name:ku":"Kemax","name:ru":"Кемах","name:tr":"Kemah","name:tr:suffix":"İlçesi","name:tt":"Кемах","name:ur":"کیماہ","name:zh":"凱馬赫","name:zza":"Kemax","network":"TR24-districts","old_name":"Kemakh;Gamakh;Kamacha;Kamachon;Κάμαχα;Κάμαχον","type":"boundary","wikidata":"Q1023301","wikipedia":"tr:Kemah"},"id":"relation/1754245"},
{"type":"Feature","geometry":{"type":"Polygon","coordinates":[[[38.416357,39.398066],[38.402624,39.349432],[38.3763599,39.3694736],[38.3405685,39.3720613],[38.3237456,39.3541443],[38.3715533,39.2809022],[38.3587645,39.2419592],[38.3318137,39.2130369],[38.3069229,39.1326069],[38.3687424,39.1106328],[38.4281587,39.1188573],[38.4768033,39.0975783],[38.5346746,39.1100834],[38.5802829,39.0804322],[38.606708,39.1063704],[38.6420488,39.0716119],[38.6667358,39.053968],[38.7083,39.0146],[38.7568,39.0164],[38.7339867,39.1382435],[38.7628227,39.1502778],[38.7731016,39.1741537],[38.7575693,39.2111498],[38.8622642,39.2216718],[38.9259593,39.2393598],[38.8976844,39.2579147],[38.8265417,39.2658858],[38.8038687,39.2811381],[38.7511883,39.2840115],[38.6831669,39.3413822],[38.6323354,39.3591418],[38.5671746,39.3590519],[38.5009486,39.3849476],[38.4439308,39.3814766],[38.416357,39.398066]]]},"properties":{"@id":"relation/1754246","admin_level":"6","boundary":"administrative","name":"Kemaliye","name:az":"Kəmaliyə","name:bg":"Кемалие","name:ce":"Кемалийе","name:de":"Kemaliye","name:en":"Kemaliye","name:fa":"کمالیه","name:hy":"Ակն","name:ku":"Egîn","name:ru":"Кемалие","name:tr":"Kemaliye","name:tr:suffix":"İlçesi","name:tt":"Кемалие","name:ur":"کمالیہ","name:zza":"Egin","network":"TR24-districts","old_name":"Eğin","type":"boundary","wikidata":"Q1000823","wikipedia":"tr:Kemaliye"},"id":"relation/1754246"},
{"type":"Feature","geometry":{"type":"Polygon","coordinates":[[[40.29955,40.0224459],[40.1740587,40.0377795],[40.1406239,40.0288616],[40.0949476,40.0404952],[40.0613592,40.0830928],[40.0262832,40.0759699],[40.0008773,40.0542273],[39.9394224,40.0383924],[39.944685,40.0102062],[39.9095534,39.9943504],[39.8762321,39.9993291],[39.8476209,39.9620244],[39.9158086,39.9349522],[39.9997056,39.9491045],[40.0493735,39.9085945],[40.0887416,39.9378196],[40.1791992,39.9843243],[40.29955,40.0224459]]]},"properties":{"@id":"relation/1754247","admin_level":"6","boundary":"administrative","name":"Otlukbeli","name:ce":"Отлукбели","name:diq":"Qerequlaq","name:fa":"اوتلوق‌بئلی","name:hy":"Կարագուլաղ","name:ku":"Qerequlax","name:ru":"Отлукбели","name:tr":"Otlukbeli","name:tr:suffix":"İlçesi","name:tt":"Отлукбэли","name:ur":"اوتلوکبیلی","name:zza":"Qerequlaq","network":"TR24-districts","old_name":"Karakulak","population":"2415","population:date":"2016","type":"boundary","wikidata":"Q1023293","wikipedia":"tr:Otlukbeli"},"id":"relation/1754247"},
{"type":"Feature","geometry":{"type":"Polygon","coordinates":[[[39.1377435,39.9523813],[39.0891684,40.00984],[39.0263007,40.028665],[39.0135363,40.0436909],[38.9413833,40.0570523],[38.921403,40.0457644],[38.8007926,40.069993],[38.7686545,40.0639106],[38.7637216,40.0255684],[38.7117004,40.0082233],[38.6766386,40.0154217],[38.6006784,39.9852754],[38.5878038,39.9504114],[38.5340309,39.9393894],[38.4403896,39.9657406],[38.382883,39.9481743],[38.3542686,39.9210677],[38.4020941,39.8650097],[38.4606834,39.8606458],[38.4541081,39.8322476],[38.4029307,39.7804951],[38.4561202,39.7628387],[38.4862385,39.73738],[38.5907351,39.750605],[38.6165336,39.7477749],[38.6820656,39.7024693],[38.7137157,39.7086926],[38.7715744,39.6985318],[38.8613119,39.7111998],[38.9432639,39.757057],[38.9885446,39.7726232],[39.0014245,39.7930375],[38.9998145,39.8323025],[39.0203417,39.8579518],[39.130223,39.8604235],[39.1431028,39.9138526],[39.1377435,39.9523813]]]},"properties":{"@id":"relation/1754248","admin_level":"6","boundary":"administrative","name":"Refahiye","name:az":"Rəfahiyə","name:ce":"РефахӀийе","name:de":"Refahiye","name:en":"Refahiye","name:fa":"رفاهیه","name:hy":"Կերճանիս","name:ku":"Gercan","name:ru":"Рефахие","name:tr":"Refahiye","name:tr:suffix":"İlçesi","name:tt":"Рефахие","name:ur":"رفاہیہ","name:zh":"雷法希耶","name:zza":"Gercan","network":"TR24-districts","type":"boundary","wikidata":"Q1023298","wikipedia":"tr:Refahiye"},"id":"relation/1754248"},
{"type":"Feature","geometry":{"type":"Polygon","coordinates":[[[40.278858,39.9323052],[40.205216,39.9124469],[40.18297,39.9139528],[40.1358344,39.8722652],[40.1668004,39.8084763],[40.217447,39.7848704],[40.246108,39.7508055],[40.2022537,39.7498396],[40.1105254,39.7220183],[40.0877596,39.7034175],[40.079897,39.6695532],[40.057184,39.6372022],[40.0345712,39.629461],[40.0247221,39.5927665],[40.0653075,39.5984526],[40.0873083,39.5879224],[40.1629958,39.6045513],[40.1718408,39.5802209],[40.2209905,39.5690016],[40.2896187,39.5754405],[40.3626124,39.5901138],[40.3854213,39.5852197],[40.4135185,39.5539577],[40.417334,39.5318538],[40.4487198,39.5110894],[40.5157497,39.5169458],[40.520039,39.5273231],[40.6115047,39.5229962],[40.6653675,39.5303051],[40.7415394,39.5299157],[40.743033,39.5591704],[40.701511,39.5577885],[40.6531302,39.5964472],[40.6797698,39.6303063],[40.6580481,39.679456],[40.5666018,39.7308753],[40.5288356,39.7850518],[40.5521849,39.8089208],[40.5443985,39.8437254],[40.5204944,39.8843508],[40.4771944,39.9025883],[40.3561689,39.9298379],[40.278858,39.9323052]]]},"properties":{"@id":"relation/1754249","admin_level":"6","boundary":"administrative","name":"Tercan","name:ce":"Терджан","name:de":"Tercan","name:en":"Tercan","name:fa":"ترجان","name:hy":"Դերջան","name:ku":"Têrcan","name:ru":"Терджан","name:tr":"Tercan","name:tr:suffix":"İlçesi","name:tt":"Терҗан","name:ur":"ترجان","name:zh":"得泽涅军区","name:zza":"Mamaxatune","network":"TR24-districts","type":"boundary","wikidata":"Q2665536","wikipedia":"tr:Tercan"},"id":"relation/1754249"},
{"type":"Feature","geometry":{"type":"Polygon","coordinates":[[[39.8476209,39.9620244],[39.8075918,39.9437864],[39.8167176,39.9194755],[39.7713724,39.8894161],[39.6943284,39.8860244],[39.6531187,39.8626693],[39.6326235,39.8652118],[39.6134962,39.897523],[39.5589335,39.8855779],[39.5973534,39.8361941],[39.6490826,39.7782409],[39.6782427,39.7782073],[39.7255688,39.7917506],[39.8103142,39.7669732],[39.8516197,39.7759719],[39.9120316,39.7460031],[39.9451224,39.7081805],[40.0242309,39.7027897],[40.079897,39.6695532],[40.0877596,39.7034175],[40.1105254,39.7220183],[40.2022537,39.7498396],[40.246108,39.7508055],[40.217447,39.7848704],[40.1668004,39.8084763],[40.1358344,39.8722652],[40.18297,39.9139528],[40.205216,39.9124469],[40.278858,39.9323052],[40.2460417,39.9603341],[40.2586041,39.984378],[40.29955,40.0224459],[40.1791992,39.9843243],[40.0887416,39.9378196],[40.0493735,39.9085945],[39.9997056,39.9491045],[39.9158086,39.9349522],[39.8476209,39.9620244]]]},"properties":{"@id":"relation/1754250","admin_level":"6","boundary":"administrative","name":"Çayırlı","name:ce":"Чайирли","name:de":"Çayırlı","name:en":"Çayırlı","name:fa":"چائیرلی","name:hy":"Մանց","name:ku":"Mose","name:ru":"Чайырлы","name:tr":"Çayırlı","name:tr:suffix":"İlçesi","name:tt":"Чаерлы","name:ur":"چائےریلی","name:zza":"Manse","network":"TR24-districts","type":"boundary","wikidata":"Q272722","wikipedia":"tr:Çayırlı"},"id":"relation/1754250"},
{"type":"Feature","geometry":{"type":"Polygon","coordinates":[[[40.1718408,39.5802209],[40.1629958,39.6045513],[40.0873083,39.5879224],[40.0653075,39.5984526],[40.0247221,39.5927665],[40.0345712,39.629461],[40.057184,39.6372022],[40.079897,39.6695532],[40.0242309,39.7027897],[39.9451224,39.7081805],[39.9120316,39.7460031],[39.8516197,39.7759719],[39.8103142,39.7669732],[39.7255688,39.7917506],[39.6782427,39.7782073],[39.657378,39.7361777],[39.6358123,39.7220705],[39.6307037,39.6632011],[39.6734571,39.6371388],[39.708372,39.6479486],[39.7680788,39.6369514],[39.8019051,39.6149985],[39.873122,39.5891241],[40.0130745,39.5680582],[40.0633063,39.5505634],[40.1369325,39.5647123],[40.1718408,39.5802209]]]},"properties":{"@id":"relation/1754251","admin_level":"6","boundary":"administrative","name":"Üzümlü","name:ce":"Уьзуьмлуь","name:de":"Üzümlü","name:en":"Üzümlü","name:fa":"اوزوملو","name:hy":"Ճիմին","name:ku":"Cîmîn","name:ru":"Узюмлю","name:tr":"Üzümlü","name:tr:suffix":"İlçesi","name:tt":"Үзүмлү","name:ur":"اوزوملو","name:zza":"Cimıne","network":"TR24-districts","type":"boundary","wikidata":"Q335204","wikipedia":"tr:Üzümlü"},"id":"relation/1754251"},
{"type":"Feature","geometry":{"type":"Polygon","coordinates":[[[39.5039558,39.7458222],[39.4909894,39.7467363],[39.4905978,39.743255],[39.5015198,39.7412545],[39.5039558,39.7458222]]]},"properties":{"@id":"relation/11762031","admin_level":"8","boundary":"administrative","name":"Karaağaç Mahallesi","type":"boundary","@relations":[{"role":"subarea","rel":1754243,"reltags":{"admin_level":"6","alt_name":"Erzincan","boundary":"administrative","name":"Erzincan Merkez","name:ar":"أرزنجان","name:az":"Ərzincan","name:bg":"Ерзинджан","name:ce":"Эрзинджан","name:de":"Erzincan","name:el":"Ερζιντζάν","name:en":"Erzincan","name:fa":"ارزنجان","name:he":"ארזינג'אן","name:hy":"Երզնկա","name:ja":"エルズィンジャン","name:ka":"ერზინჯანი","name:ko":"에르진잔","name:ku":"Ezirgan","name:lt":"Erzindžanas","name:os":"Эрзинджан","name:pa":"ਏਰਜਿੰਕਾਨ","name:pt":"Erzincã","name:ru":"Эрзинджан","name:so":"Arzanjaan","name:sq":"Erzinxhani","name:sr":"Ерзинџан","name:tg":"Ерзинҷан","name:th":"แอร์ซินจัน","name:tr":"Erzincan Merkez","name:tr:suffix":"İlçesi","name:tt":"Эрзинҗан","name:uk":"Ерзінджан","name:ur":"ارزنجان","name:zh":"埃尔津詹","name:zza":"Erzıngan","network":"TR24-districts","type":"boundary","wikidata":"Q136217","wikipedia":"tr:Erzincan"}}]},"id":"relation/11762031"},
{"type":"Feature","geometry":{"type":"Polygon","coordinates":[[[39.4832593,39.7472477],[39.4828516,39.7437954],[39.4905978,39.743255],[39.4909894,39.7467363],[39.4832593,39.7472477]]]},"properties":{"@id":"relation/11762032","admin_level":"8","boundary":"administrative","name":"Kızılay Mahallesi","type":"boundary","@relations":[{"role":"subarea","rel":1754243,"reltags":{"admin_level":"6","alt_name":"Erzincan","boundary":"administrative","name":"Erzincan Merkez","name:ar":"أرزنجان","name:az":"Ərzincan","name:bg":"Ерзинджан","name:ce":"Эрзинджан","name:de":"Erzincan","name:el":"Ερζιντζάν","name:en":"Erzincan","name:fa":"ارزنجان","name:he":"ארזינג'אן","name:hy":"Երզնկա","name:ja":"エルズィンジャン","name:ka":"ერზინჯანი","name:ko":"에르진잔","name:ku":"Ezirgan","name:lt":"Erzindžanas","name:os":"Эрзинджан","name:pa":"ਏਰਜਿੰਕਾਨ","name:pt":"Erzincã","name:ru":"Эрзинджан","name:so":"Arzanjaan","name:sq":"Erzinxhani","name:sr":"Ерзинџан","name:tg":"Ерзинҷан","name:th":"แอร์ซินจัน","name:tr":"Erzincan Merkez","name:tr:suffix":"İlçesi","name:tt":"Эрзинҗан","name:uk":"Ерзінджан","name:ur":"ارزنجان","name:zh":"埃尔津詹","name:zza":"Erzıngan","network":"TR24-districts","type":"boundary","wikidata":"Q136217","wikipedia":"tr:Erzincan"}}]},"id":"relation/11762032"},
{"type":"Feature","geometry":{"type":"Polygon","coordinates":[[[39.4694567,39.7520073],[39.4686882,39.7583423],[39.4605088,39.7578388],[39.460262,39.7498049],[39.4698214,39.7480066],[39.4694567,39.7520073]]]},"properties":{"@id":"relation/12017916","admin_level":"8","boundary":"administrative","name":"Ergenekon Mahallesi","type":"boundary","@relations":[{"role":"subarea","rel":1754243,"reltags":{"admin_level":"6","alt_name":"Erzincan","boundary":"administrative","name":"Erzincan Merkez","name:ar":"أرزنجان","name:az":"Ərzincan","name:bg":"Ерзинджан","name:ce":"Эрзинджан","name:de":"Erzincan","name:el":"Ερζιντζάν","name:en":"Erzincan","name:fa":"ارزنجان","name:he":"ארזינג'אן","name:hy":"Երզնկա","name:ja":"エルズィンジャン","name:ka":"ერზინჯანი","name:ko":"에르진잔","name:ku":"Ezirgan","name:lt":"Erzindžanas","name:os":"Эрзинджан","name:pa":"ਏਰਜਿੰਕਾਨ","name:pt":"Erzincã","name:ru":"Эрзинджан","name:so":"Arzanjaan","name:sq":"Erzinxhani","name:sr":"Ерзинџан","name:tg":"Ерзинҷан","name:th":"แอร์ซินจัน","name:tr":"Erzincan Merkez","name:tr:suffix":"İlçesi","name:tt":"Эрзинҗан","name:uk":"Ерзінджан","name:ur":"ارزنجان","name:zh":"埃尔津詹","name:zza":"Erzıngan","network":"TR24-districts","type":"boundary","wikidata":"Q136217","wikipedia":"tr:Erzincan"}}]},"id":"relation/12017916"},
{"type":"Feature","geometry":{"type":"Polygon","coordinates":[[[39.4686882,39.7583423],[39.4694567,39.7520073],[39.4794774,39.7540034],[39.4774953,39.758975],[39.4686305,39.7609729],[39.4686882,39.7583423]]]},"properties":{"@id":"relation/12017917","admin_level":"8","boundary":"administrative","name":"Yavuz Selim Mahallesi","type":"boundary","@relations":[{"role":"subarea","rel":1754243,"reltags":{"admin_level":"6","alt_name":"Erzincan","boundary":"administrative","name":"Erzincan Merkez","name:ar":"أرزنجان","name:az":"Ərzincan","name:bg":"Ерзинджан","name:ce":"Эрзинджан","name:de":"Erzincan","name:el":"Ερζιντζάν","name:en":"Erzincan","name:fa":"ارزنجان","name:he":"ארזינג'אן","name:hy":"Երզնկա","name:ja":"エルズィンジャン","name:ka":"ერზინჯანი","name:ko":"에르진잔","name:ku":"Ezirgan","name:lt":"Erzindžanas","name:os":"Эрзинджан","name:pa":"ਏਰਜਿੰਕਾਨ","name:pt":"Erzincã","name:ru":"Эрзинджан","name:so":"Arzanjaan","name:sq":"Erzinxhani","name:sr":"Ерзинџан","name:tg":"Ерзинҷан","name:th":"แอร์ซินจัน","name:tr":"Erzincan Merkez","name:tr:suffix":"İlçesi","name:tt":"Эрзинҗан","name:uk":"Ерзінджан","name:ur":"ارزنجان","name:zh":"埃尔津詹","name:zza":"Erzıngan","network":"TR24-districts","type":"boundary","wikidata":"Q136217","wikipedia":"tr:Erzincan"}}]},"id":"relation/12017917"},
{"type":"Feature","geometry":{"type":"Polygon","coordinates":[[[39.512909,39.7313518],[39.5094164,39.7335521],[39.5057178,39.7333401],[39.512909,39.7313518]]]},"properties":{"@id":"relation/12017918","admin_level":"8","boundary":"administrative","name":"Ersevenler Mahallesi","type":"boundary","@relations":[{"role":"subarea","rel":1754243,"reltags":{"admin_level":"6","alt_name":"Erzincan","boundary":"administrative","name":"Erzincan Merkez","name:ar":"أرزنجان","name:az":"Ərzincan","name:bg":"Ерзинджан","name:ce":"Эрзинджан","name:de":"Erzincan","name:el":"Ερζιντζάν","name:en":"Erzincan","name:fa":"ارزنجان","name:he":"ארזינג'אן","name:hy":"Երզնկա","name:ja":"エルズィンジャン","name:ka":"ერზინჯანი","name:ko":"에르진잔","name:ku":"Ezirgan","name:lt":"Erzindžanas","name:os":"Эрзинджан","name:pa":"ਏਰਜਿੰਕਾਨ","name:pt":"Erzincã","name:ru":"Эрзинджан","name:so":"Arzanjaan","name:sq":"Erzinxhani","name:sr":"Ерзинџан","name:tg":"Ерзинҷан","name:th":"แอร์ซินจัน","name:tr":"Erzincan Merkez","name:tr:suffix":"İlçesi","name:tt":"Эрзинҗан","name:uk":"Ерзінджан","name:ur":"ارزنجان","name:zh":"埃尔津詹","name:zza":"Erzıngan","network":"TR24-districts","type":"boundary","wikidata":"Q136217","wikipedia":"tr:Erzincan"}}]},"id":"relation/12017918"},
{"type":"Feature","geometry":{"type":"Polygon","coordinates":[[[39.5015198,39.7412545],[39.5023256,39.7361928],[39.5005274,39.729844],[39.5057178,39.7333401],[39.5094164,39.7335521],[39.512909,39.7313518],[39.5267016,39.7297487],[39.5455498,39.7293706],[39.5174845,39.7406361],[39.5039558,39.7458222],[39.5015198,39.7412545]]]},"properties":{"@id":"relation/12017919","admin_level":"8","boundary":"administrative","name":"İzzetpaşa Mahallesi","type":"boundary","@relations":[{"role":"subarea","rel":1754243,"reltags":{"admin_level":"6","alt_name":"Erzincan","boundary":"administrative","name":"Erzincan Merkez","name:ar":"أرزنجان","name:az":"Ərzincan","name:bg":"Ерзинджан","name:ce":"Эрзинджан","name:de":"Erzincan","name:el":"Ερζιντζάν","name:en":"Erzincan","name:fa":"ارزنجان","name:he":"ארזינג'אן","name:hy":"Երզնկա","name:ja":"エルズィンジャン","name:ka":"ერზინჯანი","name:ko":"에르진잔","name:ku":"Ezirgan","name:lt":"Erzindžanas","name:os":"Эрзинджан","name:pa":"ਏਰਜਿੰਕਾਨ","name:pt":"Erzincã","name:ru":"Эрзинджан","name:so":"Arzanjaan","name:sq":"Erzinxhani","name:sr":"Ерзинџан","name:tg":"Ерзинҷан","name:th":"แอร์ซินจัน","name:tr":"Erzincan Merkez","name:tr:suffix":"İlçesi","name:tt":"Эрзинҗан","name:uk":"Ерзінджан","name:ur":"ارزنجان","name:zh":"埃尔津詹","name:zza":"Erzıngan","network":"TR24-districts","type":"boundary","wikidata":"Q136217","wikipedia":"tr:Erzincan"}}]},"id":"relation/12017919"},
{"type":"Feature","geometry":{"type":"Polygon","coordinates":[[[39.5023256,39.7361928],[39.5015198,39.7412545],[39.4905978,39.743255],[39.489702,39.7400129],[39.489616,39.7397674],[39.5023256,39.7361928]]]},"properties":{"@id":"relation/12017920","admin_level":"8","boundary":"administrative","name":"Gülabibey Mahallesi","type":"boundary","@relations":[{"role":"subarea","rel":1754243,"reltags":{"admin_level":"6","alt_name":"Erzincan","boundary":"administrative","name":"Erzincan Merkez","name:ar":"أرزنجان","name:az":"Ərzincan","name:bg":"Ерзинджан","name:ce":"Эрзинджан","name:de":"Erzincan","name:el":"Ερζιντζάν","name:en":"Erzincan","name:fa":"ارزنجان","name:he":"ארזינג'אן","name:hy":"Երզնկա","name:ja":"エルズィンジャン","name:ka":"ერზინჯანი","name:ko":"에르진잔","name:ku":"Ezirgan","name:lt":"Erzindžanas","name:os":"Эрзинджан","name:pa":"ਏਰਜਿੰਕਾਨ","name:pt":"Erzincã","name:ru":"Эрзинджан","name:so":"Arzanjaan","name:sq":"Erzinxhani","name:sr":"Ерзинџан","name:tg":"Ерзинҷан","name:th":"แอร์ซินจัน","name:tr":"Erzincan Merkez","name:tr:suffix":"İlçesi","name:tt":"Эрзинҗан","name:uk":"Ерзінджан","name:ur":"ارزنجان","name:zh":"埃尔津詹","name:zza":"Erzıngan","network":"TR24-districts","type":"boundary","wikidata":"Q136217","wikipedia":"tr:Erzincan"}}]},"id":"relation/12017920"},
{"type":"Feature","geometry":{"type":"Polygon","coordinates":[[[39.5031023,39.6985526],[39.5029435,39.7247787],[39.5005274,39.729844],[39.5023256,39.7361928],[39.489616,39.7397674],[39.4880214,39.7328],[39.5031023,39.6985526]]]},"properties":{"@id":"relation/12017921","admin_level":"8","boundary":"administrative","name":"Çarşı Mahallesi","type":"boundary","@relations":[{"role":"subarea","rel":1754243,"reltags":{"admin_level":"6","alt_name":"Erzincan","boundary":"administrative","name":"Erzincan Merkez","name:ar":"أرزنجان","name:az":"Ərzincan","name:bg":"Ерзинджан","name:ce":"Эрзинджан","name:de":"Erzincan","name:el":"Ερζιντζάν","name:en":"Erzincan","name:fa":"ارزنجان","name:he":"ארזינג'אן","name:hy":"Երզնկա","name:ja":"エルズィンジャン","name:ka":"ერზინჯანი","name:ko":"에르진잔","name:ku":"Ezirgan","name:lt":"Erzindžanas","name:os":"Эрзинджан","name:pa":"ਏਰਜਿੰਕਾਨ","name:pt":"Erzincã","name:ru":"Эрзинджан","name:so":"Arzanjaan","name:sq":"Erzinxhani","name:sr":"Ерзинџан","name:tg":"Ерзинҷан","name:th":"แอร์ซินจัน","name:tr":"Erzincan Merkez","name:tr:suffix":"İlçesi","name:tt":"Эрзинҗан","name:uk":"Ерзінджан","name:ur":"ارزنجان","name:zh":"埃尔津詹","name:zza":"Erzıngan","network":"TR24-districts","type":"boundary","wikidata":"Q136217","wikipedia":"tr:Erzincan"}}]},"id":"relation/12017921"},
{"type":"Feature","geometry":{"type":"Polygon","coordinates":[[[39.489616,39.7397674],[39.489702,39.7400129],[39.4843054,39.7374966],[39.4880214,39.7328],[39.489616,39.7397674]]]},"properties":{"@id":"relation/12017922","admin_level":"8","boundary":"administrative","name":"Taksim Mahallesi","type":"boundary","@relations":[{"role":"subarea","rel":1754243,"reltags":{"admin_level":"6","alt_name":"Erzincan","boundary":"administrative","name":"Erzincan Merkez","name:ar":"أرزنجان","name:az":"Ərzincan","name:bg":"Ерзинджан","name:ce":"Эрзинджан","name:de":"Erzincan","name:el":"Ερζιντζάν","name:en":"Erzincan","name:fa":"ارزنجان","name:he":"ארזינג'אן","name:hy":"Երզնկա","name:ja":"エルズィンジャン","name:ka":"ერზინჯანი","name:ko":"에르진잔","name:ku":"Ezirgan","name:lt":"Erzindžanas","name:os":"Эрзинджан","name:pa":"ਏਰਜਿੰਕਾਨ","name:pt":"Erzincã","name:ru":"Эрзинджан","name:so":"Arzanjaan","name:sq":"Erzinxhani","name:sr":"Ерзинџан","name:tg":"Ерзинҷан","name:th":"แอร์ซินจัน","name:tr":"Erzincan Merkez","name:tr:suffix":"İlçesi","name:tt":"Эрзинҗан","name:uk":"Ерзінджан","name:ur":"ارزنجان","name:zh":"埃尔津詹","name:zza":"Erzıngan","network":"TR24-districts","type":"boundary","wikidata":"Q136217","wikipedia":"tr:Erzincan"}}]},"id":"relation/12017922"},
{"type":"Feature","geometry":{"type":"Polygon","coordinates":[[[39.489702,39.7400129],[39.4905978,39.743255],[39.4828516,39.7437954],[39.4821811,39.7387011],[39.4843054,39.7374966],[39.489702,39.7400129]]]},"properties":{"@id":"relation/12017923","admin_level":"8","boundary":"administrative","name":"Hocabey Mahallesi","type":"boundary","@relations":[{"role":"subarea","rel":1754243,"reltags":{"admin_level":"6","alt_name":"Erzincan","boundary":"administrative","name":"Erzincan Merkez","name:ar":"أرزنجان","name:az":"Ərzincan","name:bg":"Ерзинджан","name:ce":"Эрзинджан","name:de":"Erzincan","name:el":"Ερζιντζάν","name:en":"Erzincan","name:fa":"ارزنجان","name:he":"ארזינג'אן","name:hy":"Երզնկա","name:ja":"エルズィンジャン","name:ka":"ერზინჯანი","name:ko":"에르진잔","name:ku":"Ezirgan","name:lt":"Erzindžanas","name:os":"Эрзинджан","name:pa":"ਏਰਜਿੰਕਾਨ","name:pt":"Erzincã","name:ru":"Эрзинджан","name:so":"Arzanjaan","name:sq":"Erzinxhani","name:sr":"Ерзинџан","name:tg":"Ерзинҷан","name:th":"แอร์ซินจัน","name:tr":"Erzincan Merkez","name:tr:suffix":"İlçesi","name:tt":"Эрзинҗан","name:uk":"Ерзінджан","name:ur":"ارزنجان","name:zh":"埃尔津詹","name:zza":"Erzıngan","network":"TR24-districts","type":"boundary","wikidata":"Q136217","wikipedia":"tr:Erzincan"}}]},"id":"relation/12017923"},
{"type":"Feature","geometry":{"type":"Polygon","coordinates":[[[39.4821811,39.7387011],[39.4828516,39.7437954],[39.4832593,39.7472477],[39.4826424,39.7472972],[39.4698214,39.7480066],[39.4821811,39.7387011]]]},"properties":{"@id":"relation/12017924","admin_level":"8","boundary":"administrative","name":"Halitpaşa Mahallesi","type":"boundary","@relations":[{"role":"subarea","rel":1754243,"reltags":{"admin_level":"6","alt_name":"Erzincan","boundary":"administrative","name":"Erzincan Merkez","name:ar":"أرزنجان","name:az":"Ərzincan","name:bg":"Ерзинджан","name:ce":"Эрзинджан","name:de":"Erzincan","name:el":"Ερζιντζάν","name:en":"Erzincan","name:fa":"ارزنجان","name:he":"ארזינג'אן","name:hy":"Երզնկա","name:ja":"エルズィンジャン","name:ka":"ერზინჯანი","name:ko":"에르진잔","name:ku":"Ezirgan","name:lt":"Erzindžanas","name:os":"Эрзинджан","name:pa":"ਏਰਜਿੰਕਾਨ","name:pt":"Erzincã","name:ru":"Эрзинджан","name:so":"Arzanjaan","name:sq":"Erzinxhani","name:sr":"Ерзинџан","name:tg":"Ерзинҷан","name:th":"แอร์ซินจัน","name:tr":"Erzincan Merkez","name:tr:suffix":"İlçesi","name:tt":"Эрзинҗан","name:uk":"Ерзінджан","name:ur":"ارزنجان","name:zh":"埃尔津詹","name:zza":"Erzıngan","network":"TR24-districts","type":"boundary","wikidata":"Q136217","wikipedia":"tr:Erzincan"}}]},"id":"relation/12017924"},
{"type":"Feature","geometry":{"type":"Polygon","coordinates":[[[39.4794774,39.7540034],[39.4694567,39.7520073],[39.4698214,39.7480066],[39.4826424,39.7472972],[39.4794774,39.7540034]]]},"properties":{"@id":"relation/12017925","admin_level":"8","boundary":"administrative","name":"Bahçelievler Mahallesi","type":"boundary","@relations":[{"role":"subarea","rel":1754243,"reltags":{"admin_level":"6","alt_name":"Erzincan","boundary":"administrative","name":"Erzincan Merkez","name:ar":"أرزنجان","name:az":"Ərzincan","name:bg":"Ерзинджан","name:ce":"Эрзинджан","name:de":"Erzincan","name:el":"Ερζιντζάν","name:en":"Erzincan","name:fa":"ارزنجان","name:he":"ארזינג'אן","name:hy":"Երզնկա","name:ja":"エルズィンジャン","name:ka":"ერზინჯანი","name:ko":"에르진잔","name:ku":"Ezirgan","name:lt":"Erzindžanas","name:os":"Эрзинджан","name:pa":"ਏਰਜਿੰਕਾਨ","name:pt":"Erzincã","name:ru":"Эрзинджан","name:so":"Arzanjaan","name:sq":"Erzinxhani","name:sr":"Ерзинџан","name:tg":"Ерзинҷан","name:th":"แอร์ซินจัน","name:tr":"Erzincan Merkez","name:tr:suffix":"İlçesi","name:tt":"Эрзинҗан","name:uk":"Ерзінджан","name:ur":"ارزنجان","name:zh":"埃尔津詹","name:zza":"Erzıngan","network":"TR24-districts","type":"boundary","wikidata":"Q136217","wikipedia":"tr:Erzincan"}}]},"id":"relation/12017925"},
{"type":"Feature","geometry":{"type":"Polygon","coordinates":[[[39.4909894,39.7467363],[39.4916224,39.752098],[39.491837,39.7539539],[39.4872236,39.7542591],[39.4794774,39.7540034],[39.4826424,39.7472972],[39.4832593,39.7472477],[39.4909894,39.7467363]]]},"properties":{"@id":"relation/12017926","admin_level":"8","boundary":"administrative","name":"İnönü Mahallesi","type":"boundary","@relations":[{"role":"subarea","rel":1754243,"reltags":{"admin_level":"6","alt_name":"Erzincan","boundary":"administrative","name":"Erzincan Merkez","name:ar":"أرزنجان","name:az":"Ərzincan","name:bg":"Ерзинджан","name:ce":"Эрзинджан","name:de":"Erzincan","name:el":"Ερζιντζάν","name:en":"Erzincan","name:fa":"ارزنجان","name:he":"ארזינג'אן","name:hy":"Երզնկա","name:ja":"エルズィンジャン","name:ka":"ერზინჯანი","name:ko":"에르진잔","name:ku":"Ezirgan","name:lt":"Erzindžanas","name:os":"Эрзинджан","name:pa":"ਏਰਜਿੰਕਾਨ","name:pt":"Erzincã","name:ru":"Эрзинджан","name:so":"Arzanjaan","name:sq":"Erzinxhani","name:sr":"Ерзинџан","name:tg":"Ерзинҷан","name:th":"แอร์ซินจัน","name:tr":"Erzincan Merkez","name:tr:suffix":"İlçesi","name:tt":"Эрзинҗан","name:uk":"Ерзінджан","name:ur":"ارزنجان","name:zh":"埃尔津詹","name:zza":"Erzıngan","network":"TR24-districts","type":"boundary","wikidata":"Q136217","wikipedia":"tr:Erzincan"}}]},"id":"relation/12017926"},
{"type":"Feature","geometry":{"type":"Polygon","coordinates":[[[39.506022,39.7498348],[39.506396,39.7511412],[39.5004737,39.7515289],[39.4916224,39.752098],[39.4909894,39.7467363],[39.5039558,39.7458222],[39.506022,39.7498348]]]},"properties":{"@id":"relation/12017927","admin_level":"8","boundary":"administrative","name":"Atatürk Mahallesi","type":"boundary","@relations":[{"role":"subarea","rel":1754243,"reltags":{"admin_level":"6","alt_name":"Erzincan","boundary":"administrative","name":"Erzincan Merkez","name:ar":"أرزنجان","name:az":"Ərzincan","name:bg":"Ерзинджан","name:ce":"Эрзинджан","name:de":"Erzincan","name:el":"Ερζιντζάν","name:en":"Erzincan","name:fa":"ارزنجان","name:he":"ארזינג'אן","name:hy":"Երզնկա","name:ja":"エルズィンジャン","name:ka":"ერზინჯანი","name:ko":"에르진잔","name:ku":"Ezirgan","name:lt":"Erzindžanas","name:os":"Эрзинджан","name:pa":"ਏਰਜਿੰਕਾਨ","name:pt":"Erzincã","name:ru":"Эрзинджан","name:so":"Arzanjaan","name:sq":"Erzinxhani","name:sr":"Ерзинџан","name:tg":"Ерзинҷан","name:th":"แอร์ซินจัน","name:tr":"Erzincan Merkez","name:tr:suffix":"İlçesi","name:tt":"Эрзинҗан","name:uk":"Ерзінджан","name:ur":"ارزنجان","name:zh":"埃尔津詹","name:zza":"Erzıngan","network":"TR24-districts","type":"boundary","wikidata":"Q136217","wikipedia":"tr:Erzincan"}}]},"id":"relation/12017927"},
{"type":"Feature","geometry":{"type":"Polygon","coordinates":[[[39.518224,39.7445344],[39.5222855,39.7469425],[39.5195281,39.750968],[39.518224,39.7445344]]]},"properties":{"@id":"relation/12409296","admin_level":"8","boundary":"administrative","name":"Demetevler Mahallesi","type":"boundary","@relations":[{"role":"subarea","rel":1754243,"reltags":{"admin_level":"6","alt_name":"Erzincan","boundary":"administrative","name":"Erzincan Merkez","name:ar":"أرزنجان","name:az":"Ərzincan","name:bg":"Ерзинджан","name:ce":"Эрзинджан","name:de":"Erzincan","name:el":"Ερζιντζάν","name:en":"Erzincan","name:fa":"ارزنجان","name:he":"ארזינג'אן","name:hy":"Երզնկա","name:ja":"エルズィンジャン","name:ka":"ერზინჯანი","name:ko":"에르진잔","name:ku":"Ezirgan","name:lt":"Erzindžanas","name:os":"Эрзинджан","name:pa":"ਏਰਜਿੰਕਾਨ","name:pt":"Erzincã","name:ru":"Эрзинджан","name:so":"Arzanjaan","name:sq":"Erzinxhani","name:sr":"Ерзинџан","name:tg":"Ерзинҷан","name:th":"แอร์ซินจัน","name:tr":"Erzincan Merkez","name:tr:suffix":"İlçesi","name:tt":"Эрзинҗан","name:uk":"Ерзінджан","name:ur":"ارزنجان","name:zh":"埃尔津詹","name:zza":"Erzıngan","network":"TR24-districts","type":"boundary","wikidata":"Q136217","wikipedia":"tr:Erzincan"}}]},"id":"relation/12409296"},
{"type":"Feature","geometry":{"type":"Polygon","coordinates":[[[39.4999143,39.7566213],[39.5057845,39.7570222],[39.5157409,39.7626718],[39.4997549,39.7648573],[39.4999143,39.7566213]]]},"properties":{"@id":"relation/12409297","admin_level":"8","boundary":"administrative","name":"Başbağlar Mahallesi","type":"boundary","@relations":[{"role":"subarea","rel":1754243,"reltags":{"admin_level":"6","alt_name":"Erzincan","boundary":"administrative","name":"Erzincan Merkez","name:ar":"أرزنجان","name:az":"Ərzincan","name:bg":"Ерзинджан","name:ce":"Эрзинджан","name:de":"Erzincan","name:el":"Ερζιντζάν","name:en":"Erzincan","name:fa":"ارزنجان","name:he":"ארזינג'אן","name:hy":"Երզնկա","name:ja":"エルズィンジャン","name:ka":"ერზინჯანი","name:ko":"에르진잔","name:ku":"Ezirgan","name:lt":"Erzindžanas","name:os":"Эрзинджан","name:pa":"ਏਰਜਿੰਕਾਨ","name:pt":"Erzincã","name:ru":"Эрзинджан","name:so":"Arzanjaan","name:sq":"Erzinxhani","name:sr":"Ерзинџан","name:tg":"Ерзинҷан","name:th":"แอร์ซินจัน","name:tr":"Erzincan Merkez","name:tr:suffix":"İlçesi","name:tt":"Эрзинҗан","name:uk":"Ерзінджан","name:ur":"ارزنجان","name:zh":"埃尔津詹","name:zza":"Erzıngan","network":"TR24-districts","type":"boundary","wikidata":"Q136217","wikipedia":"tr:Erzincan"}}]},"id":"relation/12409297"},
{"type":"Feature","geometry":{"type":"Polygon","coordinates":[[[39.5057845,39.7570222],[39.5062496,39.7533382],[39.5196032,39.7513474],[39.5157409,39.7626718],[39.5057845,39.7570222]]]},"properties":{"@id":"relation/12409298","admin_level":"8","boundary":"administrative","name":"Yunus Emre Mahallesi","type":"boundary","@relations":[{"role":"subarea","rel":1754243,"reltags":{"admin_level":"6","alt_name":"Erzincan","boundary":"administrative","name":"Erzincan Merkez","name:ar":"أرزنجان","name:az":"Ərzincan","name:bg":"Ерзинджан","name:ce":"Эрзинджан","name:de":"Erzincan","name:el":"Ερζιντζάν","name:en":"Erzincan","name:fa":"ارزنجان","name:he":"ארזינג'אן","name:hy":"Երզնկա","name:ja":"エルズィンジャン","name:ka":"ერზინჯანი","name:ko":"에르진잔","name:ku":"Ezirgan","name:lt":"Erzindžanas","name:os":"Эрзинджан","name:pa":"ਏਰਜਿੰਕਾਨ","name:pt":"Erzincã","name:ru":"Эрзинджан","name:so":"Arzanjaan","name:sq":"Erzinxhani","name:sr":"Ерзинџан","name:tg":"Ерзинҷан","name:th":"แอร์ซินจัน","name:tr":"Erzincan Merkez","name:tr:suffix":"İlçesi","name:tt":"Эрзинҗан","name:uk":"Ерзінджан","name:ur":"ارزنجان","name:zh":"埃尔津詹","name:zza":"Erzıngan","network":"TR24-districts","type":"boundary","wikidata":"Q136217","wikipedia":"tr:Erzincan"}}]},"id":"relation/12409298"},
{"type":"Feature","geometry":{"type":"Polygon","coordinates":[[[39.506022,39.7498348],[39.5195281,39.750968],[39.5196032,39.7513474],[39.5062496,39.7533382],[39.506396,39.7511412],[39.506022,39.7498348]]]},"properties":{"@id":"relation/12409299","admin_level":"8","boundary":"administrative","name":"Akşemsettin Mahallesi","type":"boundary","@relations":[{"role":"subarea","rel":1754243,"reltags":{"admin_level":"6","alt_name":"Erzincan","boundary":"administrative","name":"Erzincan Merkez","name:ar":"أرزنجان","name:az":"Ərzincan","name:bg":"Ерзинджан","name:ce":"Эрзинджан","name:de":"Erzincan","name:el":"Ερζιντζάν","name:en":"Erzincan","name:fa":"ارزنجان","name:he":"ארזינג'אן","name:hy":"Երզնկա","name:ja":"エルズィンジャン","name:ka":"ერზინჯანი","name:ko":"에르진잔","name:ku":"Ezirgan","name:lt":"Erzindžanas","name:os":"Эрзинджан","name:pa":"ਏਰਜਿੰਕਾਨ","name:pt":"Erzincã","name:ru":"Эрзинджан","name:so":"Arzanjaan","name:sq":"Erzinxhani","name:sr":"Ерзинџан","name:tg":"Ерзинҷан","name:th":"แอร์ซินจัน","name:tr":"Erzincan Merkez","name:tr:suffix":"İlçesi","name:tt":"Эрзинҗан","name:uk":"Ерзінджан","name:ur":"ارزنجان","name:zh":"埃尔津詹","name:zza":"Erzıngan","network":"TR24-districts","type":"boundary","wikidata":"Q136217","wikipedia":"tr:Erzincan"}}]},"id":"relation/12409299"},
{"type":"Feature","geometry":{"type":"Polygon","coordinates":[[[39.506022,39.7498348],[39.5039558,39.7458222],[39.5174845,39.7406361],[39.518224,39.7445344],[39.5195281,39.750968],[39.506022,39.7498348]]]},"properties":{"@id":"relation/12409300","admin_level":"8","boundary":"administrative","name":"Fatih Mahallesi","type":"boundary","@relations":[{"role":"subarea","rel":1754243,"reltags":{"admin_level":"6","alt_name":"Erzincan","boundary":"administrative","name":"Erzincan Merkez","name:ar":"أرزنجان","name:az":"Ərzincan","name:bg":"Ерзинджан","name:ce":"Эрзинджан","name:de":"Erzincan","name:el":"Ερζιντζάν","name:en":"Erzincan","name:fa":"ارزنجان","name:he":"ארזינג'אן","name:hy":"Երզնկա","name:ja":"エルズィンジャン","name:ka":"ერზინჯანი","name:ko":"에르진잔","name:ku":"Ezirgan","name:lt":"Erzindžanas","name:os":"Эрзинджан","name:pa":"ਏਰਜਿੰਕਾਨ","name:pt":"Erzincã","name:ru":"Эрзинджан","name:so":"Arzanjaan","name:sq":"Erzinxhani","name:sr":"Ерзинџан","name:tg":"Ерзинҷан","name:th":"แอร์ซินจัน","name:tr":"Erzincan Merkez","name:tr:suffix":"İlçesi","name:tt":"Эрзинҗан","name:uk":"Ерзінджан","name:ur":"ارزنجان","name:zh":"埃尔津詹","name:zza":"Erzıngan","network":"TR24-districts","type":"boundary","wikidata":"Q136217","wikipedia":"tr:Erzincan"}}]},"id":"relation/12409300"},
{"type":"Feature","geometry":{"type":"Polygon","coordinates":[[[39.4999143,39.7566213],[39.5004737,39.7515289],[39.506396,39.7511412],[39.5062496,39.7533382],[39.5057845,39.7570222],[39.4999143,39.7566213]]]},"properties":{"@id":"relation/12409301","admin_level":"8","boundary":"administrative","name":"Barbaros Mahallesi","type":"boundary","@relations":[{"role":"subarea","rel":1754243,"reltags":{"admin_level":"6","alt_name":"Erzincan","boundary":"administrative","name":"Erzincan Merkez","name:ar":"أرزنجان","name:az":"Ərzincan","name:bg":"Ерзинджан","name:ce":"Эрзинджан","name:de":"Erzincan","name:el":"Ερζιντζάν","name:en":"Erzincan","name:fa":"ارزنجان","name:he":"ארזינג'אן","name:hy":"Երզնկա","name:ja":"エルズィンジャン","name:ka":"ერზინჯანი","name:ko":"에르진잔","name:ku":"Ezirgan","name:lt":"Erzindžanas","name:os":"Эрзинджан","name:pa":"ਏਰਜਿੰਕਾਨ","name:pt":"Erzincã","name:ru":"Эрзинджан","name:so":"Arzanjaan","name:sq":"Erzinxhani","name:sr":"Ерзинџан","name:tg":"Ерзинҷан","name:th":"แอร์ซินจัน","name:tr":"Erzincan Merkez","name:tr:suffix":"İlçesi","name:tt":"Эрзинҗан","name:uk":"Ерзінджан","name:ur":"ارزنجان","name:zh":"埃尔津詹","name:zza":"Erzıngan","network":"TR24-districts","type":"boundary","wikidata":"Q136217","wikipedia":"tr:Erzincan"}}]},"id":"relation/12409301"},
{"type":"Feature","geometry":{"type":"Polygon","coordinates":[[[39.4916224,39.752098],[39.5004737,39.7515289],[39.4999143,39.7566213],[39.4997549,39.7648573],[39.4931674,39.7651707],[39.4925558,39.7598265],[39.491837,39.7539539],[39.4916224,39.752098]]]},"properties":{"@id":"relation/12409302","admin_level":"8","boundary":"administrative","name":"Cumhuriyet Mahallesi","type":"boundary","@relations":[{"role":"subarea","rel":1754243,"reltags":{"admin_level":"6","alt_name":"Erzincan","boundary":"administrative","name":"Erzincan Merkez","name:ar":"أرزنجان","name:az":"Ərzincan","name:bg":"Ерзинджан","name:ce":"Эрзинджан","name:de":"Erzincan","name:el":"Ερζιντζάν","name:en":"Erzincan","name:fa":"ارزنجان","name:he":"ארזינג'אן","name:hy":"Երզնկա","name:ja":"エルズィンジャン","name:ka":"ერზინჯანი","name:ko":"에르진잔","name:ku":"Ezirgan","name:lt":"Erzindžanas","name:os":"Эрзинджан","name:pa":"ਏਰਜਿੰਕਾਨ","name:pt":"Erzincã","name:ru":"Эрзинджан","name:so":"Arzanjaan","name:sq":"Erzinxhani","name:sr":"Ерзинџан","name:tg":"Ерзинҷан","name:th":"แอร์ซินจัน","name:tr":"Erzincan Merkez","name:tr:suffix":"İlçesi","name:tt":"Эрзинҗан","name:uk":"Ерзінджан","name:ur":"ارزنجان","name:zh":"埃尔津詹","name:zza":"Erzıngan","network":"TR24-districts","type":"boundary","wikidata":"Q136217","wikipedia":"tr:Erzincan"}}]},"id":"relation/12409302"},
{"type":"Feature","geometry":{"type":"Polygon","coordinates":[[[39.4821811,39.7387011],[39.4698214,39.7480066],[39.460262,39.7498049],[39.4591355,39.7204164],[39.4830072,39.7192363],[39.487803,39.7001787],[39.4657528,39.6997137],[39.5031023,39.6985526],[39.4880214,39.7328],[39.4843054,39.7374966],[39.4821811,39.7387011]]]},"properties":{"@id":"relation/12409303","admin_level":"8","boundary":"administrative","name":"Mimar Sinan Mahallesi","type":"boundary","@relations":[{"role":"subarea","rel":1754243,"reltags":{"admin_level":"6","alt_name":"Erzincan","boundary":"administrative","name":"Erzincan Merkez","name:ar":"أرزنجان","name:az":"Ərzincan","name:bg":"Ерзинджан","name:ce":"Эрзинджан","name:de":"Erzincan","name:el":"Ερζιντζάν","name:en":"Erzincan","name:fa":"ارزنجان","name:he":"ארזינג'אן","name:hy":"Երզնկա","name:ja":"エルズィンジャン","name:ka":"ერზინჯანი","name:ko":"에르진잔","name:ku":"Ezirgan","name:lt":"Erzindžanas","name:os":"Эрзинджан","name:pa":"ਏਰਜਿੰਕਾਨ","name:pt":"Erzincã","name:ru":"Эрзинджан","name:so":"Arzanjaan","name:sq":"Erzinxhani","name:sr":"Ерзинџан","name:tg":"Ерзинҷан","name:th":"แอร์ซินจัน","name:tr":"Erzincan Merkez","name:tr:suffix":"İlçesi","name:tt":"Эрзинҗан","name:uk":"Ерзінджан","name:ur":"ارزنجان","name:zh":"埃尔津詹","name:zza":"Erzıngan","network":"TR24-districts","type":"boundary","wikidata":"Q136217","wikipedia":"tr:Erzincan"}}]},"id":"relation/12409303"},
{"type":"Feature","geometry":{"type":"Polygon","coordinates":[[[39.4686882,39.7583423],[39.4686305,39.7609729],[39.4667423,39.7661933],[39.4616246,39.765748],[39.4605088,39.7578388],[39.4686882,39.7583423]]]},"properties":{"@id":"relation/12409304","admin_level":"8","boundary":"administrative","name":"Osmanlı Mahallesi","type":"boundary","@relations":[{"role":"subarea","rel":1754243,"reltags":{"admin_level":"6","alt_name":"Erzincan","boundary":"administrative","name":"Erzincan Merkez","name:ar":"أرزنجان","name:az":"Ərzincan","name:bg":"Ерзинджан","name:ce":"Эрзинджан","name:de":"Erzincan","name:el":"Ερζιντζάν","name:en":"Erzincan","name:fa":"ارزنجان","name:he":"ארזינג'אן","name:hy":"Երզնկա","name:ja":"エルズィンジャン","name:ka":"ერზინჯანი","name:ko":"에르진잔","name:ku":"Ezirgan","name:lt":"Erzindžanas","name:os":"Эрзинджан","name:pa":"ਏਰਜਿੰਕਾਨ","name:pt":"Erzincã","name:ru":"Эрзинджан","name:so":"Arzanjaan","name:sq":"Erzinxhani","name:sr":"Ерзинџан","name:tg":"Ерзинҷан","name:th":"แอร์ซินจัน","name:tr":"Erzincan Merkez","name:tr:suffix":"İlçesi","name:tt":"Эрзинҗан","name:uk":"Ерзінджан","name:ur":"ارزنجان","name:zh":"埃尔津詹","name:zza":"Erzıngan","network":"TR24-districts","type":"boundary","wikidata":"Q136217","wikipedia":"tr:Erzincan"}}]},"id":"relation/12409304"},
{"type":"Feature","geometry":{"type":"Polygon","coordinates":[[[39.4669676,39.7795024],[39.4616246,39.765748],[39.4667423,39.7661933],[39.4669676,39.7795024]]]},"properties":{"@id":"relation/12409305","admin_level":"8","boundary":"administrative","name":"Demirkent Mahallesi","type":"boundary","@relations":[{"role":"subarea","rel":1754243,"reltags":{"admin_level":"6","alt_name":"Erzincan","boundary":"administrative","name":"Erzincan Merkez","name:ar":"أرزنجان","name:az":"Ərzincan","name:bg":"Ерзинджан","name:ce":"Эрзинджан","name:de":"Erzincan","name:el":"Ερζιντζάν","name:en":"Erzincan","name:fa":"ارزنجان","name:he":"ארזינג'אן","name:hy":"Երզնկա","name:ja":"エルズィンジャン","name:ka":"ერზინჯანი","name:ko":"에르진잔","name:ku":"Ezirgan","name:lt":"Erzindžanas","name:os":"Эрзинджан","name:pa":"ਏਰਜਿੰਕਾਨ","name:pt":"Erzincã","name:ru":"Эрзинджан","name:so":"Arzanjaan","name:sq":"Erzinxhani","name:sr":"Ерзинџан","name:tg":"Ерзинҷан","name:th":"แอร์ซินจัน","name:tr":"Erzincan Merkez","name:tr:suffix":"İlçesi","name:tt":"Эрзинҗан","name:uk":"Ерзінджан","name:ur":"ارزنجان","name:zh":"埃尔津詹","name:zza":"Erzıngan","network":"TR24-districts","type":"boundary","wikidata":"Q136217","wikipedia":"tr:Erzincan"}}]},"id":"relation/12409305"},
{"type":"Feature","geometry":{"type":"Polygon","coordinates":[[[39.4774953,39.758975],[39.4841767,39.7659624],[39.4853675,39.7666057],[39.4669676,39.7795024],[39.4667423,39.7661933],[39.4686305,39.7609729],[39.4774953,39.758975]]]},"properties":{"@id":"relation/12409306","admin_level":"8","boundary":"administrative","name":"Menderes Mahallesi","type":"boundary","@relations":[{"role":"subarea","rel":1754243,"reltags":{"admin_level":"6","alt_name":"Erzincan","boundary":"administrative","name":"Erzincan Merkez","name:ar":"أرزنجان","name:az":"Ərzincan","name:bg":"Ерзинджан","name:ce":"Эрзинджан","name:de":"Erzincan","name:el":"Ερζιντζάν","name:en":"Erzincan","name:fa":"ارزنجان","name:he":"ארזינג'אן","name:hy":"Երզնկա","name:ja":"エルズィンジャン","name:ka":"ერზინჯანი","name:ko":"에르진잔","name:ku":"Ezirgan","name:lt":"Erzindžanas","name:os":"Эрзинджан","name:pa":"ਏਰਜਿੰਕਾਨ","name:pt":"Erzincã","name:ru":"Эрзинджан","name:so":"Arzanjaan","name:sq":"Erzinxhani","name:sr":"Ерзинџан","name:tg":"Ерзинҷан","name:th":"แอร์ซินจัน","name:tr":"Erzincan Merkez","name:tr:suffix":"İlçesi","name:tt":"Эрзинҗан","name:uk":"Ерзінджан","name:ur":"ارزنجان","name:zh":"埃尔津詹","name:zza":"Erzıngan","network":"TR24-districts","type":"boundary","wikidata":"Q136217","wikipedia":"tr:Erzincan"}}]},"id":"relation/12409306"},
{"type":"Feature","geometry":{"type":"Polygon","coordinates":[[[39.4841767,39.7659624],[39.4879532,39.7601399],[39.4925558,39.7598265],[39.4931674,39.7651707],[39.4853675,39.7666057],[39.4841767,39.7659624]]]},"properties":{"@id":"relation/12409307","admin_level":"8","boundary":"administrative","name":"Kazım Karabekir Mahallesi","type":"boundary","@relations":[{"role":"subarea","rel":1754243,"reltags":{"admin_level":"6","alt_name":"Erzincan","boundary":"administrative","name":"Erzincan Merkez","name:ar":"أرزنجان","name:az":"Ərzincan","name:bg":"Ерзинджан","name:ce":"Эрзинджан","name:de":"Erzincan","name:el":"Ερζιντζάν","name:en":"Erzincan","name:fa":"ارزنجان","name:he":"ארזינג'אן","name:hy":"Երզնկա","name:ja":"エルズィンジャン","name:ka":"ერზინჯანი","name:ko":"에르진잔","name:ku":"Ezirgan","name:lt":"Erzindžanas","name:os":"Эрзинджан","name:pa":"ਏਰਜਿੰਕਾਨ","name:pt":"Erzincã","name:ru":"Эрзинджан","name:so":"Arzanjaan","name:sq":"Erzinxhani","name:sr":"Ерзинџан","name:tg":"Ерзинҷан","name:th":"แอร์ซินจัน","name:tr":"Erzincan Merkez","name:tr:suffix":"İlçesi","name:tt":"Эрзинҗан","name:uk":"Ерзінджан","name:ur":"ارزنجان","name:zh":"埃尔津詹","name:zza":"Erzıngan","network":"TR24-districts","type":"boundary","wikidata":"Q136217","wikipedia":"tr:Erzincan"}}]},"id":"relation/12409307"},
{"type":"Feature","geometry":{"type":"Polygon","coordinates":[[[39.491837,39.7539539],[39.4925558,39.7598265],[39.4879532,39.7601399],[39.4872236,39.7542591],[39.491837,39.7539539]]]},"properties":{"@id":"relation/12409308","admin_level":"8","boundary":"administrative","name":"Yenimahalle Mahallesi","type":"boundary","@relations":[{"role":"subarea","rel":1754243,"reltags":{"admin_level":"6","alt_name":"Erzincan","boundary":"administrative","name":"Erzincan Merkez","name:ar":"أرزنجان","name:az":"Ərzincan","name:bg":"Ерзинджан","name:ce":"Эрзинджан","name:de":"Erzincan","name:el":"Ερζιντζάν","name:en":"Erzincan","name:fa":"ارزنجان","name:he":"ארזינג'אן","name:hy":"Երզնկա","name:ja":"エルズィンジャン","name:ka":"ერზინჯანი","name:ko":"에르진잔","name:ku":"Ezirgan","name:lt":"Erzindžanas","name:os":"Эрзинджан","name:pa":"ਏਰਜਿੰਕਾਨ","name:pt":"Erzincã","name:ru":"Эрзинджан","name:so":"Arzanjaan","name:sq":"Erzinxhani","name:sr":"Ерзинџан","name:tg":"Ерзинҷан","name:th":"แอร์ซินจัน","name:tr":"Erzincan Merkez","name:tr:suffix":"İlçesi","name:tt":"Эрзинҗан","name:uk":"Ерзінджан","name:ur":"ارزنجان","name:zh":"埃尔津詹","name:zza":"Erzıngan","network":"TR24-districts","type":"boundary","wikidata":"Q136217","wikipedia":"tr:Erzincan"}}]},"id":"relation/12409308"},
{"type":"Feature","geometry":{"type":"Polygon","coordinates":[[[39.4841767,39.7659624],[39.4774953,39.758975],[39.4794774,39.7540034],[39.4872236,39.7542591],[39.4879532,39.7601399],[39.4841767,39.7659624]]]},"properties":{"@id":"relation/12409309","admin_level":"8","boundary":"administrative","name":"Arslanlı Mahallesi","type":"boundary","@relations":[{"role":"subarea","rel":1754243,"reltags":{"admin_level":"6","alt_name":"Erzincan","boundary":"administrative","name":"Erzincan Merkez","name:ar":"أرزنجان","name:az":"Ərzincan","name:bg":"Ерзинджан","name:ce":"Эрзинджан","name:de":"Erzincan","name:el":"Ερζιντζάν","name:en":"Erzincan","name:fa":"ارزنجان","name:he":"ארזינג'אן","name:hy":"Երզնկա","name:ja":"エルズィンジャン","name:ka":"ერზინჯანი","name:ko":"에르진잔","name:ku":"Ezirgan","name:lt":"Erzindžanas","name:os":"Эрзинджан","name:pa":"ਏਰਜਿੰਕਾਨ","name:pt":"Erzincã","name:ru":"Эрзинджан","name:so":"Arzanjaan","name:sq":"Erzinxhani","name:sr":"Ерзинџан","name:tg":"Ерзинҷан","name:th":"แอร์ซินจัน","name:tr":"Erzincan Merkez","name:tr:suffix":"İlçesi","name:tt":"Эрзинҗан","name:uk":"Ерзінджан","name:ur":"ارزنجان","name:zh":"埃尔津詹","name:zza":"Erzıngan","network":"TR24-districts","type":"boundary","wikidata":"Q136217","wikipedia":"tr:Erzincan"}}]},"id":"relation/12409309"},
{"type":"Feature","geometry":{"type":"Polygon","coordinates":[[[38.7693411,39.9106826],[38.7747753,39.9058929],[38.7710865,39.9020066],[38.7809765,39.9035061],[38.7791955,39.9095305],[38.7693411,39.9106826]]]},"properties":{"@id":"relation/13764525","admin_level":"8","boundary":"administrative","name":"Yenidoğan Mahallesi","type":"boundary","@relations":[{"role":"subarea","rel":1754248,"reltags":{"admin_level":"6","boundary":"administrative","name":"Refahiye","name:az":"Rəfahiyə","name:ce":"РефахӀийе","name:de":"Refahiye","name:en":"Refahiye","name:fa":"رفاهیه","name:hy":"Կերճանիս","name:ku":"Gercan","name:ru":"Рефахие","name:tr":"Refahiye","name:tr:suffix":"İlçesi","name:tt":"Рефахие","name:ur":"رفاہیہ","name:zh":"雷法希耶","name:zza":"Gercan","network":"TR24-districts","type":"boundary","wikidata":"Q1023298","wikipedia":"tr:Refahiye"}}]},"id":"relation/13764525"},
{"type":"Feature","geometry":{"type":"Polygon","coordinates":[[[38.7710865,39.9020066],[38.7747753,39.9058929],[38.7693411,39.9106826],[38.7710865,39.9020066]]]},"properties":{"@id":"relation/13764526","admin_level":"8","boundary":"administrative","name":"Binali Yıldırım Mahallesi","type":"boundary","@relations":[{"role":"subarea","rel":1754248,"reltags":{"admin_level":"6","boundary":"administrative","name":"Refahiye","name:az":"Rəfahiyə","name:ce":"РефахӀийе","name:de":"Refahiye","name:en":"Refahiye","name:fa":"رفاهیه","name:hy":"Կերճանիս","name:ku":"Gercan","name:ru":"Рефахие","name:tr":"Refahiye","name:tr:suffix":"İlçesi","name:tt":"Рефахие","name:ur":"رفاہیہ","name:zh":"雷法希耶","name:zza":"Gercan","network":"TR24-districts","type":"boundary","wikidata":"Q1023298","wikipedia":"tr:Refahiye"}}]},"id":"relation/13764526"},
{"type":"Feature","geometry":{"type":"Polygon","coordinates":[[[38.6667358,39.053968],[38.6683667,39.0764178],[38.6420488,39.0716119],[38.6667358,39.053968]]]},"properties":{"@id":"relation/16053335","admin_level":"8","boundary":"administrative","name":"Demir Köyü","type":"boundary","@relations":[{"role":"subarea","rel":1754246,"reltags":{"admin_level":"6","boundary":"administrative","name":"Kemaliye","name:az":"Kəmaliyə","name:bg":"Кемалие","name:ce":"Кемалийе","name:de":"Kemaliye","name:en":"Kemaliye","name:fa":"کمالیه","name:hy":"Ակն","name:ku":"Egîn","name:ru":"Кемалие","name:tr":"Kemaliye","name:tr:suffix":"İlçesi","name:tt":"Кемалие","name:ur":"کمالیہ","name:zza":"Egin","network":"TR24-districts","old_name":"Eğin","type":"boundary","wikidata":"Q1000823","wikipedia":"tr:Kemaliye"}}]},"id":"relation/16053335"},
{"type":"Feature","geometry":{"type":"Polygon","coordinates":[[[39.518224,39.7445344],[39.5174845,39.7406361],[39.5455498,39.7293706],[39.5222855,39.7469425],[39.518224,39.7445344]]]},"properties":{"@id":"relation/16837981","admin_level":"8","boundary":"administrative","name":"Mengüceli Mahallesi","type":"boundary","@relations":[{"role":"subarea","rel":1754243,"reltags":{"admin_level":"6","alt_name":"Erzincan","boundary":"administrative","name":"Erzincan Merkez","name:ar":"أرزنجان","name:az":"Ərzincan","name:bg":"Ерзинджан","name:ce":"Эрзинджан","name:de":"Erzincan","name:el":"Ερζιντζάν","name:en":"Erzincan","name:fa":"ارزنجان","name:he":"ארזינג'אן","name:hy":"Երզնկա","name:ja":"エルズィンジャン","name:ka":"ერზინჯანი","name:ko":"에르진잔","name:ku":"Ezirgan","name:lt":"Erzindžanas","name:os":"Эрзинджан","name:pa":"ਏਰਜਿੰਕਾਨ","name:pt":"Erzincã","name:ru":"Эрзинджан","name:so":"Arzanjaan","name:sq":"Erzinxhani","name:sr":"Ерзинџан","name:tg":"Ерзинҷан","name:th":"แอร์ซินจัน","name:tr":"Erzincan Merkez","name:tr:suffix":"İlçesi","name:tt":"Эрзинҗан","name:uk":"Ерзінджан","name:ur":"ارزنجان","name:zh":"埃尔津詹","name:zza":"Erzıngan","network":"TR24-districts","type":"boundary","wikidata":"Q136217","wikipedia":"tr:Erzincan"}}]},"id":"relation/16837981"},
{"type":"Feature","geometry":{"type":"Polygon","coordinates":[[[39.4657528,39.6997137],[39.487803,39.7001787],[39.4830072,39.7192363],[39.4591355,39.7204164],[39.4657528,39.6997137]]]},"properties":{"@id":"relation/16837982","admin_level":"8","boundary":"administrative","name":"Cemal Gürsel Mahallesi","type":"boundary","@relations":[{"role":"subarea","rel":1754243,"reltags":{"admin_level":"6","alt_name":"Erzincan","boundary":"administrative","name":"Erzincan Merkez","name:ar":"أرزنجان","name:az":"Ərzincan","name:bg":"Ерзинджан","name:ce":"Эрзинджан","name:de":"Erzincan","name:el":"Ερζιντζάν","name:en":"Erzincan","name:fa":"ارزنجان","name:he":"ארזינג'אן","name:hy":"Երզնկա","name:ja":"エルズィンジャン","name:ka":"ერზინჯანი","name:ko":"에르진잔","name:ku":"Ezirgan","name:lt":"Erzindžanas","name:os":"Эрзинджан","name:pa":"ਏਰਜਿੰਕਾਨ","name:pt":"Erzincã","name:ru":"Эрзинджан","name:so":"Arzanjaan","name:sq":"Erzinxhani","name:sr":"Ерзинџан","name:tg":"Ерзинҷан","name:th":"แอร์ซินจัน","name:tr":"Erzincan Merkez","name:tr:suffix":"İlçesi","name:tt":"Эрзинҗан","name:uk":"Ерзінджан","name:ur":"ارزنجان","name:zh":"埃尔津詹","name:zza":"Erzıngan","network":"TR24-districts","type":"boundary","wikidata":"Q136217","wikipedia":"tr:Erzincan"}}]},"id":"relation/16837982"},
{"type":"Feature","geometry":{"type":"Polygon","coordinates":[[[39.512909,39.7313518],[39.5057178,39.7333401],[39.5005274,39.729844],[39.5029435,39.7247787],[39.5267016,39.7297487],[39.512909,39.7313518]]]},"properties":{"@id":"relation/16837983","admin_level":"8","boundary":"administrative","name":"Barış Mahallesi","type":"boundary","@relations":[{"role":"subarea","rel":1754243,"reltags":{"admin_level":"6","alt_name":"Erzincan","boundary":"administrative","name":"Erzincan Merkez","name:ar":"أرزنجان","name:az":"Ərzincan","name:bg":"Ерзинджан","name:ce":"Эрзинджан","name:de":"Erzincan","name:el":"Ερζιντζάν","name:en":"Erzincan","name:fa":"ارزنجان","name:he":"ארזינג'אן","name:hy":"Երզնկա","name:ja":"エルズィンジャン","name:ka":"ერზინჯანი","name:ko":"에르진잔","name:ku":"Ezirgan","name:lt":"Erzindžanas","name:os":"Эрзинджан","name:pa":"ਏਰਜਿੰਕਾਨ","name:pt":"Erzincã","name:ru":"Эрзинджан","name:so":"Arzanjaan","name:sq":"Erzinxhani","name:sr":"Ерзинџан","name:tg":"Ерзинҷан","name:th":"แอร์ซินจัน","name:tr":"Erzincan Merkez","name:tr:suffix":"İlçesi","name:tt":"Эрзинҗан","name:uk":"Ерзінджан","name:ur":"ارزنجان","name:zh":"埃尔津詹","name:zza":"Erzıngan","network":"TR24-districts","type":"boundary","wikidata":"Q136217","wikipedia":"tr:Erzincan"}}]},"id":"relation/16837983"},
{"type":"Feature","geometry":{"type":"Polygon","coordinates":[[[40.0317642,39.7753099],[40.0641822,39.7946201],[40.0225594,39.8010827],[40.0317642,39.7753099]]]},"properties":{"@id":"relation/18776273","admin_level":"8","boundary":"administrative","name":"Barbaros Mahallesi","type":"boundary"},"id":"relation/18776273"},
{"type":"Feature","geometry":{"type":"Polygon","coordinates":[[[39.039898,39.6015528],[39.0439657,39.598145],[39.0383328,39.6062388],[39.039898,39.6015528]]]},"properties":{"@id":"relation/18859674","admin_level":"8","boundary":"administrative","name":"Mektepönü Mahallesi","type":"boundary"},"id":"relation/18859674"},
{"type":"Feature","geometry":{"type":"Polygon","coordinates":[[[39.0413607,39.5949945],[39.0433783,39.5954805],[39.0439657,39.598145],[39.039898,39.6015528],[39.039299,39.5989843],[39.0413607,39.5949945]]]},"properties":{"@id":"relation/18859930","admin_level":"8","boundary":"administrative","name":"Pörhenkbaşı Mahallesi","type":"boundary"},"id":"relation/18859930"},
{"type":"Feature","geometry":{"type":"Polygon","coordinates":[[[39.0645313,39.6077025],[39.0434263,39.6093782],[39.0383328,39.6062388],[39.0439657,39.598145],[39.0433783,39.5954805],[39.0537901,39.5860784],[39.0883995,39.5766134],[39.0927368,39.6044968],[39.0645313,39.6077025]]]},"properties":{"@id":"relation/18865002","admin_level":"8","boundary":"administrative","name":"Aşağıgedik Mahallesi","type":"boundary"},"id":"relation/18865002"},
{"type":"Feature","geometry":{"type":"Polygon","coordinates":[[[39.0413607,39.5949945],[39.0400978,39.5919505],[39.044293,39.583492],[39.0537901,39.5860784],[39.0433783,39.5954805],[39.0413607,39.5949945]]]},"properties":{"@id":"relation/18865008","admin_level":"8","boundary":"administrative","name":"Ortagedik Mahallesi","type":"boundary"},"id":"relation/18865008"},
{"type":"Feature","geometry":{"type":"Polygon","coordinates":[[[39.0413607,39.5949945],[39.039299,39.5989843],[39.0329599,39.5978229],[39.0317044,39.5933992],[39.0400978,39.5919505],[39.0413607,39.5949945]]]},"properties":{"@id":"relation/18866153","admin_level":"8","boundary":"administrative","name":"Karşıbağ Mahallesi","type":"boundary"},"id":"relation/18866153"},
{"type":"Feature","geometry":{"type":"Polygon","coordinates":[[[39.0883995,39.5766134],[39.0537901,39.5860784],[39.044293,39.583492],[39.0883995,39.5766134]]]},"properties":{"@id":"relation/18866224","admin_level":"8","boundary":"administrative","name":"Yukarı Mahallesi","type":"boundary"},"id":"relation/18866224"},
{"type":"Feature","geometry":{"type":"Polygon","coordinates":[[[39.039898,39.6015528],[39.0383328,39.6062388],[39.0434263,39.6093782],[39.0206586,39.6117304],[39.0191158,39.6036668],[39.0329599,39.5978229],[39.039299,39.5989843],[39.039898,39.6015528]]]},"properties":{"@id":"relation/18869231","admin_level":"8","boundary":"administrative","name":"Çarşı Mahallesi","type":"boundary"},"id":"relation/18869231"},
{"type":"Feature","geometry":{"type":"Polygon","coordinates":[[[39.0191158,39.6036668],[39.0255772,39.5914105],[39.0317044,39.5933992],[39.0329599,39.5978229],[39.0191158,39.6036668]]]},"properties":{"@id":"relation/18869723","admin_level":"8","boundary":"administrative","name":"Göğüsbağı Mahallesi","type":"boundary"},"id":"relation/18869723"},
{"type":"Feature","geometry":{"type":"Polygon","coordinates":[[[39.0255772,39.5914105],[39.0191158,39.6036668],[39.0092122,39.590326],[39.0255772,39.5914105]]]},"properties":{"@id":"relation/18870938","admin_level":"8","boundary":"administrative","name":"Beklimçay Mahallesi","type":"boundary"},"id":"relation/18870938"},
{"type":"Feature","geometry":{"type":"Polygon","coordinates":[[[39.0206586,39.6117304],[39.0434263,39.6093782],[39.0645313,39.6077025],[39.0206586,39.6117304]]]},"properties":{"@id":"relation/18871071","admin_level":"8","boundary":"administrative","name":"Cirgişin Mahallesi","type":"boundary"},"id":"relation/18871071"}
]}