{"type":"FeatureCollection", "features": [
{"type":"Feature","geometry":{"type":"Polygon","coordinates":[[[41.8360429,39.4650765],[41.7835141,39.4803155],[41.8012783,39.5101309],[41.7248264,39.5143015],[41.6665725,39.5602748],[41.5359108,39.4701448],[41.3949114,39.4648114],[41.4078688,39.4150167],[41.3784005,39.3946621],[41.3823556,39.3603535],[41.4150111,39.3534035],[41.4598398,39.3207405],[41.4954713,39.3103475],[41.5609235,39.2696871],[41.6104137,39.2577755],[41.6187637,39.2140842],[41.6040842,39.1834001],[41.618225,39.1565667],[41.688256,39.1603261],[41.7324574,39.1521025],[41.8012056,39.1731037],[41.8186218,39.2089206],[41.884153,39.2095231],[41.9064377,39.3103907],[41.8952897,39.3815455],[41.9796067,39.4401391],[41.9190334,39.479472],[41.8664641,39.4865165],[41.8360429,39.4650765]]]},"properties":{"@id":"relation/1831341","admin_level":"6","boundary":"administrative","name":"Hınıs","name:ce":"ХӀинис","name:de":"Hınıs","name:diq":"Xinis","name:en":"Hınıs","name:fa":"خنس","name:hy":"Խնուս","name:ku":"Xinûs","name:ru":"Хыныс","name:tr":"Hınıs","name:tr:suffix":"İlçesi","name:tt":"Хыныс","name:zh":"赫讷斯","name:zza":"Xınıs","network":"TR25-districts","type":"boundary","wikidata":"Q376139","wikipedia":"tr:Hınıs"},"id":"relation/1831341"},
{"type":"Feature","geometry":{"type":"Polygon","coordinates":[[[41.9796067,39.4401391],[42.0343497,39.4520798],[42.0578156,39.4842053],[42.1093366,39.4782513],[42.1038323,39.4372477],[42.1314271,39.4301617],[42.1798965,39.4619029],[42.2394944,39.4344087],[42.3258692,39.4751585],[42.3730061,39.5060703],[42.3839604,39.537907],[42.4195897,39.5346642],[42.4821554,39.5607438],[42.4861172,39.5883911],[42.5202956,39.6359314],[42.4587749,39.718586],[42.3303543,39.7527548],[42.3021524,39.7712666],[42.2789918,39.8171262],[42.3012568,39.8677458],[42.2130868,39.8591869],[42.0722334,39.8263122],[42.0239965,39.8091017],[41.9377723,39.8098835],[41.8844836,39.7540016],[41.890312,39.7283917],[41.8255514,39.7278224],[41.7629834,39.6834692],[41.7674569,39.5959085],[41.8351543,39.5338321],[41.8360429,39.4650765],[41.8664641,39.4865165],[41.9190334,39.479472],[41.9796067,39.4401391]]]},"properties":{"@id":"relation/1832451","admin_level":"6","alt_name:ku":"Qeza","boundary":"administrative","name":"Karayazı","name:ce":"Карайази","name:hy":"Կարայազի","name:ku":"Qereyazî","name:ru":"Караязы","name:tr":"Karayazı","name:tr:suffix":"İlçesi","name:tt":"Караязы","name:ur":"قرہ یازی","network":"TR25-districts","old_name":"Bayraktar","type":"boundary","wikidata":"Q1023333","wikipedia":"tr:Karayazı"},"id":"relation/1832451"},
{"type":"Feature","geometry":{"type":"Polygon","coordinates":[[[41.884153,39.2095231],[41.9612466,39.2110202],[41.9851111,39.2337159],[42.0504123,39.2491051],[42.0647445,39.2728175],[42.154354,39.2898533],[42.1984488,39.3092323],[42.2203557,39.3403741],[42.1793158,39.3943622],[42.2394944,39.4344087],[42.1798965,39.4619029],[42.1314271,39.4301617],[42.1038323,39.4372477],[42.1093366,39.4782513],[42.0578156,39.4842053],[42.0343497,39.4520798],[41.9796067,39.4401391],[41.8952897,39.3815455],[41.9064377,39.3103907],[41.884153,39.2095231]]]},"properties":{"@id":"relation/1832452","admin_level":"6","boundary":"administrative","name":"Karaçoban","name:ce":"Карачобан","name:de":"Karaçoban","name:en":"Karaçoban","name:fa":"قره‌چوپان","name:hy":"Կարաչոբան","name:ku":"Qereçan","name:ru":"Карачобан","name:tr":"Karaçoban","name:tr:suffix":"İlçesi","name:tt":"Карачобан","name:ur":"قرہ چونان","name:zh":"卡拉喬班","network":"TR25-districts","type":"boundary","wikidata":"Q1004621","wikipedia":"tr:Karaçoban"},"id":"relation/1832452"},
{"type":"Feature","geometry":{"type":"Polygon","coordinates":[[[41.899294,40.161512],[41.9172604,40.0484271],[41.9541231,40.0441602],[42.0096073,39.9865317],[42.0026401,39.9263288],[42.0293688,39.9157393],[42.0722334,39.8263122],[42.2130868,39.8591869],[42.3012568,39.8677458],[42.3864912,39.8819036],[42.4405064,39.911664],[42.5219626,39.9092459],[42.5613404,39.9838522],[42.5350133,40.0159632],[42.5011619,40.0266362],[42.430738,40.0824337],[42.363318,40.1752973],[42.3129008,40.1823271],[42.2780835,40.2147672],[42.2164839,40.2060057],[42.1909788,40.2323465],[42.1104557,40.2557053],[42.1086615,40.2951089],[42.0820744,40.3082361],[42.0256549,40.2553687],[42.024391,40.2372005],[41.9420285,40.2024583],[41.899294,40.161512]]]},"properties":{"@id":"relation/1832453","admin_level":"6","boundary":"administrative","name":"Horasan","name:ce":"ХӀорасан","name:fa":"خراسان","name:hy":"Խորասան","name:ku":"Pasîna Jêr","name:ru":"Хорасан","name:tr":"Horasan","name:tr:suffix":"İlçesi","name:tt":"Хорасан","name:ur":"خراسان","name:zh":"霍拉桑","network":"TR25-districts","old_name":"Xuristan","type":"boundary","wikidata":"Q374068","wikipedia":"tr:Horasan"},"id":"relation/1832453"},
{"type":"Feature","geometry":{"type":"Polygon","coordinates":[[[42.2109271,40.3487236],[42.2433814,40.3519549],[42.3257686,40.3873107],[42.3753092,40.3799481],[42.4464143,40.3969106],[42.481983,40.4300184],[42.4858123,40.522276],[42.544812,40.6042297],[42.5922246,40.6310563],[42.6201865,40.6801472],[42.5991595,40.6934598],[42.5637741,40.7770556],[42.4982089,40.7918615],[42.4871842,40.8178093],[42.4448782,40.8292469],[42.3935602,40.7881762],[42.3603205,40.7923978],[42.3293815,40.826141],[42.2583587,40.8138986],[42.2043689,40.7283323],[42.2091217,40.6747652],[42.2106743,40.6565259],[42.174725,40.6486662],[42.1661287,40.6106796],[42.189063,40.5003667],[42.1537837,40.4504138],[42.1690783,40.4174451],[42.1995146,40.4117449],[42.2109271,40.3487236]]]},"properties":{"@id":"relation/1832461","admin_level":"6","boundary":"administrative","name":"Şenkaya","name:ar":"شنقاية","name:ce":"Шенкайа","name:de":"Şenkaya","name:en":"Şenkaya","name:fa":"شن‌کایا","name:hy":"Պարտեզ","name:ka":"ორთული","name:ku":"Bardîz","name:ru":"Шенкая","name:tr":"Şenkaya","name:tr:suffix":"İlçesi","name:tt":"Шенкая","name:ur":"شینکایا","network":"TR25-districts","old_name":"Örtülü","type":"boundary","wikidata":"Q388842","wikipedia":"tr:Şenkaya"},"id":"relation/1832461"},
{"type":"Feature","geometry":{"type":"Polygon","coordinates":[[[42.3293815,40.826141],[42.3571383,40.8566668],[42.359526,40.8937155],[42.3315777,40.9385226],[42.2771729,40.9228176],[42.2196832,40.9671815],[42.1347813,40.9586139],[42.0777323,40.9717555],[42.0314981,40.9651982],[41.9634215,40.9733374],[41.9307785,40.9338864],[41.8495999,40.8946649],[41.8363237,40.8595008],[41.8691949,40.8341997],[41.8680926,40.7877686],[41.9029047,40.7826647],[41.9558794,40.7384361],[42.0249039,40.7345534],[42.048093,40.7061275],[42.1359208,40.7247238],[42.1916305,40.7135671],[42.2043689,40.7283323],[42.2583587,40.8138986],[42.3293815,40.826141]]]},"properties":{"@id":"relation/1832462","admin_level":"6","boundary":"administrative","name":"Olur","name:de":"Olur","name:en":"Olur","name:fa":"اولور","name:hy":"Օլոր","name:ka":"ოლური","name:ku":"Tawûsker","name:tr":"Olur","name:tr:suffix":"İlçesi","network":"TR25-districts","type":"boundary","wikidata":"Q14640","wikipedia":"tr:Olur"},"id":"relation/1832462"},
{"type":"Feature","geometry":{"type":"Polygon","coordinates":[[[41.899294,40.161512],[41.8298538,40.1559795],[41.8164262,40.1349669],[41.8290938,40.0742164],[41.8361876,39.9649813],[41.7888108,39.9544948],[41.81857,39.9079918],[41.8004634,39.8878165],[41.8382932,39.8547294],[41.8093846,39.8428459],[41.6722634,39.8395827],[41.6700917,39.8130311],[41.7289733,39.7180123],[41.7629834,39.6834692],[41.8255514,39.7278224],[41.890312,39.7283917],[41.8844836,39.7540016],[41.9377723,39.8098835],[42.0239965,39.8091017],[42.0722334,39.8263122],[42.0293688,39.9157393],[42.0026401,39.9263288],[42.0096073,39.9865317],[41.9541231,40.0441602],[41.9172604,40.0484271],[41.899294,40.161512]]]},"properties":{"@id":"relation/1832469","admin_level":"6","alt_name":"Avnîk;Kamurj","alt_name:hy":"Ավնիկ","boundary":"administrative","name":"Köprüköy","name:ar":"كوبروكوي","name:ce":"Коьпруькоьй","name:hy":"Կամուրջ","name:ka":"ქიოფრიუქოი","name:ku":"Parsîna Jor","name:ru":"Кёпрюкёй","name:tr":"Köprüköy","name:tr:suffix":"İlçesi","name:tt":"Көпрүкөй","name:ur":"کوپروکوئے","network":"TR25-districts","type":"boundary","wikidata":"Q1023324","wikipedia":"tr:Köprüköy"},"id":"relation/1832469"},
{"type":"Feature","geometry":{"type":"Polygon","coordinates":[[[40.6710818,39.6610731],[40.6797698,39.6303063],[40.6531302,39.5964472],[40.7415394,39.5299157],[40.6340048,39.527561],[40.5897638,39.4965752],[40.5918761,39.4442339],[40.6472175,39.4217199],[40.7131497,39.4076649],[40.7316972,39.4220017],[40.8019654,39.4255744],[40.909129,39.4565825],[40.9818008,39.4563036],[41.002501,39.4740782],[41.0504495,39.4527155],[41.0538291,39.4297148],[41.1289233,39.4324112],[41.1665886,39.412896],[41.1382393,39.4589161],[41.1253944,39.5057195],[41.0832749,39.5612431],[41.0862621,39.5999221],[41.1991782,39.6611196],[41.2272578,39.7169784],[41.2678837,39.7516662],[41.2159042,39.7856471],[41.1507856,39.7518958],[41.0318951,39.7530441],[40.9768678,39.7189396],[40.9361738,39.7695047],[40.8845572,39.7542382],[40.8467767,39.7091822],[40.7733956,39.7066543],[40.7547993,39.7314987],[40.7057064,39.7088976],[40.6710818,39.6610731]]]},"properties":{"@id":"relation/1832479","admin_level":"6","boundary":"administrative","name":"Çat","name:ce":"Чат","name:fa":"چات","name:hy":"Ավի","name:ku":"Oxlê","name:ru":"Чат","name:tr":"Çat","name:tr:suffix":"İlçesi","name:tt":"Чат","name:ur":"چات","network":"TR25-districts","type":"boundary","wikidata":"Q272652","wikipedia":"tr:Çat"},"id":"relation/1832479"},
{"type":"Feature","geometry":{"type":"Polygon","coordinates":[[[40.7766991,40.5597042],[40.7865715,40.5955762],[40.7288504,40.5988103],[40.6787058,40.5623519],[40.6575294,40.5710369],[40.5870867,40.5527001],[40.5948477,40.5137478],[40.5649741,40.4889888],[40.5467656,40.4375733],[40.5862007,40.3556704],[40.556611,40.3470023],[40.5038317,40.3740576],[40.478429,40.3634235],[40.5220722,40.3129646],[40.4997393,40.2719616],[40.5433325,40.2525205],[40.5911514,40.2504968],[40.6549235,40.2785035],[40.7054472,40.3148047],[40.7373697,40.3034599],[40.7679974,40.3256372],[40.8115772,40.3505743],[40.8490274,40.3494672],[40.8509538,40.3615655],[40.8123584,40.3643436],[40.8108423,40.4253461],[40.7931873,40.4415232],[40.7851751,40.4914143],[40.7976144,40.5203202],[40.7766991,40.5597042]]]},"properties":{"@id":"relation/1832624","admin_level":"6","boundary":"administrative","name":"Pazaryolu","name:ce":"Пазарйолу","name:de":"Pazaryolu","name:en":"Pazaryolu","name:hy":"Նորգահ","name:ku":"Norgeh","name:ru":"Пазарйолу","name:tr":"Pazaryolu","name:tr:suffix":"İlçesi","name:uk":"Пазарйолу","name:ur":"پازاریولو","network":"TR25-districts","type":"boundary","wikidata":"Q1027563","wikipedia":"tr:Pazaryolu"},"id":"relation/1832624"},
{"type":"Feature","geometry":{"type":"Polygon","coordinates":[[[41.3171577,40.5572232],[41.3192319,40.6493632],[41.2910122,40.681883],[41.3408264,40.6899774],[41.3782151,40.7138595],[41.3484913,40.7414022],[41.2918711,40.7642695],[41.2316072,40.7694119],[41.2180492,40.8384253],[41.1298084,40.7857082],[41.0858481,40.7905771],[41.037755,40.7614959],[40.9918141,40.7575301],[40.8997351,40.7076236],[40.8378521,40.6535697],[40.8764581,40.6141223],[40.8626174,40.5764778],[40.7892751,40.5732018],[40.7766991,40.5597042],[40.7976144,40.5203202],[40.7851751,40.4914143],[40.7931873,40.4415232],[40.8108423,40.4253461],[40.8123584,40.3643436],[40.8509538,40.3615655],[40.8490274,40.3494672],[40.8115772,40.3505743],[40.7679974,40.3256372],[40.7373697,40.3034599],[40.7054472,40.3148047],[40.6549235,40.2785035],[40.5911514,40.2504968],[40.5982588,40.2056238],[40.646839,40.2235826],[40.6900692,40.2140666],[40.7367792,40.2389271],[40.7795,40.2281869],[40.9613702,40.2815457],[41.0441157,40.2877955],[41.0564106,40.3099837],[41.157821,40.3389906],[41.1656516,40.36374],[41.1349078,40.4168906],[41.1693116,40.4792797],[41.2318113,40.5184525],[41.3059175,40.5384793],[41.3171577,40.5572232]]]},"properties":{"@id":"relation/1832625","admin_level":"6","boundary":"administrative","name":"İspir","name:ce":"Испир","name:de":"İspir","name:en":"İspir","name:es":"Sper","name:fa":"ایسپیر","name:hy":"Սպեր","name:ka":"სპერი","name:ku":"Espîr","name:ru":"Испир","name:tr":"İspir","name:tr:suffix":"İlçesi","name:tt":"Испир","name:ur":"اسپیر","name:zh":"伊斯皮尔","network":"TR25-districts","type":"boundary","wikidata":"Q344273","wikipedia":"tr:İspir"},"id":"relation/1832625"},
{"type":"Feature","geometry":{"type":"Polygon","coordinates":[[[42.2091217,40.6747652],[42.2043689,40.7283323],[42.1916305,40.7135671],[42.1359208,40.7247238],[42.048093,40.7061275],[42.0249039,40.7345534],[41.9558794,40.7384361],[41.9029047,40.7826647],[41.8680926,40.7877686],[41.8192032,40.7507884],[41.8068035,40.6842902],[41.77665,40.6622904],[41.738194,40.6812602],[41.7183791,40.660654],[41.7680275,40.5891343],[41.7504349,40.5401732],[41.7170894,40.5443882],[41.7041421,40.5044393],[41.6540008,40.4865318],[41.673073,40.454187],[41.6526203,40.4240193],[41.7099976,40.3573376],[41.753308,40.3954837],[41.8243328,40.4233755],[41.85043,40.4571953],[41.9076062,40.4689537],[41.965844,40.4030593],[41.9791758,40.4155742],[42.0825027,40.4059339],[42.1032949,40.3875229],[42.1564826,40.3899689],[42.1621259,40.3486284],[42.2109271,40.3487236],[42.1995146,40.4117449],[42.1690783,40.4174451],[42.1537837,40.4504138],[42.189063,40.5003667],[42.1661287,40.6106796],[42.174725,40.6486662],[42.2106743,40.6565259],[42.2091217,40.6747652]]]},"properties":{"@id":"relation/1832682","admin_level":"6","boundary":"administrative","name":"Oltu","name:ce":"Олту","name:de":"Oltu","name:en":"Oltu","name:fa":"اولتو","name:hy":"Օլթի","name:ka":"ოლთისი","name:kk":"Олту","name:ku":"Oltî","name:ru":"Олту","name:tr":"Oltu","name:tr:suffix":"İlçesi","name:tt":"Олту","name:ur":"اولتو","name:zh":"奧爾圖","network":"TR25-districts","type":"boundary","wikidata":"Q915429","wikipedia":"tr:Oltu"},"id":"relation/1832682"},
{"type":"Feature","geometry":{"type":"Polygon","coordinates":[[[41.5255248,40.6502582],[41.4804673,40.6298854],[41.4312523,40.5865287],[41.4833558,40.5475164],[41.5278926,40.4999915],[41.5757321,40.4774796],[41.5792855,40.4515295],[41.6526203,40.4240193],[41.673073,40.454187],[41.6540008,40.4865318],[41.7041421,40.5044393],[41.7170894,40.5443882],[41.7504349,40.5401732],[41.7680275,40.5891343],[41.7183791,40.660654],[41.738194,40.6812602],[41.7318434,40.7213421],[41.6852654,40.7066264],[41.5758837,40.6891771],[41.5255248,40.6502582]]]},"properties":{"@id":"relation/1832683","admin_level":"6","boundary":"administrative","name":"Uzundere","name:ce":"Узундере","name:de":"Uzundere","name:en":"Uzundere","name:fa":"اوزون‌دره","name:hy":"Ազորդ","name:ku":"Azort","name:ru":"Узундере","name:tr":"Uzundere","name:tr:suffix":"İlçesi","name:tt":"Узундере","name:ur":"اوزون درہ","network":"TR25-districts","type":"boundary","wikidata":"Q1843445","wikipedia":"tr:Uzundere"},"id":"relation/1832683"},
{"type":"Feature","geometry":{"type":"Polygon","coordinates":[[[41.157821,40.3389906],[41.0564106,40.3099837],[41.0441157,40.2877955],[40.9613702,40.2815457],[40.7795,40.2281869],[40.7367792,40.2389271],[40.6900692,40.2140666],[40.6962005,40.1555691],[40.621998,40.1062284],[40.6299982,40.0687709],[40.665998,40.0552759],[40.7343243,40.0950037],[40.7997117,40.0906947],[40.8472217,40.1094274],[40.8643645,40.0717695],[40.8295731,40.0295596],[40.8667974,39.9710281],[40.9118585,39.9851028],[40.920822,39.9382959],[40.8941605,39.9091153],[40.9859646,39.9055974],[40.9974467,39.8559102],[41.0334465,39.8530902],[41.0336914,39.8145383],[41.1067246,39.8375704],[41.1524115,39.8378218],[41.1796781,39.8673294],[41.2117924,39.8851896],[41.2011927,39.8960079],[41.2032004,39.9191206],[41.2051301,39.923304],[41.1528539,39.9369544],[41.1746549,39.9700164],[41.1407089,40.0268258],[41.1058402,40.0300462],[41.1229744,40.1107502],[41.1038017,40.1446168],[41.1436702,40.1586694],[41.1808776,40.2006088],[41.2471882,40.1909396],[41.2369305,40.2629243],[41.1945633,40.2767519],[41.1829465,40.3211626],[41.157821,40.3389906]]]},"properties":{"@id":"relation/1832781","admin_level":"6","boundary":"administrative","name":"Aziziye","name:ar":"عزيزية","name:azb":"عزیزیه","name:ce":"Азизийе","name:ckb":"چێرمک","name:de":"Aziziye","name:el":"Ελεγεια","name:fa":"عزیزیه","name:fr":"Aziziye","name:grc":"Ἐλεγεία","name:hy":"Ազիզիե","name:ka":"ილიჯა","name:ku":"Çêrmik","name:ru":"Азизие","name:tr":"Aziziye","name:tr:suffix":"İlçesi","name:tt":"Азизие","name:ur":"عزیزیہ","network":"TR25-districts","old_name":"Ilıca;Çêrmik;Ջերմուկ","type":"boundary","wikidata":"Q15195666","wikipedia":"tr:Aziziye"},"id":"relation/1832781"},
{"type":"Feature","geometry":{"type":"Polygon","coordinates":[[[40.621998,40.1062284],[40.5805777,40.0838507],[40.5105781,40.0641337],[40.5111839,40.0326965],[40.4798125,40.0114447],[40.3932951,39.9944819],[40.3531264,40.0393124],[40.3088377,40.0294548],[40.2460417,39.9603341],[40.2897692,39.9254915],[40.3561689,39.9298379],[40.4771944,39.9025883],[40.5204944,39.8843508],[40.5521849,39.8089208],[40.5288356,39.7850518],[40.5666018,39.7308753],[40.6580481,39.679456],[40.6710818,39.6610731],[40.7057064,39.7088976],[40.7547993,39.7314987],[40.7733956,39.7066543],[40.8467767,39.7091822],[40.8845572,39.7542382],[40.9361738,39.7695047],[40.9060597,39.8122795],[40.8543101,39.8284706],[40.9105937,39.8532822],[40.9271188,39.8917695],[40.8941605,39.9091153],[40.920822,39.9382959],[40.9118585,39.9851028],[40.8667974,39.9710281],[40.8295731,40.0295596],[40.8643645,40.0717695],[40.8472217,40.1094274],[40.7997117,40.0906947],[40.7343243,40.0950037],[40.665998,40.0552759],[40.6299982,40.0687709],[40.621998,40.1062284]]]},"properties":{"@id":"relation/1832853","admin_level":"6","boundary":"administrative","name":"Aşkale","name:ce":"Ашкале","name:diq":"Aşqele","name:en":"Aşkale","name:fa":"آش قلعه","name:hy":"Աշկալա","name:ku":"Aşqela","name:ota":"اش قلعه","name:ru":"Ашкале","name:tr":"Aşkale","name:tr:suffix":"İlçesi","name:tt":"Ашкале","name:ur":"آش قلعہ","name:zh":"阿什卡萊","name:zza":"Aşqele","network":"TR25-districts","type":"boundary","wikidata":"Q2119751","wikipedia":"tr:Aşkale"},"id":"relation/1832853"},
{"type":"Feature","geometry":{"type":"Polygon","coordinates":[[[42.1086615,40.2951089],[42.1621259,40.3486284],[42.1564826,40.3899689],[42.1032949,40.3875229],[42.0825027,40.4059339],[41.9791758,40.4155742],[41.965844,40.4030593],[41.9076062,40.4689537],[41.85043,40.4571953],[41.8243328,40.4233755],[41.753308,40.3954837],[41.7099976,40.3573376],[41.6626774,40.3397528],[41.633614,40.2912398],[41.6576993,40.2673749],[41.7497666,40.2691793],[41.7330681,40.2322195],[41.6227499,40.2100777],[41.6866317,40.1700802],[41.7680674,40.1700802],[41.8164262,40.1349669],[41.8298538,40.1559795],[41.899294,40.161512],[41.9420285,40.2024583],[42.024391,40.2372005],[42.0256549,40.2553687],[42.0820744,40.3082361],[42.1086615,40.2951089]]]},"properties":{"@id":"relation/1832937","admin_level":"6","boundary":"administrative","name":"Narman","name:ce":"Нарман","name:de":"Narman","name:en":"Narman","name:fa":"نارمان","name:hy":"Նառիման","name:ka":"ნარიმანი","name:ku":"Narman","name:ru":"Нарман","name:tr":"Narman","name:tr:suffix":"İlçesi","name:tt":"Нарман","name:ur":"نارمان","network":"TR25-districts","old_name":"İd;İdi","type":"boundary","wikidata":"Q1025415","wikipedia":"tr:Narman"},"id":"relation/1832937"},
{"type":"Feature","geometry":{"type":"Polygon","coordinates":[[[41.266129,39.9004361],[41.2388657,39.8866335],[41.2117924,39.8851896],[41.1796781,39.8673294],[41.1524115,39.8378218],[41.1067246,39.8375704],[41.0336914,39.8145383],[41.0334465,39.8530902],[40.9974467,39.8559102],[40.9859646,39.9055974],[40.8941605,39.9091153],[40.9271188,39.8917695],[40.9105937,39.8532822],[40.8543101,39.8284706],[40.9060597,39.8122795],[40.9361738,39.7695047],[40.9768678,39.7189396],[41.0318951,39.7530441],[41.1507856,39.7518958],[41.2159042,39.7856471],[41.2839168,39.8160118],[41.3241163,39.7914031],[41.3895755,39.7894561],[41.3972827,39.841439],[41.4458215,39.8566938],[41.4762961,39.8886386],[41.4686398,39.9397755],[41.4315463,39.9688886],[41.3582292,39.9464431],[41.329,39.943],[41.2892629,39.9177973],[41.3418214,39.9147218],[41.2913092,39.9040231],[41.281995,39.8977196],[41.2756522,39.8968734],[41.2718455,39.8978143],[41.266129,39.9004361]]]},"properties":{"@id":"relation/1832938","admin_level":"6","boundary":"administrative","name":"Palandöken","name:ce":"Паландоькен","name:ku":"Paletonk","name:tr":"Palandöken","name:tr:suffix":"İlçesi","name:tt":"Паландөкен","network":"TR25-districts","type":"boundary","wikidata":"Q1004488","wikipedia":"tr:Palandöken"},"id":"relation/1832938"},
{"type":"Feature","geometry":{"type":"Polygon","coordinates":[[[41.6227499,40.2100777],[41.5552552,40.1905737],[41.5329108,40.1417056],[41.4866186,40.0982523],[41.4371833,40.0868683],[41.4424418,40.0565262],[41.4121816,40.0324291],[41.4315463,39.9688886],[41.4686398,39.9397755],[41.4762961,39.8886386],[41.4458215,39.8566938],[41.5176398,39.8195858],[41.5382839,39.8316391],[41.6270982,39.8382331],[41.6700917,39.8130311],[41.6722634,39.8395827],[41.8093846,39.8428459],[41.8382932,39.8547294],[41.8004634,39.8878165],[41.81857,39.9079918],[41.7888108,39.9544948],[41.8361876,39.9649813],[41.8290938,40.0742164],[41.8164262,40.1349669],[41.7680674,40.1700802],[41.6866317,40.1700802],[41.6227499,40.2100777]]]},"properties":{"@id":"relation/1832939","admin_level":"6","boundary":"administrative","name":"Pasinler","name:hy":"Դարույնք","name:ku":"Hesenqele","name:tr":"Pasinler","name:tr:suffix":"İlçesi","name:uk":"Пасінлер ільче","network":"TR25-districts","old_name":"Hasankale","type":"boundary","wikidata":"Q1027156","wikipedia":"tr:Pasinler"},"id":"relation/1832939"},
{"type":"Feature","geometry":{"type":"Polygon","coordinates":[[[41.1665886,39.412896],[41.2001023,39.3615909],[41.2909075,39.3647952],[41.3823556,39.3603535],[41.3784005,39.3946621],[41.4078688,39.4150167],[41.3949114,39.4648114],[41.5359108,39.4701448],[41.6665725,39.5602748],[41.7248264,39.5143015],[41.8012783,39.5101309],[41.7835141,39.4803155],[41.8360429,39.4650765],[41.8351543,39.5338321],[41.7674569,39.5959085],[41.7629834,39.6834692],[41.7289733,39.7180123],[41.6700917,39.8130311],[41.6270982,39.8382331],[41.5382839,39.8316391],[41.5176398,39.8195858],[41.4458215,39.8566938],[41.3972827,39.841439],[41.3895755,39.7894561],[41.3241163,39.7914031],[41.2839168,39.8160118],[41.2159042,39.7856471],[41.2678837,39.7516662],[41.2272578,39.7169784],[41.1991782,39.6611196],[41.0862621,39.5999221],[41.0832749,39.5612431],[41.1253944,39.5057195],[41.1382393,39.4589161],[41.1665886,39.412896]]]},"properties":{"@id":"relation/1832940","admin_level":"6","boundary":"administrative","name":"Tekman","name:ce":"Текман","name:de":"Tekman","name:en":"Tekman","name:fa":"تکمان","name:hy":"Թաթոս","name:ku":"Tatos","name:ru":"Текман","name:tr":"Tekman","name:tr:suffix":"Tekman","name:tt":"Текман","name:ur":"تیکمان","name:zh":"泰克曼","name:zza":"Tekman","network":"TR25-districts","type":"boundary","wikidata":"Q1023281","wikipedia":"tr:Tekman"},"id":"relation/1832940"},
{"type":"Feature","geometry":{"type":"Polygon","coordinates":[[[41.6526203,40.4240193],[41.5792855,40.4515295],[41.5757321,40.4774796],[41.5278926,40.4999915],[41.4833558,40.5475164],[41.4312523,40.5865287],[41.4026305,40.571308],[41.3171577,40.5572232],[41.3059175,40.5384793],[41.2318113,40.5184525],[41.1693116,40.4792797],[41.1349078,40.4168906],[41.1656516,40.36374],[41.157821,40.3389906],[41.1829465,40.3211626],[41.1945633,40.2767519],[41.2369305,40.2629243],[41.2471882,40.1909396],[41.2806557,40.1571192],[41.3367771,40.2030409],[41.4116056,40.2392799],[41.4803716,40.227511],[41.4886859,40.2001304],[41.5552552,40.1905737],[41.6227499,40.2100777],[41.7330681,40.2322195],[41.7497666,40.2691793],[41.6576993,40.2673749],[41.633614,40.2912398],[41.6626774,40.3397528],[41.7099976,40.3573376],[41.6526203,40.4240193]]]},"properties":{"@id":"relation/1832941","admin_level":"6","alt_name":"托尔图姆","boundary":"administrative","name":"Tortum","name:ar":"تورتوم","name:de":"Tortum","name:en":"Tortum","name:fa":"تورتوم","name:hy":"Թորթում","name:ka":"თორთომი","name:kmr":"تۆرتم","name:ku":"Tortim","name:ku-Arab":"تۆرتم","name:ota":"تورتوم","name:ru":"Тортум","name:tr":"Tortum","name:tr:suffix":"İlçesi","name:ur":"تورتوم","network":"TR25-districts","type":"boundary","wikidata":"Q1004551","wikipedia":"tr:Tortum"},"id":"relation/1832941"},
{"type":"Feature","geometry":{"type":"Polygon","coordinates":[[[41.1528539,39.9369544],[41.2051301,39.923304],[41.2032004,39.9191206],[41.2011927,39.8960079],[41.2117924,39.8851896],[41.2388657,39.8866335],[41.266129,39.9004361],[41.2718455,39.8978143],[41.2756522,39.8968734],[41.281995,39.8977196],[41.2913092,39.9040231],[41.3418214,39.9147218],[41.2892629,39.9177973],[41.329,39.943],[41.3582292,39.9464431],[41.4315463,39.9688886],[41.4121816,40.0324291],[41.4424418,40.0565262],[41.4371833,40.0868683],[41.4866186,40.0982523],[41.5329108,40.1417056],[41.5552552,40.1905737],[41.4886859,40.2001304],[41.4803716,40.227511],[41.4116056,40.2392799],[41.3367771,40.2030409],[41.2806557,40.1571192],[41.2471882,40.1909396],[41.1808776,40.2006088],[41.1436702,40.1586694],[41.1038017,40.1446168],[41.1229744,40.1107502],[41.1058402,40.0300462],[41.1407089,40.0268258],[41.1746549,39.9700164],[41.1528539,39.9369544]]]},"properties":{"@id":"relation/1832942","admin_level":"6","boundary":"administrative","name":"Yakutiye","name:ce":"Йакутийе","name:de":"Yakutiye","name:en":"Yakutiye","name:fa":"یاقوتیه","name:ku":"Yakutiye","name:tr":"Yakutiye","name:tr:suffix":"İlçesi","name:tt":"Якутие","name:ur":"یاقوتیہ","network":"TR25-districts","type":"boundary","wikidata":"Q2577943","wikipedia":"tr:Yakutiye"},"id":"relation/1832942"},
{"type":"Feature","geometry":{"type":"Polygon","coordinates":[[[40.6945121,39.9200261],[40.6885085,39.9192259],[40.6715162,39.9168221],[40.6966879,39.9135446],[40.6967577,39.9152483],[40.6945121,39.9200261]]]},"properties":{"@id":"relation/5682415","admin_level":"8","boundary":"administrative","name":"Bahçelievler Mahallesi","type":"boundary"},"id":"relation/5682415"},
{"type":"Feature","geometry":{"type":"Polygon","coordinates":[[[40.6945121,39.9200261],[40.6966879,39.9135446],[40.6967577,39.9152483],[40.6945121,39.9200261]]]},"properties":{"@id":"relation/5682420","admin_level":"8","boundary":"administrative","name":"Meydan Mahallesi","type":"boundary"},"id":"relation/5682420"},
{"type":"Feature","geometry":{"type":"Polygon","coordinates":[[[40.6885085,39.9192259],[40.6868436,39.9204466],[40.6715162,39.9168221],[40.6885085,39.9192259]]]},"properties":{"@id":"relation/5682561","admin_level":"8","boundary":"administrative","name":"Emek Mahallesi","type":"boundary"},"id":"relation/5682561"},
{"type":"Feature","geometry":{"type":"Polygon","coordinates":[[[41.2718455,39.8978143],[41.2756522,39.8968734],[41.2738108,39.9060493],[41.2564945,39.9048806],[41.266129,39.9004361],[41.2718455,39.8978143]]]},"properties":{"@id":"relation/12276302","admin_level":"8","boundary":"administrative","name":"Muratpaşa Mahallesi","type":"boundary","wikidata":"Q109390127","wikipedia":"tr:Muratpaşa, Yakutiye","@relations":[{"role":"subarea","rel":1832942,"reltags":{"admin_level":"6","boundary":"administrative","name":"Yakutiye","name:ce":"Йакутийе","name:de":"Yakutiye","name:en":"Yakutiye","name:fa":"یاقوتیه","name:ku":"Yakutiye","name:tr":"Yakutiye","name:tr:suffix":"İlçesi","name:tt":"Якутие","name:ur":"یاقوتیہ","network":"TR25-districts","type":"boundary","wikidata":"Q2577943","wikipedia":"tr:Yakutiye"}}]},"id":"relation/12276302"},
{"type":"Feature","geometry":{"type":"Polygon","coordinates":[[[41.281995,39.8977196],[41.2913092,39.9040231],[41.2733924,39.9089956],[41.2738108,39.9060493],[41.2756522,39.8968734],[41.281995,39.8977196]]]},"properties":{"@id":"relation/12276335","admin_level":"8","boundary":"administrative","name":"Rabia Ana Mahallesi","type":"boundary","wikidata":"Q97232157","wikipedia":"tr:Rabia Ana, Yakutiye","@relations":[{"role":"subarea","rel":1832942,"reltags":{"admin_level":"6","boundary":"administrative","name":"Yakutiye","name:ce":"Йакутийе","name:de":"Yakutiye","name:en":"Yakutiye","name:fa":"یاقوتیه","name:ku":"Yakutiye","name:tr":"Yakutiye","name:tr:suffix":"İlçesi","name:tt":"Якутие","name:ur":"یاقوتیہ","network":"TR25-districts","type":"boundary","wikidata":"Q2577943","wikipedia":"tr:Yakutiye"}}]},"id":"relation/12276335"},
{"type":"Feature","geometry":{"type":"Polygon","coordinates":[[[41.266129,39.9004361],[41.2564945,39.9048806],[41.2032004,39.9191206],[41.2011927,39.8960079],[41.2117924,39.8851896],[41.2388657,39.8866335],[41.266129,39.9004361]]]},"properties":{"@id":"relation/12276341","admin_level":"8","boundary":"administrative","name":"Üniversite","old_name":"Gez","type":"boundary","wikidata":"Q97232971","wikipedia":"tr:Üniversite, Yakutiye","@relations":[{"role":"subarea","rel":1832942,"reltags":{"admin_level":"6","boundary":"administrative","name":"Yakutiye","name:ce":"Йакутийе","name:de":"Yakutiye","name:en":"Yakutiye","name:fa":"یاقوتیه","name:ku":"Yakutiye","name:tr":"Yakutiye","name:tr:suffix":"İlçesi","name:tt":"Якутие","name:ur":"یاقوتیہ","network":"TR25-districts","type":"boundary","wikidata":"Q2577943","wikipedia":"tr:Yakutiye"}}]},"id":"relation/12276341"},
{"type":"Feature","geometry":{"type":"Polygon","coordinates":[[[41.2738108,39.9060493],[41.2733924,39.9089956],[41.2706888,39.9136123],[41.209344,39.9217566],[41.2051301,39.923304],[41.2032004,39.9191206],[41.2564945,39.9048806],[41.2738108,39.9060493]]]},"properties":{"@id":"relation/12276344","admin_level":"8","boundary":"administrative","name":"Lalapaşa Mahallesi","type":"boundary","wikidata":"Q109386354","wikipedia":"tr:Lalapaşa, Yakutiye","@relations":[{"role":"subarea","rel":1832942,"reltags":{"admin_level":"6","boundary":"administrative","name":"Yakutiye","name:ce":"Йакутийе","name:de":"Yakutiye","name:en":"Yakutiye","name:fa":"یاقوتیه","name:ku":"Yakutiye","name:tr":"Yakutiye","name:tr:suffix":"İlçesi","name:tt":"Якутие","name:ur":"یاقوتیہ","network":"TR25-districts","type":"boundary","wikidata":"Q2577943","wikipedia":"tr:Yakutiye"}}]},"id":"relation/12276344"},
{"type":"Feature","geometry":{"type":"Polygon","coordinates":[[[41.2892629,39.9177973],[41.2798083,39.9188211],[41.2727807,39.9148681],[41.2706888,39.9136123],[41.2733924,39.9089956],[41.2913092,39.9040231],[41.3418214,39.9147218],[41.2892629,39.9177973]]]},"properties":{"@id":"relation/12299292","admin_level":"8","boundary":"administrative","name":"Kazım Karabekir Paşa Mahallesi","type":"boundary","wikidata":"Q109386349","wikipedia":"tr:Kazım Karabekir Paşa, Yakutiye","@relations":[{"role":"subarea","rel":1832942,"reltags":{"admin_level":"6","boundary":"administrative","name":"Yakutiye","name:ce":"Йакутийе","name:de":"Yakutiye","name:en":"Yakutiye","name:fa":"یاقوتیه","name:ku":"Yakutiye","name:tr":"Yakutiye","name:tr:suffix":"İlçesi","name:tt":"Якутие","name:ur":"یاقوتیہ","network":"TR25-districts","type":"boundary","wikidata":"Q2577943","wikipedia":"tr:Yakutiye"}}]},"id":"relation/12299292"},
{"type":"Feature","geometry":{"type":"Polygon","coordinates":[[[41.2720728,39.8678347],[41.2710428,39.8940159],[41.2441027,39.8800291],[41.2720728,39.8678347]]]},"properties":{"@id":"relation/12411039","admin_level":"8","boundary":"administrative","name":"Müftü Solakzade Mahallesi","type":"boundary","@relations":[{"role":"subarea","rel":1832938,"reltags":{"admin_level":"6","boundary":"administrative","name":"Palandöken","name:ce":"Паландоькен","name:ku":"Paletonk","name:tr":"Palandöken","name:tr:suffix":"İlçesi","name:tt":"Паландөкен","network":"TR25-districts","type":"boundary","wikidata":"Q1004488","wikipedia":"tr:Palandöken"}}]},"id":"relation/12411039"},
{"type":"Feature","geometry":{"type":"Polygon","coordinates":[[[41.2710428,39.8940159],[41.2718455,39.8978143],[41.266129,39.9004361],[41.2388657,39.8866335],[41.2441027,39.8800291],[41.2710428,39.8940159]]]},"properties":{"@id":"relation/12411040","admin_level":"8","boundary":"administrative","name":"Adnan Menderes Mahallesi","type":"boundary","wikidata":"Q109391361","wikipedia":"tr:Adnan Menderes, Palandöken","@relations":[{"role":"subarea","rel":1832938,"reltags":{"admin_level":"6","boundary":"administrative","name":"Palandöken","name:ce":"Паландоькен","name:ku":"Paletonk","name:tr":"Palandöken","name:tr:suffix":"İlçesi","name:tt":"Паландөкен","network":"TR25-districts","type":"boundary","wikidata":"Q1004488","wikipedia":"tr:Palandöken"}}]},"id":"relation/12411040"},
{"type":"Feature","geometry":{"type":"Polygon","coordinates":[[[41.2913092,39.9040231],[41.281995,39.8977196],[41.3063192,39.8636184],[41.3418214,39.9147218],[41.2913092,39.9040231]]]},"properties":{"@id":"relation/13422856","admin_level":"8","boundary":"administrative","name":"Abdurrahman Gazi Mahallesi","type":"boundary","wikidata":"Q109391360","wikipedia":"tr:Abdurrahman Gazi, Palandöken","@relations":[{"role":"subarea","rel":1832938,"reltags":{"admin_level":"6","boundary":"administrative","name":"Palandöken","name:ce":"Паландоькен","name:ku":"Paletonk","name:tr":"Palandöken","name:tr:suffix":"İlçesi","name:tt":"Паландөкен","network":"TR25-districts","type":"boundary","wikidata":"Q1004488","wikipedia":"tr:Palandöken"}}]},"id":"relation/13422856"},
{"type":"Feature","geometry":{"type":"Polygon","coordinates":[[[41.2441027,39.8800291],[41.2388657,39.8866335],[41.2117924,39.8851896],[41.1796781,39.8673294],[41.2423968,39.8248198],[41.2740147,39.8370384],[41.2720728,39.8678347],[41.2441027,39.8800291]]]},"properties":{"@id":"relation/13422857","admin_level":"8","boundary":"administrative","name":"Hüseyin Avni Ulaş Mahallesi","type":"boundary","wikidata":"Q109391362","wikipedia":"tr:Hüseyin Avni Ulaş, Palandöken","@relations":[{"role":"subarea","rel":1832938,"reltags":{"admin_level":"6","boundary":"administrative","name":"Palandöken","name:ce":"Паландоькен","name:ku":"Paletonk","name:tr":"Palandöken","name:tr:suffix":"İlçesi","name:tt":"Паландөкен","network":"TR25-districts","type":"boundary","wikidata":"Q1004488","wikipedia":"tr:Palandöken"}}]},"id":"relation/13422857"},
{"type":"Feature","geometry":{"type":"Polygon","coordinates":[[[41.2718455,39.8978143],[41.2710428,39.8940159],[41.2720728,39.8678347],[41.2740147,39.8370384],[41.3063192,39.8636184],[41.281995,39.8977196],[41.2756522,39.8968734],[41.2718455,39.8978143]]]},"properties":{"@id":"relation/13422858","admin_level":"8","boundary":"administrative","name":"Yunusemre Mahallesi","type":"boundary","@relations":[{"role":"subarea","rel":1832938,"reltags":{"admin_level":"6","boundary":"administrative","name":"Palandöken","name:ce":"Паландоькен","name:ku":"Paletonk","name:tr":"Palandöken","name:tr:suffix":"İlçesi","name:tt":"Паландөкен","network":"TR25-districts","type":"boundary","wikidata":"Q1004488","wikipedia":"tr:Palandöken"}}]},"id":"relation/13422858"},
{"type":"Feature","geometry":{"type":"Polygon","coordinates":[[[42.2106743,40.6565259],[42.2522592,40.6410189],[42.2398245,40.6758375],[42.2091217,40.6747652],[42.2106743,40.6565259]]]},"properties":{"@id":"relation/13422907","admin_level":"8","boundary":"administrative","name":"Paşalı Mahallesi","type":"boundary","@relations":[{"role":"subarea","rel":1832461,"reltags":{"admin_level":"6","boundary":"administrative","name":"Şenkaya","name:ar":"شنقاية","name:ce":"Шенкайа","name:de":"Şenkaya","name:en":"Şenkaya","name:fa":"شن‌کایا","name:hy":"Պարտեզ","name:ka":"ორთული","name:ku":"Bardîz","name:ru":"Шенкая","name:tr":"Şenkaya","name:tr:suffix":"İlçesi","name:tt":"Шенкая","name:ur":"شینکایا","network":"TR25-districts","old_name":"Örtülü","type":"boundary","wikidata":"Q388842","wikipedia":"tr:Şenkaya"}}]},"id":"relation/13422907"},
{"type":"Feature","geometry":{"type":"Polygon","coordinates":[[[41.5440869,40.5331976],[41.5382986,40.5266448],[41.5552167,40.5277561],[41.5615269,40.5302722],[41.5473436,40.5358872],[41.5440869,40.5331976]]]},"properties":{"@id":"relation/13614537","admin_level":"8","boundary":"administrative","name":"Merkez Mahallesi","type":"boundary"},"id":"relation/13614537"},
{"type":"Feature","geometry":{"type":"Polygon","coordinates":[[[41.5615269,40.5302722],[41.5653915,40.5290515],[41.565762,40.5398829],[41.5681284,40.5465678],[41.5473436,40.5358872],[41.5615269,40.5302722]]]},"properties":{"@id":"relation/13614617","admin_level":"8","boundary":"administrative","name":"Erikli Mahallesi","type":"boundary"},"id":"relation/13614617"},
{"type":"Feature","geometry":{"type":"Polygon","coordinates":[[[41.5525149,40.5152151],[41.5552167,40.5277561],[41.5382986,40.5266448],[41.5321892,40.5073841],[41.5525149,40.5152151]]]},"properties":{"@id":"relation/13614790","admin_level":"8","boundary":"administrative","name":"Cömertler Mahallesi","type":"boundary"},"id":"relation/13614790"},
{"type":"Feature","geometry":{"type":"Polygon","coordinates":[[[41.5615269,40.5302722],[41.5552167,40.5277561],[41.5525149,40.5152151],[41.5550028,40.5074009],[41.5675914,40.5262366],[41.5653915,40.5290515],[41.5615269,40.5302722]]]},"properties":{"@id":"relation/13615187","admin_level":"8","boundary":"administrative","name":"Uzundere Mahallesi","type":"boundary"},"id":"relation/13615187"},
{"type":"Feature","geometry":{"type":"Polygon","coordinates":[[[41.5765998,40.5165833],[41.5675914,40.5262366],[41.5550028,40.5074009],[41.5677611,40.511323],[41.5765998,40.5165833]]]},"properties":{"@id":"relation/13615227","admin_level":"8","boundary":"administrative","name":"Muratefendi Mahallesi","type":"boundary"},"id":"relation/13615227"},
{"type":"Feature","geometry":{"type":"Polygon","coordinates":[[[41.5278926,40.4999915],[41.5757321,40.4774796],[41.5792855,40.4515295],[41.6526203,40.4240193],[41.673073,40.454187],[41.6540008,40.4865318],[41.565762,40.5398829],[41.5653915,40.5290515],[41.5675914,40.5262366],[41.5765998,40.5165833],[41.5677611,40.511323],[41.5550028,40.5074009],[41.5525149,40.5152151],[41.5321892,40.5073841],[41.5278926,40.4999915]]]},"properties":{"@id":"relation/13615811","admin_level":"8","boundary":"administrative","name":"Yayla Mahallesi","type":"boundary"},"id":"relation/13615811"},
{"type":"Feature","geometry":{"type":"Polygon","coordinates":[[[41.5125542,40.5769991],[41.5133049,40.5895366],[41.4804673,40.6298854],[41.4312523,40.5865287],[41.4833558,40.5475164],[41.5278926,40.4999915],[41.5321892,40.5073841],[41.5382986,40.5266448],[41.5440869,40.5331976],[41.5125542,40.5769991]]]},"properties":{"@id":"relation/13619347","admin_level":"8","boundary":"administrative","name":"Dikyar Mahallesi","type":"boundary"},"id":"relation/13619347"},
{"type":"Feature","geometry":{"type":"Polygon","coordinates":[[[41.4804673,40.6298854],[41.5133049,40.5895366],[41.5498958,40.6053787],[41.5568753,40.6348027],[41.5255248,40.6502582],[41.4804673,40.6298854]]]},"properties":{"@id":"relation/13619405","admin_level":"8","boundary":"administrative","name":"Çamlıyamaç Mahallesi","type":"boundary"},"id":"relation/13619405"},
{"type":"Feature","geometry":{"type":"Polygon","coordinates":[[[41.5880948,40.5576549],[41.6229115,40.6034901],[41.5255248,40.6502582],[41.5568753,40.6348027],[41.5498958,40.6053787],[41.5133049,40.5895366],[41.5125542,40.5769991],[41.5880948,40.5576549]]]},"properties":{"@id":"relation/13619486","admin_level":"8","boundary":"administrative","name":"Gölbaşı Mahallesi","type":"boundary"},"id":"relation/13619486"},
{"type":"Feature","geometry":{"type":"Polygon","coordinates":[[[41.5880948,40.5576549],[41.5125542,40.5769991],[41.5440869,40.5331976],[41.5473436,40.5358872],[41.5681284,40.5465678],[41.5880948,40.5576549]]]},"properties":{"@id":"relation/13619513","admin_level":"8","boundary":"administrative","name":"Çaybaşı Mahallesi","type":"boundary"},"id":"relation/13619513"},
{"type":"Feature","geometry":{"type":"Polygon","coordinates":[[[41.209344,39.9217566],[41.2706888,39.9136123],[41.2727807,39.9148681],[41.2645974,39.9294106],[41.2267649,39.9333265],[41.209344,39.9217566]]]},"properties":{"@id":"relation/13658662","admin_level":"8","boundary":"administrative","name":"Ömer Nasuhi Bilmen Mahallesi","type":"boundary","wikidata":"Q109390129","wikipedia":"tr:Ömer Nasuhi Bilmen, Yakutiye","@relations":[{"role":"subarea","rel":1832942,"reltags":{"admin_level":"6","boundary":"administrative","name":"Yakutiye","name:ce":"Йакутийе","name:de":"Yakutiye","name:en":"Yakutiye","name:fa":"یاقوتیه","name:ku":"Yakutiye","name:tr":"Yakutiye","name:tr:suffix":"İlçesi","name:tt":"Якутие","name:ur":"یاقوتیہ","network":"TR25-districts","type":"boundary","wikidata":"Q2577943","wikipedia":"tr:Yakutiye"}}]},"id":"relation/13658662"},
{"type":"Feature","geometry":{"type":"Polygon","coordinates":[[[41.2727807,39.9148681],[41.2798083,39.9188211],[41.2953114,39.958282],[41.2645974,39.9294106],[41.2727807,39.9148681]]]},"properties":{"@id":"relation/13658663","admin_level":"8","boundary":"administrative","name":"Şükrüpaşa Mahallesi","type":"boundary","wikidata":"Q97206854","wikipedia":"tr:Şükrüpaşa, Yakutiye","@relations":[{"role":"subarea","rel":1832942,"reltags":{"admin_level":"6","boundary":"administrative","name":"Yakutiye","name:ce":"Йакутийе","name:de":"Yakutiye","name:en":"Yakutiye","name:fa":"یاقوتیه","name:ku":"Yakutiye","name:tr":"Yakutiye","name:tr:suffix":"İlçesi","name:tt":"Якутие","name:ur":"یاقوتیہ","network":"TR25-districts","type":"boundary","wikidata":"Q2577943","wikipedia":"tr:Yakutiye"}}]},"id":"relation/13658663"},
{"type":"Feature","geometry":{"type":"Polygon","coordinates":[[[41.1746549,39.9700164],[41.1528539,39.9369544],[41.2051301,39.923304],[41.209344,39.9217566],[41.2267649,39.9333265],[41.2178171,39.9638328],[41.1746549,39.9700164]]]},"properties":{"@id":"relation/13838407","admin_level":"8","boundary":"administrative","name":"Çiftlik Mahallesi","name:hy":"Կակառիճ","type":"boundary","wikidata":"Q6474854","wikipedia":"tr:Çiftlik, Yakutiye","@relations":[{"role":"subarea","rel":1832942,"reltags":{"admin_level":"6","boundary":"administrative","name":"Yakutiye","name:ce":"Йакутийе","name:de":"Yakutiye","name:en":"Yakutiye","name:fa":"یاقوتیه","name:ku":"Yakutiye","name:tr":"Yakutiye","name:tr:suffix":"İlçesi","name:tt":"Якутие","name:ur":"یاقوتیہ","network":"TR25-districts","type":"boundary","wikidata":"Q2577943","wikipedia":"tr:Yakutiye"}}]},"id":"relation/13838407"},
{"type":"Feature","geometry":{"type":"Polygon","coordinates":[[[41.3418214,39.9147218],[41.3582292,39.9464431],[41.329,39.943],[41.2892629,39.9177973],[41.3418214,39.9147218]]]},"properties":{"@id":"relation/13838408","admin_level":"8","boundary":"administrative","name":"Şehitler Mahallesi","type":"boundary","@relations":[{"role":"subarea","rel":1832938,"reltags":{"admin_level":"6","boundary":"administrative","name":"Palandöken","name:ce":"Паландоькен","name:ku":"Paletonk","name:tr":"Palandöken","name:tr:suffix":"İlçesi","name:tt":"Паландөкен","network":"TR25-districts","type":"boundary","wikidata":"Q1004488","wikipedia":"tr:Palandöken"}}]},"id":"relation/13838408"},
{"type":"Feature","geometry":{"type":"Polygon","coordinates":[[[41.2892629,39.9177973],[41.329,39.943],[41.2953114,39.958282],[41.2798083,39.9188211],[41.2892629,39.9177973]]]},"properties":{"@id":"relation/13838409","admin_level":"8","boundary":"administrative","name":"Kurtuluş Mahallesi","type":"boundary","wikidata":"Q109386353","wikipedia":"tr:Kurtuluş, Yakutiye","@relations":[{"role":"subarea","rel":1832942,"reltags":{"admin_level":"6","boundary":"administrative","name":"Yakutiye","name:ce":"Йакутийе","name:de":"Yakutiye","name:en":"Yakutiye","name:fa":"یاقوتیه","name:ku":"Yakutiye","name:tr":"Yakutiye","name:tr:suffix":"İlçesi","name:tt":"Якутие","name:ur":"یاقوتیہ","network":"TR25-districts","type":"boundary","wikidata":"Q2577943","wikipedia":"tr:Yakutiye"}}]},"id":"relation/13838409"},
{"type":"Feature","geometry":{"type":"Polygon","coordinates":[[[41.1794025,39.9297519],[41.1663508,39.9114068],[41.1981887,39.9015843],[41.1794025,39.9297519]]]},"properties":{"@id":"relation/17626053","admin_level":"8","boundary":"administrative","name":"Saltuklu Mahallesi","type":"boundary","@relations":[{"role":"subarea","rel":1832781,"reltags":{"admin_level":"6","boundary":"administrative","name":"Aziziye","name:ar":"عزيزية","name:azb":"عزیزیه","name:ce":"Азизийе","name:ckb":"چێرمک","name:de":"Aziziye","name:el":"Ελεγεια","name:fa":"عزیزیه","name:fr":"Aziziye","name:grc":"Ἐλεγεία","name:hy":"Ազիզիե","name:ka":"ილიჯა","name:ku":"Çêrmik","name:ru":"Азизие","name:tr":"Aziziye","name:tr:suffix":"İlçesi","name:tt":"Азизие","name:ur":"عزیزیہ","network":"TR25-districts","old_name":"Ilıca;Çêrmik;Ջերմուկ","type":"boundary","wikidata":"Q15195666","wikipedia":"tr:Aziziye"}}]},"id":"relation/17626053"},
{"type":"Feature","geometry":{"type":"Polygon","coordinates":[[[41.1981887,39.9015843],[41.2011927,39.8960079],[41.2032004,39.9191206],[41.2051301,39.923304],[41.1528539,39.9369544],[41.1794025,39.9297519],[41.1981887,39.9015843]]]},"properties":{"@id":"relation/17626054","admin_level":"8","boundary":"administrative","name":"Selçuklu Mahallesi","type":"boundary","@relations":[{"role":"subarea","rel":1832781,"reltags":{"admin_level":"6","boundary":"administrative","name":"Aziziye","name:ar":"عزيزية","name:azb":"عزیزیه","name:ce":"Азизийе","name:ckb":"چێرمک","name:de":"Aziziye","name:el":"Ελεγεια","name:fa":"عزیزیه","name:fr":"Aziziye","name:grc":"Ἐλεγεία","name:hy":"Ազիզիե","name:ka":"ილიჯა","name:ku":"Çêrmik","name:ru":"Азизие","name:tr":"Aziziye","name:tr:suffix":"İlçesi","name:tt":"Азизие","name:ur":"عزیزیہ","network":"TR25-districts","old_name":"Ilıca;Çêrmik;Ջերմուկ","type":"boundary","wikidata":"Q15195666","wikipedia":"tr:Aziziye"}}]},"id":"relation/17626054"},
{"type":"Feature","geometry":{"type":"Polygon","coordinates":[[[40.8108423,40.4253461],[40.7931873,40.4415232],[40.7899838,40.4347105],[40.7892118,40.4336406],[40.7925279,40.4255939],[40.80385,40.4213242],[40.8108423,40.4253461]]]},"properties":{"@id":"relation/18733221","admin_level":"8","boundary":"administrative","name":"Yeni Mahallesi","type":"boundary"},"id":"relation/18733221"},
{"type":"Feature","geometry":{"type":"Polygon","coordinates":[[[40.7889093,40.4203453],[40.80385,40.4213242],[40.7925279,40.4255939],[40.7889093,40.4203453]]]},"properties":{"@id":"relation/18734317","admin_level":"8","boundary":"administrative","name":"Deliktaş Mahallesi","type":"boundary"},"id":"relation/18734317"},
{"type":"Feature","geometry":{"type":"Polygon","coordinates":[[[40.7646726,40.4203102],[40.7925279,40.4255939],[40.7892118,40.4336406],[40.7646726,40.4203102]]]},"properties":{"@id":"relation/18734656","admin_level":"8","boundary":"administrative","name":"Kümbettepe Mahallesi","type":"boundary"},"id":"relation/18734656"},
{"type":"Feature","geometry":{"type":"Polygon","coordinates":[[[40.7560802,40.4012065],[40.7646726,40.4203102],[40.7892118,40.4336406],[40.7899838,40.4347105],[40.7552459,40.4469846],[40.7560802,40.4012065]]]},"properties":{"@id":"relation/18735601","admin_level":"8","boundary":"administrative","name":"Alıçlı Mahallesi","type":"boundary"},"id":"relation/18735601"},
{"type":"Feature","geometry":{"type":"Polygon","coordinates":[[[40.7646726,40.4203102],[40.7560802,40.4012065],[40.7742265,40.4061459],[40.7780035,40.4044623],[40.7773139,40.4163892],[40.7646726,40.4203102]]]},"properties":{"@id":"relation/18735674","admin_level":"8","boundary":"administrative","name":"21 Haziran Mahallesi","type":"boundary"},"id":"relation/18735674"},
{"type":"Feature","geometry":{"type":"Polygon","coordinates":[[[40.7889093,40.4203453],[40.7925279,40.4255939],[40.7646726,40.4203102],[40.7773139,40.4163892],[40.7889093,40.4203453]]]},"properties":{"@id":"relation/18735675","admin_level":"8","boundary":"administrative","name":"Merkez Mahallesi","type":"boundary"},"id":"relation/18735675"},
{"type":"Feature","geometry":{"type":"Polygon","coordinates":[[[40.80385,40.4213242],[40.7889093,40.4203453],[40.7773139,40.4163892],[40.7780035,40.4044623],[40.8123584,40.3643436],[40.8108423,40.4253461],[40.80385,40.4213242]]]},"properties":{"@id":"relation/18736294","admin_level":"8","boundary":"administrative","name":"Akbulut Mahallesi","type":"boundary"},"id":"relation/18736294"},
{"type":"Feature","geometry":{"type":"Polygon","coordinates":[[[40.7679974,40.3256372],[40.8115772,40.3505743],[40.8123584,40.3643436],[40.7780035,40.4044623],[40.7742265,40.4061459],[40.7478038,40.380207],[40.7679974,40.3256372]]]},"properties":{"@id":"relation/18736412","admin_level":"8","boundary":"administrative","name":"Gülçimen Mahallesi","type":"boundary"},"id":"relation/18736412"},
{"type":"Feature","geometry":{"type":"Polygon","coordinates":[[[40.8123584,40.3643436],[40.8115772,40.3505743],[40.8490274,40.3494672],[40.8509538,40.3615655],[40.8123584,40.3643436]]]},"properties":{"@id":"relation/18736413","admin_level":"8","boundary":"administrative","name":"Demirgöze Mahallesi","type":"boundary"},"id":"relation/18736413"}
]}