{"type":"FeatureCollection", "features": [
{"type":"Feature","geometry":{"type":"Polygon","coordinates":[[[38.5233577,40.1537556],[38.537346,40.1690797],[38.5776329,40.1876929],[38.6266079,40.1996423],[38.6154743,40.2076619],[38.6132789,40.2343094],[38.600317,40.2460547],[38.6059083,40.2726164],[38.6473094,40.2969706],[38.6761367,40.3413765],[38.6884597,40.3459996],[38.6774509,40.3680414],[38.6509379,40.3677147],[38.641084,40.3897445],[38.6560614,40.3960936],[38.6488247,40.4204141],[38.6248079,40.4685691],[38.6149067,40.4765775],[38.5709892,40.4770146],[38.553708,40.4690116],[38.5303426,40.4812694],[38.5186457,40.4982836],[38.5131955,40.4994747],[38.47721,40.49637],[38.4582853,40.4861263],[38.417108,40.4726773],[38.4107029,40.4535847],[38.3804369,40.4657396],[38.3469307,40.4724896],[38.3316314,40.4694942],[38.309133,40.4780311],[38.2729769,40.4788309],[38.1976545,40.4961978],[38.1739692,40.4885281],[38.1689215,40.4218643],[38.1470346,40.3941086],[38.1548308,40.3672776],[38.1475352,40.345563],[38.1663322,40.3241685],[38.1630706,40.3126506],[38.18367,40.2960247],[38.1824683,40.2723225],[38.1889915,40.2515599],[38.1768035,40.2388503],[38.1931113,40.2179463],[38.2083892,40.2191916],[38.2534074,40.2098189],[38.2635355,40.1974293],[38.2859802,40.2057876],[38.3012151,40.1862176],[38.3242178,40.1885126],[38.3367698,40.169376],[38.3757395,40.1473216],[38.395509,40.1449512],[38.4177302,40.1242909],[38.444271,40.1294763],[38.4497633,40.1637729],[38.4827634,40.1636449],[38.4902384,40.154471],[38.5233577,40.1537556]]]},"properties":{"@id":"relation/1806620","admin_level":"6","alt_name":"Şebin Karahisar","boundary":"administrative","name":"Şebinkarahisar","name:ar":"شبين قره‌ حصار","name:bg":"Шебинкарахисар","name:ce":"ШабинкарахӀисар","name:de":"Şebinkarahisar","name:el":"Σεμπίν Καραχισάρ","name:en":"Şebinkarahisar","name:fa":"شبین قره‌حصار","name:hy":"Շապին Գարահիսար","name:ru":"Шебинкарахисар","name:tr":"Şebinkarahisar","name:tr:suffix":"İlçesi","name:tt":"Шебинкарахисар","name:uk":"Шебінкарагісар","name:ur":"شبین قرہ حصار","name:zh":"謝賓卡拉希薩爾","network":"TR28-districts","old_name":"Karahisar-ı Şarki","type":"boundary","wikidata":"Q388662","wikipedia":"tr:Şebinkarahisar"},"id":"relation/1806620"},
{"type":"Feature","geometry":{"type":"Polygon","coordinates":[[[38.5233577,40.1537556],[38.5333871,40.1512268],[38.5220145,40.1186465],[38.556776,40.1135267],[38.5614966,40.0946196],[38.6069011,40.1034829],[38.6602019,40.1074218],[38.6552238,40.0889727],[38.6706481,40.0816914],[38.69462,40.088119],[38.7268822,40.0888071],[38.7642657,40.0810206],[38.7747859,40.0646725],[38.8007926,40.069993],[38.8189887,40.0585633],[38.8512163,40.0622353],[38.9000129,40.0544244],[38.921403,40.0457644],[38.9565382,40.0630675],[38.9363275,40.0865753],[38.9622401,40.104402],[38.9232054,40.1196734],[38.9208125,40.133325],[38.9055405,40.1472164],[38.8869709,40.145699],[38.88216,40.1858243],[38.8730954,40.1911854],[38.8600809,40.185247],[38.8410918,40.2002472],[38.855304,40.2213219],[38.8185805,40.2289938],[38.8043876,40.2270688],[38.7813614,40.235636],[38.7289332,40.2162661],[38.6986642,40.2201232],[38.6785335,40.2047052],[38.6266079,40.1996423],[38.5776329,40.1876929],[38.537346,40.1690797],[38.5233577,40.1537556]]]},"properties":{"@id":"relation/1806690","admin_level":"6","boundary":"administrative","name":"Çamoluk","name:ce":"Чамолук","name:de":"Çamoluk","name:en":"Çamoluk","name:fa":"چامولوک","name:tr":"Çamoluk","name:tr:suffix":"İlçesi","name:tt":"Чамолук","name:ur":"چامولوک","network":"TR28-districts","type":"boundary","wikidata":"Q2671156","wikipedia":"tr:Çamoluk"},"id":"relation/1806690"},
{"type":"Feature","geometry":{"type":"Polygon","coordinates":[[[38.6266079,40.1996423],[38.6785335,40.2047052],[38.6986642,40.2201232],[38.7289332,40.2162661],[38.7813614,40.235636],[38.8043876,40.2270688],[38.8185805,40.2289938],[38.855304,40.2213219],[38.8410918,40.2002472],[38.8600809,40.185247],[38.8730954,40.1911854],[38.8775252,40.2018217],[38.9083992,40.2227251],[38.9077039,40.2468296],[38.9315985,40.2520185],[38.9489006,40.2647941],[38.9659432,40.288917],[39.0052412,40.3229907],[39.0133382,40.3350078],[39.0313338,40.3346376],[39.0440733,40.3470237],[39.0747478,40.361089],[39.0696849,40.3784936],[39.0316349,40.3839562],[39.0069436,40.4125523],[39.002838,40.4447263],[38.9649008,40.4617074],[38.9163243,40.472598],[38.8837951,40.4717459],[38.8852499,40.4809038],[38.8595278,40.4884692],[38.8295438,40.4903033],[38.8006209,40.5014001],[38.7811388,40.4978137],[38.7549589,40.5088399],[38.750523,40.529776],[38.7571959,40.5419238],[38.7474918,40.5489612],[38.6998557,40.5502004],[38.6962276,40.5576386],[38.6795138,40.5507221],[38.633222,40.5494565],[38.6253627,40.5615114],[38.6023204,40.5581739],[38.5867741,40.5380966],[38.5583656,40.5440492],[38.5427876,40.5179355],[38.5186457,40.4982836],[38.5303426,40.4812694],[38.553708,40.4690116],[38.5709892,40.4770146],[38.6149067,40.4765775],[38.6248079,40.4685691],[38.6488247,40.4204141],[38.6560614,40.3960936],[38.641084,40.3897445],[38.6509379,40.3677147],[38.6774509,40.3680414],[38.6884597,40.3459996],[38.6761367,40.3413765],[38.6473094,40.2969706],[38.6059083,40.2726164],[38.600317,40.2460547],[38.6132789,40.2343094],[38.6154743,40.2076619],[38.6266079,40.1996423]]]},"properties":{"@id":"relation/1835980","admin_level":"6","boundary":"administrative","name":"Alucra","name:ce":"Алуджра","name:de":"Alucra","name:en":"Alucra","name:fa":"الوکرا","name:hy":"Ալուջոր","name:tr":"Alucra","name:tr:suffix":"İlçesi","name:tt":"Алуҗра","name:ur":"الوجرا","network":"TR28-districts","old_name":"Mesudiye","type":"boundary","wikidata":"Q2349330","wikipedia":"tr:Alucra"},"id":"relation/1835980"},
{"type":"Feature","geometry":{"type":"Polygon","coordinates":[[[38.0405289,40.7860317],[38.0255378,40.7747938],[38.0036441,40.7712042],[37.986587,40.7595801],[37.9672418,40.7268235],[37.9743043,40.705531],[37.9647441,40.6820927],[37.9910637,40.6680399],[38.0066048,40.6407588],[38.0250259,40.6261562],[38.0355039,40.5985938],[38.085075,40.5884776],[38.0972702,40.5727188],[38.1020984,40.5271248],[38.1596396,40.5248178],[38.1703355,40.5452382],[38.1704781,40.566339],[38.1911042,40.6131739],[38.2193315,40.647536],[38.2382759,40.6511294],[38.2585465,40.6669378],[38.2514257,40.6962723],[38.2617794,40.7174591],[38.2525061,40.7341207],[38.2643507,40.7502482],[38.2544693,40.7794218],[38.2752571,40.8041065],[38.2574849,40.8136499],[38.2490792,40.8288257],[38.2568845,40.8535356],[38.2809782,40.875062],[38.2998285,40.9007389],[38.2921861,40.9187812],[38.3074248,40.9315838],[38.2771249,40.94556],[38.2074529,40.9379415],[38.1675645,40.946529],[38.1550637,40.9113596],[38.1346225,40.9028372],[38.1247901,40.8842533],[38.1461839,40.8700833],[38.1442729,40.8527778],[38.1240656,40.8346705],[38.1238329,40.823592],[38.0978234,40.8258792],[38.087607,40.8172384],[38.0551548,40.8105675],[38.0405289,40.7860317]]]},"properties":{"@id":"relation/1835981","admin_level":"6","boundary":"administrative","name":"Bulancak","name:ce":"Буланджак","name:de":"Bulancak","name:el":"Πουλαντζάκη","name:en":"Bulancak","name:fa":"بولانجاک","name:hy":"Բուլանջաք","name:ru":"Буланджак","name:tr":"Bulancak","name:tr:suffix":"İlçesi","name:tt":"Буланҗак","name:ur":"بولانجاک","name:zh":"布蘭賈克","network":"TR28-districts","type":"boundary","wikidata":"Q1947496","wikipedia":"tr:Bulancak"},"id":"relation/1835981"},
{"type":"Feature","geometry":{"type":"Polygon","coordinates":[[[38.1596396,40.5248178],[38.1903647,40.5089704],[38.1976545,40.4961978],[38.2729769,40.4788309],[38.309133,40.4780311],[38.3316314,40.4694942],[38.3469307,40.4724896],[38.3804369,40.4657396],[38.4107029,40.4535847],[38.417108,40.4726773],[38.4582853,40.4861263],[38.47721,40.49637],[38.5131955,40.4994747],[38.4988585,40.5391066],[38.5140786,40.5516242],[38.528699,40.5445679],[38.5588086,40.5721315],[38.5616704,40.6000667],[38.5762594,40.623204],[38.546047,40.6342779],[38.5517119,40.6495178],[38.5703232,40.665814],[38.5769788,40.6822907],[38.5703522,40.6936404],[38.5549734,40.6991212],[38.5571802,40.7208124],[38.5670898,40.7263542],[38.5573808,40.7440068],[38.5372271,40.7593186],[38.5221597,40.7610362],[38.5060682,40.7750094],[38.4950837,40.7780527],[38.4835633,40.8027991],[38.4514616,40.8009461],[38.4231741,40.7941308],[38.3937834,40.7683219],[38.3732489,40.7381288],[38.3367749,40.719474],[38.3252311,40.694809],[38.2794569,40.6806382],[38.2585465,40.6669378],[38.2382759,40.6511294],[38.2193315,40.647536],[38.1911042,40.6131739],[38.1704781,40.566339],[38.1703355,40.5452382],[38.1596396,40.5248178]]]},"properties":{"@id":"relation/1835982","admin_level":"6","boundary":"administrative","name":"Dereli","name:ce":"Дерели","name:de":"Dereli","name:en":"Dereli","name:hy":"Դերելի","name:tr":"Dereli","name:tr:suffix":"İlçesi","name:tt":"Дерэли","name:ur":"دیریلی","network":"TR28-districts","old_name":"Dölçukuru","type":"boundary","wikidata":"Q2670799","wikipedia":"tr:Dereli"},"id":"relation/1835982"},
{"type":"Feature","geometry":{"type":"Polygon","coordinates":[[[38.9415328,40.8473174],[38.9086955,40.8483815],[38.8935844,40.83663],[38.8805398,40.7911903],[38.8861385,40.741029],[38.8962362,40.7342508],[38.8958929,40.7160378],[38.9120291,40.6943057],[38.9109991,40.6552482],[38.9176939,40.6402701],[38.9458464,40.6194254],[38.9305685,40.6057425],[38.9532278,40.6009203],[38.9645575,40.5895801],[38.9774321,40.6245069],[38.9657591,40.6327146],[38.9669607,40.6669678],[38.9300535,40.6961278],[38.9511679,40.7073198],[38.9290236,40.7306086],[38.9323771,40.7434831],[38.9596652,40.7680618],[38.9789265,40.7627367],[39.0179325,40.7727731],[39.0135668,40.7973725],[39.0207999,40.8087466],[38.9864444,40.8172521],[38.9754979,40.838517],[38.9415328,40.8473174]]]},"properties":{"@id":"relation/1835983","admin_level":"6","boundary":"administrative","name":"Doğankent","name:ce":"ДогӀанкент","name:de":"Doğankent","name:en":"Doğankent","name:fa":"دوغان‌کنت","name:tr":"Doğankent","name:tr:suffix":"İlçesi","name:tt":"Доганкент","name:ur":"دوغانقند","network":"TR28-districts","old_name":"Manastırbükü;Harşit;Xarşid","type":"boundary","wikidata":"Q1253669","wikipedia":"tr:Doğankent"},"id":"relation/1835983"},
{"type":"Feature","geometry":{"type":"Polygon","coordinates":[[[38.7991794,40.5877501],[38.7751292,40.5880157],[38.7780065,40.6081735],[38.7906309,40.6149179],[38.8058566,40.6493224],[38.8245677,40.6679443],[38.8225936,40.6910517],[38.8437938,40.7199409],[38.8449096,40.7404291],[38.8297176,40.7505732],[38.8236236,40.7673467],[38.801182,40.7781935],[38.8039577,40.8106737],[38.7912984,40.8216758],[38.7758548,40.8772146],[38.7858207,40.890932],[38.7702935,40.9065081],[38.7518134,40.9141726],[38.7411848,40.9283639],[38.7736954,40.9306695],[38.7609588,40.9445246],[38.7421731,40.9476776],[38.731737,40.9600279],[38.7192267,40.9522926],[38.6869694,40.9469705],[38.6607853,40.9559373],[38.648018,40.970528],[38.625574,40.973042],[38.6416077,40.9510121],[38.6453912,40.9358827],[38.6204544,40.9111744],[38.6231877,40.8988959],[38.6327681,40.8861429],[38.6773464,40.8537813],[38.6849884,40.8230746],[38.7043757,40.8149659],[38.7199154,40.7995257],[38.7291422,40.7778237],[38.7211495,40.7399509],[38.6825398,40.7149154],[38.7044906,40.6519923],[38.6896419,40.6253537],[38.6974525,40.6065244],[38.6928176,40.5943379],[38.6962276,40.5576386],[38.6998557,40.5502004],[38.7474918,40.5489612],[38.7571959,40.5419238],[38.7724488,40.5495034],[38.7991794,40.5877501]]]},"properties":{"@id":"relation/1835984","admin_level":"6","boundary":"administrative","name":"Espiye","name:ce":"Эспийе","name:de":"Espiye","name:el":"Εσπιές","name:en":"Espiye","name:fa":"اسپیه","name:hy":"Էսպիե","name:tr":"Espiye","name:tr:suffix":"İlçesi","name:tt":"Эспие","name:ur":"اسپیے","name:zh":"埃斯皮耶","network":"TR28-districts","old_name":"Zefre;Zephyrion","type":"boundary","wikidata":"Q2901145","wikipedia":"tr:Espiye"},"id":"relation/1835984"},
{"type":"Feature","geometry":{"type":"Polygon","coordinates":[[[39.1398024,40.9891472],[39.1544877,41.0074188],[39.1543571,41.0386258],[39.174401,41.049947],[39.1806227,41.0736897],[39.1626222,41.0787069],[39.1305296,41.0577222],[39.0909559,41.0458933],[39.1058081,41.0136236],[39.0971072,41.0042782],[39.0997177,40.9869032],[39.1086058,40.9764464],[39.1080081,40.9744768],[39.1114597,40.9656382],[39.1496043,40.9510948],[39.1433001,40.9712743],[39.1413244,40.9786178],[39.1396099,40.9844097],[39.1398024,40.9891472]]]},"properties":{"@id":"relation/1835985","admin_level":"6","boundary":"administrative","name":"Eynesil","name:ar":"إينيسيل","name:ce":"Эйнесил","name:de":"Eynesil","name:en":"Eynesil","name:ru":"Эйнесил","name:tr":"Eynesil","name:tr:suffix":"İlçesi","name:tt":"Эйнесил","name:ur":"عینسیل","name:zh":"埃伊內西爾","network":"TR28-districts","old_name":"Ayvasil","type":"boundary","wikidata":"Q2901008","wikipedia":"tr:Eynesil"},"id":"relation/1835985"},
{"type":"Feature","geometry":{"type":"Polygon","coordinates":[[[38.2921861,40.9187812],[38.2998285,40.9007389],[38.2809782,40.875062],[38.2568845,40.8535356],[38.2490792,40.8288257],[38.2574849,40.8136499],[38.2752571,40.8041065],[38.2544693,40.7794218],[38.2643507,40.7502482],[38.2525061,40.7341207],[38.2617794,40.7174591],[38.2514257,40.6962723],[38.2585465,40.6669378],[38.2794569,40.6806382],[38.3252311,40.694809],[38.3367749,40.719474],[38.3732489,40.7381288],[38.3937834,40.7683219],[38.4231741,40.7941308],[38.4514616,40.8009461],[38.4835633,40.8027991],[38.4950837,40.7780527],[38.5060682,40.7750094],[38.5138378,40.7879929],[38.5249457,40.8385147],[38.4896156,40.8589101],[38.4888596,40.8705719],[38.4625551,40.8894919],[38.4488744,40.9154625],[38.4081372,40.9147399],[38.4004562,40.9162569],[38.3947987,40.9197922],[38.394475,40.9224318],[38.3866407,40.9233659],[38.3756984,40.9147731],[38.372224,40.9118321],[38.3346713,40.9162525],[38.3299742,40.9179892],[38.311837,40.927922],[38.3074248,40.9315838],[38.2921861,40.9187812]]]},"properties":{"@id":"relation/1835986","admin_level":"6","boundary":"administrative","name":"Giresun Merkez","name:ar":"غيرسون","name:bg":"Гиресун","name:ce":"Гиресун","name:de":"Giresun","name:el":"Κερασούντα","name:en":"Giresun","name:fa":"گره‌سون","name:hy":"Գիրեսուն","name:ja":"ギレスン","name:ka":"გირესუნი","name:ko":"기레순","name:la":"Cerasus","name:ru":"Гиресун","name:sr":"Гиресун","name:tg":"Гиресун","name:tr":"Giresun Merkez","name:tr:suffix":"İlçesi","name:tt":"Гиресун","name:uk":"Ґіресун","name:ur":"گریسون","name:zh":"吉雷松","network":"TR28-districts","old_name":"Kerasunt","type":"boundary","wikidata":"Q201095","wikipedia":"tr:Giresun"},"id":"relation/1835986"},
{"type":"Feature","geometry":{"type":"Polygon","coordinates":[[[39.0458682,40.8163155],[39.0321815,40.8382114],[39.0008527,40.8504916],[38.9753607,40.8657472],[38.9773456,40.8939609],[38.9642007,40.9042934],[38.9702358,40.9272023],[38.9930327,40.9296823],[39.0156269,40.9489503],[39.0664883,40.9330091],[39.0736393,40.9071678],[39.1011965,40.8901695],[39.1081496,40.8763066],[39.1458319,40.8564094],[39.1360229,40.8641805],[39.1509429,40.8830289],[39.1485141,40.9003444],[39.1348456,40.9088425],[39.1404124,40.9370768],[39.1496043,40.9510948],[39.1114597,40.9656382],[39.1080081,40.9744768],[39.1086058,40.9764464],[39.0997177,40.9869032],[39.0971072,41.0042782],[39.1058081,41.0136236],[39.0909559,41.0458933],[39.0532174,41.0368066],[39.0088455,41.0323863],[38.9970688,41.0397654],[38.9481645,41.0370446],[38.9344926,41.0435628],[38.9409983,40.9879685],[38.9402953,40.9686207],[38.9603543,40.9495299],[38.9306572,40.9202772],[38.9380971,40.8955479],[38.9551334,40.894094],[38.9567821,40.8589813],[38.9415328,40.8473174],[38.9754979,40.838517],[38.9864444,40.8172521],[39.0207999,40.8087466],[39.0458682,40.8163155]]]},"properties":{"@id":"relation/1835987","admin_level":"6","boundary":"administrative","name":"Görele","name:ce":"Гоьреле","name:de":"Görele","name:en":"Görele","name:fa":"گورلی","name:kk":"Гөреле","name:ru":"Гёреле","name:tr":"Görele","name:tr:suffix":"İlçesi","name:tt":"Гөреле","name:ur":"گورلے","name:zh":"格雷萊","network":"TR28-districts","type":"boundary","wikidata":"Q1921314","wikipedia":"tr:Görele"},"id":"relation/1835987"},
{"type":"Feature","geometry":{"type":"Polygon","coordinates":[[[38.9305685,40.6057425],[38.9458464,40.6194254],[38.9176939,40.6402701],[38.9109991,40.6552482],[38.9120291,40.6943057],[38.8958929,40.7160378],[38.8962362,40.7342508],[38.8861385,40.741029],[38.8805398,40.7911903],[38.8490384,40.8002808],[38.8397147,40.8375757],[38.8452017,40.8412001],[38.8460514,40.8840076],[38.8379545,40.9038987],[38.8096817,40.9123047],[38.8027416,40.9246602],[38.7518134,40.9141726],[38.7702935,40.9065081],[38.7858207,40.890932],[38.7758548,40.8772146],[38.7912984,40.8216758],[38.8039577,40.8106737],[38.801182,40.7781935],[38.8236236,40.7673467],[38.8297176,40.7505732],[38.8449096,40.7404291],[38.8437938,40.7199409],[38.8225936,40.6910517],[38.8245677,40.6679443],[38.8058566,40.6493224],[38.7906309,40.6149179],[38.7780065,40.6081735],[38.7751292,40.5880157],[38.7991794,40.5877501],[38.8117707,40.6055499],[38.8332956,40.6169102],[38.8776968,40.6146041],[38.9305685,40.6057425]]]},"properties":{"@id":"relation/1835988","admin_level":"6","boundary":"administrative","name":"Güce","name:ce":"Гуьдже","name:de":"Güce","name:en":"Güce","name:tr":"Güce","name:tr:suffix":"İlçesi","name:tt":"Гүҗе","name:ur":"گوجے","network":"TR28-districts","type":"boundary","wikidata":"Q2671163","wikipedia":"tr:Güce"},"id":"relation/1835988"},
{"type":"Feature","geometry":{"type":"Polygon","coordinates":[[[38.4488744,40.9154625],[38.4625551,40.8894919],[38.4888596,40.8705719],[38.4896156,40.8589101],[38.5249457,40.8385147],[38.5138378,40.7879929],[38.5060682,40.7750094],[38.5221597,40.7610362],[38.5372271,40.7593186],[38.5573808,40.7440068],[38.5670898,40.7263542],[38.5571802,40.7208124],[38.5549734,40.6991212],[38.5703522,40.6936404],[38.5970808,40.7100194],[38.5931779,40.7341844],[38.5995355,40.7697428],[38.576262,40.7839359],[38.5976222,40.8229779],[38.5983566,40.8489141],[38.5857166,40.8635764],[38.5925367,40.8767767],[38.6231877,40.8988959],[38.6204544,40.9111744],[38.6453912,40.9358827],[38.6416077,40.9510121],[38.625574,40.973042],[38.5919981,40.9477436],[38.5354447,40.9184911],[38.4836338,40.9141381],[38.4488744,40.9154625]]]},"properties":{"@id":"relation/1835989","admin_level":"6","boundary":"administrative","name":"Keşap","name:ce":"Кешап","name:de":"Keşap","name:el":"Κασσιόπη","name:en":"Keşap","name:fa":"کشاپ","name:tr":"Keşap","name:tr:suffix":"İlçesi","name:tt":"Кешап","name:ur":"کشاپ","name:zh":"凱沙普","network":"TR28-districts","old_name":"Kassiópê","type":"boundary","wikidata":"Q943807","wikipedia":"tr:Keşap"},"id":"relation/1835989"},
{"type":"Feature","geometry":{"type":"Polygon","coordinates":[[[38.1675645,40.946529],[38.1509138,40.9533418],[38.1153009,40.9538233],[38.0806007,40.9149318],[38.0786347,40.9013985],[38.0534649,40.8958515],[38.0273318,40.896439],[38.0200496,40.8777251],[38.030453,40.8685893],[38.0129673,40.8472157],[38.0066856,40.8160128],[38.0175823,40.7934069],[38.0405289,40.7860317],[38.0551548,40.8105675],[38.087607,40.8172384],[38.0978234,40.8258792],[38.1238329,40.823592],[38.1240656,40.8346705],[38.1442729,40.8527778],[38.1461839,40.8700833],[38.1247901,40.8842533],[38.1346225,40.9028372],[38.1550637,40.9113596],[38.1675645,40.946529]]]},"properties":{"@id":"relation/1835990","admin_level":"6","boundary":"administrative","name":"Piraziz","name:ce":"Пиразиз","name:de":"Piraziz","name:el":"Απδάλη","name:en":"Piraziz","name:fa":"پیرعزیز","name:hy":"Փիր-Ազիզ","name:ru":"Пиразиз","name:tr":"Piraziz","name:tr:suffix":"İlçesi","name:tt":"Пиразиз","name:ur":"پیرعزیز","name:zh":"皮拉齊茲","network":"TR28-districts","old_name":"Abdal;Abdalırum","type":"boundary","wikidata":"Q2248783","wikipedia":"tr:Piraziz"},"id":"relation/1835990"},
{"type":"Feature","geometry":{"type":"Polygon","coordinates":[[[38.9344926,41.0435628],[38.9154733,41.0369782],[38.8691779,41.010612],[38.8085889,41.0058986],[38.7816259,40.9926874],[38.731737,40.9600279],[38.7421731,40.9476776],[38.7609588,40.9445246],[38.7736954,40.9306695],[38.7411848,40.9283639],[38.7518134,40.9141726],[38.8027416,40.9246602],[38.8096817,40.9123047],[38.8379545,40.9038987],[38.8460514,40.8840076],[38.8452017,40.8412001],[38.8397147,40.8375757],[38.8490384,40.8002808],[38.8805398,40.7911903],[38.8935844,40.83663],[38.9086955,40.8483815],[38.9415328,40.8473174],[38.9567821,40.8589813],[38.9551334,40.894094],[38.9380971,40.8955479],[38.9306572,40.9202772],[38.9603543,40.9495299],[38.9402953,40.9686207],[38.9409983,40.9879685],[38.9344926,41.0435628]]]},"properties":{"@id":"relation/1835991","admin_level":"6","boundary":"administrative","name":"Tirebolu","name:ce":"Тиреболу","name:de":"Tirebolu","name:el":"Τρίπολις","name:en":"Tirebolu","name:fa":"تیره‌بولو","name:ru":"Тиреболу","name:tr":"Tirebolu","name:tr:suffix":"İlçesi","name:tt":"Тиреболу","name:ur":"تیرہبولو","name:zh":"蒂雷博盧","network":"TR28-districts","old_name":"Tireboli","type":"boundary","wikidata":"Q996077","wikipedia":"tr:Tirebolu"},"id":"relation/1835991"},
{"type":"Feature","geometry":{"type":"Polygon","coordinates":[[[38.5131955,40.4994747],[38.5186457,40.4982836],[38.5427876,40.5179355],[38.5583656,40.5440492],[38.5867741,40.5380966],[38.6023204,40.5581739],[38.6253627,40.5615114],[38.633222,40.5494565],[38.6795138,40.5507221],[38.6962276,40.5576386],[38.6928176,40.5943379],[38.6974525,40.6065244],[38.6896419,40.6253537],[38.7044906,40.6519923],[38.6825398,40.7149154],[38.7211495,40.7399509],[38.7291422,40.7778237],[38.7199154,40.7995257],[38.7043757,40.8149659],[38.6849884,40.8230746],[38.6773464,40.8537813],[38.6327681,40.8861429],[38.6231877,40.8988959],[38.5925367,40.8767767],[38.5857166,40.8635764],[38.5983566,40.8489141],[38.5976222,40.8229779],[38.576262,40.7839359],[38.5995355,40.7697428],[38.5931779,40.7341844],[38.5970808,40.7100194],[38.5703522,40.6936404],[38.5769788,40.6822907],[38.5703232,40.665814],[38.5517119,40.6495178],[38.546047,40.6342779],[38.5762594,40.623204],[38.5616704,40.6000667],[38.5588086,40.5721315],[38.528699,40.5445679],[38.5140786,40.5516242],[38.4988585,40.5391066],[38.5131955,40.4994747]]]},"properties":{"@id":"relation/1835992","admin_level":"6","boundary":"administrative","name":"Yağlıdere","name:ce":"ЙагӀлидере","name:de":"Yağlıdere","name:el":"Γιαγλίντερε","name:en":"Yağlıdere","name:fa":"یاغلی‌دره","name:tr":"Yağlıdere","name:tr:suffix":"İlçesi","name:tt":"Яглыдере","name:ur":"یاغلیدرے","name:zh":"亞勒代雷","network":"TR28-districts","type":"boundary","wikidata":"Q2097511","wikipedia":"tr:Yağlıdere"},"id":"relation/1835992"},
{"type":"Feature","geometry":{"type":"Polygon","coordinates":[[[39.0458682,40.8163155],[39.0811156,40.8373207],[39.1065249,40.8192412],[39.1073154,40.8006265],[39.1190527,40.7854808],[39.1373719,40.7763645],[39.142227,40.8019856],[39.1235219,40.8177126],[39.1314123,40.8410869],[39.1458319,40.8564094],[39.1081496,40.8763066],[39.1011965,40.8901695],[39.0736393,40.9071678],[39.0664883,40.9330091],[39.0156269,40.9489503],[38.9930327,40.9296823],[38.9702358,40.9272023],[38.9642007,40.9042934],[38.9773456,40.8939609],[38.9753607,40.8657472],[39.0008527,40.8504916],[39.0321815,40.8382114],[39.0458682,40.8163155]]]},"properties":{"@id":"relation/1835993","admin_level":"6","boundary":"administrative","name":"Çanakçı","name:ce":"Чанакчи","name:de":"Çanakçı","name:en":"Çanakçı","name:tr":"Çanakçı","name:tr:suffix":"İlçesi","name:tt":"Чанакчы","name:ur":"چاناکچی","network":"TR28-districts","type":"boundary","wikidata":"Q2008594","wikipedia":"tr:Çanakçı"},"id":"relation/1835993"},
{"type":"Feature","geometry":{"type":"Polygon","coordinates":[[[39.1056529,40.9918339],[39.0971072,41.0042782],[39.0997177,40.9869032],[39.1056529,40.9918339]]]},"properties":{"@id":"relation/3483389","admin_level":"8","alt_name":"Ada","boundary":"administrative","name":"Adaköy","name:hy":"Ադաքյոյ","network":"TR-28-villages","place":"village","type":"boundary","wikidata":"Q6958783","wikipedia":"tr:Adaköy, Eynesil","@relations":[{"role":"subarea","rel":1835985,"reltags":{"admin_level":"6","boundary":"administrative","name":"Eynesil","name:ar":"إينيسيل","name:ce":"Эйнесил","name:de":"Eynesil","name:en":"Eynesil","name:ru":"Эйнесил","name:tr":"Eynesil","name:tr:suffix":"İlçesi","name:tt":"Эйнесил","name:ur":"عینسیل","name:zh":"埃伊內西爾","network":"TR28-districts","old_name":"Ayvasil","type":"boundary","wikidata":"Q2901008","wikipedia":"tr:Eynesil"}}]},"id":"relation/3483389"},
{"type":"Feature","geometry":{"type":"Polygon","coordinates":[[[39.1398024,40.9891472],[39.1259621,40.9926619],[39.1056529,40.9918339],[39.0997177,40.9869032],[39.1086058,40.9764464],[39.1396099,40.9844097],[39.1398024,40.9891472]]]},"properties":{"@id":"relation/3483390","admin_level":"8","boundary":"administrative","name":"Balcılı","network":"TR-28-villages","place":"village","type":"boundary","wikidata":"Q10737480","wikipedia":"tr:Balcılı, Eynesil","@relations":[{"role":"subarea","rel":1835985,"reltags":{"admin_level":"6","boundary":"administrative","name":"Eynesil","name:ar":"إينيسيل","name:ce":"Эйнесил","name:de":"Eynesil","name:en":"Eynesil","name:ru":"Эйнесил","name:tr":"Eynesil","name:tr:suffix":"İlçesi","name:tt":"Эйнесил","name:ur":"عینسیل","name:zh":"埃伊內西爾","network":"TR28-districts","old_name":"Ayvasil","type":"boundary","wikidata":"Q2901008","wikipedia":"tr:Eynesil"}}]},"id":"relation/3483390"},
{"type":"Feature","geometry":{"type":"Polygon","coordinates":[[[39.1114597,40.9656382],[39.1433001,40.9712743],[39.1413244,40.9786178],[39.1080081,40.9744768],[39.1114597,40.9656382]]]},"properties":{"@id":"relation/3483391","admin_level":"8","boundary":"administrative","name":"Kemaliye Köyü","network":"TR-28-villages","old_name":"Göceli","place":"village","type":"boundary","wikidata":"Q6620979","wikipedia":"tr:Kemaliye, Eynesil","@relations":[{"role":"subarea","rel":1835985,"reltags":{"admin_level":"6","boundary":"administrative","name":"Eynesil","name:ar":"إينيسيل","name:ce":"Эйнесил","name:de":"Eynesil","name:en":"Eynesil","name:ru":"Эйнесил","name:tr":"Eynesil","name:tr:suffix":"İlçesi","name:tt":"Эйнесил","name:ur":"عینسیل","name:zh":"埃伊內西爾","network":"TR28-districts","old_name":"Ayvasil","type":"boundary","wikidata":"Q2901008","wikipedia":"tr:Eynesil"}}]},"id":"relation/3483391"},
{"type":"Feature","geometry":{"type":"Polygon","coordinates":[[[39.1058081,41.0136236],[39.0971072,41.0042782],[39.1056529,40.9918339],[39.1259621,40.9926619],[39.1058081,41.0136236]]]},"properties":{"@id":"relation/3483392","admin_level":"8","boundary":"administrative","name":"Kemerli Köyü","network":"TR-28-villages","place":"village","type":"boundary","wikidata":"Q6620451","wikipedia":"tr:Kemerli, Eynesil","@relations":[{"role":"subarea","rel":1835985,"reltags":{"admin_level":"6","boundary":"administrative","name":"Eynesil","name:ar":"إينيسيل","name:ce":"Эйнесил","name:de":"Eynesil","name:en":"Eynesil","name:ru":"Эйнесил","name:tr":"Eynesil","name:tr:suffix":"İlçesi","name:tt":"Эйнесил","name:ur":"عینسیل","name:zh":"埃伊內西爾","network":"TR28-districts","old_name":"Ayvasil","type":"boundary","wikidata":"Q2901008","wikipedia":"tr:Eynesil"}}]},"id":"relation/3483392"},
{"type":"Feature","geometry":{"type":"Polygon","coordinates":[[[39.1080081,40.9744768],[39.1413244,40.9786178],[39.1396099,40.9844097],[39.1086058,40.9764464],[39.1080081,40.9744768]]]},"properties":{"@id":"relation/3483393","admin_level":"8","boundary":"administrative","name":"Kösemen Köyü","network":"TR-28-villages","place":"village","type":"boundary","wikidata":"Q6595543","wikipedia":"tr:Kösemen, Eynesil","@relations":[{"role":"subarea","rel":1835985,"reltags":{"admin_level":"6","boundary":"administrative","name":"Eynesil","name:ar":"إينيسيل","name:ce":"Эйнесил","name:de":"Eynesil","name:en":"Eynesil","name:ru":"Эйнесил","name:tr":"Eynesil","name:tr:suffix":"İlçesi","name:tt":"Эйнесил","name:ur":"عینسیل","name:zh":"埃伊內西爾","network":"TR28-districts","old_name":"Ayvasil","type":"boundary","wikidata":"Q2901008","wikipedia":"tr:Eynesil"}}]},"id":"relation/3483393"},
{"type":"Feature","geometry":{"type":"Polygon","coordinates":[[[39.1496043,40.9510948],[39.1433001,40.9712743],[39.1114597,40.9656382],[39.1496043,40.9510948]]]},"properties":{"@id":"relation/3483394","admin_level":"8","boundary":"administrative","name":"Yarımca Köyü","network":"TR-28-villages","old_name":"Koçulu","place":"village","type":"boundary","wikidata":"Q6537786","wikipedia":"tr:Yarımca, Eynesil","@relations":[{"role":"subarea","rel":1835985,"reltags":{"admin_level":"6","boundary":"administrative","name":"Eynesil","name:ar":"إينيسيل","name:ce":"Эйнесил","name:de":"Eynesil","name:en":"Eynesil","name:ru":"Эйнесил","name:tr":"Eynesil","name:tr:suffix":"İlçesi","name:tt":"Эйнесил","name:ur":"عینسیل","name:zh":"埃伊內西爾","network":"TR28-districts","old_name":"Ayvasil","type":"boundary","wikidata":"Q2901008","wikipedia":"tr:Eynesil"}}]},"id":"relation/3483394"},
{"type":"Feature","geometry":{"type":"Polygon","coordinates":[[[38.4004562,40.9162569],[38.3963692,40.9134964],[38.4081372,40.9147399],[38.4004562,40.9162569]]]},"properties":{"@id":"relation/13000750","admin_level":"8","boundary":"administrative","name":"Gemilerçekeği Mahallesi","type":"boundary","@relations":[{"role":"subarea","rel":1835986,"reltags":{"admin_level":"6","boundary":"administrative","name":"Giresun Merkez","name:ar":"غيرسون","name:bg":"Гиресун","name:ce":"Гиресун","name:de":"Giresun","name:el":"Κερασούντα","name:en":"Giresun","name:fa":"گره‌سون","name:hy":"Գիրեսուն","name:ja":"ギレスン","name:ka":"გირესუნი","name:ko":"기레순","name:la":"Cerasus","name:ru":"Гиресун","name:sr":"Гиресун","name:tg":"Гиресун","name:tr":"Giresun Merkez","name:tr:suffix":"İlçesi","name:tt":"Гиресун","name:uk":"Ґіресун","name:ur":"گریسون","name:zh":"吉雷松","network":"TR28-districts","old_name":"Kerasunt","type":"boundary","wikidata":"Q201095","wikipedia":"tr:Giresun"}}]},"id":"relation/13000750"},
{"type":"Feature","geometry":{"type":"Polygon","coordinates":[[[38.3923405,40.9160422],[38.3936009,40.9152434],[38.3963692,40.9134964],[38.4004562,40.9162569],[38.3947987,40.9197922],[38.3923405,40.9160422]]]},"properties":{"@id":"relation/13000751","admin_level":"8","boundary":"administrative","name":"Hacı Hüseyin Mahallesi","type":"boundary","@relations":[{"role":"subarea","rel":1835986,"reltags":{"admin_level":"6","boundary":"administrative","name":"Giresun Merkez","name:ar":"غيرسون","name:bg":"Гиресун","name:ce":"Гиресун","name:de":"Giresun","name:el":"Κερασούντα","name:en":"Giresun","name:fa":"گره‌سون","name:hy":"Գիրեսուն","name:ja":"ギレスン","name:ka":"გირესუნი","name:ko":"기레순","name:la":"Cerasus","name:ru":"Гиресун","name:sr":"Гиресун","name:tg":"Гиресун","name:tr":"Giresun Merkez","name:tr:suffix":"İlçesi","name:tt":"Гиресун","name:uk":"Ґіресун","name:ur":"گریسون","name:zh":"吉雷松","network":"TR28-districts","old_name":"Kerasunt","type":"boundary","wikidata":"Q201095","wikipedia":"tr:Giresun"}}]},"id":"relation/13000751"},
{"type":"Feature","geometry":{"type":"Polygon","coordinates":[[[38.3891514,40.9190804],[38.3894116,40.9163948],[38.3901529,40.9162334],[38.3923405,40.9160422],[38.3947987,40.9197922],[38.394475,40.9224318],[38.3891514,40.9190804]]]},"properties":{"@id":"relation/13000752","admin_level":"8","boundary":"administrative","name":"Çınarlar Mahallesi","type":"boundary","@relations":[{"role":"subarea","rel":1835986,"reltags":{"admin_level":"6","boundary":"administrative","name":"Giresun Merkez","name:ar":"غيرسون","name:bg":"Гиресун","name:ce":"Гиресун","name:de":"Giresun","name:el":"Κερασούντα","name:en":"Giresun","name:fa":"گره‌سون","name:hy":"Գիրեսուն","name:ja":"ギレスン","name:ka":"გირესუნი","name:ko":"기레순","name:la":"Cerasus","name:ru":"Гиресун","name:sr":"Гиресун","name:tg":"Гиресун","name:tr":"Giresun Merkez","name:tr:suffix":"İlçesi","name:tt":"Гиресун","name:uk":"Ґіресун","name:ur":"گریسون","name:zh":"吉雷松","network":"TR28-districts","old_name":"Kerasunt","type":"boundary","wikidata":"Q201095","wikipedia":"tr:Giresun"}}]},"id":"relation/13000752"},
{"type":"Feature","geometry":{"type":"Polygon","coordinates":[[[38.3894116,40.9163948],[38.3891514,40.9190804],[38.3866972,40.9186932],[38.3865738,40.9170313],[38.388776,40.9165374],[38.3894116,40.9163948]]]},"properties":{"@id":"relation/13000753","admin_level":"8","boundary":"administrative","name":"Kapu Mahallesi","type":"boundary","@relations":[{"role":"subarea","rel":1835986,"reltags":{"admin_level":"6","boundary":"administrative","name":"Giresun Merkez","name:ar":"غيرسون","name:bg":"Гиресун","name:ce":"Гиресун","name:de":"Giresun","name:el":"Κερασούντα","name:en":"Giresun","name:fa":"گره‌سون","name:hy":"Գիրեսուն","name:ja":"ギレスン","name:ka":"გირესუნი","name:ko":"기레순","name:la":"Cerasus","name:ru":"Гиресун","name:sr":"Гиресун","name:tg":"Гиресун","name:tr":"Giresun Merkez","name:tr:suffix":"İlçesi","name:tt":"Гиресун","name:uk":"Ґіресун","name:ur":"گریسون","name:zh":"吉雷松","network":"TR28-districts","old_name":"Kerasunt","type":"boundary","wikidata":"Q201095","wikipedia":"tr:Giresun"}}]},"id":"relation/13000753"},
{"type":"Feature","geometry":{"type":"Polygon","coordinates":[[[38.3866972,40.9186932],[38.3891514,40.9190804],[38.394475,40.9224318],[38.3866407,40.9233659],[38.3866972,40.9186932]]]},"properties":{"@id":"relation/13000754","admin_level":"8","boundary":"administrative","name":"Kale Mahallesi","type":"boundary","@relations":[{"role":"subarea","rel":1835986,"reltags":{"admin_level":"6","boundary":"administrative","name":"Giresun Merkez","name:ar":"غيرسون","name:bg":"Гиресун","name:ce":"Гиресун","name:de":"Giresun","name:el":"Κερασούντα","name:en":"Giresun","name:fa":"گره‌سون","name:hy":"Գիրեսուն","name:ja":"ギレスン","name:ka":"გირესუნი","name:ko":"기레순","name:la":"Cerasus","name:ru":"Гиресун","name:sr":"Гиресун","name:tg":"Гиресун","name:tr":"Giresun Merkez","name:tr:suffix":"İlçesi","name:tt":"Гиресун","name:uk":"Ґіресун","name:ur":"گریسون","name:zh":"吉雷松","network":"TR28-districts","old_name":"Kerasunt","type":"boundary","wikidata":"Q201095","wikipedia":"tr:Giresun"}}]},"id":"relation/13000754"},
{"type":"Feature","geometry":{"type":"Polygon","coordinates":[[[38.3756984,40.9147731],[38.3817458,40.9168078],[38.3848365,40.917452],[38.3865738,40.9170313],[38.3866972,40.9186932],[38.3866407,40.9233659],[38.3756984,40.9147731]]]},"properties":{"@id":"relation/13000755","admin_level":"8","boundary":"administrative","name":"Sultan Selim Mahallesi","type":"boundary","@relations":[{"role":"subarea","rel":1835986,"reltags":{"admin_level":"6","boundary":"administrative","name":"Giresun Merkez","name:ar":"غيرسون","name:bg":"Гиресун","name:ce":"Гиресун","name:de":"Giresun","name:el":"Κερασούντα","name:en":"Giresun","name:fa":"گره‌سون","name:hy":"Գիրեսուն","name:ja":"ギレスン","name:ka":"გირესუნი","name:ko":"기레순","name:la":"Cerasus","name:ru":"Гиресун","name:sr":"Гиресун","name:tg":"Гиресун","name:tr":"Giresun Merkez","name:tr:suffix":"İlçesi","name:tt":"Гиресун","name:uk":"Ґіресун","name:ur":"گریسون","name:zh":"吉雷松","network":"TR28-districts","old_name":"Kerasunt","type":"boundary","wikidata":"Q201095","wikipedia":"tr:Giresun"}}]},"id":"relation/13000755"},
{"type":"Feature","geometry":{"type":"Polygon","coordinates":[[[38.3923405,40.9160422],[38.3901529,40.9162334],[38.3893794,40.9120532],[38.3936009,40.9152434],[38.3923405,40.9160422]]]},"properties":{"@id":"relation/15724054","admin_level":"8","boundary":"administrative","name":"Osmaniye Mahallesi","type":"boundary","@relations":[{"role":"subarea","rel":1835986,"reltags":{"admin_level":"6","boundary":"administrative","name":"Giresun Merkez","name:ar":"غيرسون","name:bg":"Гиресун","name:ce":"Гиресун","name:de":"Giresun","name:el":"Κερασούντα","name:en":"Giresun","name:fa":"گره‌سون","name:hy":"Գիրեսուն","name:ja":"ギレスン","name:ka":"გირესუნი","name:ko":"기레순","name:la":"Cerasus","name:ru":"Гиресун","name:sr":"Гиресун","name:tg":"Гиресун","name:tr":"Giresun Merkez","name:tr:suffix":"İlçesi","name:tt":"Гиресун","name:uk":"Ґіресун","name:ur":"گریسون","name:zh":"吉雷松","network":"TR28-districts","old_name":"Kerasunt","type":"boundary","wikidata":"Q201095","wikipedia":"tr:Giresun"}}]},"id":"relation/15724054"},
{"type":"Feature","geometry":{"type":"Polygon","coordinates":[[[38.3872604,40.909937],[38.3852971,40.9138288],[38.3830494,40.9138288],[38.3762205,40.9078328],[38.3872604,40.909937]]]},"properties":{"@id":"relation/15724055","admin_level":"8","boundary":"administrative","name":"Fevzi Çakmak Mahallesi","type":"boundary","@relations":[{"role":"subarea","rel":1835986,"reltags":{"admin_level":"6","boundary":"administrative","name":"Giresun Merkez","name:ar":"غيرسون","name:bg":"Гиресун","name:ce":"Гиресун","name:de":"Giresun","name:el":"Κερασούντα","name:en":"Giresun","name:fa":"گره‌سون","name:hy":"Գիրեսուն","name:ja":"ギレスン","name:ka":"გირესუნი","name:ko":"기레순","name:la":"Cerasus","name:ru":"Гиресун","name:sr":"Гиресун","name:tg":"Гиресун","name:tr":"Giresun Merkez","name:tr:suffix":"İlçesi","name:tt":"Гиресун","name:uk":"Ґіресун","name:ur":"گریسون","name:zh":"吉雷松","network":"TR28-districts","old_name":"Kerasunt","type":"boundary","wikidata":"Q201095","wikipedia":"tr:Giresun"}}]},"id":"relation/15724055"},
{"type":"Feature","geometry":{"type":"Polygon","coordinates":[[[38.3894116,40.9163948],[38.388776,40.9165374],[38.3863163,40.9156611],[38.3852971,40.9138288],[38.3872604,40.909937],[38.3893794,40.9120532],[38.3901529,40.9162334],[38.3894116,40.9163948]]]},"properties":{"@id":"relation/15724056","admin_level":"8","boundary":"administrative","name":"Nizamiye Mahallesi","type":"boundary","@relations":[{"role":"subarea","rel":1835986,"reltags":{"admin_level":"6","boundary":"administrative","name":"Giresun Merkez","name:ar":"غيرسون","name:bg":"Гиресун","name:ce":"Гиресун","name:de":"Giresun","name:el":"Κερασούντα","name:en":"Giresun","name:fa":"گره‌سون","name:hy":"Գիրեսուն","name:ja":"ギレスン","name:ka":"გირესუნი","name:ko":"기레순","name:la":"Cerasus","name:ru":"Гиресун","name:sr":"Гиресун","name:tg":"Гиресун","name:tr":"Giresun Merkez","name:tr:suffix":"İlçesi","name:tt":"Гиресун","name:uk":"Ґіресун","name:ur":"گریسون","name:zh":"吉雷松","network":"TR28-districts","old_name":"Kerasunt","type":"boundary","wikidata":"Q201095","wikipedia":"tr:Giresun"}}]},"id":"relation/15724056"},
{"type":"Feature","geometry":{"type":"Polygon","coordinates":[[[38.3848365,40.917452],[38.3817458,40.9168078],[38.3830494,40.9138288],[38.3852971,40.9138288],[38.3863163,40.9156611],[38.3848365,40.917452]]]},"properties":{"@id":"relation/15724057","admin_level":"8","boundary":"administrative","name":"Hacımiktat Mahallesi","type":"boundary","@relations":[{"role":"subarea","rel":1835986,"reltags":{"admin_level":"6","boundary":"administrative","name":"Giresun Merkez","name:ar":"غيرسون","name:bg":"Гиресун","name:ce":"Гиресун","name:de":"Giresun","name:el":"Κερασούντα","name:en":"Giresun","name:fa":"گره‌سون","name:hy":"Գիրեսուն","name:ja":"ギレスン","name:ka":"გირესუნი","name:ko":"기레순","name:la":"Cerasus","name:ru":"Гиресун","name:sr":"Гиресун","name:tg":"Гиресун","name:tr":"Giresun Merkez","name:tr:suffix":"İlçesi","name:tt":"Гиресун","name:uk":"Ґіресун","name:ur":"گریسون","name:zh":"吉雷松","network":"TR28-districts","old_name":"Kerasunt","type":"boundary","wikidata":"Q201095","wikipedia":"tr:Giresun"}}]},"id":"relation/15724057"},
{"type":"Feature","geometry":{"type":"Polygon","coordinates":[[[38.3865738,40.9170313],[38.3848365,40.917452],[38.3863163,40.9156611],[38.388776,40.9165374],[38.3865738,40.9170313]]]},"properties":{"@id":"relation/15724058","admin_level":"8","boundary":"administrative","name":"Şeyhkeramettin Mahallesi","type":"boundary","@relations":[{"role":"subarea","rel":1835986,"reltags":{"admin_level":"6","boundary":"administrative","name":"Giresun Merkez","name:ar":"غيرسون","name:bg":"Гиресун","name:ce":"Гиресун","name:de":"Giresun","name:el":"Κερασούντα","name:en":"Giresun","name:fa":"گره‌سون","name:hy":"Գիրեսուն","name:ja":"ギレスン","name:ka":"გირესუნი","name:ko":"기레순","name:la":"Cerasus","name:ru":"Гиресун","name:sr":"Гиресун","name:tg":"Гиресун","name:tr":"Giresun Merkez","name:tr:suffix":"İlçesi","name:tt":"Гиресун","name:uk":"Ґіресун","name:ur":"گریسون","name:zh":"吉雷松","network":"TR28-districts","old_name":"Kerasunt","type":"boundary","wikidata":"Q201095","wikipedia":"tr:Giresun"}}]},"id":"relation/15724058"},
{"type":"Feature","geometry":{"type":"Polygon","coordinates":[[[38.3756984,40.9147731],[38.372224,40.9118321],[38.3762205,40.9078328],[38.3830494,40.9138288],[38.3817458,40.9168078],[38.3756984,40.9147731]]]},"properties":{"@id":"relation/15724059","admin_level":"8","boundary":"administrative","name":"Hacısiyam Mahallesi","type":"boundary","@relations":[{"role":"subarea","rel":1835986,"reltags":{"admin_level":"6","boundary":"administrative","name":"Giresun Merkez","name:ar":"غيرسون","name:bg":"Гиресун","name:ce":"Гиресун","name:de":"Giresun","name:el":"Κερασούντα","name:en":"Giresun","name:fa":"گره‌سون","name:hy":"Գիրեսուն","name:ja":"ギレスン","name:ka":"გირესუნი","name:ko":"기레순","name:la":"Cerasus","name:ru":"Гиресун","name:sr":"Гиресун","name:tg":"Гиресун","name:tr":"Giresun Merkez","name:tr:suffix":"İlçesi","name:tt":"Гиресун","name:uk":"Ґіресун","name:ur":"گریسون","name:zh":"吉雷松","network":"TR28-districts","old_name":"Kerasunt","type":"boundary","wikidata":"Q201095","wikipedia":"tr:Giresun"}}]},"id":"relation/15724059"},
{"type":"Feature","geometry":{"type":"Polygon","coordinates":[[[38.3074248,40.9315838],[38.2921861,40.9187812],[38.311837,40.927922],[38.3074248,40.9315838]]]},"properties":{"@id":"relation/15724060","admin_level":"8","boundary":"administrative","name":"Yalı Mahallesi","type":"boundary","@relations":[{"role":"subarea","rel":1835986,"reltags":{"admin_level":"6","boundary":"administrative","name":"Giresun Merkez","name:ar":"غيرسون","name:bg":"Гиресун","name:ce":"Гиресун","name:de":"Giresun","name:el":"Κερασούντα","name:en":"Giresun","name:fa":"گره‌سون","name:hy":"Գիրեսուն","name:ja":"ギレスン","name:ka":"გირესუნი","name:ko":"기레순","name:la":"Cerasus","name:ru":"Гиресун","name:sr":"Гиресун","name:tg":"Гиресун","name:tr":"Giresun Merkez","name:tr:suffix":"İlçesi","name:tt":"Гиресун","name:uk":"Ґіресун","name:ur":"گریسون","name:zh":"吉雷松","network":"TR28-districts","old_name":"Kerasunt","type":"boundary","wikidata":"Q201095","wikipedia":"tr:Giresun"}}]},"id":"relation/15724060"},
{"type":"Feature","geometry":{"type":"Polygon","coordinates":[[[38.3346713,40.9162525],[38.3299742,40.9179892],[38.3281338,40.9137072],[38.3346713,40.9162525]]]},"properties":{"@id":"relation/15724061","admin_level":"8","boundary":"administrative","name":"Güre Mahallesi","type":"boundary","@relations":[{"role":"subarea","rel":1835986,"reltags":{"admin_level":"6","boundary":"administrative","name":"Giresun Merkez","name:ar":"غيرسون","name:bg":"Гиресун","name:ce":"Гиресун","name:de":"Giresun","name:el":"Κερασούντα","name:en":"Giresun","name:fa":"گره‌سون","name:hy":"Գիրեսուն","name:ja":"ギレスン","name:ka":"გირესუნი","name:ko":"기레순","name:la":"Cerasus","name:ru":"Гиресун","name:sr":"Гиресун","name:tg":"Гиресун","name:tr":"Giresun Merkez","name:tr:suffix":"İlçesi","name:tt":"Гиресун","name:uk":"Ґіресун","name:ur":"گریسون","name:zh":"吉雷松","network":"TR28-districts","old_name":"Kerasunt","type":"boundary","wikidata":"Q201095","wikipedia":"tr:Giresun"}}]},"id":"relation/15724061"}
]}