{"type":"FeatureCollection", "features": [
{"type":"Feature","geometry":{"type":"Polygon","coordinates":[[[39.3521512,40.6902787],[39.3044587,40.6722427],[39.2296026,40.6734779],[39.1811505,40.6426703],[39.1797124,40.6037668],[39.089805,40.6100588],[39.0751831,40.563112],[39.0387638,40.5023052],[38.9814024,40.4559506],[39.0316349,40.3839562],[39.0747478,40.361089],[39.1222093,40.34627],[39.186247,40.2979962],[39.2707807,40.2931825],[39.2655472,40.3624302],[39.3027195,40.3819881],[39.3298812,40.4242006],[39.3495475,40.4507975],[39.3274218,40.4924258],[39.3310226,40.5282259],[39.3831653,40.558534],[39.4169742,40.5359218],[39.4879536,40.5326551],[39.5732683,40.5820189],[39.5640239,40.6001309],[39.4201232,40.6329444],[39.4140418,40.6575156],[39.3521512,40.6902787]]]},"properties":{"@id":"relation/1835646","admin_level":"6","boundary":"administrative","name":"Torul","name:ce":"Торул","name:de":"Torul","name:en":"Torul","name:tr":"Torul","name:tr:suffix":"İlçesi","name:tt":"Торул","name:ur":"تورول","network":"TR29-districts","type":"boundary","wikidata":"Q2006069","wikipedia":"tr:Torul"},"id":"relation/1835646"},
{"type":"Feature","geometry":{"type":"Polygon","coordinates":[[[39.802039,40.3063676],[39.8556565,40.380088],[39.8872898,40.445044],[39.9209269,40.4760931],[40.0136111,40.4969767],[40.0950917,40.5006039],[40.1033255,40.5414648],[40.0396035,40.6512125],[39.9911784,40.6468478],[39.9960734,40.6107317],[40.0340268,40.5647986],[39.9520075,40.5449664],[39.9233537,40.5616593],[39.9184671,40.6060153],[39.8423534,40.6114968],[39.8240018,40.6583751],[39.8581654,40.7260513],[39.784371,40.7311266],[39.7444796,40.6723711],[39.7290945,40.6268501],[39.6036092,40.6246818],[39.5640239,40.6001309],[39.5732683,40.5820189],[39.4879536,40.5326551],[39.4169742,40.5359218],[39.3831653,40.558534],[39.3310226,40.5282259],[39.3274218,40.4924258],[39.3495475,40.4507975],[39.3298812,40.4242006],[39.3027195,40.3819881],[39.2655472,40.3624302],[39.2707807,40.2931825],[39.3452217,40.2940032],[39.351312,40.293727],[39.4560375,40.2692228],[39.4605747,40.2430731],[39.5761702,40.2942727],[39.6932462,40.2898047],[39.802039,40.3063676]]]},"properties":{"@id":"relation/1835700","admin_level":"6","alt_name":"Gümüşhane","boundary":"administrative","name":"Gümüşhane Merkez","name:ar":"كوموش خانة","name:ce":"ГуьмуьшхӀане","name:de":"Gümüşhane","name:el":"Γκιουμούσχανε","name:en":"Gümüşhane","name:fa":"گوموش‌خانه","name:hy":"Գյումյուշհանե","name:ja":"ギュミュシュハーネ","name:ka":"გუმუშჰანე","name:ko":"귀뮈샤네","name:ru":"Гюмюшхане","name:tg":"Гумушхона","name:tr":"Gümüşhane Merkez","name:tr:suffix":"İlçesi","name:tt":"Гүмүшхане","name:uk":"Гюмюшхане","name:ur":"گوموشخانے","name:zh":"居米什哈內","network":"TR29-districts","type":"boundary","wikidata":"Q214303","wikipedia":"tr:Gümüşhane"},"id":"relation/1835700"},
{"type":"Feature","geometry":{"type":"Polygon","coordinates":[[[39.0974312,39.9994786],[39.140538,39.9493117],[39.2715694,39.9217963],[39.2941257,39.8930112],[39.3726102,39.8849255],[39.4471407,39.8623058],[39.5243601,39.8792265],[39.5434235,39.8409177],[39.5973534,39.8361941],[39.5589335,39.8855779],[39.6134962,39.897523],[39.6531187,39.8626693],[39.6943284,39.8860244],[39.798187,39.8970799],[39.7739409,39.9647539],[39.7332571,40.0017146],[39.6923722,39.9992651],[39.6518896,40.0215677],[39.6778105,40.0799104],[39.6558343,40.0973243],[39.6185708,40.115405],[39.6149742,40.1458491],[39.4605747,40.2430731],[39.4560375,40.2692228],[39.351312,40.293727],[39.3452217,40.2940032],[39.3377533,40.2380013],[39.2741369,40.2029742],[39.2510413,40.1327808],[39.2164202,40.0685614],[39.1856939,40.0768405],[39.154102,40.0347723],[39.0974312,39.9994786]]]},"properties":{"@id":"relation/1835701","admin_level":"6","boundary":"administrative","name":"Kelkit","name:ce":"Келкит","name:fa":"کلکیت","name:ku":"Satala","name:ru":"Келькит","name:tr":"Kelkit","name:tr:suffix":"İlçesi","name:tt":"Келкит","name:ur":"کلکیت","name:zh":"凱爾基特","network":"TR29-districts","type":"boundary","wikidata":"Q1003919","wikipedia":"tr:Kelkit"},"id":"relation/1835701"},
{"type":"Feature","geometry":{"type":"Polygon","coordinates":[[[39.802039,40.3063676],[39.6932462,40.2898047],[39.5761702,40.2942727],[39.4605747,40.2430731],[39.6149742,40.1458491],[39.6185708,40.115405],[39.6558343,40.0973243],[39.7226767,40.1665339],[39.8141415,40.1794964],[39.8612014,40.2182954],[39.8492082,40.2766316],[39.802039,40.3063676]]]},"properties":{"@id":"relation/1835702","admin_level":"6","boundary":"administrative","name":"Köse","name:ce":"Коьсе","name:de":"Köse","name:en":"Köse","name:hy":"Քյոսե","name:tr":"Köse","name:tr:suffix":"İlçesi","name:tt":"Көсе","name:ur":"کوسے","network":"TR29-districts","type":"boundary","wikidata":"Q1747359","wikipedia":"tr:Köse"},"id":"relation/1835702"},
{"type":"Feature","geometry":{"type":"Polygon","coordinates":[[[39.3521512,40.6902787],[39.3339448,40.7350144],[39.2379124,40.7284646],[39.1373719,40.7763645],[39.0811156,40.8373207],[39.0135668,40.7973725],[39.0179325,40.7727731],[38.9596652,40.7680618],[38.9290236,40.7306086],[38.9300535,40.6961278],[38.9669607,40.6669678],[38.9532278,40.6009203],[38.8332956,40.6169102],[38.8117707,40.6055499],[38.750523,40.529776],[38.7549589,40.5088399],[38.8595278,40.4884692],[38.9814024,40.4559506],[39.0387638,40.5023052],[39.0751831,40.563112],[39.089805,40.6100588],[39.1797124,40.6037668],[39.1811505,40.6426703],[39.2296026,40.6734779],[39.3044587,40.6722427],[39.3521512,40.6902787]]]},"properties":{"@id":"relation/1835703","admin_level":"6","alt_name:ota":"ﻛﻮﺭﺗﻴﻦ","boundary":"administrative","name":"Kürtün","name:ce":"Куьртуьн","name:de":"Kürtün","name:el":"Κιουρτούνι","name:en":"Kürtün","name:ku":"Kûrdinê Bala","name:ota":"ﻛﻮﺭﺗﻮﻦ","name:ru":"Кюртюн","name:tr":"Kürtün","name:tr:suffix":"İlçesi","name:tt":"Күртүн","name:ur":"کورتون","network":"TR29-districts","old_name":"Uluköy","type":"boundary","wikidata":"Q1797313","wikipedia":"tr:Kürtün"},"id":"relation/1835703"},
{"type":"Feature","geometry":{"type":"Polygon","coordinates":[[[39.3452217,40.2940032],[39.2707807,40.2931825],[39.186247,40.2979962],[39.1222093,40.34627],[39.0747478,40.361089],[39.0052412,40.3229907],[38.8775252,40.2018217],[38.8869709,40.145699],[38.9622401,40.104402],[38.9363275,40.0865753],[38.9570477,40.0557747],[39.0974312,39.9994786],[39.154102,40.0347723],[39.1856939,40.0768405],[39.2164202,40.0685614],[39.2510413,40.1327808],[39.2741369,40.2029742],[39.3377533,40.2380013],[39.3452217,40.2940032]]]},"properties":{"@id":"relation/1835704","admin_level":"6","boundary":"administrative","name":"Şiran","name:ce":"Ширан","name:de":"Şiran","name:en":"Şiran","name:fa":"شیران","name:hy":"Կարաջա","name:ja":"シラン","name:tr":"Şiran","name:tr:suffix":"İlçesi","name:tt":"Ширан","name:uk":"Шіран","name:ur":"شیران","name:zh":"希蘭","network":"TR29-districts","type":"boundary","wikidata":"Q390578","wikipedia":"tr:Şiran"},"id":"relation/1835704"},
{"type":"Feature","geometry":{"type":"Polygon","coordinates":[[[39.4966435,40.4391575],[39.5100331,40.421501],[39.5163846,40.4466531],[39.4966435,40.4391575]]]},"properties":{"@id":"relation/14301598","admin_level":"8","boundary":"administrative","name":"Bağlarbaşı Mahallesi","type":"boundary","@relations":[{"role":"subarea","rel":1835700,"reltags":{"admin_level":"6","alt_name":"Gümüşhane","boundary":"administrative","name":"Gümüşhane Merkez","name:ar":"كوموش خانة","name:ce":"ГуьмуьшхӀане","name:de":"Gümüşhane","name:el":"Γκιουμούσχανε","name:en":"Gümüşhane","name:fa":"گوموش‌خانه","name:hy":"Գյումյուշհանե","name:ja":"ギュミュシュハーネ","name:ka":"გუმუშჰანე","name:ko":"귀뮈샤네","name:ru":"Гюмюшхане","name:tg":"Гумушхона","name:tr":"Gümüşhane Merkez","name:tr:suffix":"İlçesi","name:tt":"Гүмүшхане","name:uk":"Гюмюшхане","name:ur":"گوموشخانے","name:zh":"居米什哈內","network":"TR29-districts","type":"boundary","wikidata":"Q214303","wikipedia":"tr:Gümüşhane"}}]},"id":"relation/14301598"},
{"type":"Feature","geometry":{"type":"Polygon","coordinates":[[[39.5100331,40.421501],[39.5495581,40.4287536],[39.5539355,40.4748646],[39.5202255,40.4752074],[39.5045721,40.4652662],[39.5051408,40.4605971],[39.5101404,40.4532336],[39.5163846,40.4466531],[39.5100331,40.421501]]]},"properties":{"@id":"relation/14301599","admin_level":"8","boundary":"administrative","name":"Akçakale Mahallesi","type":"boundary","@relations":[{"role":"subarea","rel":1835700,"reltags":{"admin_level":"6","alt_name":"Gümüşhane","boundary":"administrative","name":"Gümüşhane Merkez","name:ar":"كوموش خانة","name:ce":"ГуьмуьшхӀане","name:de":"Gümüşhane","name:el":"Γκιουμούσχανε","name:en":"Gümüşhane","name:fa":"گوموش‌خانه","name:hy":"Գյումյուշհանե","name:ja":"ギュミュシュハーネ","name:ka":"გუმუშჰანე","name:ko":"귀뮈샤네","name:ru":"Гюмюшхане","name:tg":"Гумушхона","name:tr":"Gümüşhane Merkez","name:tr:suffix":"İlçesi","name:tt":"Гүмүшхане","name:uk":"Гюмюшхане","name:ur":"گوموشخانے","name:zh":"居米什哈內","network":"TR29-districts","type":"boundary","wikidata":"Q214303","wikipedia":"tr:Gümüşhane"}}]},"id":"relation/14301599"},
{"type":"Feature","geometry":{"type":"Polygon","coordinates":[[[39.5101404,40.4532336],[39.4945836,40.4502619],[39.4934463,40.450964],[39.4901082,40.4431345],[39.4966435,40.4391575],[39.5163846,40.4466531],[39.5101404,40.4532336]]]},"properties":{"@id":"relation/14301600","admin_level":"8","boundary":"administrative","name":"Eskibağlar Mahallesi","type":"boundary","@relations":[{"role":"subarea","rel":1835700,"reltags":{"admin_level":"6","alt_name":"Gümüşhane","boundary":"administrative","name":"Gümüşhane Merkez","name:ar":"كوموش خانة","name:ce":"ГуьмуьшхӀане","name:de":"Gümüşhane","name:el":"Γκιουμούσχανε","name:en":"Gümüşhane","name:fa":"گوموش‌خانه","name:hy":"Գյումյուշհանե","name:ja":"ギュミュシュハーネ","name:ka":"გუმუშჰანე","name:ko":"귀뮈샤네","name:ru":"Гюмюшхане","name:tg":"Гумушхона","name:tr":"Gümüşhane Merkez","name:tr:suffix":"İlçesi","name:tt":"Гүмүшхане","name:uk":"Гюмюшхане","name:ur":"گوموشخانے","name:zh":"居米什哈內","network":"TR29-districts","type":"boundary","wikidata":"Q214303","wikipedia":"tr:Gümüşhane"}}]},"id":"relation/14301600"},
{"type":"Feature","geometry":{"type":"Polygon","coordinates":[[[39.5101404,40.4532336],[39.5051408,40.4605971],[39.4945836,40.4502619],[39.5101404,40.4532336]]]},"properties":{"@id":"relation/14301601","admin_level":"8","boundary":"administrative","name":"Yenimahalle Mahallesi","type":"boundary","@relations":[{"role":"subarea","rel":1835700,"reltags":{"admin_level":"6","alt_name":"Gümüşhane","boundary":"administrative","name":"Gümüşhane Merkez","name:ar":"كوموش خانة","name:ce":"ГуьмуьшхӀане","name:de":"Gümüşhane","name:el":"Γκιουμούσχανε","name:en":"Gümüşhane","name:fa":"گوموش‌خانه","name:hy":"Գյումյուշհանե","name:ja":"ギュミュシュハーネ","name:ka":"გუმუშჰანე","name:ko":"귀뮈샤네","name:ru":"Гюмюшхане","name:tg":"Гумушхона","name:tr":"Gümüşhane Merkez","name:tr:suffix":"İlçesi","name:tt":"Гүмүшхане","name:uk":"Гюмюшхане","name:ur":"گوموشخانے","name:zh":"居米什哈內","network":"TR29-districts","type":"boundary","wikidata":"Q214303","wikipedia":"tr:Gümüşhane"}}]},"id":"relation/14301601"},
{"type":"Feature","geometry":{"type":"Polygon","coordinates":[[[39.4621611,40.4900756],[39.4657284,40.4876359],[39.4691348,40.4909079],[39.4621611,40.4900756]]]},"properties":{"@id":"relation/14301602","admin_level":"8","boundary":"administrative","name":"Hacıemin Mahallesi","type":"boundary","@relations":[{"role":"subarea","rel":1835700,"reltags":{"admin_level":"6","alt_name":"Gümüşhane","boundary":"administrative","name":"Gümüşhane Merkez","name:ar":"كوموش خانة","name:ce":"ГуьмуьшхӀане","name:de":"Gümüşhane","name:el":"Γκιουμούσχανε","name:en":"Gümüşhane","name:fa":"گوموش‌خانه","name:hy":"Գյումյուշհանե","name:ja":"ギュミュシュハーネ","name:ka":"გუმუშჰანე","name:ko":"귀뮈샤네","name:ru":"Гюмюшхане","name:tg":"Гумушхона","name:tr":"Gümüşhane Merkez","name:tr:suffix":"İlçesi","name:tt":"Гүмүшхане","name:uk":"Гюмюшхане","name:ur":"گوموشخانے","name:zh":"居米什哈內","network":"TR29-districts","type":"boundary","wikidata":"Q214303","wikipedia":"tr:Gümüşhane"}}]},"id":"relation/14301602"},
{"type":"Feature","geometry":{"type":"Polygon","coordinates":[[[39.4807863,40.4841189],[39.4691348,40.4909079],[39.4657284,40.4876359],[39.4678943,40.4704713],[39.472369,40.467274],[39.4807863,40.4841189]]]},"properties":{"@id":"relation/14301603","admin_level":"8","boundary":"administrative","name":"Canca Mahallesi","type":"boundary","@relations":[{"role":"subarea","rel":1835700,"reltags":{"admin_level":"6","alt_name":"Gümüşhane","boundary":"administrative","name":"Gümüşhane Merkez","name:ar":"كوموش خانة","name:ce":"ГуьмуьшхӀане","name:de":"Gümüşhane","name:el":"Γκιουμούσχανε","name:en":"Gümüşhane","name:fa":"گوموش‌خانه","name:hy":"Գյումյուշհանե","name:ja":"ギュミュシュハーネ","name:ka":"გუმუშჰანე","name:ko":"귀뮈샤네","name:ru":"Гюмюшхане","name:tg":"Гумушхона","name:tr":"Gümüşhane Merkez","name:tr:suffix":"İlçesi","name:tt":"Гүмүшхане","name:uk":"Гюмюшхане","name:ur":"گوموشخانے","name:zh":"居米什哈內","network":"TR29-districts","type":"boundary","wikidata":"Q214303","wikipedia":"tr:Gümüşhane"}}]},"id":"relation/14301603"},
{"type":"Feature","geometry":{"type":"Polygon","coordinates":[[[39.4869125,40.4578706],[39.477961,40.4585936],[39.47716,40.4442037],[39.4901082,40.4431345],[39.4934463,40.450964],[39.4869125,40.4578706]]]},"properties":{"@id":"relation/14301604","admin_level":"8","boundary":"administrative","name":"Karşıyaka Mahallesi","type":"boundary","@relations":[{"role":"subarea","rel":1835700,"reltags":{"admin_level":"6","alt_name":"Gümüşhane","boundary":"administrative","name":"Gümüşhane Merkez","name:ar":"كوموش خانة","name:ce":"ГуьмуьшхӀане","name:de":"Gümüşhane","name:el":"Γκιουμούσχανε","name:en":"Gümüşhane","name:fa":"گوموش‌خانه","name:hy":"Գյումյուշհանե","name:ja":"ギュミュシュハーネ","name:ka":"გუმუშჰანე","name:ko":"귀뮈샤네","name:ru":"Гюмюшхане","name:tg":"Гумушхона","name:tr":"Gümüşhane Merkez","name:tr:suffix":"İlçesi","name:tt":"Гүмүшхане","name:uk":"Гюмюшхане","name:ur":"گوموشخانے","name:zh":"居米什哈內","network":"TR29-districts","type":"boundary","wikidata":"Q214303","wikipedia":"tr:Gümüşhane"}}]},"id":"relation/14301604"},
{"type":"Feature","geometry":{"type":"Polygon","coordinates":[[[39.5051408,40.4605971],[39.5045721,40.4652662],[39.4910645,40.4656172],[39.4869125,40.4578706],[39.4934463,40.450964],[39.4945836,40.4502619],[39.5051408,40.4605971]]]},"properties":{"@id":"relation/14301605","admin_level":"8","boundary":"administrative","name":"İnönü Mahallesi","type":"boundary","@relations":[{"role":"subarea","rel":1835700,"reltags":{"admin_level":"6","alt_name":"Gümüşhane","boundary":"administrative","name":"Gümüşhane Merkez","name:ar":"كوموش خانة","name:ce":"ГуьмуьшхӀане","name:de":"Gümüşhane","name:el":"Γκιουμούσχανε","name:en":"Gümüşhane","name:fa":"گوموش‌خانه","name:hy":"Գյումյուշհանե","name:ja":"ギュミュシュハーネ","name:ka":"გუმუშჰანე","name:ko":"귀뮈샤네","name:ru":"Гюмюшхане","name:tg":"Гумушхона","name:tr":"Gümüşhane Merkez","name:tr:suffix":"İlçesi","name:tt":"Гүмүшхане","name:uk":"Гюмюшхане","name:ur":"گوموشخانے","name:zh":"居米什哈內","network":"TR29-districts","type":"boundary","wikidata":"Q214303","wikipedia":"tr:Gümüşhane"}}]},"id":"relation/14301605"},
{"type":"Feature","geometry":{"type":"Polygon","coordinates":[[[39.4784903,40.4618297],[39.477961,40.4585936],[39.4869125,40.4578706],[39.4910645,40.4656172],[39.4784903,40.4618297]]]},"properties":{"@id":"relation/14301606","admin_level":"8","boundary":"administrative","name":"Karaer Mahallesi","type":"boundary","@relations":[{"role":"subarea","rel":1835700,"reltags":{"admin_level":"6","alt_name":"Gümüşhane","boundary":"administrative","name":"Gümüşhane Merkez","name:ar":"كوموش خانة","name:ce":"ГуьмуьшхӀане","name:de":"Gümüşhane","name:el":"Γκιουμούσχανε","name:en":"Gümüşhane","name:fa":"گوموش‌خانه","name:hy":"Գյումյուշհանե","name:ja":"ギュミュシュハーネ","name:ka":"გუმუშჰანე","name:ko":"귀뮈샤네","name:ru":"Гюмюшхане","name:tg":"Гумушхона","name:tr":"Gümüşhane Merkez","name:tr:suffix":"İlçesi","name:tt":"Гүмүшхане","name:uk":"Гюмюшхане","name:ur":"گوموشخانے","name:zh":"居米什哈內","network":"TR29-districts","type":"boundary","wikidata":"Q214303","wikipedia":"tr:Gümüşhane"}}]},"id":"relation/14301606"},
{"type":"Feature","geometry":{"type":"Polygon","coordinates":[[[39.4910645,40.4656172],[39.5045721,40.4652662],[39.5202255,40.4752074],[39.4807863,40.4841189],[39.472369,40.467274],[39.4784903,40.4618297],[39.4910645,40.4656172]]]},"properties":{"@id":"relation/14301607","admin_level":"8","boundary":"administrative","name":"Çamlıca Mahallesi","type":"boundary","@relations":[{"role":"subarea","rel":1835700,"reltags":{"admin_level":"6","alt_name":"Gümüşhane","boundary":"administrative","name":"Gümüşhane Merkez","name:ar":"كوموش خانة","name:ce":"ГуьмуьшхӀане","name:de":"Gümüşhane","name:el":"Γκιουμούσχανε","name:en":"Gümüşhane","name:fa":"گوموش‌خانه","name:hy":"Գյումյուշհանե","name:ja":"ギュミュシュハーネ","name:ka":"გუმუშჰანე","name:ko":"귀뮈샤네","name:ru":"Гюмюшхане","name:tg":"Гумушхона","name:tr":"Gümüşhane Merkez","name:tr:suffix":"İlçesi","name:tt":"Гүмүшхане","name:uk":"Гюмюшхане","name:ur":"گوموشخانے","name:zh":"居米什哈內","network":"TR29-districts","type":"boundary","wikidata":"Q214303","wikipedia":"tr:Gümüşhane"}}]},"id":"relation/14301607"},
{"type":"Feature","geometry":{"type":"Polygon","coordinates":[[[39.477961,40.4585936],[39.4784903,40.4618297],[39.472369,40.467274],[39.4666779,40.4624664],[39.4658732,40.4570379],[39.47716,40.4442037],[39.477961,40.4585936]]]},"properties":{"@id":"relation/14301608","admin_level":"8","boundary":"administrative","name":"Hasanbey Mahallesi","type":"boundary","@relations":[{"role":"subarea","rel":1835700,"reltags":{"admin_level":"6","alt_name":"Gümüşhane","boundary":"administrative","name":"Gümüşhane Merkez","name:ar":"كوموش خانة","name:ce":"ГуьмуьшхӀане","name:de":"Gümüşhane","name:el":"Γκιουμούσχανε","name:en":"Gümüşhane","name:fa":"گوموش‌خانه","name:hy":"Գյումյուշհանե","name:ja":"ギュミュシュハーネ","name:ka":"გუმუშჰანე","name:ko":"귀뮈샤네","name:ru":"Гюмюшхане","name:tg":"Гумушхона","name:tr":"Gümüşhane Merkez","name:tr:suffix":"İlçesi","name:tt":"Гүмүшхане","name:uk":"Гюмюшхане","name:ur":"گوموشخانے","name:zh":"居米什哈內","network":"TR29-districts","type":"boundary","wikidata":"Q214303","wikipedia":"tr:Gümüşhane"}}]},"id":"relation/14301608"},
{"type":"Feature","geometry":{"type":"Polygon","coordinates":[[[39.4678943,40.4704713],[39.4666779,40.4624664],[39.472369,40.467274],[39.4678943,40.4704713]]]},"properties":{"@id":"relation/14301609","admin_level":"8","boundary":"administrative","name":"Oltanbey Mahallesi","type":"boundary","@relations":[{"role":"subarea","rel":1835700,"reltags":{"admin_level":"6","alt_name":"Gümüşhane","boundary":"administrative","name":"Gümüşhane Merkez","name:ar":"كوموش خانة","name:ce":"ГуьмуьшхӀане","name:de":"Gümüşhane","name:el":"Γκιουμούσχανε","name:en":"Gümüşhane","name:fa":"گوموش‌خانه","name:hy":"Գյումյուշհանե","name:ja":"ギュミュシュハーネ","name:ka":"გუმუშჰანე","name:ko":"귀뮈샤네","name:ru":"Гюмюшхане","name:tg":"Гумушхона","name:tr":"Gümüşhane Merkez","name:tr:suffix":"İlçesi","name:tt":"Гүмүшхане","name:uk":"Гюмюшхане","name:ur":"گوموشخانے","name:zh":"居米什哈內","network":"TR29-districts","type":"boundary","wikidata":"Q214303","wikipedia":"tr:Gümüşhane"}}]},"id":"relation/14301609"},
{"type":"Feature","geometry":{"type":"Polygon","coordinates":[[[39.4658732,40.4570379],[39.4666779,40.4624664],[39.4678943,40.4704713],[39.4657284,40.4876359],[39.4621611,40.4900756],[39.4658732,40.4570379]]]},"properties":{"@id":"relation/14301610","admin_level":"8","boundary":"administrative","name":"Özcan Mahallesi","type":"boundary","@relations":[{"role":"subarea","rel":1835700,"reltags":{"admin_level":"6","alt_name":"Gümüşhane","boundary":"administrative","name":"Gümüşhane Merkez","name:ar":"كوموش خانة","name:ce":"ГуьмуьшхӀане","name:de":"Gümüşhane","name:el":"Γκιουμούσχανε","name:en":"Gümüşhane","name:fa":"گوموش‌خانه","name:hy":"Գյումյուշհանե","name:ja":"ギュミュシュハーネ","name:ka":"გუმუშჰანე","name:ko":"귀뮈샤네","name:ru":"Гюмюшхане","name:tg":"Гумушхона","name:tr":"Gümüşhane Merkez","name:tr:suffix":"İlçesi","name:tt":"Гүмүшхане","name:uk":"Гюмюшхане","name:ur":"گوموشخانے","name:zh":"居米什哈內","network":"TR29-districts","type":"boundary","wikidata":"Q214303","wikipedia":"tr:Gümüşhane"}}]},"id":"relation/14301610"},
{"type":"Feature","geometry":{"type":"Polygon","coordinates":[[[39.3559417,40.4244976],[39.3298812,40.4242006],[39.3027195,40.3819881],[39.3703912,40.3676991],[39.3675186,40.3858555],[39.3559417,40.4244976]]]},"properties":{"@id":"relation/17145118","admin_level":"8","boundary":"administrative","name":"Boyluca Mahallesi","type":"boundary"},"id":"relation/17145118"},
{"type":"Feature","geometry":{"type":"Polygon","coordinates":[[[39.3027195,40.3819881],[39.2655472,40.3624302],[39.2707807,40.2931825],[39.3452217,40.2940032],[39.351312,40.293727],[39.3830112,40.3518933],[39.3703912,40.3676991],[39.3027195,40.3819881]]]},"properties":{"@id":"relation/17149425","admin_level":"8","boundary":"administrative","name":"Karamustafa Mahallesi","type":"boundary"},"id":"relation/17149425"},
{"type":"Feature","geometry":{"type":"Polygon","coordinates":[[[39.3703912,40.3676991],[39.3830112,40.3518933],[39.4240129,40.3805848],[39.4175379,40.4028676],[39.3675186,40.3858555],[39.3703912,40.3676991]]]},"properties":{"@id":"relation/17152708","admin_level":"8","boundary":"administrative","name":"Aksu Mahallesi","type":"boundary"},"id":"relation/17152708"},
{"type":"Feature","geometry":{"type":"Polygon","coordinates":[[[39.3559417,40.4244976],[39.3675186,40.3858555],[39.4175379,40.4028676],[39.3745453,40.4285005],[39.3559417,40.4244976]]]},"properties":{"@id":"relation/17152709","admin_level":"8","boundary":"administrative","name":"Dörtkonak Mahallesi","type":"boundary"},"id":"relation/17152709"},
{"type":"Feature","geometry":{"type":"Polygon","coordinates":[[[39.3298812,40.4242006],[39.3559417,40.4244976],[39.3745453,40.4285005],[39.3495475,40.4507975],[39.3298812,40.4242006]]]},"properties":{"@id":"relation/17152710","admin_level":"8","boundary":"administrative","name":"Hasköy Mahallesi","type":"boundary"},"id":"relation/17152710"}
]}