{"type":"FeatureCollection", "features": [
{"type":"Feature","geometry":{"type":"Polygon","coordinates":[[[43.9007678,37.3497955],[43.9075823,37.3726509],[43.9176507,37.3912118],[43.9297327,37.429599],[43.9587296,37.4702041],[43.9655761,37.492895],[43.9796718,37.5117456],[43.9917538,37.5376174],[43.9985681,37.5635569],[43.9996636,37.5784192],[43.989418,37.5988436],[43.967187,37.6149238],[43.9550728,37.6185478],[43.9529463,37.6452882],[43.94966,37.6548797],[43.888279,37.6599887],[43.8963703,37.6764131],[43.9075207,37.6877948],[43.9244552,37.6896832],[43.9481214,37.6969518],[43.9675041,37.6940111],[43.9995223,37.6952291],[44.0203246,37.7104982],[44.0405434,37.7048501],[44.0540035,37.7119104],[44.0689247,37.7121029],[44.0854789,37.7280777],[44.0864062,37.7335301],[44.0820408,37.7397682],[44.0807869,37.7651776],[44.0903395,37.7772659],[44.068763,37.792726],[44.0682833,37.7996914],[44.0537531,37.8105835],[44.0130155,37.8032525],[43.9950994,37.7941074],[43.9394983,37.7794928],[43.9033837,37.7722049],[43.8627206,37.7601394],[43.8454205,37.7516703],[43.8229656,37.7519473],[43.7759593,37.7616156],[43.7185191,37.7702876],[43.6782142,37.7728367],[43.6246889,37.7667882],[43.5345149,37.742301],[43.4991914,37.7417871],[43.4870128,37.6958689],[43.4754637,37.6320128],[43.4324556,37.5909264],[43.3958997,37.5437928],[43.3547944,37.5414138],[43.3159642,37.542247],[43.3078773,37.5360347],[43.3071205,37.5103768],[43.3875221,37.4678469],[43.4251546,37.4625587],[43.4621176,37.4667507],[43.4711365,37.4521868],[43.4682572,37.4348939],[43.4394491,37.4172101],[43.4535517,37.3954523],[43.4934821,37.3955035],[43.5181784,37.3768577],[43.5043218,37.3565297],[43.5164086,37.3492741],[43.5393652,37.3491437],[43.5570746,37.3570948],[43.5637976,37.3643935],[43.5810151,37.369476],[43.5967568,37.3793795],[43.6234848,37.3864154],[43.6798925,37.3913662],[43.6951422,37.3869366],[43.7121957,37.3874577],[43.7600766,37.3763826],[43.7674555,37.3776856],[43.8094333,37.3729945],[43.8264868,37.3759916],[43.8355055,37.3693457],[43.8514111,37.3713005],[43.8738758,37.366218],[43.9007678,37.3497955]]]},"properties":{"@id":"relation/1381572","admin_level":"6","alt_name":"Hakkari","boundary":"administrative","name":"Hakkari Merkez","name:ar":"هكاري","name:bg":"Хаккяри","name:ce":"ХӀаккаьри","name:ckb":"جۆلەمێرگ","name:el":"Χακκιάρι","name:fa":"حکاری","name:hy":"Հաքյարի","name:ja":"ハッキャリ","name:ka":"ჰაქიარი","name:ko":"하카리","name:ku":"Colemêrg","name:ota":"جوله مرك","name:pa":"ਹੱਕਾਰੀ","name:ru":"Хаккяри","name:tg":"Ҳаккори","name:th":"ฮักชารี","name:tr":"Hakkari Merkez","name:tr:suffix":"İlçesi","name:uk":"Хаккярі","name:ur":"حکاری","name:zh":"哈卡里","name:zza":"Colemerge","network":"TR30-districts","old_name":"Çölemerik","type":"boundary","wikidata":"Q206895","wikipedia":"tr:Hakkâri"},"id":"relation/1381572"},
{"type":"Feature","geometry":{"type":"Polygon","coordinates":[[[43.9132331,37.2231192],[43.927474,37.238972],[43.93844,37.243238],[43.947071,37.258259],[43.9439122,37.2678408],[43.957955,37.271895],[43.956315,37.293024],[43.98576,37.296067],[44.0187682,37.3277789],[44.0256613,37.3178458],[44.0406127,37.3256072],[44.0691881,37.3134702],[44.1004594,37.3153226],[44.1178152,37.3215004],[44.1468575,37.3093482],[44.1533112,37.3016278],[44.16378,37.3037464],[44.1719643,37.2975294],[44.1988028,37.2882841],[44.2179799,37.3061637],[44.254708,37.3348138],[44.2778678,37.3718197],[44.2954131,37.3820442],[44.3431924,37.3922301],[44.3629555,37.3979396],[44.4059849,37.4225092],[44.4591085,37.4346804],[44.4766961,37.4427071],[44.533964,37.4588696],[44.5453801,37.4599415],[44.5682124,37.4703397],[44.5864544,37.4654318],[44.5826706,37.4818827],[44.5850189,37.5073768],[44.600798,37.515491],[44.607144,37.539474],[44.613618,37.5454054],[44.6017727,37.5538591],[44.613998,37.5639997],[44.6109984,37.572296],[44.5989035,37.580766],[44.6091733,37.5865513],[44.614455,37.600629],[44.607569,37.610862],[44.5952714,37.6162937],[44.5809446,37.6373944],[44.56816,37.644762],[44.574348,37.665861],[44.589563,37.671031],[44.6247287,37.6981466],[44.620469,37.7271957],[44.5947731,37.7478413],[44.5878635,37.7633638],[44.5685997,37.7688077],[44.5573149,37.7794383],[44.5303121,37.7830167],[44.5177444,37.7767431],[44.4939492,37.7704602],[44.4807239,37.7718249],[44.4727237,37.7638062],[44.4449506,37.7709171],[44.4499336,37.7875453],[44.4475991,37.801504],[44.4237529,37.799449],[44.4215712,37.8043708],[44.3995075,37.79737],[44.3760296,37.7852428],[44.3507458,37.7787322],[44.3111098,37.7772804],[44.2903669,37.7641662],[44.2653039,37.7575605],[44.2332412,37.7368434],[44.2119205,37.7298594],[44.1803153,37.7289226],[44.1320937,37.7335281],[44.1126659,37.7234212],[44.0953426,37.7200905],[44.0864062,37.7335301],[44.0854789,37.7280777],[44.0689247,37.7121029],[44.0540035,37.7119104],[44.0405434,37.7048501],[44.0203246,37.7104982],[43.9995223,37.6952291],[43.9675041,37.6940111],[43.9481214,37.6969518],[43.9244552,37.6896832],[43.9075207,37.6877948],[43.8963703,37.6764131],[43.888279,37.6599887],[43.94966,37.6548797],[43.9529463,37.6452882],[43.9550728,37.6185478],[43.967187,37.6149238],[43.989418,37.5988436],[43.9996636,37.5784192],[43.9985681,37.5635569],[43.9917538,37.5376174],[43.9796718,37.5117456],[43.9655761,37.492895],[43.9587296,37.4702041],[43.9297327,37.429599],[43.9176507,37.3912118],[43.9075823,37.3726509],[43.9007678,37.3497955],[43.9147801,37.3208681],[43.9115774,37.3043113],[43.9016492,37.291318],[43.8990871,37.2788322],[43.8984466,37.242892],[43.9132331,37.2231192]]]},"properties":{"@id":"relation/1381573","admin_level":"6","boundary":"administrative","name":"Yüksekova","name:ar":"يوكسكوفا","name:az-Arab":"یۆکسک‌اوْوا","name:ce":"Йуьксекова","name:de":"Yüksekova","name:el":"Γκεβέρ","name:en":"Yüksekova","name:fa":"یوکسک‌اوا","name:hy":"Գավառ","name:ku":"Gever","name:ota":"یوكسك اووه","name:ru":"Юксекова","name:sq":"Jyksekova","name:tr":"Yüksekova","name:tr:suffix":"İlçesi","name:tt":"Юксекова","name:ur":"یوکسیکووا","name:zh":"于克塞科瓦","network":"TR30-districts","type":"boundary","wikidata":"Q2176882","wikipedia":"tr:Yüksekova"},"id":"relation/1381573"},
{"type":"Feature","geometry":{"type":"Polygon","coordinates":[[[44.4713152,37.1693282],[44.5082892,37.1694509],[44.5235027,37.1662534],[44.5365704,37.18465],[44.5580924,37.1974361],[44.6016944,37.2042898],[44.6226757,37.1879866],[44.6481201,37.1891342],[44.6744018,37.1711364],[44.6942469,37.1771382],[44.7000199,37.1718525],[44.7160365,37.1759131],[44.7415814,37.1655908],[44.7693221,37.1636089],[44.7711271,37.1543838],[44.785085,37.148463],[44.785212,37.166352],[44.766125,37.183106],[44.76805,37.192626],[44.760679,37.209546],[44.762648,37.2234991],[44.7575679,37.2283412],[44.7683538,37.2446406],[44.783892,37.254655],[44.8009182,37.26047],[44.802979,37.269829],[44.815136,37.279599],[44.798139,37.310903],[44.76695,37.330069],[44.743215,37.334624],[44.7244089,37.3548696],[44.720774,37.3726801],[44.7110653,37.3801957],[44.686629,37.3847342],[44.6573683,37.3859048],[44.6519494,37.4027744],[44.635457,37.417646],[44.630286,37.431989],[44.6190122,37.4371387],[44.587315,37.439619],[44.5864544,37.4654318],[44.5682124,37.4703397],[44.5453801,37.4599415],[44.533964,37.4588696],[44.4766961,37.4427071],[44.4591085,37.4346804],[44.4059849,37.4225092],[44.3629555,37.3979396],[44.3431924,37.3922301],[44.2954131,37.3820442],[44.2778678,37.3718197],[44.254708,37.3348138],[44.2179799,37.3061637],[44.1988028,37.2882841],[44.212308,37.2804926],[44.2274489,37.2829271],[44.2470877,37.2608948],[44.2464172,37.2556453],[44.2683682,37.2443999],[44.2709606,37.2130217],[44.265496,37.1989337],[44.2756029,37.1966546],[44.2957615,37.1846392],[44.311472,37.1794691],[44.3307167,37.1979759],[44.3580041,37.1931052],[44.4176875,37.2066386],[44.428044,37.2154886],[44.4361057,37.211825],[44.4404924,37.1910517],[44.4502577,37.171201],[44.4713152,37.1693282]]]},"properties":{"@id":"relation/1381574","admin_level":"6","alt_name:arc":"ܫܡܙܕܢ;ܫܡܙܕܝܢ;ܫܲܡܣܕܝܼܢ","alt_name:syc":"ܫܡܙܕܢ;ܫܡܙܕܝܢ;ܫܲܡܣܕܝܼܢ","boundary":"administrative","name":"Şemdinli","name:ar":"شمدينلي","name:arc":"ܫܡܣܕܝܢ","name:azb":"شمدینلی","name:ce":"Шемдинли","name:ckb":"شەمزینان","name:de":"Şemdinli","name:en":"Şemdinli","name:fa":"شمدینان","name:kmr":"شەمزینان","name:ku":"Şemzînan","name:ota":"شمدینلی","name:pnb":"شمدنلی","name:ru":"Шемдинли","name:syc":"ܫܡܣܕܝܢ","name:tr":"Şemdinli","name:tr:suffix":"İlçesi","name:tt":"Шемдинли","name:ur":"شمدینلی","name:zh":"谢姆丁利","name:zza":"Şemzînan","network":"TR30-districts","type":"boundary","wikidata":"Q388797","wikipedia":"tr:Şemdinli"},"id":"relation/1381574"},
{"type":"Feature","geometry":{"type":"Polygon","coordinates":[[[43.3071205,37.5103768],[43.3064872,37.4902144],[43.3156351,37.4635848],[43.3419272,37.401767],[43.3345412,37.3786151],[43.3364705,37.3648175],[43.3314006,37.3445397],[43.3313508,37.3270843],[43.361088,37.327591],[43.371077,37.317676],[43.372269,37.307705],[43.389378,37.305846],[43.389378,37.298494],[43.420761,37.280692],[43.459189,37.271143],[43.476223,37.263087],[43.47462,37.25306],[43.497994,37.242537],[43.513385,37.239574],[43.5237836,37.2476384],[43.556003,37.251448],[43.564424,37.257459],[43.578099,37.250037],[43.584474,37.238424],[43.595843,37.232635],[43.612372,37.237144],[43.620515,37.221483],[43.639544,37.218984],[43.6510575,37.2247832],[43.677843,37.227028],[43.69405,37.235316],[43.719852,37.235925],[43.74525,37.230624],[43.747508,37.235133],[43.771294,37.228978],[43.806368,37.225931],[43.8147173,37.2126161],[43.8331451,37.1952357],[43.840071,37.201799],[43.843377,37.216546],[43.854262,37.224408],[43.88474,37.224773],[43.894738,37.219533],[43.9132331,37.2231192],[43.8984466,37.242892],[43.8990871,37.2788322],[43.9016492,37.291318],[43.9115774,37.3043113],[43.9147801,37.3208681],[43.9007678,37.3497955],[43.8738758,37.366218],[43.8514111,37.3713005],[43.8355055,37.3693457],[43.8264868,37.3759916],[43.8094333,37.3729945],[43.7674555,37.3776856],[43.7600766,37.3763826],[43.7121957,37.3874577],[43.6951422,37.3869366],[43.6798925,37.3913662],[43.6234848,37.3864154],[43.5967568,37.3793795],[43.5810151,37.369476],[43.5637976,37.3643935],[43.5570746,37.3570948],[43.5393652,37.3491437],[43.5164086,37.3492741],[43.5043218,37.3565297],[43.5181784,37.3768577],[43.4934821,37.3955035],[43.4535517,37.3954523],[43.4394491,37.4172101],[43.4682572,37.4348939],[43.4711365,37.4521868],[43.4621176,37.4667507],[43.4251546,37.4625587],[43.3875221,37.4678469],[43.3071205,37.5103768]]]},"properties":{"@id":"relation/1776630","admin_level":"6","boundary":"administrative","name":"Çukurca","name:ar":"تشوكورجه","name:ce":"Чукурджа","name:de":"Çukurca","name:en":"Çukurca","name:fa":"چوکورجه","name:hy":"Չալ","name:ku":"Çelê","name:ru":"Чукурджа","name:tr":"Çukurca","name:tr:suffix":"İlçesi","name:tt":"Чукурҗа","name:ur":"چوکورجا","name:zh":"丘庫爾賈","network":"TR30-districts","old_name":"Çal","type":"boundary","wikidata":"Q272939","wikipedia":"tr:Çukurca"},"id":"relation/1776630"},
{"type":"Feature","geometry":{"type":"Polygon","coordinates":[[[44.366022,37.024755],[44.3398618,37.0356106],[44.3077068,37.0394808],[44.2822439,37.0290285],[44.2648371,37.0327552],[44.2386408,37.0308909],[44.2183848,37.0360441],[44.2307517,37.0242052],[44.2360781,37.0103473],[44.2565081,36.9923671],[44.2515941,36.982367],[44.2674521,36.9761189],[44.2896361,36.9756309],[44.3055197,36.9714611],[44.3160733,36.9852594],[44.32616,36.9888954],[44.3307877,36.9994089],[44.3513684,37.0201673],[44.366022,37.024755]]]},"properties":{"@id":"relation/9218831","admin_level":"8","boundary":"administrative","name":"Anadağ Köyü","type":"boundary","@relations":[{"role":"subarea","rel":9218922,"reltags":{"admin_level":"6","boundary":"administrative","name":"Derecik","name:ce":"Дереджик","name:de":"Derecik","name:en":"Derecik","name:ku":"Rûbarok","name:tr":"Derecik","name:tr:suffix":"İlçesi","name:tt":"Дереҗик","type":"boundary","wikidata":"Q1199986","wikipedia":"tr:Derecik, Hakkâri"}}]},"id":"relation/9218831"},
{"type":"Feature","geometry":{"type":"Polygon","coordinates":[[[44.2386408,37.0308909],[44.2648371,37.0327552],[44.2822439,37.0290285],[44.3077068,37.0394808],[44.3398618,37.0356106],[44.338071,37.0450486],[44.3226927,37.0538183],[44.3060505,37.0664815],[44.2792469,37.0771079],[44.2747095,37.0688791],[44.266719,37.0636465],[44.2386408,37.0308909]]]},"properties":{"@id":"relation/9218910","admin_level":"8","boundary":"administrative","name":"Güney Mahallesi","type":"boundary","@relations":[{"role":"subarea","rel":9218922,"reltags":{"admin_level":"6","boundary":"administrative","name":"Derecik","name:ce":"Дереджик","name:de":"Derecik","name:en":"Derecik","name:ku":"Rûbarok","name:tr":"Derecik","name:tr:suffix":"İlçesi","name:tt":"Дереҗик","type":"boundary","wikidata":"Q1199986","wikipedia":"tr:Derecik, Hakkâri"}}]},"id":"relation/9218910"},
{"type":"Feature","geometry":{"type":"Polygon","coordinates":[[[44.366022,37.024755],[44.3497873,37.0395768],[44.3586021,37.0522637],[44.3842551,37.0591158],[44.3997084,37.0570601],[44.414032,37.053263],[44.4193664,37.0609976],[44.4410809,37.0660377],[44.4493872,37.0727453],[44.4645414,37.0737046],[44.5169772,37.1022933],[44.5150778,37.1134759],[44.5329409,37.1250398],[44.5525272,37.1247631],[44.5592121,37.1488258],[44.5760575,37.1635133],[44.6008165,37.1668379],[44.6005444,37.1710445],[44.6222541,37.1834776],[44.6226757,37.1879866],[44.6016944,37.2042898],[44.5580924,37.1974361],[44.5365704,37.18465],[44.5235027,37.1662534],[44.5082892,37.1694509],[44.4713152,37.1693282],[44.4502577,37.171201],[44.4404924,37.1910517],[44.4361057,37.211825],[44.428044,37.2154886],[44.4176875,37.2066386],[44.3580041,37.1931052],[44.3307167,37.1979759],[44.311472,37.1794691],[44.2957615,37.1846392],[44.2756029,37.1966546],[44.2808924,37.1769399],[44.2726428,37.1648118],[44.2470143,37.1572813],[44.2299253,37.1603525],[44.2219479,37.1580838],[44.2141207,37.1378295],[44.2045986,37.1306753],[44.1982682,37.1156066],[44.1876692,37.1099286],[44.1861556,37.0983312],[44.1961196,37.0931427],[44.1942432,37.0789015],[44.2123542,37.0691675],[44.2294022,37.0530179],[44.2352247,37.0420915],[44.2183848,37.0360441],[44.2307517,37.0242052],[44.2360781,37.0103473],[44.2565081,36.9923671],[44.2515941,36.982367],[44.2674521,36.9761189],[44.2896361,36.9756309],[44.3055197,36.9714611],[44.3160733,36.9852594],[44.32616,36.9888954],[44.3307877,36.9994089],[44.3513684,37.0201673],[44.366022,37.024755]]]},"properties":{"@id":"relation/9218922","admin_level":"6","boundary":"administrative","name":"Derecik","name:ce":"Дереджик","name:de":"Derecik","name:en":"Derecik","name:ku":"Rûbarok","name:tr":"Derecik","name:tr:suffix":"İlçesi","name:tt":"Дереҗик","type":"boundary","wikidata":"Q1199986","wikipedia":"tr:Derecik, Hakkâri"},"id":"relation/9218922"},
{"type":"Feature","geometry":{"type":"Polygon","coordinates":[[[44.3488413,37.0787065],[44.3237838,37.09393],[44.3194221,37.0917891],[44.3084179,37.0805749],[44.3060505,37.0664815],[44.3226927,37.0538183],[44.3318801,37.0529765],[44.3421154,37.0608193],[44.3488413,37.0787065]]]},"properties":{"@id":"relation/9219002","admin_level":"8","boundary":"administrative","name":"Orta Mahallesi","type":"boundary","@relations":[{"role":"subarea","rel":9218922,"reltags":{"admin_level":"6","boundary":"administrative","name":"Derecik","name:ce":"Дереджик","name:de":"Derecik","name:en":"Derecik","name:ku":"Rûbarok","name:tr":"Derecik","name:tr:suffix":"İlçesi","name:tt":"Дереҗик","type":"boundary","wikidata":"Q1199986","wikipedia":"tr:Derecik, Hakkâri"}}]},"id":"relation/9219002"},
{"type":"Feature","geometry":{"type":"Polygon","coordinates":[[[44.2299253,37.1603525],[44.2219479,37.1580838],[44.2141207,37.1378295],[44.2045986,37.1306753],[44.1982682,37.1156066],[44.1876692,37.1099286],[44.1861556,37.0983312],[44.1961196,37.0931427],[44.1942432,37.0789015],[44.2123542,37.0691675],[44.2294022,37.0530179],[44.2421209,37.0644353],[44.2629777,37.069452],[44.2747095,37.0688791],[44.2792469,37.0771079],[44.2786459,37.0983816],[44.2729657,37.1143949],[44.2497187,37.1337333],[44.2484177,37.1439357],[44.2299253,37.1603525]]]},"properties":{"@id":"relation/9219669","admin_level":"8","boundary":"administrative","name":"Balkaya Mahallesi","type":"boundary","@relations":[{"role":"subarea","rel":9218922,"reltags":{"admin_level":"6","boundary":"administrative","name":"Derecik","name:ce":"Дереджик","name:de":"Derecik","name:en":"Derecik","name:ku":"Rûbarok","name:tr":"Derecik","name:tr:suffix":"İlçesi","name:tt":"Дереҗик","type":"boundary","wikidata":"Q1199986","wikipedia":"tr:Derecik, Hakkâri"}}]},"id":"relation/9219669"},
{"type":"Feature","geometry":{"type":"Polygon","coordinates":[[[44.3194221,37.0917891],[44.3237838,37.09393],[44.3488413,37.0787065],[44.3456871,37.0872998],[44.3555324,37.1027419],[44.3572276,37.130771],[44.3125426,37.1415353],[44.3038147,37.1479165],[44.3031566,37.1281874],[44.3127948,37.1141125],[44.3121039,37.0936864],[44.3194221,37.0917891]]]},"properties":{"@id":"relation/9219817","admin_level":"8","boundary":"administrative","name":"Vapurtepe Mahallesi","type":"boundary","@relations":[{"role":"subarea","rel":9218922,"reltags":{"admin_level":"6","boundary":"administrative","name":"Derecik","name:ce":"Дереджик","name:de":"Derecik","name:en":"Derecik","name:ku":"Rûbarok","name:tr":"Derecik","name:tr:suffix":"İlçesi","name:tt":"Дереҗик","type":"boundary","wikidata":"Q1199986","wikipedia":"tr:Derecik, Hakkâri"}}]},"id":"relation/9219817"},
{"type":"Feature","geometry":{"type":"Polygon","coordinates":[[[44.3194221,37.0917891],[44.3121039,37.0936864],[44.2786459,37.0983816],[44.2857888,37.0861591],[44.3084179,37.0805749],[44.3194221,37.0917891]]]},"properties":{"@id":"relation/9219818","admin_level":"8","boundary":"administrative","name":"Merkez Mahallesi","type":"boundary","@relations":[{"role":"subarea","rel":9218922,"reltags":{"admin_level":"6","boundary":"administrative","name":"Derecik","name:ce":"Дереджик","name:de":"Derecik","name:en":"Derecik","name:ku":"Rûbarok","name:tr":"Derecik","name:tr:suffix":"İlçesi","name:tt":"Дереҗик","type":"boundary","wikidata":"Q1199986","wikipedia":"tr:Derecik, Hakkâri"}}]},"id":"relation/9219818"},
{"type":"Feature","geometry":{"type":"Polygon","coordinates":[[[44.3998111,37.1531047],[44.4121536,37.1574582],[44.4212302,37.1662478],[44.4399452,37.1652571],[44.4502577,37.171201],[44.4404924,37.1910517],[44.4361057,37.211825],[44.428044,37.2154886],[44.4176875,37.2066386],[44.3580041,37.1931052],[44.3307167,37.1979759],[44.311472,37.1794691],[44.2957615,37.1846392],[44.2756029,37.1966546],[44.2808924,37.1769399],[44.2726428,37.1648118],[44.2767083,37.158758],[44.3038147,37.1479165],[44.3125426,37.1415353],[44.3572276,37.130771],[44.3777053,37.1275921],[44.3698594,37.1511853],[44.3932176,37.1476872],[44.3998111,37.1531047]]]},"properties":{"@id":"relation/9219880","admin_level":"8","boundary":"administrative","name":"Ortaklar Köyü","type":"boundary","@relations":[{"role":"subarea","rel":9218922,"reltags":{"admin_level":"6","boundary":"administrative","name":"Derecik","name:ce":"Дереджик","name:de":"Derecik","name:en":"Derecik","name:ku":"Rûbarok","name:tr":"Derecik","name:tr:suffix":"İlçesi","name:tt":"Дереҗик","type":"boundary","wikidata":"Q1199986","wikipedia":"tr:Derecik, Hakkâri"}}]},"id":"relation/9219880"},
{"type":"Feature","geometry":{"type":"Polygon","coordinates":[[[44.4101806,37.1140176],[44.4011877,37.0946218],[44.375499,37.0887243],[44.3836106,37.0648795],[44.3997084,37.0570601],[44.414032,37.053263],[44.4193664,37.0609976],[44.4410809,37.0660377],[44.4493872,37.0727453],[44.4645414,37.0737046],[44.5169772,37.1022933],[44.5150778,37.1134759],[44.5329409,37.1250398],[44.5525272,37.1247631],[44.5592121,37.1488258],[44.5760575,37.1635133],[44.6008165,37.1668379],[44.6005444,37.1710445],[44.6222541,37.1834776],[44.6226757,37.1879866],[44.6016944,37.2042898],[44.5580924,37.1974361],[44.5365704,37.18465],[44.5235027,37.1662534],[44.5082892,37.1694509],[44.4713152,37.1693282],[44.4563052,37.1366962],[44.4251271,37.1243789],[44.4101806,37.1140176]]]},"properties":{"@id":"relation/9220682","admin_level":"8","boundary":"administrative","name":"Gelişen Köyü","type":"boundary","@relations":[{"role":"subarea","rel":9218922,"reltags":{"admin_level":"6","boundary":"administrative","name":"Derecik","name:ce":"Дереджик","name:de":"Derecik","name:en":"Derecik","name:ku":"Rûbarok","name:tr":"Derecik","name:tr:suffix":"İlçesi","name:tt":"Дереҗик","type":"boundary","wikidata":"Q1199986","wikipedia":"tr:Derecik, Hakkâri"}}]},"id":"relation/9220682"},
{"type":"Feature","geometry":{"type":"Polygon","coordinates":[[[44.3555324,37.1027419],[44.3456871,37.0872998],[44.3488413,37.0787065],[44.3421154,37.0608193],[44.3318801,37.0529765],[44.3226927,37.0538183],[44.338071,37.0450486],[44.3398618,37.0356106],[44.366022,37.024755],[44.3497873,37.0395768],[44.3586021,37.0522637],[44.3842551,37.0591158],[44.3997084,37.0570601],[44.3836106,37.0648795],[44.375499,37.0887243],[44.3555324,37.1027419]]]},"properties":{"@id":"relation/9220754","admin_level":"8","boundary":"administrative","name":"Hacıbey Mahallesi","type":"boundary","@relations":[{"role":"subarea","rel":9218922,"reltags":{"admin_level":"6","boundary":"administrative","name":"Derecik","name:ce":"Дереджик","name:de":"Derecik","name:en":"Derecik","name:ku":"Rûbarok","name:tr":"Derecik","name:tr:suffix":"İlçesi","name:tt":"Дереҗик","type":"boundary","wikidata":"Q1199986","wikipedia":"tr:Derecik, Hakkâri"}}]},"id":"relation/9220754"},
{"type":"Feature","geometry":{"type":"Polygon","coordinates":[[[44.3572276,37.130771],[44.3555324,37.1027419],[44.375499,37.0887243],[44.4011877,37.0946218],[44.4101806,37.1140176],[44.4020068,37.1269827],[44.3998111,37.1531047],[44.3932176,37.1476872],[44.3698594,37.1511853],[44.3777053,37.1275921],[44.3572276,37.130771]]]},"properties":{"@id":"relation/9220977","admin_level":"8","boundary":"administrative","name":"Uslu Köyü","type":"boundary","@relations":[{"role":"subarea","rel":9218922,"reltags":{"admin_level":"6","boundary":"administrative","name":"Derecik","name:ce":"Дереджик","name:de":"Derecik","name:en":"Derecik","name:ku":"Rûbarok","name:tr":"Derecik","name:tr:suffix":"İlçesi","name:tt":"Дереҗик","type":"boundary","wikidata":"Q1199986","wikipedia":"tr:Derecik, Hakkâri"}}]},"id":"relation/9220977"},
{"type":"Feature","geometry":{"type":"Polygon","coordinates":[[[44.2747095,37.0688791],[44.2629777,37.069452],[44.2421209,37.0644353],[44.2294022,37.0530179],[44.2352247,37.0420915],[44.2183848,37.0360441],[44.2386408,37.0308909],[44.266719,37.0636465],[44.2747095,37.0688791]]]},"properties":{"@id":"relation/12938877","admin_level":"8","boundary":"administrative","name":"Rize Mahallesi","type":"boundary","@relations":[{"role":"subarea","rel":9218922,"reltags":{"admin_level":"6","boundary":"administrative","name":"Derecik","name:ce":"Дереджик","name:de":"Derecik","name:en":"Derecik","name:ku":"Rûbarok","name:tr":"Derecik","name:tr:suffix":"İlçesi","name:tt":"Дереҗик","type":"boundary","wikidata":"Q1199986","wikipedia":"tr:Derecik, Hakkâri"}}]},"id":"relation/12938877"},
{"type":"Feature","geometry":{"type":"Polygon","coordinates":[[[44.3121039,37.0936864],[44.3127948,37.1141125],[44.3031566,37.1281874],[44.3038147,37.1479165],[44.2767083,37.158758],[44.2726428,37.1648118],[44.2470143,37.1572813],[44.2299253,37.1603525],[44.2484177,37.1439357],[44.2497187,37.1337333],[44.2729657,37.1143949],[44.2786459,37.0983816],[44.3121039,37.0936864]]]},"properties":{"@id":"relation/12938878","admin_level":"8","boundary":"administrative","name":"Üçyan Mahallesi","type":"boundary","@relations":[{"role":"subarea","rel":9218922,"reltags":{"admin_level":"6","boundary":"administrative","name":"Derecik","name:ce":"Дереджик","name:de":"Derecik","name:en":"Derecik","name:ku":"Rûbarok","name:tr":"Derecik","name:tr:suffix":"İlçesi","name:tt":"Дереҗик","type":"boundary","wikidata":"Q1199986","wikipedia":"tr:Derecik, Hakkâri"}}]},"id":"relation/12938878"},
{"type":"Feature","geometry":{"type":"Polygon","coordinates":[[[44.2786459,37.0983816],[44.2792469,37.0771079],[44.3060505,37.0664815],[44.3084179,37.0805749],[44.2857888,37.0861591],[44.2786459,37.0983816]]]},"properties":{"@id":"relation/13114067","admin_level":"8","boundary":"administrative","name":"Gürmeşe Mahallesi","type":"boundary","@relations":[{"role":"subarea","rel":9218922,"reltags":{"admin_level":"6","boundary":"administrative","name":"Derecik","name:ce":"Дереджик","name:de":"Derecik","name:en":"Derecik","name:ku":"Rûbarok","name:tr":"Derecik","name:tr:suffix":"İlçesi","name:tt":"Дереҗик","type":"boundary","wikidata":"Q1199986","wikipedia":"tr:Derecik, Hakkâri"}}]},"id":"relation/13114067"},
{"type":"Feature","geometry":{"type":"Polygon","coordinates":[[[43.741994,37.577683],[43.737026,37.586069],[43.735337,37.586392],[43.7351424,37.5779534],[43.734536,37.575419],[43.73873,37.571733],[43.742887,37.575871],[43.741994,37.577683]]]},"properties":{"@id":"relation/13915453","admin_level":"8","boundary":"administrative","name":"Bulak Mahallesi","type":"boundary","@relations":[{"role":"subarea","rel":1381572,"reltags":{"admin_level":"6","alt_name":"Hakkari","boundary":"administrative","name":"Hakkari Merkez","name:ar":"هكاري","name:bg":"Хаккяри","name:ce":"ХӀаккаьри","name:ckb":"جۆلەمێرگ","name:el":"Χακκιάρι","name:fa":"حکاری","name:hy":"Հաքյարի","name:ja":"ハッキャリ","name:ka":"ჰაქიარი","name:ko":"하카리","name:ku":"Colemêrg","name:ota":"جوله مرك","name:pa":"ਹੱਕਾਰੀ","name:ru":"Хаккяри","name:tg":"Ҳаккори","name:th":"ฮักชารี","name:tr":"Hakkari Merkez","name:tr:suffix":"İlçesi","name:uk":"Хаккярі","name:ur":"حکاری","name:zh":"哈卡里","name:zza":"Colemerge","network":"TR30-districts","old_name":"Çölemerik","type":"boundary","wikidata":"Q206895","wikipedia":"tr:Hakkâri"}}]},"id":"relation/13915453"},
{"type":"Feature","geometry":{"type":"Polygon","coordinates":[[[43.739386,37.567367],[43.742887,37.575871],[43.73873,37.571733],[43.739386,37.567367]]]},"properties":{"@id":"relation/13915454","admin_level":"8","boundary":"administrative","name":"Halife Derviş Mahallesi","type":"boundary","@relations":[{"role":"subarea","rel":1381572,"reltags":{"admin_level":"6","alt_name":"Hakkari","boundary":"administrative","name":"Hakkari Merkez","name:ar":"هكاري","name:bg":"Хаккяри","name:ce":"ХӀаккаьри","name:ckb":"جۆلەمێرگ","name:el":"Χακκιάρι","name:fa":"حکاری","name:hy":"Հաքյարի","name:ja":"ハッキャリ","name:ka":"ჰაქიარი","name:ko":"하카리","name:ku":"Colemêrg","name:ota":"جوله مرك","name:pa":"ਹੱਕਾਰੀ","name:ru":"Хаккяри","name:tg":"Ҳаккори","name:th":"ฮักชารี","name:tr":"Hakkari Merkez","name:tr:suffix":"İlçesi","name:uk":"Хаккярі","name:ur":"حکاری","name:zh":"哈卡里","name:zza":"Colemerge","network":"TR30-districts","old_name":"Çölemerik","type":"boundary","wikidata":"Q206895","wikipedia":"tr:Hakkâri"}}]},"id":"relation/13915454"},
{"type":"Feature","geometry":{"type":"Polygon","coordinates":[[[43.726947,37.581373],[43.7351424,37.5779534],[43.735337,37.586392],[43.728838,37.586155],[43.723037,37.585383],[43.726947,37.581373]]]},"properties":{"@id":"relation/13915455","admin_level":"8","boundary":"administrative","name":"Gazi Mahallesi","type":"boundary","@relations":[{"role":"subarea","rel":1381572,"reltags":{"admin_level":"6","alt_name":"Hakkari","boundary":"administrative","name":"Hakkari Merkez","name:ar":"هكاري","name:bg":"Хаккяри","name:ce":"ХӀаккаьри","name:ckb":"جۆلەمێرگ","name:el":"Χακκιάρι","name:fa":"حکاری","name:hy":"Հաքյարի","name:ja":"ハッキャリ","name:ka":"ჰაქიარი","name:ko":"하카리","name:ku":"Colemêrg","name:ota":"جوله مرك","name:pa":"ਹੱਕਾਰੀ","name:ru":"Хаккяри","name:tg":"Ҳаккори","name:th":"ฮักชารี","name:tr":"Hakkari Merkez","name:tr:suffix":"İlçesi","name:uk":"Хаккярі","name:ur":"حکاری","name:zh":"哈卡里","name:zza":"Colemerge","network":"TR30-districts","old_name":"Çölemerik","type":"boundary","wikidata":"Q206895","wikipedia":"tr:Hakkâri"}}]},"id":"relation/13915455"},
{"type":"Feature","geometry":{"type":"Polygon","coordinates":[[[43.73873,37.571733],[43.734536,37.575419],[43.72965,37.571853],[43.739386,37.567367],[43.73873,37.571733]]]},"properties":{"@id":"relation/13915456","admin_level":"8","boundary":"administrative","name":"Dağgöl Mahallesi","type":"boundary","@relations":[{"role":"subarea","rel":1381572,"reltags":{"admin_level":"6","alt_name":"Hakkari","boundary":"administrative","name":"Hakkari Merkez","name:ar":"هكاري","name:bg":"Хаккяри","name:ce":"ХӀаккаьри","name:ckb":"جۆلەمێرگ","name:el":"Χακκιάρι","name:fa":"حکاری","name:hy":"Հաքյարի","name:ja":"ハッキャリ","name:ka":"ჰაქიარი","name:ko":"하카리","name:ku":"Colemêrg","name:ota":"جوله مرك","name:pa":"ਹੱਕਾਰੀ","name:ru":"Хаккяри","name:tg":"Ҳаккори","name:th":"ฮักชารี","name:tr":"Hakkari Merkez","name:tr:suffix":"İlçesi","name:uk":"Хаккярі","name:ur":"حکاری","name:zh":"哈卡里","name:zza":"Colemerge","network":"TR30-districts","old_name":"Çölemerik","type":"boundary","wikidata":"Q206895","wikipedia":"tr:Hakkâri"}}]},"id":"relation/13915456"},
{"type":"Feature","geometry":{"type":"Polygon","coordinates":[[[43.737026,37.586069],[43.7390107,37.6003222],[43.7259867,37.5913742],[43.728838,37.586155],[43.735337,37.586392],[43.737026,37.586069]]]},"properties":{"@id":"relation/13915457","admin_level":"8","boundary":"administrative","name":"Yeni Mahalle","type":"boundary","@relations":[{"role":"subarea","rel":1381572,"reltags":{"admin_level":"6","alt_name":"Hakkari","boundary":"administrative","name":"Hakkari Merkez","name:ar":"هكاري","name:bg":"Хаккяри","name:ce":"ХӀаккаьри","name:ckb":"جۆلەمێرگ","name:el":"Χακκιάρι","name:fa":"حکاری","name:hy":"Հաքյարի","name:ja":"ハッキャリ","name:ka":"ჰაქიარი","name:ko":"하카리","name:ku":"Colemêrg","name:ota":"جوله مرك","name:pa":"ਹੱਕਾਰੀ","name:ru":"Хаккяри","name:tg":"Ҳаккори","name:th":"ฮักชารี","name:tr":"Hakkari Merkez","name:tr:suffix":"İlçesi","name:uk":"Хаккярі","name:ur":"حکاری","name:zh":"哈卡里","name:zza":"Colemerge","network":"TR30-districts","old_name":"Çölemerik","type":"boundary","wikidata":"Q206895","wikipedia":"tr:Hakkâri"}}]},"id":"relation/13915457"},
{"type":"Feature","geometry":{"type":"Polygon","coordinates":[[[43.741994,37.577683],[43.770632,37.59347],[43.7564307,37.6039512],[43.7390107,37.6003222],[43.737026,37.586069],[43.741994,37.577683]]]},"properties":{"@id":"relation/13915458","admin_level":"8","boundary":"administrative","name":"Berçelan Mahallesi","type":"boundary","@relations":[{"role":"subarea","rel":1381572,"reltags":{"admin_level":"6","alt_name":"Hakkari","boundary":"administrative","name":"Hakkari Merkez","name:ar":"هكاري","name:bg":"Хаккяри","name:ce":"ХӀаккаьри","name:ckb":"جۆلەمێرگ","name:el":"Χακκιάρι","name:fa":"حکاری","name:hy":"Հաքյարի","name:ja":"ハッキャリ","name:ka":"ჰაქიარი","name:ko":"하카리","name:ku":"Colemêrg","name:ota":"جوله مرك","name:pa":"ਹੱਕਾਰੀ","name:ru":"Хаккяри","name:tg":"Ҳаккори","name:th":"ฮักชารี","name:tr":"Hakkari Merkez","name:tr:suffix":"İlçesi","name:uk":"Хаккярі","name:ur":"حکاری","name:zh":"哈卡里","name:zza":"Colemerge","network":"TR30-districts","old_name":"Çölemerik","type":"boundary","wikidata":"Q206895","wikipedia":"tr:Hakkâri"}}]},"id":"relation/13915458"},
{"type":"Feature","geometry":{"type":"Polygon","coordinates":[[[43.72965,37.571853],[43.734536,37.575419],[43.7351424,37.5779534],[43.726947,37.581373],[43.72965,37.571853]]]},"properties":{"@id":"relation/13915459","admin_level":"8","boundary":"administrative","name":"Pehlivan Mahallesi","type":"boundary","@relations":[{"role":"subarea","rel":1381572,"reltags":{"admin_level":"6","alt_name":"Hakkari","boundary":"administrative","name":"Hakkari Merkez","name:ar":"هكاري","name:bg":"Хаккяри","name:ce":"ХӀаккаьри","name:ckb":"جۆلەمێرگ","name:el":"Χακκιάρι","name:fa":"حکاری","name:hy":"Հաքյարի","name:ja":"ハッキャリ","name:ka":"ჰაქიარი","name:ko":"하카리","name:ku":"Colemêrg","name:ota":"جوله مرك","name:pa":"ਹੱਕਾਰੀ","name:ru":"Хаккяри","name:tg":"Ҳаккори","name:th":"ฮักชารี","name:tr":"Hakkari Merkez","name:tr:suffix":"İlçesi","name:uk":"Хаккярі","name:ur":"حکاری","name:zh":"哈卡里","name:zza":"Colemerge","network":"TR30-districts","old_name":"Çölemerik","type":"boundary","wikidata":"Q206895","wikipedia":"tr:Hakkâri"}}]},"id":"relation/13915459"},
{"type":"Feature","geometry":{"type":"Polygon","coordinates":[[[43.726947,37.581373],[43.723037,37.585383],[43.714091,37.576011],[43.72965,37.571853],[43.726947,37.581373]]]},"properties":{"@id":"relation/13915460","admin_level":"8","boundary":"administrative","name":"Karşıyaka Mahallesi","type":"boundary","@relations":[{"role":"subarea","rel":1381572,"reltags":{"admin_level":"6","alt_name":"Hakkari","boundary":"administrative","name":"Hakkari Merkez","name:ar":"هكاري","name:bg":"Хаккяри","name:ce":"ХӀаккаьри","name:ckb":"جۆلەمێرگ","name:el":"Χακκιάρι","name:fa":"حکاری","name:hy":"Հաքյարի","name:ja":"ハッキャリ","name:ka":"ჰაქიარი","name:ko":"하카리","name:ku":"Colemêrg","name:ota":"جوله مرك","name:pa":"ਹੱਕਾਰੀ","name:ru":"Хаккяри","name:tg":"Ҳаккори","name:th":"ฮักชารี","name:tr":"Hakkari Merkez","name:tr:suffix":"İlçesi","name:uk":"Хаккярі","name:ur":"حکاری","name:zh":"哈卡里","name:zza":"Colemerge","network":"TR30-districts","old_name":"Çölemerik","type":"boundary","wikidata":"Q206895","wikipedia":"tr:Hakkâri"}}]},"id":"relation/13915460"},
{"type":"Feature","geometry":{"type":"Polygon","coordinates":[[[44.2513204,37.5661811],[44.2604291,37.5653052],[44.278754,37.5711602],[44.2632508,37.5744468],[44.2609334,37.5826945],[44.250741,37.5827285],[44.2513204,37.5661811]]]},"properties":{"@id":"relation/16283562","admin_level":"8","boundary":"administrative","name":"Esen Yurt Mahallesi","type":"boundary","@relations":[{"role":"subarea","rel":1381573,"reltags":{"admin_level":"6","boundary":"administrative","name":"Yüksekova","name:ar":"يوكسكوفا","name:az-Arab":"یۆکسک‌اوْوا","name:ce":"Йуьксекова","name:de":"Yüksekova","name:el":"Γκεβέρ","name:en":"Yüksekova","name:fa":"یوکسک‌اوا","name:hy":"Գավառ","name:ku":"Gever","name:ota":"یوكسك اووه","name:ru":"Юксекова","name:sq":"Jyksekova","name:tr":"Yüksekova","name:tr:suffix":"İlçesi","name:tt":"Юксекова","name:ur":"یوکسیکووا","name:zh":"于克塞科瓦","network":"TR30-districts","type":"boundary","wikidata":"Q2176882","wikipedia":"tr:Yüksekova"}}]},"id":"relation/16283562"},
{"type":"Feature","geometry":{"type":"Polygon","coordinates":[[[44.2832655,37.5709816],[44.2828148,37.5713218],[44.2752296,37.5689492],[44.2609227,37.5425187],[44.2919987,37.5297955],[44.2861354,37.5685793],[44.2857599,37.568928],[44.2832655,37.5709816]]]},"properties":{"@id":"relation/16283563","admin_level":"8","boundary":"administrative","name":"Güngör Mahallesi","type":"boundary","@relations":[{"role":"subarea","rel":1381573,"reltags":{"admin_level":"6","boundary":"administrative","name":"Yüksekova","name:ar":"يوكسكوفا","name:az-Arab":"یۆکسک‌اوْوا","name:ce":"Йуьксекова","name:de":"Yüksekova","name:el":"Γκεβέρ","name:en":"Yüksekova","name:fa":"یوکسک‌اوا","name:hy":"Գավառ","name:ku":"Gever","name:ota":"یوكسك اووه","name:ru":"Юксекова","name:sq":"Jyksekova","name:tr":"Yüksekova","name:tr:suffix":"İlçesi","name:tt":"Юксекова","name:ur":"یوکسیکووا","name:zh":"于克塞科瓦","network":"TR30-districts","type":"boundary","wikidata":"Q2176882","wikipedia":"tr:Yüksekova"}}]},"id":"relation/16283563"},
{"type":"Feature","geometry":{"type":"Polygon","coordinates":[[[44.2609227,37.5425187],[44.2752296,37.5689492],[44.2828148,37.5713218],[44.2803901,37.5727036],[44.278754,37.5711602],[44.2604291,37.5653052],[44.2513204,37.5661811],[44.2478549,37.543497],[44.2555672,37.5402073],[44.2609227,37.5425187]]]},"properties":{"@id":"relation/16283564","admin_level":"8","alt_name":"Yeni Mahalle","boundary":"administrative","name":"Yeni Mahallesi","type":"boundary","@relations":[{"role":"subarea","rel":1381573,"reltags":{"admin_level":"6","boundary":"administrative","name":"Yüksekova","name:ar":"يوكسكوفا","name:az-Arab":"یۆکسک‌اوْوا","name:ce":"Йуьксекова","name:de":"Yüksekova","name:el":"Γκεβέρ","name:en":"Yüksekova","name:fa":"یوکسک‌اوا","name:hy":"Գավառ","name:ku":"Gever","name:ota":"یوكسك اووه","name:ru":"Юксекова","name:sq":"Jyksekova","name:tr":"Yüksekova","name:tr:suffix":"İlçesi","name:tt":"Юксекова","name:ur":"یوکسیکووا","name:zh":"于克塞科瓦","network":"TR30-districts","type":"boundary","wikidata":"Q2176882","wikipedia":"tr:Yüksekova"}}]},"id":"relation/16283564"},
{"type":"Feature","geometry":{"type":"Polygon","coordinates":[[[44.2698169,37.5802288],[44.2609334,37.5826945],[44.2632508,37.5744468],[44.278754,37.5711602],[44.2803901,37.5727036],[44.2698169,37.5802288]]]},"properties":{"@id":"relation/16283565","admin_level":"8","boundary":"administrative","name":"Esentepe Mahallesi","type":"boundary","@relations":[{"role":"subarea","rel":1381573,"reltags":{"admin_level":"6","boundary":"administrative","name":"Yüksekova","name:ar":"يوكسكوفا","name:az-Arab":"یۆکسک‌اوْوا","name:ce":"Йуьксекова","name:de":"Yüksekova","name:el":"Γκεβέρ","name:en":"Yüksekova","name:fa":"یوکسک‌اوا","name:hy":"Գավառ","name:ku":"Gever","name:ota":"یوكسك اووه","name:ru":"Юксекова","name:sq":"Jyksekova","name:tr":"Yüksekova","name:tr:suffix":"İlçesi","name:tt":"Юксекова","name:ur":"یوکسیکووا","name:zh":"于克塞科瓦","network":"TR30-districts","type":"boundary","wikidata":"Q2176882","wikipedia":"tr:Yüksekova"}}]},"id":"relation/16283565"},
{"type":"Feature","geometry":{"type":"Polygon","coordinates":[[[44.2828148,37.5713218],[44.2956626,37.5862484],[44.3025291,37.5862314],[44.2883777,37.5904652],[44.2698169,37.5802288],[44.2803901,37.5727036],[44.2828148,37.5713218]]]},"properties":{"@id":"relation/16283566","admin_level":"8","boundary":"administrative","name":"İpek Mahallesi","type":"boundary","@relations":[{"role":"subarea","rel":1381573,"reltags":{"admin_level":"6","boundary":"administrative","name":"Yüksekova","name:ar":"يوكسكوفا","name:az-Arab":"یۆکسک‌اوْوا","name:ce":"Йуьксекова","name:de":"Yüksekova","name:el":"Γκεβέρ","name:en":"Yüksekova","name:fa":"یوکسک‌اوا","name:hy":"Գավառ","name:ku":"Gever","name:ota":"یوكسك اووه","name:ru":"Юксекова","name:sq":"Jyksekova","name:tr":"Yüksekova","name:tr:suffix":"İlçesi","name:tt":"Юксекова","name:ur":"یوکسیکووا","name:zh":"于克塞科瓦","network":"TR30-districts","type":"boundary","wikidata":"Q2176882","wikipedia":"tr:Yüksekova"}}]},"id":"relation/16283566"},
{"type":"Feature","geometry":{"type":"Polygon","coordinates":[[[44.3073678,37.5632641],[44.3045568,37.5641996],[44.2861354,37.5685793],[44.2919987,37.5297955],[44.3046641,37.5508975],[44.3073678,37.5632641]]]},"properties":{"@id":"relation/16283567","admin_level":"8","boundary":"administrative","name":"Cumhuriyet Mahallesi","type":"boundary","@relations":[{"role":"subarea","rel":1381573,"reltags":{"admin_level":"6","boundary":"administrative","name":"Yüksekova","name:ar":"يوكسكوفا","name:az-Arab":"یۆکسک‌اوْوا","name:ce":"Йуьксекова","name:de":"Yüksekova","name:el":"Γκεβέρ","name:en":"Yüksekova","name:fa":"یوکسک‌اوا","name:hy":"Գավառ","name:ku":"Gever","name:ota":"یوكسك اووه","name:ru":"Юксекова","name:sq":"Jyksekova","name:tr":"Yüksekova","name:tr:suffix":"İlçesi","name:tt":"Юксекова","name:ur":"یوکسیکووا","name:zh":"于克塞科瓦","network":"TR30-districts","type":"boundary","wikidata":"Q2176882","wikipedia":"tr:Yüksekova"}}]},"id":"relation/16283567"},
{"type":"Feature","geometry":{"type":"Polygon","coordinates":[[[44.3045568,37.5641996],[44.2951906,37.5687239],[44.2861354,37.5685793],[44.3045568,37.5641996]]]},"properties":{"@id":"relation/16283568","admin_level":"8","boundary":"administrative","name":"Mezarlık Mahallesi","type":"boundary","@relations":[{"role":"subarea","rel":1381573,"reltags":{"admin_level":"6","boundary":"administrative","name":"Yüksekova","name:ar":"يوكسكوفا","name:az-Arab":"یۆکسک‌اوْوا","name:ce":"Йуьксекова","name:de":"Yüksekova","name:el":"Γκεβέρ","name:en":"Yüksekova","name:fa":"یوکسک‌اوا","name:hy":"Գավառ","name:ku":"Gever","name:ota":"یوكسك اووه","name:ru":"Юксекова","name:sq":"Jyksekova","name:tr":"Yüksekova","name:tr:suffix":"İlçesi","name:tt":"Юксекова","name:ur":"یوکسیکووا","name:zh":"于克塞科瓦","network":"TR30-districts","type":"boundary","wikidata":"Q2176882","wikipedia":"tr:Yüksekova"}}]},"id":"relation/16283568"},
{"type":"Feature","geometry":{"type":"Polygon","coordinates":[[[44.3014777,37.5859593],[44.2857599,37.568928],[44.2861354,37.5685793],[44.2951906,37.5687239],[44.3045568,37.5641996],[44.3073678,37.5632641],[44.2982483,37.5817252],[44.3014777,37.5859593]]]},"properties":{"@id":"relation/16283569","admin_level":"8","boundary":"administrative","name":"Eski Kışla Mahallesi","type":"boundary","@relations":[{"role":"subarea","rel":1381573,"reltags":{"admin_level":"6","boundary":"administrative","name":"Yüksekova","name:ar":"يوكسكوفا","name:az-Arab":"یۆکسک‌اوْوا","name:ce":"Йуьксекова","name:de":"Yüksekova","name:el":"Γκεβέρ","name:en":"Yüksekova","name:fa":"یوکسک‌اوا","name:hy":"Գավառ","name:ku":"Gever","name:ota":"یوكسك اووه","name:ru":"Юксекова","name:sq":"Jyksekova","name:tr":"Yüksekova","name:tr:suffix":"İlçesi","name:tt":"Юксекова","name:ur":"یوکسیکووا","name:zh":"于克塞科瓦","network":"TR30-districts","type":"boundary","wikidata":"Q2176882","wikipedia":"tr:Yüksekova"}}]},"id":"relation/16283569"},
{"type":"Feature","geometry":{"type":"Polygon","coordinates":[[[44.2832655,37.5709816],[44.2857599,37.568928],[44.3014777,37.5859593],[44.3025291,37.5862314],[44.2956626,37.5862484],[44.2832655,37.5709816]]]},"properties":{"@id":"relation/16283570","admin_level":"8","boundary":"administrative","name":"Dize Mahallesi","type":"boundary","@relations":[{"role":"subarea","rel":1381573,"reltags":{"admin_level":"6","boundary":"administrative","name":"Yüksekova","name:ar":"يوكسكوفا","name:az-Arab":"یۆکسک‌اوْوا","name:ce":"Йуьксекова","name:de":"Yüksekova","name:el":"Γκεβέρ","name:en":"Yüksekova","name:fa":"یوکسک‌اوا","name:hy":"Գավառ","name:ku":"Gever","name:ota":"یوكسك اووه","name:ru":"Юксекова","name:sq":"Jyksekova","name:tr":"Yüksekova","name:tr:suffix":"İlçesi","name:tt":"Юксекова","name:ur":"یوکسیکووا","name:zh":"于克塞科瓦","network":"TR30-districts","type":"boundary","wikidata":"Q2176882","wikipedia":"tr:Yüksekova"}}]},"id":"relation/16283570"},
{"type":"Feature","geometry":{"type":"Polygon","coordinates":[[[44.2956626,37.5862484],[44.2828148,37.5713218],[44.2832655,37.5709816],[44.2956626,37.5862484]]]},"properties":{"@id":"relation/16283571","admin_level":"8","boundary":"administrative","name":"Yeşildere Mahallesi","type":"boundary","@relations":[{"role":"subarea","rel":1381573,"reltags":{"admin_level":"6","boundary":"administrative","name":"Yüksekova","name:ar":"يوكسكوفا","name:az-Arab":"یۆکسک‌اوْوا","name:ce":"Йуьксекова","name:de":"Yüksekova","name:el":"Γκεβέρ","name:en":"Yüksekova","name:fa":"یوکسک‌اوا","name:hy":"Գավառ","name:ku":"Gever","name:ota":"یوكسك اووه","name:ru":"Юксекова","name:sq":"Jyksekova","name:tr":"Yüksekova","name:tr:suffix":"İlçesi","name:tt":"Юксекова","name:ur":"یوکسیکووا","name:zh":"于克塞科瓦","network":"TR30-districts","type":"boundary","wikidata":"Q2176882","wikipedia":"tr:Yüksekova"}}]},"id":"relation/16283571"},
{"type":"Feature","geometry":{"type":"Polygon","coordinates":[[[44.4502577,37.171201],[44.4399452,37.1652571],[44.4212302,37.1662478],[44.4121536,37.1574582],[44.3998111,37.1531047],[44.4020068,37.1269827],[44.4101806,37.1140176],[44.4251271,37.1243789],[44.4563052,37.1366962],[44.4713152,37.1693282],[44.4502577,37.171201]]]},"properties":{"@id":"relation/17223395","admin_level":"8","boundary":"administrative","name":"Ulaşan Köyü","type":"boundary","@relations":[{"role":"subarea","rel":9218922,"reltags":{"admin_level":"6","boundary":"administrative","name":"Derecik","name:ce":"Дереджик","name:de":"Derecik","name:en":"Derecik","name:ku":"Rûbarok","name:tr":"Derecik","name:tr:suffix":"İlçesi","name:tt":"Дереҗик","type":"boundary","wikidata":"Q1199986","wikipedia":"tr:Derecik, Hakkâri"}}]},"id":"relation/17223395"},
{"type":"Feature","geometry":{"type":"Polygon","coordinates":[[[44.2478549,37.543497],[44.2426675,37.5359383],[44.2482895,37.5330627],[44.2555672,37.5402073],[44.2478549,37.543497]]]},"properties":{"@id":"relation/18547283","admin_level":"8","boundary":"administrative","name":"Dilekli Yazılı Mahallesi","type":"boundary","@relations":[{"role":"subarea","rel":1381573,"reltags":{"admin_level":"6","boundary":"administrative","name":"Yüksekova","name:ar":"يوكسكوفا","name:az-Arab":"یۆکسک‌اوْوا","name:ce":"Йуьксекова","name:de":"Yüksekova","name:el":"Γκεβέρ","name:en":"Yüksekova","name:fa":"یوکسک‌اوا","name:hy":"Գավառ","name:ku":"Gever","name:ota":"یوكسك اووه","name:ru":"Юксекова","name:sq":"Jyksekova","name:tr":"Yüksekova","name:tr:suffix":"İlçesi","name:tt":"Юксекова","name:ur":"یوکسیکووا","name:zh":"于克塞科瓦","network":"TR30-districts","type":"boundary","wikidata":"Q2176882","wikipedia":"tr:Yüksekova"}}]},"id":"relation/18547283"}
]}