{"type":"FeatureCollection", "features": [
{"type":"Feature","geometry":{"type":"Polygon","coordinates":[[[31.070363,37.7658172],[31.0779661,37.7629058],[31.0923217,37.7253371],[31.1201783,37.7077625],[31.1395032,37.6840597],[31.1349036,37.6645377],[31.155525,37.6409896],[31.1838815,37.6383552],[31.2125608,37.6250373],[31.2116014,37.6010679],[31.2459189,37.5789176],[31.2440691,37.5693018],[31.2589992,37.5560974],[31.2633384,37.5396896],[31.281363,37.5396896],[31.2929257,37.5458846],[31.2871104,37.5602424],[31.3344876,37.5841537],[31.3129179,37.6101624],[31.290146,37.6140651],[31.2729488,37.6333739],[31.2929887,37.6550798],[31.2817064,37.6816618],[31.2784248,37.71008],[31.2914827,37.7280702],[31.2880644,37.7413617],[31.261003,37.767262],[31.2607181,37.773792],[31.2387841,37.7987806],[31.2393539,37.8215107],[31.2228321,37.8489575],[31.1908885,37.8820015],[31.1462411,37.8698607],[31.1043708,37.8526578],[31.0300296,37.8386563],[31.0020448,37.824821],[30.9779053,37.8167211],[30.9723252,37.8029892],[30.9824171,37.7830156],[30.9996557,37.7763778],[31.0469687,37.7783313],[31.070363,37.7658172]]]},"properties":{"@id":"relation/1601952","admin_level":"6","boundary":"administrative","name":"Aksu","name:ce":"Аксу","name:de":"Aksu","name:en":"Aksu","name:fa":"اکسو","name:tr":"Aksu","name:tr:suffix":"İlçesi","network":"TR32-districts","old_name":"Yenice;Anamas","type":"boundary","wikidata":"Q421624","wikipedia":"tr:Aksu, Isparta"},"id":"relation/1601952"},
{"type":"Feature","geometry":{"type":"Polygon","coordinates":[[[30.5362292,38.0274942],[30.5598109,37.9934007],[30.5743897,37.9829006],[30.5705926,37.9431239],[30.5940533,37.8979507],[30.60297,37.8885185],[30.618397,37.8841039],[30.6579333,37.8850798],[30.691916,37.8969902],[30.7182207,37.9006089],[30.7455775,37.8960678],[30.7229355,37.9304297],[30.7110452,37.9631041],[30.6926359,37.9845675],[30.6942105,38.0046702],[30.7113496,38.0077195],[30.7010798,38.0240197],[30.6983793,38.0480536],[30.6854959,38.054518],[30.6638056,38.0500687],[30.6493214,38.0407052],[30.6338504,38.0482934],[30.6113303,38.0513889],[30.5974181,38.0591195],[30.5807505,38.0544949],[30.5496795,38.0782106],[30.5447538,38.0478661],[30.5362292,38.0274942]]]},"properties":{"@id":"relation/1827186","admin_level":"6","boundary":"administrative","name":"Atabey","name:ar":"أتابي","name:ce":"Атабей","name:de":"Atabey","name:en":"Atabey","name:ru":"Атабей","name:tr":"Atabey","name:tr:suffix":"İlçesi","network":"TR32-districts","old_name":"Agras;Agros;Agrai;Agrôn","type":"boundary","wikidata":"Q753057","wikipedia":"tr:Atabey, Isparta"},"id":"relation/1827186"},
{"type":"Feature","geometry":{"type":"Polygon","coordinates":[[[31.070363,37.7658172],[31.0469687,37.7783313],[30.9996557,37.7763778],[30.9824171,37.7830156],[30.9723252,37.8029892],[30.9779053,37.8167211],[31.0020448,37.824821],[31.0300296,37.8386563],[31.1043708,37.8526578],[31.1462411,37.8698607],[31.1908885,37.8820015],[31.1765732,37.9086807],[31.1695055,37.9317793],[31.1654668,37.9894939],[31.1594087,38.0038161],[31.1235651,37.9883003],[31.0680327,37.9871067],[31.0478392,37.9787505],[31.0089249,37.9732902],[30.952207,37.9809457],[30.9171219,38.0020708],[30.8961214,38.0444842],[30.8959139,38.0810165],[30.8848647,38.1005565],[30.8461523,38.1201891],[30.7999234,38.0975695],[30.7714062,38.0733934],[30.7424654,38.0634009],[30.7202486,38.061085],[30.6983793,38.0480536],[30.7010798,38.0240197],[30.7113496,38.0077195],[30.6942105,38.0046702],[30.6926359,37.9845675],[30.7110452,37.9631041],[30.7229355,37.9304297],[30.7455775,37.8960678],[30.756435,37.8646551],[30.7519365,37.8393768],[30.7537176,37.8213634],[30.7690661,37.8010671],[30.7679406,37.7689771],[30.7729912,37.7468447],[30.8129621,37.6783779],[30.8199019,37.6588031],[30.8214241,37.6329571],[30.80709,37.6064983],[30.7817921,37.5692096],[30.7582856,37.5626999],[30.7596257,37.5531994],[30.7831607,37.5347802],[30.7851318,37.5165035],[30.8111571,37.5248393],[30.8202552,37.5444413],[30.8301257,37.5533558],[30.8475068,37.5567994],[30.8775171,37.59594],[30.9372364,37.6240732],[30.9764299,37.6350589],[30.9959863,37.6525295],[31.0115142,37.6743446],[31.0139837,37.7120179],[31.0497946,37.7195166],[31.0603272,37.750753],[31.070363,37.7658172]]]},"properties":{"@id":"relation/1827187","admin_level":"6","alt_name":"Eğridir","boundary":"administrative","name":"Eğirdir","name:ar":"إيغيردير","name:ce":"ЭгӀирдир","name:el":"Εγκιρντίρ","name:fa":"اغیردیر","name:ru":"Эгридир","name:tr":"Eğirdir","name:tr:suffix":"İlçesi","name:zh":"埃爾迪爾","network":"TR32-districts","old_name":"Prostanna","type":"boundary","wikidata":"Q586434","wikipedia":"tr:Eğirdir"},"id":"relation/1827187"},
{"type":"Feature","geometry":{"type":"Polygon","coordinates":[[[31.18667,38.1206755],[31.180612,38.1353691],[31.1392151,38.1802257],[31.1149828,38.1929234],[31.094803,38.1945077],[31.073586,38.2060157],[31.022879,38.2176864],[30.9782989,38.2067784],[30.9278418,38.1988333],[30.8933583,38.1750666],[30.8610485,38.1599841],[30.8317678,38.1377515],[30.8461523,38.1201891],[30.8848647,38.1005565],[30.8959139,38.0810165],[30.8961214,38.0444842],[30.9171219,38.0020708],[30.952207,37.9809457],[31.0089249,37.9732902],[31.0478392,37.9787505],[31.0680327,37.9871067],[31.1235651,37.9883003],[31.1594087,38.0038161],[31.1402248,38.0288731],[31.1245748,38.0602817],[31.1245748,38.0793588],[31.142749,38.0968418],[31.18667,38.1206755]]]},"properties":{"@id":"relation/1827188","admin_level":"6","boundary":"administrative","name":"Gelendost","name:ce":"Гелендост","name:ru":"Гелендост","name:tr":"Gelendost","name:tr:suffix":"İlçesi","network":"TR32-districts","old_name":"Gelandos;Galandos;Gelendos;Kelainai","type":"boundary","wikidata":"Q1499635","wikipedia":"tr:Gelendost"},"id":"relation/1827188"},
{"type":"Feature","geometry":{"type":"Polygon","coordinates":[[[30.5362292,38.0274942],[30.4936769,38.0248245],[30.4638914,38.0168703],[30.4249398,38.012175],[30.3617943,38.0389766],[30.34967,38.03854],[30.3534911,38.0260345],[30.3447245,38.0139893],[30.3226462,38.0029069],[30.33042,37.96659],[30.3411974,37.9561503],[30.3470326,37.9342996],[30.365378,37.9123425],[30.3629213,37.8982442],[30.369181,37.8730219],[30.3625519,37.8467534],[30.3718521,37.8304045],[30.3976621,37.8246015],[30.4145511,37.8326588],[30.43467,37.81976],[30.44551,37.824],[30.45567,37.8415],[30.4899986,37.8455177],[30.50292,37.86338],[30.51201,37.85403],[30.5278816,37.858134],[30.539267,37.8718723],[30.5311899,37.8849282],[30.5606218,37.8982202],[30.5940533,37.8979507],[30.5705926,37.9431239],[30.5743897,37.9829006],[30.5598109,37.9934007],[30.5362292,38.0274942]]]},"properties":{"@id":"relation/1827189","admin_level":"6","boundary":"administrative","name":"Gönen","name:ce":"Гоьне","name:el":"Κονανα","name:ru":"Гёнен","name:tr":"Gönen","name:tr:suffix":"İlçesi","network":"TR32-districts","old_name":"Konánês;Konána;Conana","type":"boundary","wikidata":"Q1559368","wikipedia":"tr:Gönen, Isparta"},"id":"relation/1827189"},
{"type":"Feature","geometry":{"type":"Polygon","coordinates":[[[30.7582856,37.5626999],[30.7817921,37.5692096],[30.80709,37.6064983],[30.8214241,37.6329571],[30.8199019,37.6588031],[30.8129621,37.6783779],[30.7729912,37.7468447],[30.7679406,37.7689771],[30.7690661,37.8010671],[30.7537176,37.8213634],[30.7519365,37.8393768],[30.756435,37.8646551],[30.7455775,37.8960678],[30.7182207,37.9006089],[30.691916,37.8969902],[30.6579333,37.8850798],[30.618397,37.8841039],[30.60297,37.8885185],[30.5940533,37.8979507],[30.5606218,37.8982202],[30.5311899,37.8849282],[30.539267,37.8718723],[30.5278816,37.858134],[30.51201,37.85403],[30.50292,37.86338],[30.4899986,37.8455177],[30.45567,37.8415],[30.44551,37.824],[30.43467,37.81976],[30.4347215,37.787459],[30.4224594,37.7671521],[30.4111124,37.7575238],[30.4086431,37.7441617],[30.4166952,37.7302974],[30.4677503,37.723341],[30.4725657,37.7033783],[30.5018062,37.6920726],[30.5431491,37.69403],[30.5572356,37.6991111],[30.5765772,37.6972856],[30.5915755,37.6889388],[30.5910033,37.6668381],[30.621226,37.6458302],[30.6422656,37.644474],[30.6686033,37.6582865],[30.6871113,37.6578545],[30.7017201,37.6511971],[30.7177981,37.6601584],[30.7439658,37.6173034],[30.7416281,37.6016696],[30.7537398,37.5872669],[30.7582856,37.5626999]]]},"properties":{"@id":"relation/1827190","admin_level":"6","alt_name":"Isparta","boundary":"administrative","name":"Isparta Merkez","name:ar":"إسبرطة","name:be":"Ыспарта","name:bg":"Ъспарта","name:ce":"Испарта","name:de":"Isparta","name:el":"Ισπάρτα","name:en":"Isparta","name:fa":"اسپارتا","name:he":"אספרטה","name:hi":"इस्पार्टा","name:hy":"Ըսփարթա","name:ja":"ウスパルタ","name:ka":"ისპარტა","name:kk":"Ыспарта","name:ko":"이스파르타","name:ml":"ഇസ്പാർട്ട","name:ru":"Ыспарта","name:sr":"Испарта","name:tk":"Ysparta","name:tr":"Isparta Merkez","name:tr:suffix":"İlçesi","name:uk":"Испарта","name:zh":"厄斯帕爾塔","network":"TR32-districts","old_name":"Hamidabad;Isbarta;Sabarta;Baris;Βάρις;Σπάρτη της Πισιδίας;Βάρη","old_name:el":"Σπάρτη","type":"boundary","wikidata":"Q171031","wikipedia":"tr:Isparta"},"id":"relation/1827190"},
{"type":"Feature","geometry":{"type":"Polygon","coordinates":[[[30.3718521,37.8304045],[30.3625519,37.8467534],[30.369181,37.8730219],[30.3629213,37.8982442],[30.365378,37.9123425],[30.3470326,37.9342996],[30.3411974,37.9561503],[30.33042,37.96659],[30.3226462,38.0029069],[30.3447245,38.0139893],[30.3534911,38.0260345],[30.34967,38.03854],[30.3325065,38.040766],[30.2627209,38.0343873],[30.23054,38.03728],[30.2221009,38.0090736],[30.1914052,37.9946704],[30.193419,37.9832248],[30.180595,37.9680977],[30.1793075,37.9424019],[30.1680889,37.9374207],[30.1560462,37.9187488],[30.1444289,37.877487],[30.1587374,37.8677596],[30.1500061,37.8524324],[30.1221788,37.8307629],[30.1416184,37.8124268],[30.1803411,37.7978034],[30.2105247,37.7712567],[30.3302145,37.802211],[30.35564,37.8229178],[30.3718521,37.8304045]]]},"properties":{"@id":"relation/1827191","admin_level":"6","boundary":"administrative","name":"Keçiborlu","name:ce":"Кечиборлу","name:fa":"کچی‌بورلو","name:ru":"Кечиборлу","name:tr":"Keçiborlu","name:tr:suffix":"İlçesi","name:zh":"凱奇博爾盧","network":"TR32-districts","type":"boundary","wikidata":"Q1004516","wikipedia":"tr:Keçiborlu"},"id":"relation/1827191"},
{"type":"Feature","geometry":{"type":"Polygon","coordinates":[[[30.5496795,38.0782106],[30.5807505,38.0544949],[30.5974181,38.0591195],[30.6113303,38.0513889],[30.6338504,38.0482934],[30.6493214,38.0407052],[30.6638056,38.0500687],[30.6854959,38.054518],[30.6983793,38.0480536],[30.7202486,38.061085],[30.7424654,38.0634009],[30.7714062,38.0733934],[30.7999234,38.0975695],[30.8461523,38.1201891],[30.8317678,38.1377515],[30.7698501,38.1998644],[30.7434108,38.2300003],[30.7355907,38.2469645],[30.7341034,38.2752893],[30.7248009,38.2693555],[30.6844889,38.2604936],[30.6658619,38.2444283],[30.6564348,38.2457921],[30.6361614,38.2323391],[30.6070894,38.2202332],[30.5784807,38.2166907],[30.5625889,38.2067928],[30.5118129,38.1949135],[30.5184141,38.1436355],[30.5057931,38.1122628],[30.5118512,38.0888236],[30.5496795,38.0782106]]]},"properties":{"@id":"relation/1827192","admin_level":"6","boundary":"administrative","name":"Senirkent","name:ce":"Сениркент","name:ru":"Сениркент","name:tr":"Senirkent","name:tr:suffix":"İlçesi","network":"TR32-districts","type":"boundary","wikidata":"Q1937212","wikimedia_commons":"Category:Senirkent","wikipedia":"tr:Senirkent"},"id":"relation/1827192"},
{"type":"Feature","geometry":{"type":"Polygon","coordinates":[[[30.7851318,37.5165035],[30.8019637,37.5023834],[30.8452502,37.4367059],[30.8635505,37.4320602],[30.8756612,37.4020941],[30.8900436,37.401489],[30.8951478,37.3863455],[30.9240618,37.376004],[30.9406794,37.3545102],[30.9560725,37.3458656],[30.9934787,37.3440296],[31.0061114,37.3495857],[31.0301511,37.3443312],[31.0578628,37.3639464],[31.0881812,37.3629488],[31.1131643,37.3902936],[31.1604558,37.4000458],[31.1811089,37.4101205],[31.2005816,37.4276502],[31.2201082,37.4224041],[31.2252174,37.4287369],[31.2465781,37.4275441],[31.2539447,37.4331238],[31.3189314,37.4424105],[31.3298125,37.4623208],[31.331925,37.4844276],[31.3441008,37.5031332],[31.341783,37.5314054],[31.3447867,37.5444542],[31.3326806,37.5679521],[31.3344876,37.5841537],[31.2871104,37.5602424],[31.2929257,37.5458846],[31.281363,37.5396896],[31.2633384,37.5396896],[31.2589992,37.5560974],[31.2440691,37.5693018],[31.2459189,37.5789176],[31.2116014,37.6010679],[31.2125608,37.6250373],[31.1838815,37.6383552],[31.155525,37.6409896],[31.1349036,37.6645377],[31.1395032,37.6840597],[31.1201783,37.7077625],[31.0923217,37.7253371],[31.0779661,37.7629058],[31.070363,37.7658172],[31.0603272,37.750753],[31.0497946,37.7195166],[31.0139837,37.7120179],[31.0115142,37.6743446],[30.9959863,37.6525295],[30.9764299,37.6350589],[30.9372364,37.6240732],[30.8775171,37.59594],[30.8475068,37.5567994],[30.8301257,37.5533558],[30.8202552,37.5444413],[30.8111571,37.5248393],[30.7851318,37.5165035]]]},"properties":{"@id":"relation/1827193","admin_level":"6","boundary":"administrative","name":"Sütçüler","name:ce":"Суьтчуьлер","name:de":"Sütçüler","name:en":"Sütçüler","name:ru":"Сютчюлер","name:tr":"Sütçüler","name:tr:suffix":"İlçesi","network":"TR32-districts","old_name":"Cebel;Bavlu;Bavli;Pavli","type":"boundary","wikidata":"Q1783527","wikipedia":"tr:Sütçüler"},"id":"relation/1827193"},
{"type":"Feature","geometry":{"type":"Polygon","coordinates":[[[30.5496795,38.0782106],[30.5118512,38.0888236],[30.5057931,38.1122628],[30.5184141,38.1436355],[30.5118129,38.1949135],[30.4806109,38.1990258],[30.4558043,38.1815089],[30.450184,38.166121],[30.4282844,38.1534731],[30.4170439,38.1411279],[30.3979351,38.1092339],[30.3884515,38.0744726],[30.3787753,38.0625843],[30.3559189,38.0518752],[30.3617943,38.0389766],[30.4249398,38.012175],[30.4638914,38.0168703],[30.4936769,38.0248245],[30.5362292,38.0274942],[30.5447538,38.0478661],[30.5496795,38.0782106]]]},"properties":{"@id":"relation/1827194","admin_level":"6","alt_name":"Oluborlu","boundary":"administrative","name":"Uluborlu","name:ce":"Улуборлу","name:el":"Ουλούμπορλου","name:fa":"اولوبورلو","name:ru":"Улуборлу","name:tr":"Uluborlu","name:tr:suffix":"İlçesi","name:zh":"烏盧博爾盧","network":"TR32-districts","old_name":"Borlu","type":"boundary","wikidata":"Q1012840","wikipedia":"tr:Uluborlu"},"id":"relation/1827194"},
{"type":"Feature","geometry":{"type":"Polygon","coordinates":[[[31.4048701,38.1891078],[31.3958788,38.1902145],[31.3487202,38.2155168],[31.327231,38.2405102],[31.3251867,38.2822585],[31.3196977,38.3078673],[31.2942552,38.3247571],[31.2764024,38.3409494],[31.2774324,38.3535371],[31.2376994,38.3834088],[31.2238331,38.3840663],[31.2135894,38.4081252],[31.2123238,38.4405645],[31.2162178,38.4558188],[31.2035827,38.4563689],[31.1831775,38.468438],[31.170616,38.4691811],[31.1172293,38.4920256],[31.114569,38.5027631],[31.0812464,38.505298],[31.0620934,38.5003189],[31.0214897,38.5007393],[31.0193305,38.4895013],[31.0039762,38.4783924],[31.0006712,38.4659554],[30.9668428,38.4566033],[30.9657169,38.435573],[30.9592686,38.4136016],[30.9292725,38.4118088],[30.886204,38.401731],[30.8841947,38.4075501],[30.850772,38.400091],[30.8484024,38.3896104],[30.8186009,38.3847494],[30.7996931,38.3660822],[30.7952099,38.3413548],[30.7981917,38.3334219],[30.7884255,38.3071226],[30.776132,38.2981711],[30.7505765,38.2958256],[30.7341034,38.2752893],[30.7355907,38.2469645],[30.7434108,38.2300003],[30.7698501,38.1998644],[30.8317678,38.1377515],[30.8610485,38.1599841],[30.8933583,38.1750666],[30.9278418,38.1988333],[30.9782989,38.2067784],[31.022879,38.2176864],[31.073586,38.2060157],[31.094803,38.1945077],[31.1149828,38.1929234],[31.1392151,38.1802257],[31.180612,38.1353691],[31.18667,38.1206755],[31.2179701,38.1337807],[31.3133847,38.1619688],[31.347209,38.1643504],[31.3931494,38.1798289],[31.4048701,38.1891078]]]},"properties":{"@id":"relation/1827195","admin_level":"6","alt_name":"Yalovaç;Jalowatsch","boundary":"administrative","name":"Yalvaç","name:ce":"Йалвач","name:fa":"یالواچ","name:ru":"Ялвач","name:tr":"Yalvaç","name:tr:suffix":"İlçesi","name:zh":"亞爾瓦奇","network":"TR32-districts","old_name":"Antiokhia;Antiochien;Antiochia","population":"46177","population:date":"31-12-2021","type":"boundary","wikidata":"Q991472","wikipedia":"tr:Yalvaç"},"id":"relation/1827195"},
{"type":"Feature","geometry":{"type":"Polygon","coordinates":[[[31.1908885,37.8820015],[31.2228321,37.8489575],[31.2508678,37.8582865],[31.2942123,37.8611326],[31.3482427,37.8599468],[31.4050197,37.8758697],[31.4362325,37.8990607],[31.4390297,37.9145112],[31.5024259,37.9663196],[31.5087627,37.9755705],[31.5052553,37.9900594],[31.5167283,38.0167149],[31.5394458,38.0309729],[31.5377605,38.0578499],[31.529408,38.0828171],[31.5310555,38.1214728],[31.5062919,38.130025],[31.4889637,38.1454008],[31.4974592,38.1604764],[31.4914511,38.170059],[31.5000096,38.1884257],[31.4711035,38.1966634],[31.4455111,38.1913156],[31.4048701,38.1891078],[31.3931494,38.1798289],[31.347209,38.1643504],[31.3133847,38.1619688],[31.2179701,38.1337807],[31.18667,38.1206755],[31.142749,38.0968418],[31.1245748,38.0793588],[31.1245748,38.0602817],[31.1402248,38.0288731],[31.1594087,38.0038161],[31.1654668,37.9894939],[31.1695055,37.9317793],[31.1765732,37.9086807],[31.1908885,37.8820015]]]},"properties":{"@id":"relation/1827196","admin_level":"6","alt_name":"Şarkîkaraağaç;Karaağaç;Kara Agatch","boundary":"administrative","name":"Şarkikaraağaç","name:ce":"ШаркикараагӀач","name:fa":"قره‌آغاج شرقی","name:ru":"Шаркикараагач","name:tr":"Şarkikaraağaç","name:tr:suffix":"İlçesi","name:zh":"沙爾基卡拉阿奇","network":"TR32-districts","type":"boundary","wikidata":"Q388528","wikipedia":"tr:Şarkikaraağaç"},"id":"relation/1827196"},
{"type":"Feature","geometry":{"type":"Polygon","coordinates":[[[31.4362325,37.8990607],[31.4050197,37.8758697],[31.3482427,37.8599468],[31.2942123,37.8611326],[31.2508678,37.8582865],[31.2228321,37.8489575],[31.2393539,37.8215107],[31.2387841,37.7987806],[31.2607181,37.773792],[31.261003,37.767262],[31.2880644,37.7413617],[31.2914827,37.7280702],[31.2784248,37.71008],[31.2817064,37.6816618],[31.2929887,37.6550798],[31.3113356,37.6643875],[31.3494196,37.6747866],[31.3595114,37.6879852],[31.3791061,37.7020227],[31.4008933,37.7039506],[31.4457933,37.6972728],[31.45933,37.70146],[31.4284662,37.7196774],[31.4283491,37.7327767],[31.4446487,37.7408536],[31.437703,37.7564288],[31.4511106,37.7786023],[31.4569435,37.7980504],[31.4569435,37.8324964],[31.4519386,37.8505473],[31.4366645,37.8830413],[31.4362325,37.8990607]]]},"properties":{"@id":"relation/10012274","admin_level":"6","alt_name":"Yenişar Bademli","boundary":"administrative","name":"Yenişarbademli","name:ce":"Йенишарбадемли","name:ru":"Енишарбадемли","name:tr":"Yenişarbademli","name:tr:suffix":"İlçesi","type":"boundary","wikidata":"Q1782806","wikipedia":"tr:Yenişarbademli"},"id":"relation/10012274"},
{"type":"Feature","geometry":{"type":"Polygon","coordinates":[[[30.601269,37.7470919],[30.5957425,37.7621893],[30.5782235,37.7599603],[30.5795109,37.7571781],[30.601269,37.7470919]]]},"properties":{"@id":"relation/12089439","admin_level":"8","boundary":"administrative","name":"Vatan Mahallesi","type":"boundary","@relations":[{"role":"subarea","rel":1827190,"reltags":{"admin_level":"6","alt_name":"Isparta","boundary":"administrative","name":"Isparta Merkez","name:ar":"إسبرطة","name:be":"Ыспарта","name:bg":"Ъспарта","name:ce":"Испарта","name:de":"Isparta","name:el":"Ισπάρτα","name:en":"Isparta","name:fa":"اسپارتا","name:he":"אספרטה","name:hi":"इस्पार्टा","name:hy":"Ըսփարթա","name:ja":"ウスパルタ","name:ka":"ისპარტა","name:kk":"Ыспарта","name:ko":"이스파르타","name:ml":"ഇസ്പാർട്ട","name:ru":"Ыспарта","name:sr":"Испарта","name:tk":"Ysparta","name:tr":"Isparta Merkez","name:tr:suffix":"İlçesi","name:uk":"Испарта","name:zh":"厄斯帕爾塔","network":"TR32-districts","old_name":"Hamidabad;Isbarta;Sabarta;Baris;Βάρις;Σπάρτη της Πισιδίας;Βάρη","old_name:el":"Σπάρτη","type":"boundary","wikidata":"Q171031","wikipedia":"tr:Isparta"}}]},"id":"relation/12089439"},
{"type":"Feature","geometry":{"type":"Polygon","coordinates":[[[30.5745327,37.7546758],[30.5784488,37.7462605],[30.601269,37.7470919],[30.5795109,37.7571781],[30.5717969,37.756508],[30.5745327,37.7546758]]]},"properties":{"@id":"relation/12089440","admin_level":"8","boundary":"administrative","name":"Ayazmana Mahallesi","type":"boundary","@relations":[{"role":"subarea","rel":1827190,"reltags":{"admin_level":"6","alt_name":"Isparta","boundary":"administrative","name":"Isparta Merkez","name:ar":"إسبرطة","name:be":"Ыспарта","name:bg":"Ъспарта","name:ce":"Испарта","name:de":"Isparta","name:el":"Ισπάρτα","name:en":"Isparta","name:fa":"اسپارتا","name:he":"אספרטה","name:hi":"इस्पार्टा","name:hy":"Ըսփարթա","name:ja":"ウスパルタ","name:ka":"ისპარტა","name:kk":"Ыспарта","name:ko":"이스파르타","name:ml":"ഇസ്പാർട്ട","name:ru":"Ыспарта","name:sr":"Испарта","name:tk":"Ysparta","name:tr":"Isparta Merkez","name:tr:suffix":"İlçesi","name:uk":"Испарта","name:zh":"厄斯帕爾塔","network":"TR32-districts","old_name":"Hamidabad;Isbarta;Sabarta;Baris;Βάρις;Σπάρτη της Πισιδίας;Βάρη","old_name:el":"Σπάρτη","type":"boundary","wikidata":"Q171031","wikipedia":"tr:Isparta"}}]},"id":"relation/12089440"},
{"type":"Feature","geometry":{"type":"Polygon","coordinates":[[[30.5745327,37.7546758],[30.5697262,37.7520207],[30.5779445,37.7464557],[30.5784488,37.7462605],[30.5745327,37.7546758]]]},"properties":{"@id":"relation/12089441","admin_level":"8","boundary":"administrative","name":"Halıkent Mahallesi","type":"boundary","@relations":[{"role":"subarea","rel":1827190,"reltags":{"admin_level":"6","alt_name":"Isparta","boundary":"administrative","name":"Isparta Merkez","name:ar":"إسبرطة","name:be":"Ыспарта","name:bg":"Ъспарта","name:ce":"Испарта","name:de":"Isparta","name:el":"Ισπάρτα","name:en":"Isparta","name:fa":"اسپارتا","name:he":"אספרטה","name:hi":"इस्पार्टा","name:hy":"Ըսփարթա","name:ja":"ウスパルタ","name:ka":"ისპარტა","name:kk":"Ыспарта","name:ko":"이스파르타","name:ml":"ഇസ്പാർട്ട","name:ru":"Ыспарта","name:sr":"Испарта","name:tk":"Ysparta","name:tr":"Isparta Merkez","name:tr:suffix":"İlçesi","name:uk":"Испарта","name:zh":"厄斯帕爾塔","network":"TR32-districts","old_name":"Hamidabad;Isbarta;Sabarta;Baris;Βάρις;Σπάρτη της Πισιδίας;Βάρη","old_name:el":"Σπάρτη","type":"boundary","wikidata":"Q171031","wikipedia":"tr:Isparta"}}]},"id":"relation/12089441"},
{"type":"Feature","geometry":{"type":"Polygon","coordinates":[[[30.5663681,37.7546164],[30.5604136,37.7517408],[30.5601132,37.7490771],[30.5779445,37.7464557],[30.5697262,37.7520207],[30.5663681,37.7546164]]]},"properties":{"@id":"relation/12089442","admin_level":"8","boundary":"administrative","name":"Sidre Mahallesi","type":"boundary","@relations":[{"role":"subarea","rel":1827190,"reltags":{"admin_level":"6","alt_name":"Isparta","boundary":"administrative","name":"Isparta Merkez","name:ar":"إسبرطة","name:be":"Ыспарта","name:bg":"Ъспарта","name:ce":"Испарта","name:de":"Isparta","name:el":"Ισπάρτα","name:en":"Isparta","name:fa":"اسپارتا","name:he":"אספרטה","name:hi":"इस्पार्टा","name:hy":"Ըսփարթա","name:ja":"ウスパルタ","name:ka":"ისპარტა","name:kk":"Ыспарта","name:ko":"이스파르타","name:ml":"ഇസ്പാർട്ട","name:ru":"Ыспарта","name:sr":"Испарта","name:tk":"Ysparta","name:tr":"Isparta Merkez","name:tr:suffix":"İlçesi","name:uk":"Испарта","name:zh":"厄斯帕爾塔","network":"TR32-districts","old_name":"Hamidabad;Isbarta;Sabarta;Baris;Βάρις;Σπάρτη της Πισιδίας;Βάρη","old_name:el":"Σπάρτη","type":"boundary","wikidata":"Q171031","wikipedia":"tr:Isparta"}}]},"id":"relation/12089442"},
{"type":"Feature","geometry":{"type":"Polygon","coordinates":[[[30.5591744,37.7555029],[30.5540299,37.7569618],[30.5519266,37.755737],[30.5464232,37.7456412],[30.5452752,37.7446232],[30.5444705,37.7433167],[30.5601132,37.7490771],[30.5604136,37.7517408],[30.5591744,37.7555029]]]},"properties":{"@id":"relation/12089443","admin_level":"8","boundary":"administrative","name":"Emre Mahallesi","type":"boundary","@relations":[{"role":"subarea","rel":1827190,"reltags":{"admin_level":"6","alt_name":"Isparta","boundary":"administrative","name":"Isparta Merkez","name:ar":"إسبرطة","name:be":"Ыспарта","name:bg":"Ъспарта","name:ce":"Испарта","name:de":"Isparta","name:el":"Ισπάρτα","name:en":"Isparta","name:fa":"اسپارتا","name:he":"אספרטה","name:hi":"इस्पार्टा","name:hy":"Ըսփարթա","name:ja":"ウスパルタ","name:ka":"ისპარტა","name:kk":"Ыспарта","name:ko":"이스파르타","name:ml":"ഇസ്പാർട്ട","name:ru":"Ыспарта","name:sr":"Испарта","name:tk":"Ysparta","name:tr":"Isparta Merkez","name:tr:suffix":"İlçesi","name:uk":"Испарта","name:zh":"厄斯帕爾塔","network":"TR32-districts","old_name":"Hamidabad;Isbarta;Sabarta;Baris;Βάρις;Σπάρτη της Πισιδίας;Βάρη","old_name:el":"Σπάρτη","type":"boundary","wikidata":"Q171031","wikipedia":"tr:Isparta"}}]},"id":"relation/12089443"},
{"type":"Feature","geometry":{"type":"Polygon","coordinates":[[[30.5648714,37.7587516],[30.5589169,37.7564402],[30.5591744,37.7555029],[30.5604136,37.7517408],[30.5663681,37.7546164],[30.5648714,37.7587516]]]},"properties":{"@id":"relation/12089444","admin_level":"8","boundary":"administrative","name":"Gülcü Mahallesi","type":"boundary","@relations":[{"role":"subarea","rel":1827190,"reltags":{"admin_level":"6","alt_name":"Isparta","boundary":"administrative","name":"Isparta Merkez","name:ar":"إسبرطة","name:be":"Ыспарта","name:bg":"Ъспарта","name:ce":"Испарта","name:de":"Isparta","name:el":"Ισπάρτα","name:en":"Isparta","name:fa":"اسپارتا","name:he":"אספרטה","name:hi":"इस्पार्टा","name:hy":"Ըսփարթա","name:ja":"ウスパルタ","name:ka":"ისპარტა","name:kk":"Ыспарта","name:ko":"이스파르타","name:ml":"ഇസ്പാർട്ട","name:ru":"Ыспарта","name:sr":"Испарта","name:tk":"Ysparta","name:tr":"Isparta Merkez","name:tr:suffix":"İlçesi","name:uk":"Испарта","name:zh":"厄斯帕爾塔","network":"TR32-districts","old_name":"Hamidabad;Isbarta;Sabarta;Baris;Βάρις;Σπάρτη της Πισιδίας;Βάρη","old_name:el":"Σπάρτη","type":"boundary","wikidata":"Q171031","wikipedia":"tr:Isparta"}}]},"id":"relation/12089444"},
{"type":"Feature","geometry":{"type":"Polygon","coordinates":[[[30.5648714,37.7587516],[30.5663681,37.7546164],[30.5697262,37.7520207],[30.5745327,37.7546758],[30.5717969,37.756508],[30.5637717,37.7606219],[30.5648714,37.7587516]]]},"properties":{"@id":"relation/12089445","admin_level":"8","boundary":"administrative","name":"Halifesultan Mahallesi","type":"boundary","@relations":[{"role":"subarea","rel":1827190,"reltags":{"admin_level":"6","alt_name":"Isparta","boundary":"administrative","name":"Isparta Merkez","name:ar":"إسبرطة","name:be":"Ыспарта","name:bg":"Ъспарта","name:ce":"Испарта","name:de":"Isparta","name:el":"Ισπάρτα","name:en":"Isparta","name:fa":"اسپارتا","name:he":"אספרטה","name:hi":"इस्पार्टा","name:hy":"Ըսփարթա","name:ja":"ウスパルタ","name:ka":"ისპარტა","name:kk":"Ыспарта","name:ko":"이스파르타","name:ml":"ഇസ്പാർട്ട","name:ru":"Ыспарта","name:sr":"Испарта","name:tk":"Ysparta","name:tr":"Isparta Merkez","name:tr:suffix":"İlçesi","name:uk":"Испарта","name:zh":"厄斯帕爾塔","network":"TR32-districts","old_name":"Hamidabad;Isbarta;Sabarta;Baris;Βάρις;Σπάρτη της Πισιδίας;Βάρη","old_name:el":"Σπάρτη","type":"boundary","wikidata":"Q171031","wikipedia":"tr:Isparta"}}]},"id":"relation/12089445"},
{"type":"Feature","geometry":{"type":"Polygon","coordinates":[[[30.5636552,37.7609367],[30.5637717,37.7606219],[30.5717969,37.756508],[30.5795109,37.7571781],[30.5782235,37.7599603],[30.5689967,37.7616567],[30.5636552,37.7609367]]]},"properties":{"@id":"relation/12089446","admin_level":"8","boundary":"administrative","name":"Gülevler Mahallesi","type":"boundary","@relations":[{"role":"subarea","rel":1827190,"reltags":{"admin_level":"6","alt_name":"Isparta","boundary":"administrative","name":"Isparta Merkez","name:ar":"إسبرطة","name:be":"Ыспарта","name:bg":"Ъспарта","name:ce":"Испарта","name:de":"Isparta","name:el":"Ισπάρτα","name:en":"Isparta","name:fa":"اسپارتا","name:he":"אספרטה","name:hi":"इस्पार्टा","name:hy":"Ըսփարթա","name:ja":"ウスパルタ","name:ka":"ისპარტა","name:kk":"Ыспарта","name:ko":"이스파르타","name:ml":"ഇസ്പാർട്ട","name:ru":"Ыспарта","name:sr":"Испарта","name:tk":"Ysparta","name:tr":"Isparta Merkez","name:tr:suffix":"İlçesi","name:uk":"Испарта","name:zh":"厄斯帕爾塔","network":"TR32-districts","old_name":"Hamidabad;Isbarta;Sabarta;Baris;Βάρις;Σπάρτη της Πισιδίας;Βάρη","old_name:el":"Σπάρτη","type":"boundary","wikidata":"Q171031","wikipedia":"tr:Isparta"}}]},"id":"relation/12089446"},
{"type":"Feature","geometry":{"type":"Polygon","coordinates":[[[30.5689967,37.7616567],[30.5782235,37.7599603],[30.5634009,37.7707615],[30.5634016,37.7652868],[30.5689967,37.7616567]]]},"properties":{"@id":"relation/12089447","admin_level":"8","boundary":"administrative","name":"Karaağaç Mahallesi","type":"boundary","@relations":[{"role":"subarea","rel":1827190,"reltags":{"admin_level":"6","alt_name":"Isparta","boundary":"administrative","name":"Isparta Merkez","name:ar":"إسبرطة","name:be":"Ыспарта","name:bg":"Ъспарта","name:ce":"Испарта","name:de":"Isparta","name:el":"Ισπάρτα","name:en":"Isparta","name:fa":"اسپارتا","name:he":"אספרטה","name:hi":"इस्पार्टा","name:hy":"Ըսփարթա","name:ja":"ウスパルタ","name:ka":"ისპარტა","name:kk":"Ыспарта","name:ko":"이스파르타","name:ml":"ഇസ്പാർട്ട","name:ru":"Ыспарта","name:sr":"Испарта","name:tk":"Ysparta","name:tr":"Isparta Merkez","name:tr:suffix":"İlçesi","name:uk":"Испарта","name:zh":"厄斯帕爾塔","network":"TR32-districts","old_name":"Hamidabad;Isbarta;Sabarta;Baris;Βάρις;Σπάρτη της Πισιδίας;Βάρη","old_name:el":"Σπάρτη","type":"boundary","wikidata":"Q171031","wikipedia":"tr:Isparta"}}]},"id":"relation/12089447"},
{"type":"Feature","geometry":{"type":"Polygon","coordinates":[[[30.5591744,37.7555029],[30.5589169,37.7564402],[30.5571669,37.7584129],[30.5541481,37.7570194],[30.5540299,37.7569618],[30.5591744,37.7555029]]]},"properties":{"@id":"relation/12089448","admin_level":"8","boundary":"administrative","name":"Sülübey Mahallesi","type":"boundary","@relations":[{"role":"subarea","rel":1827190,"reltags":{"admin_level":"6","alt_name":"Isparta","boundary":"administrative","name":"Isparta Merkez","name:ar":"إسبرطة","name:be":"Ыспарта","name:bg":"Ъспарта","name:ce":"Испарта","name:de":"Isparta","name:el":"Ισπάρτα","name:en":"Isparta","name:fa":"اسپارتا","name:he":"אספרטה","name:hi":"इस्पार्टा","name:hy":"Ըսփարթա","name:ja":"ウスパルタ","name:ka":"ისპარტა","name:kk":"Ыспарта","name:ko":"이스파르타","name:ml":"ഇസ്പാർട്ട","name:ru":"Ыспарта","name:sr":"Испарта","name:tk":"Ysparta","name:tr":"Isparta Merkez","name:tr:suffix":"İlçesi","name:uk":"Испарта","name:zh":"厄斯帕爾塔","network":"TR32-districts","old_name":"Hamidabad;Isbarta;Sabarta;Baris;Βάρις;Σπάρτη της Πισιδίας;Βάρη","old_name:el":"Σπάρτη","type":"boundary","wikidata":"Q171031","wikipedia":"tr:Isparta"}}]},"id":"relation/12089448"},
{"type":"Feature","geometry":{"type":"Polygon","coordinates":[[[30.5589169,37.7564402],[30.5648714,37.7587516],[30.5637717,37.7606219],[30.5636552,37.7609367],[30.5578012,37.7589795],[30.5571669,37.7584129],[30.5589169,37.7564402]]]},"properties":{"@id":"relation/12089449","admin_level":"8","boundary":"administrative","name":"Hisar Mahallesi","type":"boundary","@relations":[{"role":"subarea","rel":1827190,"reltags":{"admin_level":"6","alt_name":"Isparta","boundary":"administrative","name":"Isparta Merkez","name:ar":"إسبرطة","name:be":"Ыспарта","name:bg":"Ъспарта","name:ce":"Испарта","name:de":"Isparta","name:el":"Ισπάρτα","name:en":"Isparta","name:fa":"اسپارتا","name:he":"אספרטה","name:hi":"इस्पार्टा","name:hy":"Ըսփարթա","name:ja":"ウスパルタ","name:ka":"ისპარტა","name:kk":"Ыспарта","name:ko":"이스파르타","name:ml":"ഇസ്പാർട്ട","name:ru":"Ыспарта","name:sr":"Испарта","name:tk":"Ysparta","name:tr":"Isparta Merkez","name:tr:suffix":"İlçesi","name:uk":"Испарта","name:zh":"厄斯帕爾塔","network":"TR32-districts","old_name":"Hamidabad;Isbarta;Sabarta;Baris;Βάρις;Σπάρτη της Πισιδίας;Βάρη","old_name:el":"Σπάρτη","type":"boundary","wikidata":"Q171031","wikipedia":"tr:Isparta"}}]},"id":"relation/12089449"},
{"type":"Feature","geometry":{"type":"Polygon","coordinates":[[[30.5636552,37.7609367],[30.5689967,37.7616567],[30.5634016,37.7652868],[30.5605849,37.7635393],[30.5636552,37.7609367]]]},"properties":{"@id":"relation/12089450","admin_level":"8","boundary":"administrative","name":"Sermet Mahallesi","type":"boundary","@relations":[{"role":"subarea","rel":1827190,"reltags":{"admin_level":"6","alt_name":"Isparta","boundary":"administrative","name":"Isparta Merkez","name:ar":"إسبرطة","name:be":"Ыспарта","name:bg":"Ъспарта","name:ce":"Испарта","name:de":"Isparta","name:el":"Ισπάρτα","name:en":"Isparta","name:fa":"اسپارتا","name:he":"אספרטה","name:hi":"इस्पार्टा","name:hy":"Ըսփարթա","name:ja":"ウスパルタ","name:ka":"ისპარტა","name:kk":"Ыспарта","name:ko":"이스파르타","name:ml":"ഇസ്പാർട്ട","name:ru":"Ыспарта","name:sr":"Испарта","name:tk":"Ysparta","name:tr":"Isparta Merkez","name:tr:suffix":"İlçesi","name:uk":"Испарта","name:zh":"厄斯帕爾塔","network":"TR32-districts","old_name":"Hamidabad;Isbarta;Sabarta;Baris;Βάρις;Σπάρτη της Πισιδίας;Βάρη","old_name:el":"Σπάρτη","type":"boundary","wikidata":"Q171031","wikipedia":"tr:Isparta"}}]},"id":"relation/12089450"},
{"type":"Feature","geometry":{"type":"Polygon","coordinates":[[[30.5572212,37.7654363],[30.5625808,37.7713948],[30.559051,37.7745302],[30.5512848,37.7709136],[30.5531304,37.76787],[30.5572212,37.7654363]]]},"properties":{"@id":"relation/12089451","admin_level":"8","boundary":"administrative","name":"İstiklal Mahallesi","type":"boundary","@relations":[{"role":"subarea","rel":1827190,"reltags":{"admin_level":"6","alt_name":"Isparta","boundary":"administrative","name":"Isparta Merkez","name:ar":"إسبرطة","name:be":"Ыспарта","name:bg":"Ъспарта","name:ce":"Испарта","name:de":"Isparta","name:el":"Ισπάρτα","name:en":"Isparta","name:fa":"اسپارتا","name:he":"אספרטה","name:hi":"इस्पार्टा","name:hy":"Ըսփարթա","name:ja":"ウスパルタ","name:ka":"ისპარტა","name:kk":"Ыспарта","name:ko":"이스파르타","name:ml":"ഇസ്പാർട്ട","name:ru":"Ыспарта","name:sr":"Испарта","name:tk":"Ysparta","name:tr":"Isparta Merkez","name:tr:suffix":"İlçesi","name:uk":"Испарта","name:zh":"厄斯帕爾塔","network":"TR32-districts","old_name":"Hamidabad;Isbarta;Sabarta;Baris;Βάρις;Σπάρτη της Πισιδίας;Βάρη","old_name:el":"Σπάρτη","type":"boundary","wikidata":"Q171031","wikipedia":"tr:Isparta"}}]},"id":"relation/12089451"},
{"type":"Feature","geometry":{"type":"Polygon","coordinates":[[[30.5602166,37.7637371],[30.5605849,37.7635393],[30.5634016,37.7652868],[30.5634009,37.7707615],[30.5625808,37.7713948],[30.5572212,37.7654363],[30.5584288,37.7646465],[30.5602166,37.7637371]]]},"properties":{"@id":"relation/12089452","admin_level":"8","boundary":"administrative","name":"Kepeci Mahallesi","type":"boundary","@relations":[{"role":"subarea","rel":1827190,"reltags":{"admin_level":"6","alt_name":"Isparta","boundary":"administrative","name":"Isparta Merkez","name:ar":"إسبرطة","name:be":"Ыспарта","name:bg":"Ъспарта","name:ce":"Испарта","name:de":"Isparta","name:el":"Ισπάρτα","name:en":"Isparta","name:fa":"اسپارتا","name:he":"אספרטה","name:hi":"इस्पार्टा","name:hy":"Ըսփարթա","name:ja":"ウスパルタ","name:ka":"ისპარტა","name:kk":"Ыспарта","name:ko":"이스파르타","name:ml":"ഇസ്പാർട്ട","name:ru":"Ыспарта","name:sr":"Испарта","name:tk":"Ysparta","name:tr":"Isparta Merkez","name:tr:suffix":"İlçesi","name:uk":"Испарта","name:zh":"厄斯帕爾塔","network":"TR32-districts","old_name":"Hamidabad;Isbarta;Sabarta;Baris;Βάρις;Σπάρτη της Πισιδίας;Βάρη","old_name:el":"Σπάρτη","type":"boundary","wikidata":"Q171031","wikipedia":"tr:Isparta"}}]},"id":"relation/12089452"},
{"type":"Feature","geometry":{"type":"Polygon","coordinates":[[[30.5584288,37.7646465],[30.5572212,37.7654363],[30.5531304,37.76787],[30.5551404,37.7636626],[30.5557102,37.7632288],[30.5584288,37.7646465]]]},"properties":{"@id":"relation/12089453","admin_level":"8","boundary":"administrative","name":"Kutlubey Mahallesi","type":"boundary","@relations":[{"role":"subarea","rel":1827190,"reltags":{"admin_level":"6","alt_name":"Isparta","boundary":"administrative","name":"Isparta Merkez","name:ar":"إسبرطة","name:be":"Ыспарта","name:bg":"Ъспарта","name:ce":"Испарта","name:de":"Isparta","name:el":"Ισπάρτα","name:en":"Isparta","name:fa":"اسپارتا","name:he":"אספרטה","name:hi":"इस्पार्टा","name:hy":"Ըսփարթա","name:ja":"ウスパルタ","name:ka":"ისპარტა","name:kk":"Ыспарта","name:ko":"이스파르타","name:ml":"ഇസ്പാർട്ട","name:ru":"Ыспарта","name:sr":"Испарта","name:tk":"Ysparta","name:tr":"Isparta Merkez","name:tr:suffix":"İlçesi","name:uk":"Испарта","name:zh":"厄斯帕爾塔","network":"TR32-districts","old_name":"Hamidabad;Isbarta;Sabarta;Baris;Βάρις;Σπάρτη της Πισιδίας;Βάρη","old_name:el":"Σπάρτη","type":"boundary","wikidata":"Q171031","wikipedia":"tr:Isparta"}}]},"id":"relation/12089453"},
{"type":"Feature","geometry":{"type":"Polygon","coordinates":[[[30.557172,37.7597591],[30.5578012,37.7589795],[30.5636552,37.7609367],[30.5605849,37.7635393],[30.5602166,37.7637371],[30.557172,37.7597591]]]},"properties":{"@id":"relation/12089454","admin_level":"8","boundary":"administrative","name":"İskender Mahallesi","type":"boundary","@relations":[{"role":"subarea","rel":1827190,"reltags":{"admin_level":"6","alt_name":"Isparta","boundary":"administrative","name":"Isparta Merkez","name:ar":"إسبرطة","name:be":"Ыспарта","name:bg":"Ъспарта","name:ce":"Испарта","name:de":"Isparta","name:el":"Ισπάρτα","name:en":"Isparta","name:fa":"اسپارتا","name:he":"אספרטה","name:hi":"इस्पार्टा","name:hy":"Ըսփարթա","name:ja":"ウスパルタ","name:ka":"ისპარტა","name:kk":"Ыспарта","name:ko":"이스파르타","name:ml":"ഇസ്പാർട്ട","name:ru":"Ыспарта","name:sr":"Испарта","name:tk":"Ysparta","name:tr":"Isparta Merkez","name:tr:suffix":"İlçesi","name:uk":"Испарта","name:zh":"厄斯帕爾塔","network":"TR32-districts","old_name":"Hamidabad;Isbarta;Sabarta;Baris;Βάρις;Σπάρτη της Πισιδίας;Βάρη","old_name:el":"Σπάρτη","type":"boundary","wikidata":"Q171031","wikipedia":"tr:Isparta"}}]},"id":"relation/12089454"},
{"type":"Feature","geometry":{"type":"Polygon","coordinates":[[[30.5541481,37.7570194],[30.5571669,37.7584129],[30.5578012,37.7589795],[30.557172,37.7597591],[30.556155,37.7606524],[30.5534975,37.7593721],[30.5541481,37.7570194]]]},"properties":{"@id":"relation/12089455","admin_level":"8","boundary":"administrative","name":"Kurtuluş Mahallesi","type":"boundary","@relations":[{"role":"subarea","rel":1827190,"reltags":{"admin_level":"6","alt_name":"Isparta","boundary":"administrative","name":"Isparta Merkez","name:ar":"إسبرطة","name:be":"Ыспарта","name:bg":"Ъспарта","name:ce":"Испарта","name:de":"Isparta","name:el":"Ισπάρτα","name:en":"Isparta","name:fa":"اسپارتا","name:he":"אספרטה","name:hi":"इस्पार्टा","name:hy":"Ըսփարթա","name:ja":"ウスパルタ","name:ka":"ისპარტა","name:kk":"Ыспарта","name:ko":"이스파르타","name:ml":"ഇസ്പാർട്ട","name:ru":"Ыспарта","name:sr":"Испарта","name:tk":"Ysparta","name:tr":"Isparta Merkez","name:tr:suffix":"İlçesi","name:uk":"Испарта","name:zh":"厄斯帕爾塔","network":"TR32-districts","old_name":"Hamidabad;Isbarta;Sabarta;Baris;Βάρις;Σπάρτη της Πισιδίας;Βάρη","old_name:el":"Σπάρτη","type":"boundary","wikidata":"Q171031","wikipedia":"tr:Isparta"}}]},"id":"relation/12089455"},
{"type":"Feature","geometry":{"type":"Polygon","coordinates":[[[30.557172,37.7597591],[30.5602166,37.7637371],[30.5584288,37.7646465],[30.5557102,37.7632288],[30.556155,37.7606524],[30.557172,37.7597591]]]},"properties":{"@id":"relation/12089456","admin_level":"8","boundary":"administrative","name":"Gazikemal Mahallesi","type":"boundary","@relations":[{"role":"subarea","rel":1827190,"reltags":{"admin_level":"6","alt_name":"Isparta","boundary":"administrative","name":"Isparta Merkez","name:ar":"إسبرطة","name:be":"Ыспарта","name:bg":"Ъспарта","name:ce":"Испарта","name:de":"Isparta","name:el":"Ισπάρτα","name:en":"Isparta","name:fa":"اسپارتا","name:he":"אספרטה","name:hi":"इस्पार्टा","name:hy":"Ըսփարթա","name:ja":"ウスパルタ","name:ka":"ისპარტა","name:kk":"Ыспарта","name:ko":"이스파르타","name:ml":"ഇസ്പാർട്ട","name:ru":"Ыспарта","name:sr":"Испарта","name:tk":"Ysparta","name:tr":"Isparta Merkez","name:tr:suffix":"İlçesi","name:uk":"Испарта","name:zh":"厄斯帕爾塔","network":"TR32-districts","old_name":"Hamidabad;Isbarta;Sabarta;Baris;Βάρις;Σπάρτη της Πισιδίας;Βάρη","old_name:el":"Σπάρτη","type":"boundary","wikidata":"Q171031","wikipedia":"tr:Isparta"}}]},"id":"relation/12089456"},
{"type":"Feature","geometry":{"type":"Polygon","coordinates":[[[30.5534975,37.7593721],[30.556155,37.7606524],[30.5557102,37.7632288],[30.5551404,37.7636626],[30.553751,37.7626406],[30.5523601,37.7614864],[30.5534975,37.7593721]]]},"properties":{"@id":"relation/12089457","admin_level":"8","boundary":"administrative","name":"Çelebiler Mahallesi","type":"boundary","@relations":[{"role":"subarea","rel":1827190,"reltags":{"admin_level":"6","alt_name":"Isparta","boundary":"administrative","name":"Isparta Merkez","name:ar":"إسبرطة","name:be":"Ыспарта","name:bg":"Ъспарта","name:ce":"Испарта","name:de":"Isparta","name:el":"Ισπάρτα","name:en":"Isparta","name:fa":"اسپارتا","name:he":"אספרטה","name:hi":"इस्पार्टा","name:hy":"Ըսփարթա","name:ja":"ウスパルタ","name:ka":"ისპარტა","name:kk":"Ыспарта","name:ko":"이스파르타","name:ml":"ഇസ്പാർട്ട","name:ru":"Ыспарта","name:sr":"Испарта","name:tk":"Ysparta","name:tr":"Isparta Merkez","name:tr:suffix":"İlçesi","name:uk":"Испарта","name:zh":"厄斯帕爾塔","network":"TR32-districts","old_name":"Hamidabad;Isbarta;Sabarta;Baris;Βάρις;Σπάρτη της Πισιδίας;Βάρη","old_name:el":"Σπάρτη","type":"boundary","wikidata":"Q171031","wikipedia":"tr:Isparta"}}]},"id":"relation/12089457"},
{"type":"Feature","geometry":{"type":"Polygon","coordinates":[[[30.5482256,37.7650833],[30.553751,37.7626406],[30.5551404,37.7636626],[30.5531304,37.76787],[30.5512848,37.7709136],[30.5468945,37.7711621],[30.5482256,37.7650833]]]},"properties":{"@id":"relation/12089458","admin_level":"8","boundary":"administrative","name":"Pirimehmet Mahallesi","type":"boundary","@relations":[{"role":"subarea","rel":1827190,"reltags":{"admin_level":"6","alt_name":"Isparta","boundary":"administrative","name":"Isparta Merkez","name:ar":"إسبرطة","name:be":"Ыспарта","name:bg":"Ъспарта","name:ce":"Испарта","name:de":"Isparta","name:el":"Ισπάρτα","name:en":"Isparta","name:fa":"اسپارتا","name:he":"אספרטה","name:hi":"इस्पार्टा","name:hy":"Ըսփարթա","name:ja":"ウスパルタ","name:ka":"ისპარტა","name:kk":"Ыспарта","name:ko":"이스파르타","name:ml":"ഇസ്പാർട്ട","name:ru":"Ыспарта","name:sr":"Испарта","name:tk":"Ysparta","name:tr":"Isparta Merkez","name:tr:suffix":"İlçesi","name:uk":"Испарта","name:zh":"厄斯帕爾塔","network":"TR32-districts","old_name":"Hamidabad;Isbarta;Sabarta;Baris;Βάρις;Σπάρτη της Πισιδίας;Βάρη","old_name:el":"Σπάρτη","type":"boundary","wikidata":"Q171031","wikipedia":"tr:Isparta"}}]},"id":"relation/12089458"},
{"type":"Feature","geometry":{"type":"Polygon","coordinates":[[[30.5486011,37.7617882],[30.5519056,37.7612114],[30.5523601,37.7614864],[30.553751,37.7626406],[30.5482256,37.7650833],[30.5486011,37.7617882]]]},"properties":{"@id":"relation/12089459","admin_level":"8","boundary":"administrative","name":"Yayla Mahallesi","type":"boundary","@relations":[{"role":"subarea","rel":1827190,"reltags":{"admin_level":"6","alt_name":"Isparta","boundary":"administrative","name":"Isparta Merkez","name:ar":"إسبرطة","name:be":"Ыспарта","name:bg":"Ъспарта","name:ce":"Испарта","name:de":"Isparta","name:el":"Ισπάρτα","name:en":"Isparta","name:fa":"اسپارتا","name:he":"אספרטה","name:hi":"इस्पार्टा","name:hy":"Ըսփարթա","name:ja":"ウスパルタ","name:ka":"ისპარტა","name:kk":"Ыспарта","name:ko":"이스파르타","name:ml":"ഇസ്പാർട്ട","name:ru":"Ыспарта","name:sr":"Испарта","name:tk":"Ysparta","name:tr":"Isparta Merkez","name:tr:suffix":"İlçesi","name:uk":"Испарта","name:zh":"厄斯帕爾塔","network":"TR32-districts","old_name":"Hamidabad;Isbarta;Sabarta;Baris;Βάρις;Σπάρτη της Πισιδίας;Βάρη","old_name:el":"Σπάρτη","type":"boundary","wikidata":"Q171031","wikipedia":"tr:Isparta"}}]},"id":"relation/12089459"},
{"type":"Feature","geometry":{"type":"Polygon","coordinates":[[[30.5957425,37.7621893],[30.5825686,37.7760659],[30.5940485,37.7806875],[30.5784026,37.7981415],[30.559051,37.7745302],[30.5625808,37.7713948],[30.5634009,37.7707615],[30.5782235,37.7599603],[30.5957425,37.7621893]]]},"properties":{"@id":"relation/12089509","admin_level":"8","boundary":"administrative","name":"Davraz Mahallesi","type":"boundary","@relations":[{"role":"subarea","rel":1827190,"reltags":{"admin_level":"6","alt_name":"Isparta","boundary":"administrative","name":"Isparta Merkez","name:ar":"إسبرطة","name:be":"Ыспарта","name:bg":"Ъспарта","name:ce":"Испарта","name:de":"Isparta","name:el":"Ισπάρτα","name:en":"Isparta","name:fa":"اسپارتا","name:he":"אספרטה","name:hi":"इस्पार्टा","name:hy":"Ըսփարթա","name:ja":"ウスパルタ","name:ka":"ისპარტა","name:kk":"Ыспарта","name:ko":"이스파르타","name:ml":"ഇസ്പാർട്ട","name:ru":"Ыспарта","name:sr":"Испарта","name:tk":"Ysparta","name:tr":"Isparta Merkez","name:tr:suffix":"İlçesi","name:uk":"Испарта","name:zh":"厄斯帕爾塔","network":"TR32-districts","old_name":"Hamidabad;Isbarta;Sabarta;Baris;Βάρις;Σπάρτη της Πισιδίας;Βάρη","old_name:el":"Σπάρτη","type":"boundary","wikidata":"Q171031","wikipedia":"tr:Isparta"}}]},"id":"relation/12089509"},
{"type":"Feature","geometry":{"type":"Polygon","coordinates":[[[30.5660869,37.8295532],[30.5679769,37.8175371],[30.5912923,37.8142545],[30.5986831,37.8283121],[30.5660869,37.8295532]]]},"properties":{"@id":"relation/12089510","admin_level":"8","boundary":"administrative","name":"Akkent Mahallesi","type":"boundary","@relations":[{"role":"subarea","rel":1827190,"reltags":{"admin_level":"6","alt_name":"Isparta","boundary":"administrative","name":"Isparta Merkez","name:ar":"إسبرطة","name:be":"Ыспарта","name:bg":"Ъспарта","name:ce":"Испарта","name:de":"Isparta","name:el":"Ισπάρτα","name:en":"Isparta","name:fa":"اسپارتا","name:he":"אספרטה","name:hi":"इस्पार्टा","name:hy":"Ըսփարթա","name:ja":"ウスパルタ","name:ka":"ისპარტა","name:kk":"Ыспарта","name:ko":"이스파르타","name:ml":"ഇസ്പാർട്ട","name:ru":"Ыспарта","name:sr":"Испарта","name:tk":"Ysparta","name:tr":"Isparta Merkez","name:tr:suffix":"İlçesi","name:uk":"Испарта","name:zh":"厄斯帕爾塔","network":"TR32-districts","old_name":"Hamidabad;Isbarta;Sabarta;Baris;Βάρις;Σπάρτη της Πισιδίας;Βάρη","old_name:el":"Σπάρτη","type":"boundary","wikidata":"Q171031","wikipedia":"tr:Isparta"}}]},"id":"relation/12089510"},
{"type":"Feature","geometry":{"type":"Polygon","coordinates":[[[30.5166958,37.8165527],[30.5097592,37.8291303],[30.501435,37.8213456],[30.5166958,37.8165527]]]},"properties":{"@id":"relation/12089511","admin_level":"8","boundary":"administrative","name":"Mehmet Tönge Mahallesi","type":"boundary","@relations":[{"role":"subarea","rel":1827190,"reltags":{"admin_level":"6","alt_name":"Isparta","boundary":"administrative","name":"Isparta Merkez","name:ar":"إسبرطة","name:be":"Ыспарта","name:bg":"Ъспарта","name:ce":"Испарта","name:de":"Isparta","name:el":"Ισπάρτα","name:en":"Isparta","name:fa":"اسپارتا","name:he":"אספרטה","name:hi":"इस्पार्टा","name:hy":"Ըսփարթա","name:ja":"ウスパルタ","name:ka":"ისპარტა","name:kk":"Ыспарта","name:ko":"이스파르타","name:ml":"ഇസ്പാർട്ട","name:ru":"Ыспарта","name:sr":"Испарта","name:tk":"Ysparta","name:tr":"Isparta Merkez","name:tr:suffix":"İlçesi","name:uk":"Испарта","name:zh":"厄斯帕爾塔","network":"TR32-districts","old_name":"Hamidabad;Isbarta;Sabarta;Baris;Βάρις;Σπάρτη της Πισιδίας;Βάρη","old_name:el":"Σπάρτη","type":"boundary","wikidata":"Q171031","wikipedia":"tr:Isparta"}}]},"id":"relation/12089511"},
{"type":"Feature","geometry":{"type":"Polygon","coordinates":[[[30.5097592,37.8291303],[30.5166958,37.8165527],[30.5167544,37.8041831],[30.5276194,37.7959395],[30.5405512,37.796334],[30.5623756,37.8025938],[30.5679769,37.8175371],[30.5660869,37.8295532],[30.5491161,37.841055],[30.5496311,37.8533225],[30.539267,37.8718723],[30.5278816,37.858134],[30.51201,37.85403],[30.50292,37.86338],[30.4899986,37.8455177],[30.49788,37.83251],[30.5097592,37.8291303]]]},"properties":{"@id":"relation/12089512","admin_level":"8","boundary":"administrative","name":"Çünür Mahallesi","type":"boundary","@relations":[{"role":"subarea","rel":1827190,"reltags":{"admin_level":"6","alt_name":"Isparta","boundary":"administrative","name":"Isparta Merkez","name:ar":"إسبرطة","name:be":"Ыспарта","name:bg":"Ъспарта","name:ce":"Испарта","name:de":"Isparta","name:el":"Ισπάρτα","name:en":"Isparta","name:fa":"اسپارتا","name:he":"אספרטה","name:hi":"इस्पार्टा","name:hy":"Ըսփարթա","name:ja":"ウスパルタ","name:ka":"ისპარტა","name:kk":"Ыспарта","name:ko":"이스파르타","name:ml":"ഇസ്പാർട്ട","name:ru":"Ыспарта","name:sr":"Испарта","name:tk":"Ysparta","name:tr":"Isparta Merkez","name:tr:suffix":"İlçesi","name:uk":"Испарта","name:zh":"厄斯帕爾塔","network":"TR32-districts","old_name":"Hamidabad;Isbarta;Sabarta;Baris;Βάρις;Σπάρτη της Πισιδίας;Βάρη","old_name:el":"Σπάρτη","type":"boundary","wikidata":"Q171031","wikipedia":"tr:Isparta"}}]},"id":"relation/12089512"},
{"type":"Feature","geometry":{"type":"Polygon","coordinates":[[[30.5912923,37.8142545],[30.5679769,37.8175371],[30.5623756,37.8025938],[30.5587657,37.7862841],[30.5521846,37.7778044],[30.5497272,37.7743782],[30.5512848,37.7709136],[30.559051,37.7745302],[30.5784026,37.7981415],[30.5912923,37.8142545]]]},"properties":{"@id":"relation/12089513","admin_level":"8","boundary":"administrative","name":"Sanayi Mahallesi","type":"boundary","@relations":[{"role":"subarea","rel":1827190,"reltags":{"admin_level":"6","alt_name":"Isparta","boundary":"administrative","name":"Isparta Merkez","name:ar":"إسبرطة","name:be":"Ыспарта","name:bg":"Ъспарта","name:ce":"Испарта","name:de":"Isparta","name:el":"Ισπάρτα","name:en":"Isparta","name:fa":"اسپارتا","name:he":"אספרטה","name:hi":"इस्पार्टा","name:hy":"Ըսփարթա","name:ja":"ウスパルタ","name:ka":"ისპარტა","name:kk":"Ыспарта","name:ko":"이스파르타","name:ml":"ഇസ്പാർട്ട","name:ru":"Ыспарта","name:sr":"Испарта","name:tk":"Ysparta","name:tr":"Isparta Merkez","name:tr:suffix":"İlçesi","name:uk":"Испарта","name:zh":"厄斯帕爾塔","network":"TR32-districts","old_name":"Hamidabad;Isbarta;Sabarta;Baris;Βάρις;Σπάρτη της Πισιδίας;Βάρη","old_name:el":"Σπάρτη","type":"boundary","wikidata":"Q171031","wikipedia":"tr:Isparta"}}]},"id":"relation/12089513"},
{"type":"Feature","geometry":{"type":"Polygon","coordinates":[[[30.5521846,37.7778044],[30.5587657,37.7862841],[30.5547594,37.7882823],[30.5521846,37.7778044]]]},"properties":{"@id":"relation/12089514","admin_level":"8","boundary":"administrative","name":"Anadolu Mahallesi","type":"boundary","@relations":[{"role":"subarea","rel":1827190,"reltags":{"admin_level":"6","alt_name":"Isparta","boundary":"administrative","name":"Isparta Merkez","name:ar":"إسبرطة","name:be":"Ыспарта","name:bg":"Ъспарта","name:ce":"Испарта","name:de":"Isparta","name:el":"Ισπάρτα","name:en":"Isparta","name:fa":"اسپارتا","name:he":"אספרטה","name:hi":"इस्पार्टा","name:hy":"Ըսփարթա","name:ja":"ウスパルタ","name:ka":"ისპარტა","name:kk":"Ыспарта","name:ko":"이스파르타","name:ml":"ഇസ്പാർട്ട","name:ru":"Ыспарта","name:sr":"Испарта","name:tk":"Ysparta","name:tr":"Isparta Merkez","name:tr:suffix":"İlçesi","name:uk":"Испарта","name:zh":"厄斯帕爾塔","network":"TR32-districts","old_name":"Hamidabad;Isbarta;Sabarta;Baris;Βάρις;Σπάρτη της Πισιδίας;Βάρη","old_name:el":"Σπάρτη","type":"boundary","wikidata":"Q171031","wikipedia":"tr:Isparta"}}]},"id":"relation/12089514"},
{"type":"Feature","geometry":{"type":"Polygon","coordinates":[[[30.5438455,37.7913322],[30.5465197,37.783367],[30.5497272,37.7743782],[30.5521846,37.7778044],[30.5547594,37.7882823],[30.5438455,37.7913322]]]},"properties":{"@id":"relation/12089515","admin_level":"8","boundary":"administrative","name":"Modernevler Mahallesi","type":"boundary","@relations":[{"role":"subarea","rel":1827190,"reltags":{"admin_level":"6","alt_name":"Isparta","boundary":"administrative","name":"Isparta Merkez","name:ar":"إسبرطة","name:be":"Ыспарта","name:bg":"Ъспарта","name:ce":"Испарта","name:de":"Isparta","name:el":"Ισπάρτα","name:en":"Isparta","name:fa":"اسپارتا","name:he":"אספרטה","name:hi":"इस्पार्टा","name:hy":"Ըսփարթա","name:ja":"ウスパルタ","name:ka":"ისპარტა","name:kk":"Ыспарта","name:ko":"이스파르타","name:ml":"ഇസ്പാർട്ട","name:ru":"Ыспарта","name:sr":"Испарта","name:tk":"Ysparta","name:tr":"Isparta Merkez","name:tr:suffix":"İlçesi","name:uk":"Испарта","name:zh":"厄斯帕爾塔","network":"TR32-districts","old_name":"Hamidabad;Isbarta;Sabarta;Baris;Βάρις;Σπάρτη της Πισιδίας;Βάρη","old_name:el":"Σπάρτη","type":"boundary","wikidata":"Q171031","wikipedia":"tr:Isparta"}}]},"id":"relation/12089515"},
{"type":"Feature","geometry":{"type":"Polygon","coordinates":[[[30.5465197,37.783367],[30.5438455,37.7913322],[30.5405512,37.796334],[30.5276194,37.7959395],[30.5236995,37.7885732],[30.5375075,37.7791611],[30.5465197,37.783367]]]},"properties":{"@id":"relation/12089516","admin_level":"8","boundary":"administrative","name":"Fatih Mahallesi","type":"boundary","@relations":[{"role":"subarea","rel":1827190,"reltags":{"admin_level":"6","alt_name":"Isparta","boundary":"administrative","name":"Isparta Merkez","name:ar":"إسبرطة","name:be":"Ыспарта","name:bg":"Ъспарта","name:ce":"Испарта","name:de":"Isparta","name:el":"Ισπάρτα","name:en":"Isparta","name:fa":"اسپارتا","name:he":"אספרטה","name:hi":"इस्पार्टा","name:hy":"Ըսփարթա","name:ja":"ウスパルタ","name:ka":"ისპარტა","name:kk":"Ыспарта","name:ko":"이스파르타","name:ml":"ഇസ്പാർട്ട","name:ru":"Ыспарта","name:sr":"Испарта","name:tk":"Ysparta","name:tr":"Isparta Merkez","name:tr:suffix":"İlçesi","name:uk":"Испарта","name:zh":"厄斯帕爾塔","network":"TR32-districts","old_name":"Hamidabad;Isbarta;Sabarta;Baris;Βάρις;Σπάρτη της Πισιδίας;Βάρη","old_name:el":"Σπάρτη","type":"boundary","wikidata":"Q171031","wikipedia":"tr:Isparta"}}]},"id":"relation/12089516"},
{"type":"Feature","geometry":{"type":"Polygon","coordinates":[[[30.5375075,37.7791611],[30.5468945,37.7711621],[30.5512848,37.7709136],[30.5497272,37.7743782],[30.5465197,37.783367],[30.5375075,37.7791611]]]},"properties":{"@id":"relation/12089517","admin_level":"8","boundary":"administrative","name":"Bahçelievler Mahallesi","type":"boundary","@relations":[{"role":"subarea","rel":1827190,"reltags":{"admin_level":"6","alt_name":"Isparta","boundary":"administrative","name":"Isparta Merkez","name:ar":"إسبرطة","name:be":"Ыспарта","name:bg":"Ъспарта","name:ce":"Испарта","name:de":"Isparta","name:el":"Ισπάρτα","name:en":"Isparta","name:fa":"اسپارتا","name:he":"אספרטה","name:hi":"इस्पार्टा","name:hy":"Ըսփարթա","name:ja":"ウスパルタ","name:ka":"ისპარტა","name:kk":"Ыспарта","name:ko":"이스파르타","name:ml":"ഇസ്പാർട്ട","name:ru":"Ыспарта","name:sr":"Испарта","name:tk":"Ysparta","name:tr":"Isparta Merkez","name:tr:suffix":"İlçesi","name:uk":"Испарта","name:zh":"厄斯帕爾塔","network":"TR32-districts","old_name":"Hamidabad;Isbarta;Sabarta;Baris;Βάρις;Σπάρτη της Πισιδίας;Βάρη","old_name:el":"Σπάρτη","type":"boundary","wikidata":"Q171031","wikipedia":"tr:Isparta"}}]},"id":"relation/12089517"},
{"type":"Feature","geometry":{"type":"Polygon","coordinates":[[[30.5229149,37.771007],[30.511353,37.7747923],[30.5081026,37.7704135],[30.5158373,37.7605189],[30.5229149,37.771007]]]},"properties":{"@id":"relation/12089518","admin_level":"8","boundary":"administrative","name":"Batıkent Mahallesi","type":"boundary","@relations":[{"role":"subarea","rel":1827190,"reltags":{"admin_level":"6","alt_name":"Isparta","boundary":"administrative","name":"Isparta Merkez","name:ar":"إسبرطة","name:be":"Ыспарта","name:bg":"Ъспарта","name:ce":"Испарта","name:de":"Isparta","name:el":"Ισπάρτα","name:en":"Isparta","name:fa":"اسپارتا","name:he":"אספרטה","name:hi":"इस्पार्टा","name:hy":"Ըսփարթա","name:ja":"ウスパルタ","name:ka":"ისპარტა","name:kk":"Ыспарта","name:ko":"이스파르타","name:ml":"ഇസ്പാർട്ട","name:ru":"Ыспарта","name:sr":"Испарта","name:tk":"Ysparta","name:tr":"Isparta Merkez","name:tr:suffix":"İlçesi","name:uk":"Испарта","name:zh":"厄斯帕爾塔","network":"TR32-districts","old_name":"Hamidabad;Isbarta;Sabarta;Baris;Βάρις;Σπάρτη της Πισιδίας;Βάρη","old_name:el":"Σπάρτη","type":"boundary","wikidata":"Q171031","wikipedia":"tr:Isparta"}}]},"id":"relation/12089518"},
{"type":"Feature","geometry":{"type":"Polygon","coordinates":[[[30.5202985,37.753344],[30.535573,37.7556979],[30.5339555,37.7667432],[30.5321165,37.767928],[30.5229149,37.771007],[30.5158373,37.7605189],[30.5148858,37.7550104],[30.5202985,37.753344]]]},"properties":{"@id":"relation/12089519","admin_level":"8","boundary":"administrative","name":"Işıkkent Mahallesi","type":"boundary","@relations":[{"role":"subarea","rel":1827190,"reltags":{"admin_level":"6","alt_name":"Isparta","boundary":"administrative","name":"Isparta Merkez","name:ar":"إسبرطة","name:be":"Ыспарта","name:bg":"Ъспарта","name:ce":"Испарта","name:de":"Isparta","name:el":"Ισπάρτα","name:en":"Isparta","name:fa":"اسپارتا","name:he":"אספרטה","name:hi":"इस्पार्टा","name:hy":"Ըսփարթա","name:ja":"ウスパルタ","name:ka":"ისპარტა","name:kk":"Ыспарта","name:ko":"이스파르타","name:ml":"ഇസ്പാർട്ട","name:ru":"Ыспарта","name:sr":"Испарта","name:tk":"Ysparta","name:tr":"Isparta Merkez","name:tr:suffix":"İlçesi","name:uk":"Испарта","name:zh":"厄斯帕爾塔","network":"TR32-districts","old_name":"Hamidabad;Isbarta;Sabarta;Baris;Βάρις;Σπάρτη της Πισιδίας;Βάρη","old_name:el":"Σπάρτη","type":"boundary","wikidata":"Q171031","wikipedia":"tr:Isparta"}}]},"id":"relation/12089519"},
{"type":"Feature","geometry":{"type":"Polygon","coordinates":[[[30.5331219,37.7681441],[30.5337739,37.774972],[30.5161571,37.7817135],[30.511353,37.7747923],[30.5229149,37.771007],[30.5321165,37.767928],[30.5331219,37.7681441]]]},"properties":{"@id":"relation/12089520","admin_level":"8","boundary":"administrative","name":"Muzaffer Türkeş Mahallesi","type":"boundary","@relations":[{"role":"subarea","rel":1827190,"reltags":{"admin_level":"6","alt_name":"Isparta","boundary":"administrative","name":"Isparta Merkez","name:ar":"إسبرطة","name:be":"Ыспарта","name:bg":"Ъспарта","name:ce":"Испарта","name:de":"Isparta","name:el":"Ισπάρτα","name:en":"Isparta","name:fa":"اسپارتا","name:he":"אספרטה","name:hi":"इस्पार्टा","name:hy":"Ըսփարթա","name:ja":"ウスパルタ","name:ka":"ისპარტა","name:kk":"Ыспарта","name:ko":"이스파르타","name:ml":"ഇസ്പാർട്ട","name:ru":"Ыспарта","name:sr":"Испарта","name:tk":"Ysparta","name:tr":"Isparta Merkez","name:tr:suffix":"İlçesi","name:uk":"Испарта","name:zh":"厄斯帕爾塔","network":"TR32-districts","old_name":"Hamidabad;Isbarta;Sabarta;Baris;Βάρις;Σπάρτη της Πισιδίας;Βάρη","old_name:el":"Σπάρτη","type":"boundary","wikidata":"Q171031","wikipedia":"tr:Isparta"}}]},"id":"relation/12089520"},
{"type":"Feature","geometry":{"type":"Polygon","coordinates":[[[30.5337739,37.774972],[30.5375075,37.7791611],[30.5236995,37.7885732],[30.5161571,37.7817135],[30.5337739,37.774972]]]},"properties":{"@id":"relation/12089521","admin_level":"8","boundary":"administrative","name":"Zafer Mahallesi","type":"boundary","@relations":[{"role":"subarea","rel":1827190,"reltags":{"admin_level":"6","alt_name":"Isparta","boundary":"administrative","name":"Isparta Merkez","name:ar":"إسبرطة","name:be":"Ыспарта","name:bg":"Ъспарта","name:ce":"Испарта","name:de":"Isparta","name:el":"Ισπάρτα","name:en":"Isparta","name:fa":"اسپارتا","name:he":"אספרטה","name:hi":"इस्पार्टा","name:hy":"Ըսփարթա","name:ja":"ウスパルタ","name:ka":"ისპარტა","name:kk":"Ыспарта","name:ko":"이스파르타","name:ml":"ഇസ്പാർട്ട","name:ru":"Ыспарта","name:sr":"Испарта","name:tk":"Ysparta","name:tr":"Isparta Merkez","name:tr:suffix":"İlçesi","name:uk":"Испарта","name:zh":"厄斯帕爾塔","network":"TR32-districts","old_name":"Hamidabad;Isbarta;Sabarta;Baris;Βάρις;Σπάρτη της Πισιδίας;Βάρη","old_name:el":"Σπάρτη","type":"boundary","wikidata":"Q171031","wikipedia":"tr:Isparta"}}]},"id":"relation/12089521"},
{"type":"Feature","geometry":{"type":"Polygon","coordinates":[[[30.5331219,37.7681441],[30.542135,37.7702611],[30.5468945,37.7711621],[30.5375075,37.7791611],[30.5337739,37.774972],[30.5331219,37.7681441]]]},"properties":{"@id":"relation/12089522","admin_level":"8","boundary":"administrative","name":"Yedişehitler Mahallesi","type":"boundary","@relations":[{"role":"subarea","rel":1827190,"reltags":{"admin_level":"6","alt_name":"Isparta","boundary":"administrative","name":"Isparta Merkez","name:ar":"إسبرطة","name:be":"Ыспарта","name:bg":"Ъспарта","name:ce":"Испарта","name:de":"Isparta","name:el":"Ισπάρτα","name:en":"Isparta","name:fa":"اسپارتا","name:he":"אספרטה","name:hi":"इस्पार्टा","name:hy":"Ըսփարթա","name:ja":"ウスパルタ","name:ka":"ისპარტა","name:kk":"Ыспарта","name:ko":"이스파르타","name:ml":"ഇസ്പാർട്ട","name:ru":"Ыспарта","name:sr":"Испарта","name:tk":"Ysparta","name:tr":"Isparta Merkez","name:tr:suffix":"İlçesi","name:uk":"Испарта","name:zh":"厄斯帕爾塔","network":"TR32-districts","old_name":"Hamidabad;Isbarta;Sabarta;Baris;Βάρις;Σπάρτη της Πισιδίας;Βάρη","old_name:el":"Σπάρτη","type":"boundary","wikidata":"Q171031","wikipedia":"tr:Isparta"}}]},"id":"relation/12089522"},
{"type":"Feature","geometry":{"type":"Polygon","coordinates":[[[30.5482256,37.7650833],[30.5468945,37.7711621],[30.542135,37.7702611],[30.5419296,37.763178],[30.5486011,37.7617882],[30.5482256,37.7650833]]]},"properties":{"@id":"relation/12089523","admin_level":"8","boundary":"administrative","name":"Bağlar Mahallesi","type":"boundary","@relations":[{"role":"subarea","rel":1827190,"reltags":{"admin_level":"6","alt_name":"Isparta","boundary":"administrative","name":"Isparta Merkez","name:ar":"إسبرطة","name:be":"Ыспарта","name:bg":"Ъспарта","name:ce":"Испарта","name:de":"Isparta","name:el":"Ισπάρτα","name:en":"Isparta","name:fa":"اسپارتا","name:he":"אספרטה","name:hi":"इस्पार्टा","name:hy":"Ըսփարթա","name:ja":"ウスパルタ","name:ka":"ისპარტა","name:kk":"Ыспарта","name:ko":"이스파르타","name:ml":"ഇസ്പാർട്ട","name:ru":"Ыспарта","name:sr":"Испарта","name:tk":"Ysparta","name:tr":"Isparta Merkez","name:tr:suffix":"İlçesi","name:uk":"Испарта","name:zh":"厄斯帕爾塔","network":"TR32-districts","old_name":"Hamidabad;Isbarta;Sabarta;Baris;Βάρις;Σπάρτη της Πισιδίας;Βάρη","old_name:el":"Σπάρτη","type":"boundary","wikidata":"Q171031","wikipedia":"tr:Isparta"}}]},"id":"relation/12089523"},
{"type":"Feature","geometry":{"type":"Polygon","coordinates":[[[30.5321165,37.767928],[30.5339555,37.7667432],[30.5419296,37.763178],[30.542135,37.7702611],[30.5331219,37.7681441],[30.5321165,37.767928]]]},"properties":{"@id":"relation/12089524","admin_level":"8","boundary":"administrative","name":"Gülistan Mahallesi","type":"boundary","@relations":[{"role":"subarea","rel":1827190,"reltags":{"admin_level":"6","alt_name":"Isparta","boundary":"administrative","name":"Isparta Merkez","name:ar":"إسبرطة","name:be":"Ыспарта","name:bg":"Ъспарта","name:ce":"Испарта","name:de":"Isparta","name:el":"Ισπάρτα","name:en":"Isparta","name:fa":"اسپارتا","name:he":"אספרטה","name:hi":"इस्पार्टा","name:hy":"Ըսփարթա","name:ja":"ウスパルタ","name:ka":"ისპარტა","name:kk":"Ыспарта","name:ko":"이스파르타","name:ml":"ഇസ്പാർട്ട","name:ru":"Ыспарта","name:sr":"Испарта","name:tk":"Ysparta","name:tr":"Isparta Merkez","name:tr:suffix":"İlçesi","name:uk":"Испарта","name:zh":"厄斯帕爾塔","network":"TR32-districts","old_name":"Hamidabad;Isbarta;Sabarta;Baris;Βάρις;Σπάρτη της Πισιδίας;Βάρη","old_name:el":"Σπάρτη","type":"boundary","wikidata":"Q171031","wikipedia":"tr:Isparta"}}]},"id":"relation/12089524"},
{"type":"Feature","geometry":{"type":"Polygon","coordinates":[[[30.5486843,37.7599116],[30.5519056,37.7612114],[30.5486011,37.7617882],[30.5419296,37.763178],[30.5339555,37.7667432],[30.535573,37.7556979],[30.5404735,37.7563817],[30.5476999,37.7596974],[30.5486843,37.7599116]]]},"properties":{"@id":"relation/12089525","admin_level":"8","boundary":"administrative","name":"Hızırbey Mahallesi","type":"boundary","@relations":[{"role":"subarea","rel":1827190,"reltags":{"admin_level":"6","alt_name":"Isparta","boundary":"administrative","name":"Isparta Merkez","name:ar":"إسبرطة","name:be":"Ыспарта","name:bg":"Ъспарта","name:ce":"Испарта","name:de":"Isparta","name:el":"Ισπάρτα","name:en":"Isparta","name:fa":"اسپارتا","name:he":"אספרטה","name:hi":"इस्पार्टा","name:hy":"Ըսփարթա","name:ja":"ウスパルタ","name:ka":"ისპარტა","name:kk":"Ыспарта","name:ko":"이스파르타","name:ml":"ഇസ്പാർട്ട","name:ru":"Ыспарта","name:sr":"Испарта","name:tk":"Ysparta","name:tr":"Isparta Merkez","name:tr:suffix":"İlçesi","name:uk":"Испарта","name:zh":"厄斯帕爾塔","network":"TR32-districts","old_name":"Hamidabad;Isbarta;Sabarta;Baris;Βάρις;Σπάρτη της Πισιδίας;Βάρη","old_name:el":"Σπάρτη","type":"boundary","wikidata":"Q171031","wikipedia":"tr:Isparta"}}]},"id":"relation/12089525"},
{"type":"Feature","geometry":{"type":"Polygon","coordinates":[[[30.5519266,37.755737],[30.5486843,37.7599116],[30.5476999,37.7596974],[30.5464232,37.7456412],[30.5519266,37.755737]]]},"properties":{"@id":"relation/12089526","admin_level":"8","boundary":"administrative","name":"Keçeci Mahallesi","type":"boundary","@relations":[{"role":"subarea","rel":1827190,"reltags":{"admin_level":"6","alt_name":"Isparta","boundary":"administrative","name":"Isparta Merkez","name:ar":"إسبرطة","name:be":"Ыспарта","name:bg":"Ъспарта","name:ce":"Испарта","name:de":"Isparta","name:el":"Ισπάρτα","name:en":"Isparta","name:fa":"اسپارتا","name:he":"אספרטה","name:hi":"इस्पार्टा","name:hy":"Ըսփարթա","name:ja":"ウスパルタ","name:ka":"ისპარტა","name:kk":"Ыспарта","name:ko":"이스파르타","name:ml":"ഇസ്പാർട്ട","name:ru":"Ыспарта","name:sr":"Испарта","name:tk":"Ysparta","name:tr":"Isparta Merkez","name:tr:suffix":"İlçesi","name:uk":"Испарта","name:zh":"厄斯帕爾塔","network":"TR32-districts","old_name":"Hamidabad;Isbarta;Sabarta;Baris;Βάρις;Σπάρτη της Πισιδίας;Βάρη","old_name:el":"Σπάρτη","type":"boundary","wikidata":"Q171031","wikipedia":"tr:Isparta"}}]},"id":"relation/12089526"},
{"type":"Feature","geometry":{"type":"Polygon","coordinates":[[[30.5486843,37.7599116],[30.5519266,37.755737],[30.5540299,37.7569618],[30.5541481,37.7570194],[30.5534975,37.7593721],[30.5523601,37.7614864],[30.5519056,37.7612114],[30.5486843,37.7599116]]]},"properties":{"@id":"relation/12089527","admin_level":"8","boundary":"administrative","name":"Turan Mahallesi","type":"boundary","@relations":[{"role":"subarea","rel":1827190,"reltags":{"admin_level":"6","alt_name":"Isparta","boundary":"administrative","name":"Isparta Merkez","name:ar":"إسبرطة","name:be":"Ыспарта","name:bg":"Ъспарта","name:ce":"Испарта","name:de":"Isparta","name:el":"Ισπάρτα","name:en":"Isparta","name:fa":"اسپارتا","name:he":"אספרטה","name:hi":"इस्पार्टा","name:hy":"Ըսփարթա","name:ja":"ウスパルタ","name:ka":"ისპარტა","name:kk":"Ыспарта","name:ko":"이스파르타","name:ml":"ഇസ്പാർട്ട","name:ru":"Ыспарта","name:sr":"Испарта","name:tk":"Ysparta","name:tr":"Isparta Merkez","name:tr:suffix":"İlçesi","name:uk":"Испарта","name:zh":"厄斯帕爾塔","network":"TR32-districts","old_name":"Hamidabad;Isbarta;Sabarta;Baris;Βάρις;Σπάρτη της Πισιδίας;Βάρη","old_name:el":"Σπάρτη","type":"boundary","wikidata":"Q171031","wikipedia":"tr:Isparta"}}]},"id":"relation/12089527"},
{"type":"Feature","geometry":{"type":"Polygon","coordinates":[[[30.5452752,37.7446232],[30.5404735,37.7563817],[30.535573,37.7556979],[30.5388272,37.7449201],[30.5444705,37.7433167],[30.5452752,37.7446232]]]},"properties":{"@id":"relation/12089545","admin_level":"8","boundary":"administrative","name":"Yenice Mahallesi","type":"boundary","@relations":[{"role":"subarea","rel":1827190,"reltags":{"admin_level":"6","alt_name":"Isparta","boundary":"administrative","name":"Isparta Merkez","name:ar":"إسبرطة","name:be":"Ыспарта","name:bg":"Ъспарта","name:ce":"Испарта","name:de":"Isparta","name:el":"Ισπάρτα","name:en":"Isparta","name:fa":"اسپارتا","name:he":"אספרטה","name:hi":"इस्पार्टा","name:hy":"Ըսփարթա","name:ja":"ウスパルタ","name:ka":"ისპარტა","name:kk":"Ыспарта","name:ko":"이스파르타","name:ml":"ഇസ്പാർട്ട","name:ru":"Ыспарта","name:sr":"Испарта","name:tk":"Ysparta","name:tr":"Isparta Merkez","name:tr:suffix":"İlçesi","name:uk":"Испарта","name:zh":"厄斯帕爾塔","network":"TR32-districts","old_name":"Hamidabad;Isbarta;Sabarta;Baris;Βάρις;Σπάρτη της Πισιδίας;Βάρη","old_name:el":"Σπάρτη","type":"boundary","wikidata":"Q171031","wikipedia":"tr:Isparta"}}]},"id":"relation/12089545"},
{"type":"Feature","geometry":{"type":"Polygon","coordinates":[[[30.5464232,37.7456412],[30.5476999,37.7596974],[30.5404735,37.7563817],[30.5452752,37.7446232],[30.5464232,37.7456412]]]},"properties":{"@id":"relation/12089546","admin_level":"8","boundary":"administrative","name":"Doğancı Mahallesi","type":"boundary","@relations":[{"role":"subarea","rel":1827190,"reltags":{"admin_level":"6","alt_name":"Isparta","boundary":"administrative","name":"Isparta Merkez","name:ar":"إسبرطة","name:be":"Ыспарта","name:bg":"Ъспарта","name:ce":"Испарта","name:de":"Isparta","name:el":"Ισπάρτα","name:en":"Isparta","name:fa":"اسپارتا","name:he":"אספרטה","name:hi":"इस्पार्टा","name:hy":"Ըսփարթա","name:ja":"ウスパルタ","name:ka":"ისპარტა","name:kk":"Ыспарта","name:ko":"이스파르타","name:ml":"ഇസ്പാർട്ട","name:ru":"Ыспарта","name:sr":"Испарта","name:tk":"Ysparta","name:tr":"Isparta Merkez","name:tr:suffix":"İlçesi","name:uk":"Испарта","name:zh":"厄斯帕爾塔","network":"TR32-districts","old_name":"Hamidabad;Isbarta;Sabarta;Baris;Βάρις;Σπάρτη της Πισιδίας;Βάρη","old_name:el":"Σπάρτη","type":"boundary","wikidata":"Q171031","wikipedia":"tr:Isparta"}}]},"id":"relation/12089546"},
{"type":"Feature","geometry":{"type":"Polygon","coordinates":[[[30.5202985,37.753344],[30.5265427,37.741009],[30.5388272,37.7449201],[30.535573,37.7556979],[30.5202985,37.753344]]]},"properties":{"@id":"relation/12089547","admin_level":"8","boundary":"administrative","name":"Dere Mahallesi","type":"boundary","@relations":[{"role":"subarea","rel":1827190,"reltags":{"admin_level":"6","alt_name":"Isparta","boundary":"administrative","name":"Isparta Merkez","name:ar":"إسبرطة","name:be":"Ыспарта","name:bg":"Ъспарта","name:ce":"Испарта","name:de":"Isparta","name:el":"Ισπάρτα","name:en":"Isparta","name:fa":"اسپارتا","name:he":"אספרטה","name:hi":"इस्पार्टा","name:hy":"Ըսփարթա","name:ja":"ウスパルタ","name:ka":"ისპარტა","name:kk":"Ыспарта","name:ko":"이스파르타","name:ml":"ഇസ്പാർട്ട","name:ru":"Ыспарта","name:sr":"Испарта","name:tk":"Ysparta","name:tr":"Isparta Merkez","name:tr:suffix":"İlçesi","name:uk":"Испарта","name:zh":"厄斯帕爾塔","network":"TR32-districts","old_name":"Hamidabad;Isbarta;Sabarta;Baris;Βάρις;Σπάρτη της Πισιδίας;Βάρη","old_name:el":"Σπάρτη","type":"boundary","wikidata":"Q171031","wikipedia":"tr:Isparta"}}]},"id":"relation/12089547"},
{"type":"Feature","geometry":{"type":"Polygon","coordinates":[[[30.5158373,37.7605189],[30.5081026,37.7704135],[30.5148858,37.7550104],[30.5158373,37.7605189]]]},"properties":{"@id":"relation/12089548","admin_level":"8","boundary":"administrative","name":"Binbirevler Mahallesi","type":"boundary","@relations":[{"role":"subarea","rel":1827190,"reltags":{"admin_level":"6","alt_name":"Isparta","boundary":"administrative","name":"Isparta Merkez","name:ar":"إسبرطة","name:be":"Ыспарта","name:bg":"Ъспарта","name:ce":"Испарта","name:de":"Isparta","name:el":"Ισπάρτα","name:en":"Isparta","name:fa":"اسپارتا","name:he":"אספרטה","name:hi":"इस्पार्टा","name:hy":"Ըսփարթա","name:ja":"ウスパルタ","name:ka":"ისპარტა","name:kk":"Ыспарта","name:ko":"이스파르타","name:ml":"ഇസ്പാർട്ട","name:ru":"Ыспарта","name:sr":"Испарта","name:tk":"Ysparta","name:tr":"Isparta Merkez","name:tr:suffix":"İlçesi","name:uk":"Испарта","name:zh":"厄斯帕爾塔","network":"TR32-districts","old_name":"Hamidabad;Isbarta;Sabarta;Baris;Βάρις;Σπάρτη της Πισιδίας;Βάρη","old_name:el":"Σπάρτη","type":"boundary","wikidata":"Q171031","wikipedia":"tr:Isparta"}}]},"id":"relation/12089548"},
{"type":"Feature","geometry":{"type":"Polygon","coordinates":[[[30.8595722,37.8800568],[30.8597154,37.8798396],[30.8695936,37.8817685],[30.867078,37.8840804],[30.8646802,37.8812802],[30.8595722,37.8800568]]]},"properties":{"@id":"relation/14227505","admin_level":"8","boundary":"administrative","name":"Yeşilada Mah.","type":"boundary"},"id":"relation/14227505"},
{"type":"Feature","geometry":{"type":"Polygon","coordinates":[[[30.8536227,37.8748143],[30.8570281,37.87876],[30.8522296,37.8767432],[30.8536227,37.8748143]]]},"properties":{"@id":"relation/14227544","admin_level":"8","boundary":"administrative","name":"Kale Mah.","type":"boundary"},"id":"relation/14227544"},
{"type":"Feature","geometry":{"type":"Polygon","coordinates":[[[30.8495452,37.8759159],[30.8493048,37.8747291],[30.8491357,37.8743803],[30.852077,37.8738838],[30.8536227,37.8748143],[30.8522296,37.8767432],[30.8495452,37.8759159]]]},"properties":{"@id":"relation/14227648","admin_level":"8","boundary":"administrative","name":"Camii Mah.","type":"boundary"},"id":"relation/14227648"},
{"type":"Feature","geometry":{"type":"Polygon","coordinates":[[[30.8493048,37.8747291],[30.8495452,37.8759159],[30.8477354,37.8758904],[30.8479832,37.874867],[30.8493048,37.8747291]]]},"properties":{"@id":"relation/14227649","admin_level":"8","boundary":"administrative","name":"Hacışeyh Mah.","type":"boundary"},"id":"relation/14227649"},
{"type":"Feature","geometry":{"type":"Polygon","coordinates":[[[30.8486959,37.8739775],[30.849034,37.8716296],[30.849512,37.8716167],[30.852077,37.8738838],[30.8491357,37.8743803],[30.8486959,37.8739775]]]},"properties":{"@id":"relation/14227650","admin_level":"8","boundary":"administrative","name":"Demirkapı Mah.","type":"boundary"},"id":"relation/14227650"},
{"type":"Feature","geometry":{"type":"Polygon","coordinates":[[[30.8430578,37.8750092],[30.8431909,37.8743235],[30.8438717,37.8719738],[30.8456801,37.8742396],[30.8479832,37.874867],[30.8477354,37.8758904],[30.8430578,37.8750092]]]},"properties":{"@id":"relation/14278545","admin_level":"8","boundary":"administrative","name":"Hamam Mah.","type":"boundary"},"id":"relation/14278545"},
{"type":"Feature","geometry":{"type":"Polygon","coordinates":[[[30.8493048,37.8747291],[30.8479832,37.874867],[30.8456801,37.8742396],[30.8479671,37.8728949],[30.8486959,37.8739775],[30.8491357,37.8743803],[30.8493048,37.8747291]]]},"properties":{"@id":"relation/14278546","admin_level":"8","boundary":"administrative","name":"Poyraz Mah.","type":"boundary"},"id":"relation/14278546"},
{"type":"Feature","geometry":{"type":"Polygon","coordinates":[[[30.8438717,37.8719738],[30.8447361,37.8690325],[30.8474952,37.8707187],[30.8479671,37.8728949],[30.8456801,37.8742396],[30.8438717,37.8719738]]]},"properties":{"@id":"relation/14278547","admin_level":"8","boundary":"administrative","name":"Ağa Mah.","type":"boundary"},"id":"relation/14278547"},
{"type":"Feature","geometry":{"type":"Polygon","coordinates":[[[30.8474952,37.8707187],[30.8447361,37.8690325],[30.8444824,37.8619161],[30.8465042,37.8620043],[30.8474729,37.8622687],[30.849512,37.8716167],[30.849034,37.8716296],[30.8474952,37.8707187]]]},"properties":{"@id":"relation/14278548","admin_level":"8","boundary":"administrative","name":"İmaret Mah.","type":"boundary"},"id":"relation/14278548"},
{"type":"Feature","geometry":{"type":"Polygon","coordinates":[[[30.8486959,37.8739775],[30.8479671,37.8728949],[30.8474952,37.8707187],[30.849034,37.8716296],[30.8486959,37.8739775]]]},"properties":{"@id":"relation/14278549","admin_level":"8","boundary":"administrative","name":"Katip Mah.","type":"boundary"},"id":"relation/14278549"},
{"type":"Feature","geometry":{"type":"Polygon","coordinates":[[[30.8372632,37.8726847],[30.8431909,37.8743235],[30.8430578,37.8750092],[30.8328666,37.8768426],[30.8306006,37.8742642],[30.8372632,37.8726847]]]},"properties":{"@id":"relation/14279157","admin_level":"8","boundary":"administrative","name":"Yazla Mah.","type":"boundary"},"id":"relation/14279157"},
{"type":"Feature","geometry":{"type":"Polygon","coordinates":[[[30.843359,37.8591233],[30.8444824,37.8619161],[30.8447361,37.8690325],[30.8438717,37.8719738],[30.8431909,37.8743235],[30.8372632,37.8726847],[30.843359,37.8591233]]]},"properties":{"@id":"relation/14279158","admin_level":"8","boundary":"administrative","name":"Seydim Mah.","type":"boundary"},"id":"relation/14279158"},
{"type":"Feature","geometry":{"type":"Polygon","coordinates":[[[30.8402216,37.8521777],[30.843359,37.8591233],[30.8372632,37.8726847],[30.8306006,37.8742642],[30.8201448,37.8674824],[30.8262863,37.8571924],[30.8402216,37.8521777]]]},"properties":{"@id":"relation/14279159","admin_level":"8","boundary":"administrative","name":"Kubbeli Mah.","type":"boundary"},"id":"relation/14279159"},
{"type":"Feature","geometry":{"type":"Polygon","coordinates":[[[30.8306006,37.8742642],[30.8328666,37.8768426],[30.8203553,37.8817869],[30.8130286,37.8774407],[30.8201448,37.8674824],[30.8306006,37.8742642]]]},"properties":{"@id":"relation/14281484","admin_level":"8","boundary":"administrative","name":"İstasyon Mah.","type":"boundary"},"id":"relation/14281484"},
{"type":"Feature","geometry":{"type":"Polygon","coordinates":[[[30.8203553,37.8817869],[30.8216064,37.8896554],[30.8139769,37.8901111],[30.8130286,37.8774407],[30.8203553,37.8817869]]]},"properties":{"@id":"relation/14281485","admin_level":"8","boundary":"administrative","name":"Altınkum Mah.","type":"boundary"},"id":"relation/14281485"},
{"type":"Feature","geometry":{"type":"Polygon","coordinates":[[[30.843359,37.8591233],[30.8402216,37.8521777],[30.8478379,37.8518764],[30.8503268,37.8526707],[30.8465042,37.8620043],[30.8444824,37.8619161],[30.843359,37.8591233]]]},"properties":{"@id":"relation/14281486","admin_level":"8","boundary":"administrative","name":"Sekibağ Mah.","type":"boundary"},"id":"relation/14281486"},
{"type":"Feature","geometry":{"type":"Polygon","coordinates":[[[30.8503268,37.8526707],[30.8547129,37.8548068],[30.8474729,37.8622687],[30.8465042,37.8620043],[30.8503268,37.8526707]]]},"properties":{"@id":"relation/14281487","admin_level":"8","boundary":"administrative","name":"Yeni Mah.","type":"boundary"},"id":"relation/14281487"},
{"type":"Feature","geometry":{"type":"Polygon","coordinates":[[[30.8478379,37.8518764],[30.858834,37.8410804],[30.8644654,37.8447797],[30.8580746,37.8482191],[30.8547129,37.8548068],[30.8503268,37.8526707],[30.8478379,37.8518764]]]},"properties":{"@id":"relation/14281488","admin_level":"8","boundary":"administrative","name":"Menderes Mah.","type":"boundary"},"id":"relation/14281488"},
{"type":"Feature","geometry":{"type":"Polygon","coordinates":[[[30.5587657,37.7862841],[30.5623756,37.8025938],[30.5405512,37.796334],[30.5438455,37.7913322],[30.5547594,37.7882823],[30.5587657,37.7862841]]]},"properties":{"@id":"relation/18618531","admin_level":"8","boundary":"administrative","name":"Yeni Mahallesi","type":"boundary","@relations":[{"role":"subarea","rel":1827190,"reltags":{"admin_level":"6","alt_name":"Isparta","boundary":"administrative","name":"Isparta Merkez","name:ar":"إسبرطة","name:be":"Ыспарта","name:bg":"Ъспарта","name:ce":"Испарта","name:de":"Isparta","name:el":"Ισπάρτα","name:en":"Isparta","name:fa":"اسپارتا","name:he":"אספרטה","name:hi":"इस्पार्टा","name:hy":"Ըսփարթա","name:ja":"ウスパルタ","name:ka":"ისპარტა","name:kk":"Ыспарта","name:ko":"이스파르타","name:ml":"ഇസ്പാർട്ട","name:ru":"Ыспарта","name:sr":"Испарта","name:tk":"Ysparta","name:tr":"Isparta Merkez","name:tr:suffix":"İlçesi","name:uk":"Испарта","name:zh":"厄斯帕爾塔","network":"TR32-districts","old_name":"Hamidabad;Isbarta;Sabarta;Baris;Βάρις;Σπάρτη της Πισιδίας;Βάρη","old_name:el":"Σπάρτη","type":"boundary","wikidata":"Q171031","wikipedia":"tr:Isparta"}}]},"id":"relation/18618531"}
]}