{"type":"FeatureCollection", "features": [
{"type":"Feature","geometry":{"type":"Polygon","coordinates":[[[36.4534594,37.8197315],[36.4862433,37.8535425],[36.5064596,37.9474152],[36.5500023,37.9901704],[36.5899994,37.9967365],[36.6503061,37.9785263],[36.7096914,37.9901895],[36.797773,37.9961736],[36.8231914,38.0076169],[36.9006466,38.0098329],[36.9822037,38.0699509],[36.9667066,38.0997627],[36.9818205,38.1317361],[36.9663725,38.1374622],[36.8403714,38.1352445],[36.7733639,38.1172372],[36.7366171,38.1137894],[36.7262971,38.1359458],[36.7353141,38.1840828],[36.7311615,38.2111226],[36.7062462,38.2269688],[36.6831105,38.2595826],[36.6700596,38.2945096],[36.6999693,38.3655448],[36.6991347,38.4062114],[36.6742753,38.392765],[36.6073167,38.3856669],[36.565495,38.3437922],[36.5836614,38.3119461],[36.5260253,38.2650631],[36.5185722,38.247215],[36.4835433,38.2423903],[36.416085,38.266105],[36.3848381,38.2268732],[36.3889127,38.1862114],[36.3609342,38.1636828],[36.3480314,38.1224515],[36.3582178,38.1047128],[36.3321715,38.0675739],[36.2660884,38.0537065],[36.2568716,38.0294978],[36.2337968,38.0138751],[36.2056757,37.9576615],[36.2353572,37.9466038],[36.2923058,37.906644],[36.2709921,37.8447965],[36.2694593,37.816237],[36.3669238,37.8344482],[36.4534594,37.8197315]]]},"properties":{"@id":"relation/1335884","admin_level":"6","boundary":"administrative","name":"Göksun","name:ce":"Гоьксун","name:el":"Κουκουσός","name:fa":"گوک‌سون","name:hy":"Կէօքսուն","name:ku":"Koksen","name:ru":"Гёксун","name:tr":"Göksun","name:tr:suffix":"İlçesi","name:tt":"Гөксун","name:uk":"Ґьоксун","name:ur":"گوکسن","name:zh":"格克孫","network":"TR46-districts","old_name":"Kokussos;Kokusus;Cocussus;Kokson;Köksün","population":"51255","population:date":"31-12-2021","postal_code":"46600","type":"boundary","wikidata":"Q939677","wikipedia":"tr:Göksun"},"id":"relation/1335884"},
{"type":"Feature","geometry":{"type":"Polygon","coordinates":[[[36.2694593,37.816237],[36.2555254,37.7898151],[36.2672972,37.7556632],[36.2134201,37.7147571],[36.2659868,37.6685076],[36.2625248,37.6157835],[36.2469379,37.5798596],[36.2543488,37.5678933],[36.2365592,37.5202859],[36.2512085,37.4951308],[36.2605601,37.4318935],[36.2554004,37.4154785],[36.2734459,37.3587707],[36.3192726,37.3656073],[36.3671661,37.351144],[36.4686042,37.376091],[36.4653279,37.4140848],[36.4793038,37.4448916],[36.4761107,37.4860454],[36.4875179,37.5432616],[36.5116743,37.5747782],[36.5242232,37.6113074],[36.5102212,37.618474],[36.5305438,37.6528475],[36.5207801,37.6997747],[36.548663,37.7388371],[36.5361383,37.7601041],[36.4534594,37.8197315],[36.3669238,37.8344482],[36.2694593,37.816237]]]},"properties":{"@id":"relation/1336189","admin_level":"6","alt_name":"Andirin","boundary":"administrative","name":"Andırın","name:ce":"Андирин","name:de":"Andırın","name:en":"Andırın","name:fa":"آندیرلین","name:hy":"Անդիրին","name:ku":"Andirîn","name:ru":"Андырын","name:tr":"Andırın","name:tr:suffix":"İlçesi","name:tt":"Андырын","name:uk":"Андирин","name:ur":"اندیرین","name:zh":"安德倫","network":"TR46-districts","population":"31765","population:date":"31-12-2021","type":"boundary","wikidata":"Q528602","wikipedia":"tr:Andırın"},"id":"relation/1336189"},
{"type":"Feature","geometry":{"type":"Polygon","coordinates":[[[37.482929,37.8820347],[37.4876328,37.8981295],[37.4476443,37.9028819],[37.4327582,37.8914949],[37.3639963,37.8788277],[37.3344575,37.8485921],[37.3085273,37.8414377],[37.2650263,37.84504],[37.246509,37.9056424],[37.2333317,37.9090041],[37.1929532,37.9195183],[37.1643584,37.9048564],[37.1691434,37.846624],[37.1660158,37.7995872],[37.1460215,37.7808238],[37.1528945,37.7588449],[37.1959942,37.7263421],[37.2123096,37.6925549],[37.2611549,37.669814],[37.2807279,37.6380101],[37.3193186,37.6561641],[37.3508097,37.6595277],[37.4143977,37.6822937],[37.4578441,37.6723779],[37.4693787,37.6822334],[37.4533164,37.7482244],[37.4836389,37.7499437],[37.5088116,37.7762884],[37.5019575,37.8035768],[37.5131198,37.8447232],[37.5039254,37.8779533],[37.482929,37.8820347]]]},"properties":{"@id":"relation/1340567","admin_level":"6","boundary":"administrative","name":"Çağlayancerit","name:ce":"ЧагӀлайанджерит","name:de":"Çağlayancerit","name:en":"Çağlayancerit","name:fa":"چاغلایان‌جریت","name:ku":"Cirîd","name:ru":"Чаглаянджерит","name:tr":"Çağlayancerit","name:tr:suffix":"İlçesi","name:ur":"چاغلایانجریت","name:zh":"恰拉揚傑里特","network":"TR46-districts","postal_code":"46720","type":"boundary","wikidata":"Q272745","wikipedia":"tr:Çağlayancerit"},"id":"relation/1340567"},
{"type":"Feature","geometry":{"type":"Polygon","coordinates":[[[37.482929,37.8820347],[37.5356942,37.9196214],[37.564054,37.9006637],[37.6078504,37.9213665],[37.6161398,37.9441115],[37.603097,37.9577975],[37.5808275,38.0057076],[37.6013303,38.0131128],[37.5768793,38.0260192],[37.5786495,38.0540473],[37.6248751,38.0651455],[37.6014658,38.0807279],[37.4883729,38.0925308],[37.4555697,38.1092482],[37.4171431,38.1114605],[37.3684069,38.0959729],[37.2534822,38.0840735],[37.2477758,38.0201135],[37.2607789,38.0063462],[37.2652607,37.9727554],[37.2333317,37.9090041],[37.246509,37.9056424],[37.2650263,37.84504],[37.3085273,37.8414377],[37.3344575,37.8485921],[37.3639963,37.8788277],[37.4327582,37.8914949],[37.4476443,37.9028819],[37.4876328,37.8981295],[37.482929,37.8820347]]]},"properties":{"@id":"relation/1340568","admin_level":"6","alt_name:ku":"Nûrḧeq","boundary":"administrative","name":"Nurhak","name:ce":"НурхӀак","name:de":"Nurhak","name:en":"Nurhak","name:fa":"نورحق","name:ku":"Nûrheq","name:ru":"Нурхак","name:tr":"Nurhak","name:tr:suffix":"İlçesi","name:tt":"Нурһак","name:ur":"نورہاک","network":"TR46-districts","postal_code":"46370","type":"boundary","wikidata":"Q509011","wikipedia":"tr:Nurhak"},"id":"relation/1340568"},
{"type":"Feature","geometry":{"type":"Polygon","coordinates":[[[36.8469689,37.2619519],[36.8646133,37.2687082],[36.8820691,37.3258829],[36.9057262,37.3317524],[36.9771078,37.2949804],[36.9991207,37.2866189],[37.0476241,37.3042427],[37.0329892,37.3216015],[37.0497166,37.3399267],[37.0230298,37.3617248],[37.0177337,37.3919434],[36.9961577,37.3880617],[36.960225,37.4025573],[36.9611683,37.4206968],[36.922058,37.4352655],[36.8924231,37.4341448],[36.8960758,37.4679438],[36.8216273,37.4780536],[36.7567171,37.4589068],[36.7163115,37.430662],[36.7254514,37.4186406],[36.6640702,37.400807],[36.6420411,37.3647391],[36.6913618,37.3583128],[36.6697005,37.3302386],[36.6305018,37.2979077],[36.6561943,37.2759774],[36.6868345,37.2749464],[36.6850609,37.270477],[36.6741795,37.2472865],[36.6965365,37.2202735],[36.7456425,37.2335744],[36.7761009,37.2336818],[36.8104219,37.228338],[36.8469689,37.2619519]]]},"properties":{"@id":"relation/1341115","admin_level":"6","boundary":"administrative","name":"Türkoğlu","name:ce":"ТуьркогӀлу","name:de":"Türkoğlu","name:en":"Türkoğlu","name:fa":"ترک‌اوغلی","name:ku":"Kirdoxlî","name:ru":"Тюркоглу","name:tr":"Türkoğlu","name:tr:suffix":"İlçesi","name:tt":"Түркоглу","name:ur":"ترک اوغلو","name:zh":"蒂爾克奧盧","network":"TR46-districts","population":"78588","population:date":"31-12-2021","postal_code":"46800","type":"boundary","wikidata":"Q993676","wikipedia":"tr:Türkoğlu"},"id":"relation/1341115"},
{"type":"Feature","geometry":{"type":"Polygon","coordinates":[[[37.2333317,37.9090041],[37.2652607,37.9727554],[37.2607789,38.0063462],[37.2477758,38.0201135],[37.2534822,38.0840735],[37.2145358,38.1197646],[37.1970406,38.1134527],[37.1189255,38.143401],[37.0902424,38.1428639],[37.0601369,38.1172996],[37.0189929,38.0982651],[36.9667066,38.0997627],[36.9822037,38.0699509],[36.9006466,38.0098329],[36.934247,37.9940877],[36.9724806,37.9870084],[36.9797278,37.9591986],[36.9703252,37.9343157],[36.9890796,37.9239096],[36.9917571,37.8888203],[37.0194294,37.8787149],[37.0442894,37.8721105],[37.0894731,37.8794156],[37.093235,37.8948974],[37.1643584,37.9048564],[37.1929532,37.9195183],[37.2333317,37.9090041]]]},"properties":{"@id":"relation/1341116","admin_level":"6","boundary":"administrative","name":"Ekinözü","name:ce":"Экиноьзуь","name:de":"Ekinözü","name:en":"Ekinözü","name:ku":"Cela","name:ru":"Экинёзю","name:tr":"Ekinözü","name:tr:suffix":"İlçesi","name:ur":"عکینوزو","network":"TR46-districts","postal_code":"46360","type":"boundary","wikidata":"Q1018536","wikipedia":"tr:Ekinözü"},"id":"relation/1341116"},
{"type":"Feature","geometry":{"type":"Polygon","coordinates":[[[36.9818205,38.1317361],[37.034319,38.1483394],[37.0545224,38.181451],[37.0748021,38.2601182],[37.0589217,38.2851672],[37.0638752,38.3416385],[37.0752392,38.3554638],[37.0688061,38.4055882],[37.0459153,38.4243576],[37.0267518,38.4634481],[37.0552193,38.5161033],[37.0546389,38.5718222],[37.0428943,38.58521],[37.0059013,38.5813856],[36.9329452,38.5891012],[36.882305,38.5783663],[36.8598173,38.5614554],[36.8227385,38.5601131],[36.7154917,38.5219186],[36.6682619,38.4971592],[36.697355,38.4685708],[36.7244958,38.4608975],[36.7374225,38.4188703],[36.6991347,38.4062114],[36.6999693,38.3655448],[36.6700596,38.2945096],[36.6831105,38.2595826],[36.7062462,38.2269688],[36.7311615,38.2111226],[36.7353141,38.1840828],[36.7262971,38.1359458],[36.7366171,38.1137894],[36.7733639,38.1172372],[36.8403714,38.1352445],[36.9663725,38.1374622],[36.9818205,38.1317361]]]},"properties":{"@id":"relation/1341117","admin_level":"6","alt_name:ku":"Afşîn","boundary":"administrative","name":"Afşin","name:ar":"افشین","name:ce":"Афшин","name:fa":"افشین","name:ku":"Avşîn","name:ru":"Афшин","name:tr":"Afşin","name:tr:suffix":"İlçesi","name:tt":"Афшин","name:uk":"Афшін","name:ur":"افشین","name:zh":"阿夫欣","network":"TR46-districts","old_name":"Yarpuz;Arabissos;Efsus;Ephesós","population":"80138","population:date":"31-12-2021","postal_code":"46500","type":"boundary","wikidata":"Q389650","wikipedia":"tr:Afşin"},"id":"relation/1341117"},
{"type":"Feature","geometry":{"type":"Polygon","coordinates":[[[36.9771078,37.2949804],[37.0040882,37.2437644],[37.0317577,37.2073288],[37.0800376,37.1949375],[37.1201742,37.2420306],[37.1153247,37.2588717],[37.1518028,37.2636023],[37.2089553,37.2954617],[37.2308206,37.3375958],[37.277416,37.3408884],[37.2865462,37.3222995],[37.3831272,37.3236092],[37.4526179,37.3587478],[37.4332094,37.3988776],[37.4623489,37.4172771],[37.489981,37.4142733],[37.5697124,37.4209411],[37.5722122,37.4364814],[37.5500464,37.473632],[37.5774264,37.476578],[37.590761,37.5089121],[37.5783759,37.5426587],[37.586324,37.5831633],[37.5538328,37.6103706],[37.4941503,37.5706901],[37.4713595,37.562552],[37.4526071,37.5785963],[37.4514193,37.6064323],[37.4781341,37.6118039],[37.4848074,37.6320287],[37.4578441,37.6723779],[37.4143977,37.6822937],[37.3508097,37.6595277],[37.3193186,37.6561641],[37.2807279,37.6380101],[37.2630288,37.6353284],[37.2321509,37.5701612],[37.194557,37.5487966],[37.1919821,37.5045513],[37.2254561,37.5010106],[37.1753309,37.4416097],[37.1161936,37.3886406],[37.1095846,37.3648366],[37.0497166,37.3399267],[37.0329892,37.3216015],[37.0476241,37.3042427],[36.9991207,37.2866189],[36.9771078,37.2949804]]]},"properties":{"@id":"relation/1341119","admin_level":"6","alt_name:ku":"Markaz","boundary":"administrative","name":"Pazarcık","name:ce":"Пазарджик","name:de":"Pazarcık","name:en":"Pazarcık","name:fa":"پازارجیک","name:ku":"Bazarcix","name:ru":"Пазарджык","name:tr":"Pazarcık","name:tr:suffix":"İlçesi","name:uk":"Пазарджик","name:ur":"پازارجیک","name:zh":"帕扎爾哲克","name:zza":"Bazarcıx","network":"TR46-districts","postal_code":"46700","type":"boundary","wikidata":"Q1004653","wikipedia":"tr:Pazarcık, Kahramanmaraş"},"id":"relation/1341119"},
{"type":"Feature","geometry":{"type":"Polygon","coordinates":[[[36.9818205,38.1317361],[36.9667066,38.0997627],[37.0189929,38.0982651],[37.0601369,38.1172996],[37.0902424,38.1428639],[37.1189255,38.143401],[37.1970406,38.1134527],[37.2145358,38.1197646],[37.2534822,38.0840735],[37.3684069,38.0959729],[37.4171431,38.1114605],[37.4555697,38.1092482],[37.4883729,38.0925308],[37.6014658,38.0807279],[37.6248751,38.0651455],[37.6744794,38.0844123],[37.7268791,38.1329701],[37.7181244,38.1577768],[37.7486372,38.1647616],[37.7499461,38.219234],[37.7339709,38.2544001],[37.6685786,38.2585872],[37.6758528,38.3066081],[37.6434302,38.3219458],[37.598691,38.3244036],[37.5274086,38.3621352],[37.4018168,38.4128281],[37.3663687,38.4063379],[37.354846,38.4367494],[37.3105788,38.4399932],[37.28513,38.4558068],[37.2615266,38.488213],[37.2774052,38.519782],[37.3121452,38.5506491],[37.3168659,38.5780475],[37.2794437,38.5903759],[37.2245882,38.5911145],[37.2021022,38.5786753],[37.1219443,38.6090909],[37.07617,38.5859123],[37.0428943,38.58521],[37.0546389,38.5718222],[37.0552193,38.5161033],[37.0267518,38.4634481],[37.0459153,38.4243576],[37.0688061,38.4055882],[37.0752392,38.3554638],[37.0638752,38.3416385],[37.0589217,38.2851672],[37.0748021,38.2601182],[37.0545224,38.181451],[37.034319,38.1483394],[36.9818205,38.1317361]]]},"properties":{"@id":"relation/1341120","admin_level":"6","boundary":"administrative","name":"Elbistan","name:ar":"البستان","name:ce":"Элбистан","name:de":"Elbistan","name:el":"Ελμπιστάν","name:en":"Elbistan","name:fa":"البستان","name:he":"אלביסטן","name:hy":"Ալբիստան","name:ku":"Albistan","name:ru":"Эльбистан","name:tr":"Elbistan","name:tr:suffix":"İlçesi","name:uk":"Ельбістан","name:ur":"البستان","name:zh":"埃爾比斯坦","network":"TR46-districts","population":"141977","population:date":"31-12-2021","postal_code":"46300","type":"boundary","website":"https://eczanelik.com/kahramanmaras-elbistan-nobetci-eczaneleri.html","wikidata":"Q117181","wikipedia":"tr:Elbistan"},"id":"relation/1341120"},
{"type":"Feature","geometry":{"type":"Polygon","coordinates":[[[37.6926121,37.9572287],[37.6935768,37.9078745],[37.7622734,37.9327622],[37.7551424,37.9096685],[37.7748995,37.8929455],[37.8539713,37.886509],[37.9102491,37.8988884],[37.9904943,37.8888848],[38.0241624,37.8983836],[38.0349065,37.9337765],[38.0901313,37.9582898],[38.1056664,37.948746],[38.1547989,37.9502563],[38.1589153,37.9963132],[38.1500279,38.0189689],[38.1129023,38.0361853],[38.0878346,38.0719463],[38.1090941,38.1027844],[38.1280303,38.1593459],[38.1093406,38.1884107],[38.0826258,38.1644073],[38.0114937,38.1576249],[37.9866964,38.1879368],[37.9890012,38.2231474],[37.9424,38.2089076],[37.8902793,38.2407924],[37.8637361,38.2334104],[37.8145337,38.2442473],[37.781167,38.2224033],[37.7499461,38.219234],[37.7486372,38.1647616],[37.7181244,38.1577768],[37.7268791,38.1329701],[37.6744794,38.0844123],[37.6248751,38.0651455],[37.5786495,38.0540473],[37.5768793,38.0260192],[37.6013303,38.0131128],[37.5808275,38.0057076],[37.603097,37.9577975],[37.6161398,37.9441115],[37.6258963,37.9511977],[37.6926121,37.9572287]]]},"properties":{"@id":"relation/1825945","admin_level":"6","alt_name":"Muhacîr","boundary":"administrative","name":"Doğanşehir","name:de":"Doğanşehir","name:en":"Doğanşehir","name:fa":"دوغان‌شهر","name:hy":"Վերանշեհր","name:ku":"Wêranşar","name:ru":"Доганшехир","name:tr":"Doğanşehir","name:tr:suffix":"İlçesi","name:zh":"多安謝希爾","network":"TR44-districts","source":"http://rehber.malatya.bel.tr/KentrehberiApp/Index","type":"boundary","wikidata":"Q1004642","wikipedia":"tr:Doğanşehir"},"id":"relation/1825945"},
{"type":"Feature","geometry":{"type":"Polygon","coordinates":[[[37.1643584,37.9048564],[37.093235,37.8948974],[37.0894731,37.8794156],[37.0442894,37.8721105],[37.0194294,37.8787149],[36.9721269,37.8600314],[36.9721913,37.8281414],[36.9420431,37.8013751],[36.9273177,37.7512972],[36.926186,37.7103748],[36.9471332,37.6674785],[36.9357653,37.6383037],[36.91924,37.6334121],[36.9268841,37.5899146],[36.9267728,37.5858245],[36.925833,37.5851707],[36.926609,37.5842886],[36.9274528,37.5814106],[36.9261074,37.5749446],[36.9256454,37.5724079],[36.9248231,37.5683181],[36.9225288,37.5562484],[36.9195624,37.5406402],[36.89622,37.4975249],[36.8960758,37.4679438],[36.8924231,37.4341448],[36.922058,37.4352655],[36.9611683,37.4206968],[36.960225,37.4025573],[36.9961577,37.3880617],[37.0177337,37.3919434],[37.0230298,37.3617248],[37.0497166,37.3399267],[37.1095846,37.3648366],[37.1161936,37.3886406],[37.1753309,37.4416097],[37.2254561,37.5010106],[37.1919821,37.5045513],[37.194557,37.5487966],[37.2321509,37.5701612],[37.2630288,37.6353284],[37.2807279,37.6380101],[37.2611549,37.669814],[37.2123096,37.6925549],[37.1959942,37.7263421],[37.1528945,37.7588449],[37.1460215,37.7808238],[37.1660158,37.7995872],[37.1691434,37.846624],[37.1643584,37.9048564]]]},"properties":{"@id":"relation/3671448","admin_level":"6","boundary":"administrative","name":"Dulkadiroğlu","name:ce":"ДулкадирогӀлу","name:de":"Dulkadiroğlu","name:en":"Dulkadiroğlu","name:tr":"Dulkadiroğlu","name:tr:suffix":"İlçesi","name:tt":"Дулкадироглу","network":"TR46-districts","population":"223532","population:date":"31-12-2021","type":"boundary","wikidata":"Q16836177","wikipedia":"tr:Dulkadiroğlu"},"id":"relation/3671448"},
{"type":"Feature","geometry":{"type":"Polygon","coordinates":[[[36.9261074,37.5749446],[36.9274528,37.5814106],[36.926609,37.5842886],[36.925833,37.5851707],[36.9267728,37.5858245],[36.9268841,37.5899146],[36.91924,37.6334121],[36.9357653,37.6383037],[36.9471332,37.6674785],[36.926186,37.7103748],[36.9273177,37.7512972],[36.9420431,37.8013751],[36.9721913,37.8281414],[36.9721269,37.8600314],[37.0194294,37.8787149],[36.9917571,37.8888203],[36.9890796,37.9239096],[36.9703252,37.9343157],[36.9797278,37.9591986],[36.9724806,37.9870084],[36.934247,37.9940877],[36.9006466,38.0098329],[36.8231914,38.0076169],[36.797773,37.9961736],[36.7096914,37.9901895],[36.6503061,37.9785263],[36.5899994,37.9967365],[36.5500023,37.9901704],[36.5064596,37.9474152],[36.4862433,37.8535425],[36.4534594,37.8197315],[36.5361383,37.7601041],[36.548663,37.7388371],[36.5207801,37.6997747],[36.5305438,37.6528475],[36.5102212,37.618474],[36.5242232,37.6113074],[36.5116743,37.5747782],[36.4875179,37.5432616],[36.4761107,37.4860454],[36.4793038,37.4448916],[36.4653279,37.4140848],[36.5081135,37.4242177],[36.5774668,37.4161807],[36.5790284,37.4012961],[36.5429902,37.3616044],[36.6173657,37.3719399],[36.6420411,37.3647391],[36.6640702,37.400807],[36.7254514,37.4186406],[36.7163115,37.430662],[36.7567171,37.4589068],[36.8216273,37.4780536],[36.8960758,37.4679438],[36.89622,37.4975249],[36.9195624,37.5406402],[36.9225288,37.5562484],[36.9248231,37.5683181],[36.9256454,37.5724079],[36.9261074,37.5749446]]]},"properties":{"@id":"relation/3671449","admin_level":"6","boundary":"administrative","name":"Onikişubat","name:ce":"Оникишубат","name:de":"Onikişubat","name:en":"Onikişubat","name:tr":"Onikişubat","name:tr:suffix":"İlçesi","name:tt":"Оникишубат","network":"TR46-districts","population":"448317","population:date":"31-12-2021","type":"boundary","wikidata":"Q16960466","wikipedia":"tr:Onikişubat"},"id":"relation/3671449"},
{"type":"Feature","geometry":{"type":"Polygon","coordinates":[[[36.8989964,37.5925982],[36.8872726,37.589956],[36.8870981,37.5884399],[36.8978822,37.5865728],[36.9040063,37.5867511],[36.9001608,37.5918575],[36.8989964,37.5925982]]]},"properties":{"@id":"relation/8314814","admin_level":"8","boundary":"administrative","name":"Necip Fazıl Mahallesi","type":"boundary","@relations":[{"role":"subarea","rel":3671449,"reltags":{"admin_level":"6","boundary":"administrative","name":"Onikişubat","name:ce":"Оникишубат","name:de":"Onikişubat","name:en":"Onikişubat","name:tr":"Onikişubat","name:tr:suffix":"İlçesi","name:tt":"Оникишубат","network":"TR46-districts","population":"448317","population:date":"31-12-2021","type":"boundary","wikidata":"Q16960466","wikipedia":"tr:Onikişubat"}}]},"id":"relation/8314814"},
{"type":"Feature","geometry":{"type":"Polygon","coordinates":[[[36.8901908,37.583656],[36.8903913,37.5784823],[36.8978822,37.5865728],[36.8870981,37.5884399],[36.8901908,37.583656]]]},"properties":{"@id":"relation/8314815","admin_level":"8","boundary":"administrative","name":"Akif İnan Mahallesi","type":"boundary","@relations":[{"role":"subarea","rel":3671449,"reltags":{"admin_level":"6","boundary":"administrative","name":"Onikişubat","name:ce":"Оникишубат","name:de":"Onikişubat","name:en":"Onikişubat","name:tr":"Onikişubat","name:tr:suffix":"İlçesi","name:tt":"Оникишубат","network":"TR46-districts","population":"448317","population:date":"31-12-2021","type":"boundary","wikidata":"Q16960466","wikipedia":"tr:Onikişubat"}}]},"id":"relation/8314815"},
{"type":"Feature","geometry":{"type":"Polygon","coordinates":[[[36.8872726,37.589956],[36.8876504,37.595676],[36.8782396,37.5965554],[36.8779104,37.5891194],[36.8870981,37.5884399],[36.8872726,37.589956]]]},"properties":{"@id":"relation/8329570","admin_level":"8","boundary":"administrative","name":"Mimar Sinan Mahallesi","type":"boundary","@relations":[{"role":"subarea","rel":3671449,"reltags":{"admin_level":"6","boundary":"administrative","name":"Onikişubat","name:ce":"Оникишубат","name:de":"Onikişubat","name:en":"Onikişubat","name:tr":"Onikişubat","name:tr:suffix":"İlçesi","name:tt":"Оникишубат","network":"TR46-districts","population":"448317","population:date":"31-12-2021","type":"boundary","wikidata":"Q16960466","wikipedia":"tr:Onikişubat"}}]},"id":"relation/8329570"},
{"type":"Feature","geometry":{"type":"Polygon","coordinates":[[[36.8680764,37.5916374],[36.8641313,37.5924498],[36.8608745,37.5854177],[36.8703697,37.5830807],[36.8792518,37.5831928],[36.8779104,37.5891194],[36.8680764,37.5916374]]]},"properties":{"@id":"relation/8339293","admin_level":"8","boundary":"administrative","name":"Haydarbey Mahallesi","type":"boundary","@relations":[{"role":"subarea","rel":3671449,"reltags":{"admin_level":"6","boundary":"administrative","name":"Onikişubat","name:ce":"Оникишубат","name:de":"Onikişubat","name:en":"Onikişubat","name:tr":"Onikişubat","name:tr:suffix":"İlçesi","name:tt":"Оникишубат","network":"TR46-districts","population":"448317","population:date":"31-12-2021","type":"boundary","wikidata":"Q16960466","wikipedia":"tr:Onikişubat"}}]},"id":"relation/8339293"},
{"type":"Feature","geometry":{"type":"Polygon","coordinates":[[[36.9119328,37.5888327],[36.9001608,37.5918575],[36.9040063,37.5867511],[36.9119328,37.5888327]]]},"properties":{"@id":"relation/8345153","admin_level":"8","boundary":"administrative","name":"Fatih Mahallesi","type":"boundary","@relations":[{"role":"subarea","rel":3671449,"reltags":{"admin_level":"6","boundary":"administrative","name":"Onikişubat","name:ce":"Оникишубат","name:de":"Onikişubat","name:en":"Onikişubat","name:tr":"Onikişubat","name:tr:suffix":"İlçesi","name:tt":"Оникишубат","network":"TR46-districts","population":"448317","population:date":"31-12-2021","type":"boundary","wikidata":"Q16960466","wikipedia":"tr:Onikişubat"}}]},"id":"relation/8345153"},
{"type":"Feature","geometry":{"type":"Polygon","coordinates":[[[36.8703697,37.5830807],[36.8608745,37.5854177],[36.8564735,37.5854798],[36.8492725,37.5770006],[36.8703697,37.5830807]]]},"properties":{"@id":"relation/8345172","admin_level":"8","boundary":"administrative","name":"Tekerek Mahallesi","type":"boundary","@relations":[{"role":"subarea","rel":3671449,"reltags":{"admin_level":"6","boundary":"administrative","name":"Onikişubat","name:ce":"Оникишубат","name:de":"Onikişubat","name:en":"Onikişubat","name:tr":"Onikişubat","name:tr:suffix":"İlçesi","name:tt":"Оникишубат","network":"TR46-districts","population":"448317","population:date":"31-12-2021","type":"boundary","wikidata":"Q16960466","wikipedia":"tr:Onikişubat"}}]},"id":"relation/8345172"},
{"type":"Feature","geometry":{"type":"Polygon","coordinates":[[[36.8597178,37.5931654],[36.8641313,37.5924498],[36.8680764,37.5916374],[36.8656102,37.5969075],[36.8620079,37.5962478],[36.8597178,37.5931654]]]},"properties":{"@id":"relation/8345180","admin_level":"8","boundary":"administrative","name":"İstiklal Mahallesi","type":"boundary","@relations":[{"role":"subarea","rel":3671449,"reltags":{"admin_level":"6","boundary":"administrative","name":"Onikişubat","name:ce":"Оникишубат","name:de":"Onikişubat","name:en":"Onikişubat","name:tr":"Onikişubat","name:tr:suffix":"İlçesi","name:tt":"Оникишубат","network":"TR46-districts","population":"448317","population:date":"31-12-2021","type":"boundary","wikidata":"Q16960466","wikipedia":"tr:Onikişubat"}}]},"id":"relation/8345180"},
{"type":"Feature","geometry":{"type":"Polygon","coordinates":[[[36.9315804,37.5770828],[36.9261074,37.5749446],[36.9256454,37.5724079],[36.9334964,37.5718442],[36.9315804,37.5770828]]]},"properties":{"@id":"relation/8345204","admin_level":"8","alt_name":"Yenişehir Mahallesi","boundary":"administrative","name":"Yeni Şehir Mahallesi","type":"boundary","@relations":[{"role":"subarea","rel":3671448,"reltags":{"admin_level":"6","boundary":"administrative","name":"Dulkadiroğlu","name:ce":"ДулкадирогӀлу","name:de":"Dulkadiroğlu","name:en":"Dulkadiroğlu","name:tr":"Dulkadiroğlu","name:tr:suffix":"İlçesi","name:tt":"Дулкадироглу","network":"TR46-districts","population":"223532","population:date":"31-12-2021","type":"boundary","wikidata":"Q16836177","wikipedia":"tr:Dulkadiroğlu"}},{"role":"subarea","rel":3671449,"reltags":{"admin_level":"6","boundary":"administrative","name":"Onikişubat","name:ce":"Оникишубат","name:de":"Onikişubat","name:en":"Onikişubat","name:tr":"Onikişubat","name:tr:suffix":"İlçesi","name:tt":"Оникишубат","network":"TR46-districts","population":"448317","population:date":"31-12-2021","type":"boundary","wikidata":"Q16960466","wikipedia":"tr:Onikişubat"}}]},"id":"relation/8345204"},
{"type":"Feature","geometry":{"type":"Polygon","coordinates":[[[36.8901908,37.583656],[36.8870981,37.5884399],[36.8779104,37.5891194],[36.8792518,37.5831928],[36.8792925,37.5798522],[36.8901908,37.583656]]]},"properties":{"@id":"relation/8345237","admin_level":"8","boundary":"administrative","name":"Şehit Abdullah Çavuş Mahallesi","type":"boundary","@relations":[{"role":"subarea","rel":3671449,"reltags":{"admin_level":"6","boundary":"administrative","name":"Onikişubat","name:ce":"Оникишубат","name:de":"Onikişubat","name:en":"Onikişubat","name:tr":"Onikişubat","name:tr:suffix":"İlçesi","name:tt":"Оникишубат","network":"TR46-districts","population":"448317","population:date":"31-12-2021","type":"boundary","wikidata":"Q16960466","wikipedia":"tr:Onikişubat"}}]},"id":"relation/8345237"},
{"type":"Feature","geometry":{"type":"Polygon","coordinates":[[[36.8989964,37.5925982],[36.8876504,37.595676],[36.8872726,37.589956],[36.8989964,37.5925982]]]},"properties":{"@id":"relation/8345267","admin_level":"8","boundary":"administrative","name":"Selçuklu Mahallesi","type":"boundary","@relations":[{"role":"subarea","rel":3671449,"reltags":{"admin_level":"6","boundary":"administrative","name":"Onikişubat","name:ce":"Оникишубат","name:de":"Onikişubat","name:en":"Onikişubat","name:tr":"Onikişubat","name:tr:suffix":"İlçesi","name:tt":"Оникишубат","network":"TR46-districts","population":"448317","population:date":"31-12-2021","type":"boundary","wikidata":"Q16960466","wikipedia":"tr:Onikişubat"}}]},"id":"relation/8345267"},
{"type":"Feature","geometry":{"type":"Polygon","coordinates":[[[36.8930132,37.5782473],[36.904207,37.5846903],[36.9040063,37.5867511],[36.8978822,37.5865728],[36.8903913,37.5784823],[36.888777,37.5773093],[36.8930132,37.5782473]]]},"properties":{"@id":"relation/8345354","admin_level":"8","boundary":"administrative","name":"Yunus Emre Mahallesi","type":"boundary","@relations":[{"role":"subarea","rel":3671449,"reltags":{"admin_level":"6","boundary":"administrative","name":"Onikişubat","name:ce":"Оникишубат","name:de":"Onikişubat","name:en":"Onikişubat","name:tr":"Onikişubat","name:tr:suffix":"İlçesi","name:tt":"Оникишубат","network":"TR46-districts","population":"448317","population:date":"31-12-2021","type":"boundary","wikidata":"Q16960466","wikipedia":"tr:Onikişubat"}}]},"id":"relation/8345354"},
{"type":"Feature","geometry":{"type":"Polygon","coordinates":[[[36.9125631,37.5888491],[36.9119328,37.5888327],[36.9040063,37.5867511],[36.904207,37.5846903],[36.9169814,37.5844318],[36.9151708,37.5886486],[36.9125631,37.5888491]]]},"properties":{"@id":"relation/8345360","admin_level":"8","boundary":"administrative","name":"Karamanlı Mahallesi","type":"boundary","@relations":[{"role":"subarea","rel":3671449,"reltags":{"admin_level":"6","boundary":"administrative","name":"Onikişubat","name:ce":"Оникишубат","name:de":"Onikişubat","name:en":"Onikişubat","name:tr":"Onikişubat","name:tr:suffix":"İlçesi","name:tt":"Оникишубат","network":"TR46-districts","population":"448317","population:date":"31-12-2021","type":"boundary","wikidata":"Q16960466","wikipedia":"tr:Onikişubat"}}]},"id":"relation/8345360"},
{"type":"Feature","geometry":{"type":"Polygon","coordinates":[[[36.8371044,37.5910603],[36.8341548,37.5886076],[36.8471058,37.5751221],[36.8492725,37.5770006],[36.8564735,37.5854798],[36.8448238,37.5874572],[36.8371044,37.5910603]]]},"properties":{"@id":"relation/8345364","admin_level":"8","boundary":"administrative","name":"Maarif Mahallesi","type":"boundary","@relations":[{"role":"subarea","rel":3671449,"reltags":{"admin_level":"6","boundary":"administrative","name":"Onikişubat","name:ce":"Оникишубат","name:de":"Onikişubat","name:en":"Onikişubat","name:tr":"Onikişubat","name:tr:suffix":"İlçesi","name:tt":"Оникишубат","network":"TR46-districts","population":"448317","population:date":"31-12-2021","type":"boundary","wikidata":"Q16960466","wikipedia":"tr:Onikişubat"}}]},"id":"relation/8345364"},
{"type":"Feature","geometry":{"type":"Polygon","coordinates":[[[36.9167682,37.5727443],[36.9228237,37.5753298],[36.9191063,37.576944],[36.9167034,37.5771595],[36.9110818,37.5747899],[36.9094249,37.5741927],[36.9167682,37.5727443]]]},"properties":{"@id":"relation/8345373","admin_level":"8","boundary":"administrative","name":"Hacı Bayram Veli Mahallesi","type":"boundary","@relations":[{"role":"subarea","rel":3671449,"reltags":{"admin_level":"6","boundary":"administrative","name":"Onikişubat","name:ce":"Оникишубат","name:de":"Onikişubat","name:en":"Onikişubat","name:tr":"Onikişubat","name:tr:suffix":"İlçesi","name:tt":"Оникишубат","network":"TR46-districts","population":"448317","population:date":"31-12-2021","type":"boundary","wikidata":"Q16960466","wikipedia":"tr:Onikişubat"}}]},"id":"relation/8345373"},
{"type":"Feature","geometry":{"type":"Polygon","coordinates":[[[36.9182663,37.5836221],[36.9169814,37.5844318],[36.904207,37.5846903],[36.9106723,37.5817372],[36.9146346,37.5825365],[36.9182663,37.5836221]]]},"properties":{"@id":"relation/8346199","admin_level":"8","boundary":"administrative","name":"Mercimektepe Mahallesi","type":"boundary","@relations":[{"role":"subarea","rel":3671449,"reltags":{"admin_level":"6","boundary":"administrative","name":"Onikişubat","name:ce":"Оникишубат","name:de":"Onikişubat","name:en":"Onikişubat","name:tr":"Onikişubat","name:tr:suffix":"İlçesi","name:tt":"Оникишубат","network":"TR46-districts","population":"448317","population:date":"31-12-2021","type":"boundary","wikidata":"Q16960466","wikipedia":"tr:Onikişubat"}}]},"id":"relation/8346199"},
{"type":"Feature","geometry":{"type":"Polygon","coordinates":[[[36.8759744,37.5969363],[36.8693467,37.5984301],[36.8656102,37.5969075],[36.8680764,37.5916374],[36.8779104,37.5891194],[36.8782396,37.5965554],[36.8759744,37.5969363]]]},"properties":{"@id":"relation/8346232","admin_level":"8","boundary":"administrative","name":"Bin Evler Mahallesi","type":"boundary","@relations":[{"role":"subarea","rel":3671449,"reltags":{"admin_level":"6","boundary":"administrative","name":"Onikişubat","name:ce":"Оникишубат","name:de":"Onikişubat","name:en":"Onikişubat","name:tr":"Onikişubat","name:tr:suffix":"İlçesi","name:tt":"Оникишубат","network":"TR46-districts","population":"448317","population:date":"31-12-2021","type":"boundary","wikidata":"Q16960466","wikipedia":"tr:Onikişubat"}}]},"id":"relation/8346232"},
{"type":"Feature","geometry":{"type":"Polygon","coordinates":[[[36.9303524,37.5807067],[36.9274528,37.5814106],[36.9261074,37.5749446],[36.9315804,37.5770828],[36.9331729,37.5778255],[36.9303524,37.5807067]]]},"properties":{"@id":"relation/8346233","admin_level":"8","alt_name":"İsmetpaşa Mahallesi","boundary":"administrative","name":"İsmet Paşa Mahallesi","type":"boundary","@relations":[{"role":"subarea","rel":3671448,"reltags":{"admin_level":"6","boundary":"administrative","name":"Dulkadiroğlu","name:ce":"ДулкадирогӀлу","name:de":"Dulkadiroğlu","name:en":"Dulkadiroğlu","name:tr":"Dulkadiroğlu","name:tr:suffix":"İlçesi","name:tt":"Дулкадироглу","network":"TR46-districts","population":"223532","population:date":"31-12-2021","type":"boundary","wikidata":"Q16836177","wikipedia":"tr:Dulkadiroğlu"}},{"role":"subarea","rel":3671449,"reltags":{"admin_level":"6","boundary":"administrative","name":"Onikişubat","name:ce":"Оникишубат","name:de":"Onikişubat","name:en":"Onikişubat","name:tr":"Onikişubat","name:tr:suffix":"İlçesi","name:tt":"Оникишубат","network":"TR46-districts","population":"448317","population:date":"31-12-2021","type":"boundary","wikidata":"Q16960466","wikipedia":"tr:Onikişubat"}}]},"id":"relation/8346233"},
{"type":"Feature","geometry":{"type":"Polygon","coordinates":[[[36.9423273,37.5713648],[36.9331729,37.5778255],[36.9315804,37.5770828],[36.9334964,37.5718442],[36.9423273,37.5713648]]]},"properties":{"@id":"relation/8346244","admin_level":"8","boundary":"administrative","name":"Menderes Mahallesi","type":"boundary","@relations":[{"role":"subarea","rel":3671448,"reltags":{"admin_level":"6","boundary":"administrative","name":"Dulkadiroğlu","name:ce":"ДулкадирогӀлу","name:de":"Dulkadiroğlu","name:en":"Dulkadiroğlu","name:tr":"Dulkadiroğlu","name:tr:suffix":"İlçesi","name:tt":"Дулкадироглу","network":"TR46-districts","population":"223532","population:date":"31-12-2021","type":"boundary","wikidata":"Q16836177","wikipedia":"tr:Dulkadiroğlu"}},{"role":"subarea","rel":3671449,"reltags":{"admin_level":"6","boundary":"administrative","name":"Onikişubat","name:ce":"Оникишубат","name:de":"Onikişubat","name:en":"Onikişubat","name:tr":"Onikişubat","name:tr:suffix":"İlçesi","name:tt":"Оникишубат","network":"TR46-districts","population":"448317","population:date":"31-12-2021","type":"boundary","wikidata":"Q16960466","wikipedia":"tr:Onikişubat"}}]},"id":"relation/8346244"},
{"type":"Feature","geometry":{"type":"Polygon","coordinates":[[[36.9109375,37.5770644],[36.9146346,37.5825365],[36.9106723,37.5817372],[36.9066047,37.5781996],[36.9109375,37.5770644]]]},"properties":{"@id":"relation/8346548","admin_level":"8","boundary":"administrative","name":"Mevlana Mahallesi","type":"boundary","@relations":[{"role":"subarea","rel":3671449,"reltags":{"admin_level":"6","boundary":"administrative","name":"Onikişubat","name:ce":"Оникишубат","name:de":"Onikişubat","name:en":"Onikişubat","name:tr":"Onikişubat","name:tr:suffix":"İlçesi","name:tt":"Оникишубат","network":"TR46-districts","population":"448317","population:date":"31-12-2021","type":"boundary","wikidata":"Q16960466","wikipedia":"tr:Onikişubat"}}]},"id":"relation/8346548"},
{"type":"Feature","geometry":{"type":"Polygon","coordinates":[[[36.8564735,37.5854798],[36.8608745,37.5854177],[36.8641313,37.5924498],[36.8597178,37.5931654],[36.858429,37.5933906],[36.8448238,37.5874572],[36.8564735,37.5854798]]]},"properties":{"@id":"relation/8346774","admin_level":"8","boundary":"administrative","name":"Yirmiikigün Mahallesi","type":"boundary","@relations":[{"role":"subarea","rel":3671449,"reltags":{"admin_level":"6","boundary":"administrative","name":"Onikişubat","name:ce":"Оникишубат","name:de":"Onikişubat","name:en":"Onikişubat","name:tr":"Onikişubat","name:tr:suffix":"İlçesi","name:tt":"Оникишубат","network":"TR46-districts","population":"448317","population:date":"31-12-2021","type":"boundary","wikidata":"Q16960466","wikipedia":"tr:Onikişubat"}}]},"id":"relation/8346774"},
{"type":"Feature","geometry":{"type":"Polygon","coordinates":[[[36.8703697,37.5830807],[36.8492725,37.5770006],[36.8471058,37.5751221],[36.8562266,37.5669874],[36.8703697,37.5830807]]]},"properties":{"@id":"relation/8346785","admin_level":"8","boundary":"administrative","name":"Boğaziçi Mahallesi","type":"boundary","@relations":[{"role":"subarea","rel":3671449,"reltags":{"admin_level":"6","boundary":"administrative","name":"Onikişubat","name:ce":"Оникишубат","name:de":"Onikişubat","name:en":"Onikişubat","name:tr":"Onikişubat","name:tr:suffix":"İlçesi","name:tt":"Оникишубат","network":"TR46-districts","population":"448317","population:date":"31-12-2021","type":"boundary","wikidata":"Q16960466","wikipedia":"tr:Onikişubat"}}]},"id":"relation/8346785"},
{"type":"Feature","geometry":{"type":"Polygon","coordinates":[[[36.9109375,37.5770644],[36.9110818,37.5747899],[36.9167034,37.5771595],[36.918522,37.5833357],[36.9182663,37.5836221],[36.9146346,37.5825365],[36.9109375,37.5770644]]]},"properties":{"@id":"relation/8347743","admin_level":"8","boundary":"administrative","name":"Ertuğrul Gazi Mahallesi","type":"boundary","@relations":[{"role":"subarea","rel":3671449,"reltags":{"admin_level":"6","boundary":"administrative","name":"Onikişubat","name:ce":"Оникишубат","name:de":"Onikişubat","name:en":"Onikişubat","name:tr":"Onikişubat","name:tr:suffix":"İlçesi","name:tt":"Оникишубат","network":"TR46-districts","population":"448317","population:date":"31-12-2021","type":"boundary","wikidata":"Q16960466","wikipedia":"tr:Onikişubat"}}]},"id":"relation/8347743"},
{"type":"Feature","geometry":{"type":"Polygon","coordinates":[[[36.9319735,37.5657179],[36.9334964,37.5718442],[36.9256454,37.5724079],[36.9248231,37.5683181],[36.9319735,37.5657179]]]},"properties":{"@id":"relation/8347748","admin_level":"8","boundary":"administrative","name":"Egemenlik Mahallesi","type":"boundary","@relations":[{"role":"subarea","rel":3671448,"reltags":{"admin_level":"6","boundary":"administrative","name":"Dulkadiroğlu","name:ce":"ДулкадирогӀлу","name:de":"Dulkadiroğlu","name:en":"Dulkadiroğlu","name:tr":"Dulkadiroğlu","name:tr:suffix":"İlçesi","name:tt":"Дулкадироглу","network":"TR46-districts","population":"223532","population:date":"31-12-2021","type":"boundary","wikidata":"Q16836177","wikipedia":"tr:Dulkadiroğlu"}},{"role":"subarea","rel":3671449,"reltags":{"admin_level":"6","boundary":"administrative","name":"Onikişubat","name:ce":"Оникишубат","name:de":"Onikişubat","name:en":"Onikişubat","name:tr":"Onikişubat","name:tr:suffix":"İlçesi","name:tt":"Оникишубат","network":"TR46-districts","population":"448317","population:date":"31-12-2021","type":"boundary","wikidata":"Q16960466","wikipedia":"tr:Onikişubat"}}]},"id":"relation/8347748"},
{"type":"Feature","geometry":{"type":"Polygon","coordinates":[[[36.9334964,37.5718442],[36.9319735,37.5657179],[36.9392296,37.5637856],[36.9428009,37.5711902],[36.9423273,37.5713648],[36.9334964,37.5718442]]]},"properties":{"@id":"relation/8348725","admin_level":"8","boundary":"administrative","name":"Bahçeli Evler Mahallesi","type":"boundary","@relations":[{"role":"subarea","rel":3671448,"reltags":{"admin_level":"6","boundary":"administrative","name":"Dulkadiroğlu","name:ce":"ДулкадирогӀлу","name:de":"Dulkadiroğlu","name:en":"Dulkadiroğlu","name:tr":"Dulkadiroğlu","name:tr:suffix":"İlçesi","name:tt":"Дулкадироглу","network":"TR46-districts","population":"223532","population:date":"31-12-2021","type":"boundary","wikidata":"Q16836177","wikipedia":"tr:Dulkadiroğlu"}}]},"id":"relation/8348725"},
{"type":"Feature","geometry":{"type":"Polygon","coordinates":[[[36.9248231,37.5683181],[36.9256454,37.5724079],[36.9261074,37.5749446],[36.9228237,37.5753298],[36.9167682,37.5727443],[36.911983,37.5596358],[36.9225288,37.5562484],[36.9248231,37.5683181]]]},"properties":{"@id":"relation/8348967","admin_level":"8","boundary":"administrative","name":"Şazi Bey Mahallesi","type":"boundary","@relations":[{"role":"subarea","rel":3671449,"reltags":{"admin_level":"6","boundary":"administrative","name":"Onikişubat","name:ce":"Оникишубат","name:de":"Onikişubat","name:en":"Onikişubat","name:tr":"Onikişubat","name:tr:suffix":"İlçesi","name:tt":"Оникишубат","network":"TR46-districts","population":"448317","population:date":"31-12-2021","type":"boundary","wikidata":"Q16960466","wikipedia":"tr:Onikişubat"}}]},"id":"relation/8348967"},
{"type":"Feature","geometry":{"type":"Polygon","coordinates":[[[36.9191063,37.576944],[36.9228237,37.5753298],[36.9261074,37.5749446],[36.9274528,37.5814106],[36.926609,37.5842886],[36.9246629,37.5811404],[36.9191063,37.576944]]]},"properties":{"@id":"relation/8353194","admin_level":"8","boundary":"administrative","name":"Hayrullah Mahallesi","type":"boundary","@relations":[{"role":"subarea","rel":3671449,"reltags":{"admin_level":"6","boundary":"administrative","name":"Onikişubat","name:ce":"Оникишубат","name:de":"Onikişubat","name:en":"Onikişubat","name:tr":"Onikişubat","name:tr:suffix":"İlçesi","name:tt":"Оникишубат","network":"TR46-districts","population":"448317","population:date":"31-12-2021","type":"boundary","wikidata":"Q16960466","wikipedia":"tr:Onikişubat"}}]},"id":"relation/8353194"},
{"type":"Feature","geometry":{"type":"Polygon","coordinates":[[[36.9167034,37.5771595],[36.9191063,37.576944],[36.9246629,37.5811404],[36.918522,37.5833357],[36.9167034,37.5771595]]]},"properties":{"@id":"relation/8353195","admin_level":"8","boundary":"administrative","name":"Dumlupınar Mahallesi","type":"boundary","@relations":[{"role":"subarea","rel":3671449,"reltags":{"admin_level":"6","boundary":"administrative","name":"Onikişubat","name:ce":"Оникишубат","name:de":"Onikişubat","name:en":"Onikişubat","name:tr":"Onikişubat","name:tr:suffix":"İlçesi","name:tt":"Оникишубат","network":"TR46-districts","population":"448317","population:date":"31-12-2021","type":"boundary","wikidata":"Q16960466","wikipedia":"tr:Onikişubat"}}]},"id":"relation/8353195"},
{"type":"Feature","geometry":{"type":"Polygon","coordinates":[[[36.926609,37.5842886],[36.925833,37.5851707],[36.9229618,37.5855384],[36.9169814,37.5844318],[36.9182663,37.5836221],[36.918522,37.5833357],[36.9246629,37.5811404],[36.926609,37.5842886]]]},"properties":{"@id":"relation/8353196","admin_level":"8","boundary":"administrative","name":"Yusuflar Mahallesi","type":"boundary","@relations":[{"role":"subarea","rel":3671449,"reltags":{"admin_level":"6","boundary":"administrative","name":"Onikişubat","name:ce":"Оникишубат","name:de":"Onikişubat","name:en":"Onikişubat","name:tr":"Onikişubat","name:tr:suffix":"İlçesi","name:tt":"Оникишубат","network":"TR46-districts","population":"448317","population:date":"31-12-2021","type":"boundary","wikidata":"Q16960466","wikipedia":"tr:Onikişubat"}}]},"id":"relation/8353196"},
{"type":"Feature","geometry":{"type":"Polygon","coordinates":[[[36.9109375,37.5770644],[36.9066047,37.5781996],[36.9024644,37.5783943],[36.9008991,37.573523],[36.9094249,37.5741927],[36.9110818,37.5747899],[36.9109375,37.5770644]]]},"properties":{"@id":"relation/8360418","admin_level":"8","boundary":"administrative","name":"Karacaoğlan Mahallesi","type":"boundary","@relations":[{"role":"subarea","rel":3671449,"reltags":{"admin_level":"6","boundary":"administrative","name":"Onikişubat","name:ce":"Оникишубат","name:de":"Onikişubat","name:en":"Onikişubat","name:tr":"Onikişubat","name:tr:suffix":"İlçesi","name:tt":"Оникишубат","network":"TR46-districts","population":"448317","population:date":"31-12-2021","type":"boundary","wikidata":"Q16960466","wikipedia":"tr:Onikişubat"}}]},"id":"relation/8360418"},
{"type":"Feature","geometry":{"type":"Polygon","coordinates":[[[36.904207,37.5846903],[36.8930132,37.5782473],[36.8966555,37.5769489],[36.9024644,37.5783943],[36.9066047,37.5781996],[36.9106723,37.5817372],[36.904207,37.5846903]]]},"properties":{"@id":"relation/8360429","admin_level":"8","boundary":"administrative","name":"Abdülhamid Han Mahallesi","type":"boundary","@relations":[{"role":"subarea","rel":3671449,"reltags":{"admin_level":"6","boundary":"administrative","name":"Onikişubat","name:ce":"Оникишубат","name:de":"Onikişubat","name:en":"Onikişubat","name:tr":"Onikişubat","name:tr:suffix":"İlçesi","name:tt":"Оникишубат","network":"TR46-districts","population":"448317","population:date":"31-12-2021","type":"boundary","wikidata":"Q16960466","wikipedia":"tr:Onikişubat"}}]},"id":"relation/8360429"},
{"type":"Feature","geometry":{"type":"Polygon","coordinates":[[[36.911983,37.5596358],[36.9167682,37.5727443],[36.9094249,37.5741927],[36.9039219,37.5662944],[36.911983,37.5596358]]]},"properties":{"@id":"relation/8367567","admin_level":"8","boundary":"administrative","name":"Gayberli Mahallesi","type":"boundary","@relations":[{"role":"subarea","rel":3671449,"reltags":{"admin_level":"6","boundary":"administrative","name":"Onikişubat","name:ce":"Оникишубат","name:de":"Onikişubat","name:en":"Onikişubat","name:tr":"Onikişubat","name:tr:suffix":"İlçesi","name:tt":"Оникишубат","network":"TR46-districts","population":"448317","population:date":"31-12-2021","type":"boundary","wikidata":"Q16960466","wikipedia":"tr:Onikişubat"}}]},"id":"relation/8367567"},
{"type":"Feature","geometry":{"type":"Polygon","coordinates":[[[36.9423273,37.5713648],[36.9428009,37.5711902],[36.9428527,37.5712639],[36.9438796,37.5750571],[36.9446635,37.5779524],[36.9455467,37.5812144],[36.9457062,37.5818035],[36.9372055,37.5795759],[36.9331729,37.5778255],[36.9423273,37.5713648]]]},"properties":{"@id":"relation/8367587","admin_level":"8","boundary":"administrative","name":"Şeyh Adil Mahallesi","type":"boundary","@relations":[{"role":"subarea","rel":3671448,"reltags":{"admin_level":"6","boundary":"administrative","name":"Dulkadiroğlu","name:ce":"ДулкадирогӀлу","name:de":"Dulkadiroğlu","name:en":"Dulkadiroğlu","name:tr":"Dulkadiroğlu","name:tr:suffix":"İlçesi","name:tt":"Дулкадироглу","network":"TR46-districts","population":"223532","population:date":"31-12-2021","type":"boundary","wikidata":"Q16836177","wikipedia":"tr:Dulkadiroğlu"}},{"role":"subarea","rel":3671449,"reltags":{"admin_level":"6","boundary":"administrative","name":"Onikişubat","name:ce":"Оникишубат","name:de":"Onikişubat","name:en":"Onikişubat","name:tr":"Onikişubat","name:tr:suffix":"İlçesi","name:tt":"Оникишубат","network":"TR46-districts","population":"448317","population:date":"31-12-2021","type":"boundary","wikidata":"Q16960466","wikipedia":"tr:Onikişubat"}}]},"id":"relation/8367587"},
{"type":"Feature","geometry":{"type":"Polygon","coordinates":[[[36.9557479,37.5581706],[36.9428009,37.5711902],[36.9392296,37.5637856],[36.9557479,37.5581706]]]},"properties":{"@id":"relation/8367603","admin_level":"8","boundary":"administrative","name":"Mehmet Akif Mahallesi","type":"boundary","@relations":[{"role":"subarea","rel":3671448,"reltags":{"admin_level":"6","boundary":"administrative","name":"Dulkadiroğlu","name:ce":"ДулкадирогӀлу","name:de":"Dulkadiroğlu","name:en":"Dulkadiroğlu","name:tr":"Dulkadiroğlu","name:tr:suffix":"İlçesi","name:tt":"Дулкадироглу","network":"TR46-districts","population":"223532","population:date":"31-12-2021","type":"boundary","wikidata":"Q16836177","wikipedia":"tr:Dulkadiroğlu"}}]},"id":"relation/8367603"},
{"type":"Feature","geometry":{"type":"Polygon","coordinates":[[[36.9094249,37.5741927],[36.9008991,37.573523],[36.9039219,37.5662944],[36.9094249,37.5741927]]]},"properties":{"@id":"relation/8370998","admin_level":"8","boundary":"administrative","name":"Barbaros Mahallesi","type":"boundary","@relations":[{"role":"subarea","rel":3671449,"reltags":{"admin_level":"6","boundary":"administrative","name":"Onikişubat","name:ce":"Оникишубат","name:de":"Onikişubat","name:en":"Onikişubat","name:tr":"Onikişubat","name:tr:suffix":"İlçesi","name:tt":"Оникишубат","network":"TR46-districts","population":"448317","population:date":"31-12-2021","type":"boundary","wikidata":"Q16960466","wikipedia":"tr:Onikişubat"}}]},"id":"relation/8370998"},
{"type":"Feature","geometry":{"type":"Polygon","coordinates":[[[36.9008991,37.573523],[36.9024644,37.5783943],[36.8966555,37.5769489],[36.895616,37.5720398],[36.9008991,37.573523]]]},"properties":{"@id":"relation/8371999","admin_level":"8","boundary":"administrative","name":"Molla Gürani Mahallesi","type":"boundary","@relations":[{"role":"subarea","rel":3671449,"reltags":{"admin_level":"6","boundary":"administrative","name":"Onikişubat","name:ce":"Оникишубат","name:de":"Onikişubat","name:en":"Onikişubat","name:tr":"Onikişubat","name:tr:suffix":"İlçesi","name:tt":"Оникишубат","network":"TR46-districts","population":"448317","population:date":"31-12-2021","type":"boundary","wikidata":"Q16960466","wikipedia":"tr:Onikişubat"}}]},"id":"relation/8371999"},
{"type":"Feature","geometry":{"type":"Polygon","coordinates":[[[36.8930132,37.5782473],[36.888777,37.5773093],[36.8868265,37.5677824],[36.8954065,37.571972],[36.895616,37.5720398],[36.8966555,37.5769489],[36.8930132,37.5782473]]]},"properties":{"@id":"relation/8372021","admin_level":"8","boundary":"administrative","name":"Piri Reis Mahallesi","type":"boundary","@relations":[{"role":"subarea","rel":3671449,"reltags":{"admin_level":"6","boundary":"administrative","name":"Onikişubat","name:ce":"Оникишубат","name:de":"Onikişubat","name:en":"Onikişubat","name:tr":"Onikişubat","name:tr:suffix":"İlçesi","name:tt":"Оникишубат","network":"TR46-districts","population":"448317","population:date":"31-12-2021","type":"boundary","wikidata":"Q16960466","wikipedia":"tr:Onikişubat"}}]},"id":"relation/8372021"},
{"type":"Feature","geometry":{"type":"Polygon","coordinates":[[[36.888777,37.5773093],[36.8903913,37.5784823],[36.8901908,37.583656],[36.8792925,37.5798522],[36.8745302,37.5637981],[36.8863991,37.5628221],[36.8868265,37.5677824],[36.888777,37.5773093]]]},"properties":{"@id":"relation/8372058","admin_level":"8","boundary":"administrative","name":"Ağcalı Mahallesi","type":"boundary","@relations":[{"role":"subarea","rel":3671449,"reltags":{"admin_level":"6","boundary":"administrative","name":"Onikişubat","name:ce":"Оникишубат","name:de":"Onikişubat","name:en":"Onikişubat","name:tr":"Onikişubat","name:tr:suffix":"İlçesi","name:tt":"Оникишубат","network":"TR46-districts","population":"448317","population:date":"31-12-2021","type":"boundary","wikidata":"Q16960466","wikipedia":"tr:Onikişubat"}}]},"id":"relation/8372058"},
{"type":"Feature","geometry":{"type":"Polygon","coordinates":[[[36.8792925,37.5798522],[36.8792518,37.5831928],[36.8703697,37.5830807],[36.8562266,37.5669874],[36.8745302,37.5637981],[36.8792925,37.5798522]]]},"properties":{"@id":"relation/8372059","admin_level":"8","boundary":"administrative","name":"Vadi Mahallesi","type":"boundary","@relations":[{"role":"subarea","rel":3671449,"reltags":{"admin_level":"6","boundary":"administrative","name":"Onikişubat","name:ce":"Оникишубат","name:de":"Onikişubat","name:en":"Onikişubat","name:tr":"Onikişubat","name:tr:suffix":"İlçesi","name:tt":"Оникишубат","network":"TR46-districts","population":"448317","population:date":"31-12-2021","type":"boundary","wikidata":"Q16960466","wikipedia":"tr:Onikişubat"}}]},"id":"relation/8372059"},
{"type":"Feature","geometry":{"type":"Polygon","coordinates":[[[36.8868265,37.5677824],[36.8863991,37.5628221],[36.8893392,37.5578926],[36.8954065,37.571972],[36.8868265,37.5677824]]]},"properties":{"@id":"relation/8373779","admin_level":"8","boundary":"administrative","name":"Oruç Reis Mahallesi","type":"boundary","@relations":[{"role":"subarea","rel":3671449,"reltags":{"admin_level":"6","boundary":"administrative","name":"Onikişubat","name:ce":"Оникишубат","name:de":"Onikişubat","name:en":"Onikişubat","name:tr":"Onikişubat","name:tr:suffix":"İlçesi","name:tt":"Оникишубат","network":"TR46-districts","population":"448317","population:date":"31-12-2021","type":"boundary","wikidata":"Q16960466","wikipedia":"tr:Onikişubat"}}]},"id":"relation/8373779"},
{"type":"Feature","geometry":{"type":"Polygon","coordinates":[[[36.9225288,37.5562484],[36.911983,37.5596358],[36.9039219,37.5662944],[36.9008991,37.573523],[36.895616,37.5720398],[36.8954065,37.571972],[36.8893392,37.5578926],[36.9195624,37.5406402],[36.9225288,37.5562484]]]},"properties":{"@id":"relation/8374169","admin_level":"8","boundary":"administrative","name":"Malik Ejder Mahallesi","type":"boundary","@relations":[{"role":"subarea","rel":3671449,"reltags":{"admin_level":"6","boundary":"administrative","name":"Onikişubat","name:ce":"Оникишубат","name:de":"Onikişubat","name:en":"Onikişubat","name:tr":"Onikişubat","name:tr:suffix":"İlçesi","name:tt":"Оникишубат","network":"TR46-districts","population":"448317","population:date":"31-12-2021","type":"boundary","wikidata":"Q16960466","wikipedia":"tr:Onikişubat"}}]},"id":"relation/8374169"},
{"type":"Feature","geometry":{"type":"Polygon","coordinates":[[[36.8448238,37.5874572],[36.858429,37.5933906],[36.8408047,37.5987934],[36.8371044,37.5910603],[36.8448238,37.5874572]]]},"properties":{"@id":"relation/8374175","admin_level":"8","boundary":"administrative","name":"Yamaçtepe Mahallesi","type":"boundary","@relations":[{"role":"subarea","rel":3671449,"reltags":{"admin_level":"6","boundary":"administrative","name":"Onikişubat","name:ce":"Оникишубат","name:de":"Onikişubat","name:en":"Onikişubat","name:tr":"Onikişubat","name:tr:suffix":"İlçesi","name:tt":"Оникишубат","network":"TR46-districts","population":"448317","population:date":"31-12-2021","type":"boundary","wikidata":"Q16960466","wikipedia":"tr:Onikişubat"}}]},"id":"relation/8374175"},
{"type":"Feature","geometry":{"type":"Polygon","coordinates":[[[36.8759744,37.5969363],[36.8782396,37.5965554],[36.8876504,37.595676],[36.8989964,37.5925982],[36.891894,37.6015577],[36.8800032,37.6021457],[36.8759744,37.5969363]]]},"properties":{"@id":"relation/8375916","admin_level":"8","boundary":"administrative","name":"Hürriyet Mahallesi","type":"boundary","@relations":[{"role":"subarea","rel":3671449,"reltags":{"admin_level":"6","boundary":"administrative","name":"Onikişubat","name:ce":"Оникишубат","name:de":"Onikişubat","name:en":"Onikişubat","name:tr":"Onikişubat","name:tr:suffix":"İlçesi","name:tt":"Оникишубат","network":"TR46-districts","population":"448317","population:date":"31-12-2021","type":"boundary","wikidata":"Q16960466","wikipedia":"tr:Onikişubat"}}]},"id":"relation/8375916"},
{"type":"Feature","geometry":{"type":"Polygon","coordinates":[[[36.8656102,37.5969075],[36.8693467,37.5984301],[36.8713487,37.6019441],[36.8507494,37.5998906],[36.8620079,37.5962478],[36.8656102,37.5969075]]]},"properties":{"@id":"relation/8375965","admin_level":"8","boundary":"administrative","name":"Süleyman Şah Mahallesi","type":"boundary","@relations":[{"role":"subarea","rel":3671449,"reltags":{"admin_level":"6","boundary":"administrative","name":"Onikişubat","name:ce":"Оникишубат","name:de":"Onikişubat","name:en":"Onikişubat","name:tr":"Onikişubat","name:tr:suffix":"İlçesi","name:tt":"Оникишубат","network":"TR46-districts","population":"448317","population:date":"31-12-2021","type":"boundary","wikidata":"Q16960466","wikipedia":"tr:Onikişubat"}}]},"id":"relation/8375965"},
{"type":"Feature","geometry":{"type":"Polygon","coordinates":[[[36.8693467,37.5984301],[36.8759744,37.5969363],[36.8800032,37.6021457],[36.8713487,37.6019441],[36.8693467,37.5984301]]]},"properties":{"@id":"relation/8375966","admin_level":"8","boundary":"administrative","name":"5 Nisan Mahallesi","type":"boundary","@relations":[{"role":"subarea","rel":3671449,"reltags":{"admin_level":"6","boundary":"administrative","name":"Onikişubat","name:ce":"Оникишубат","name:de":"Onikişubat","name:en":"Onikişubat","name:tr":"Onikişubat","name:tr:suffix":"İlçesi","name:tt":"Оникишубат","network":"TR46-districts","population":"448317","population:date":"31-12-2021","type":"boundary","wikidata":"Q16960466","wikipedia":"tr:Onikişubat"}}]},"id":"relation/8375966"},
{"type":"Feature","geometry":{"type":"Polygon","coordinates":[[[36.858429,37.5933906],[36.8597178,37.5931654],[36.8620079,37.5962478],[36.8507494,37.5998906],[36.8300406,37.6043145],[36.8313926,37.6000098],[36.8408047,37.5987934],[36.858429,37.5933906]]]},"properties":{"@id":"relation/8375970","admin_level":"8","boundary":"administrative","name":"Cumhuriyet Mahallesi","type":"boundary","@relations":[{"role":"subarea","rel":3671449,"reltags":{"admin_level":"6","boundary":"administrative","name":"Onikişubat","name:ce":"Оникишубат","name:de":"Onikişubat","name:en":"Onikişubat","name:tr":"Onikişubat","name:tr:suffix":"İlçesi","name:tt":"Оникишубат","network":"TR46-districts","population":"448317","population:date":"31-12-2021","type":"boundary","wikidata":"Q16960466","wikipedia":"tr:Onikişubat"}}]},"id":"relation/8375970"},
{"type":"Feature","geometry":{"type":"Polygon","coordinates":[[[36.9151708,37.5886486],[36.9186811,37.5883254],[36.9146147,37.5962349],[36.9106127,37.5949833],[36.9125631,37.5888491],[36.9151708,37.5886486]]]},"properties":{"@id":"relation/8376541","admin_level":"8","boundary":"administrative","name":"Serintepe Mahallesi","type":"boundary","@relations":[{"role":"subarea","rel":3671449,"reltags":{"admin_level":"6","boundary":"administrative","name":"Onikişubat","name:ce":"Оникишубат","name:de":"Onikişubat","name:en":"Onikişubat","name:tr":"Onikişubat","name:tr:suffix":"İlçesi","name:tt":"Оникишубат","network":"TR46-districts","population":"448317","population:date":"31-12-2021","type":"boundary","wikidata":"Q16960466","wikipedia":"tr:Onikişubat"}}]},"id":"relation/8376541"},
{"type":"Feature","geometry":{"type":"Polygon","coordinates":[[[36.9001608,37.5918575],[36.9119328,37.5888327],[36.9125631,37.5888491],[36.9106127,37.5949833],[36.9102989,37.5949315],[36.9049009,37.5936045],[36.8989964,37.5925982],[36.9001608,37.5918575]]]},"properties":{"@id":"relation/8376542","admin_level":"8","boundary":"administrative","name":"Osman Gazi Mahallesi","type":"boundary","@relations":[{"role":"subarea","rel":3671449,"reltags":{"admin_level":"6","boundary":"administrative","name":"Onikişubat","name:ce":"Оникишубат","name:de":"Onikişubat","name:en":"Onikişubat","name:tr":"Onikişubat","name:tr:suffix":"İlçesi","name:tt":"Оникишубат","network":"TR46-districts","population":"448317","population:date":"31-12-2021","type":"boundary","wikidata":"Q16960466","wikipedia":"tr:Onikişubat"}}]},"id":"relation/8376542"},
{"type":"Feature","geometry":{"type":"Polygon","coordinates":[[[36.922687,37.5895049],[36.919723,37.5979713],[36.9146147,37.5962349],[36.9186811,37.5883254],[36.9207091,37.5890069],[36.922687,37.5895049]]]},"properties":{"@id":"relation/8376543","admin_level":"8","boundary":"administrative","name":"Mağralı Mahallesi","type":"boundary","@relations":[{"role":"subarea","rel":3671449,"reltags":{"admin_level":"6","boundary":"administrative","name":"Onikişubat","name:ce":"Оникишубат","name:de":"Onikişubat","name:en":"Onikişubat","name:tr":"Onikişubat","name:tr:suffix":"İlçesi","name:tt":"Оникишубат","network":"TR46-districts","population":"448317","population:date":"31-12-2021","type":"boundary","wikidata":"Q16960466","wikipedia":"tr:Onikişubat"}}]},"id":"relation/8376543"},
{"type":"Feature","geometry":{"type":"Polygon","coordinates":[[[36.9169814,37.5844318],[36.9229618,37.5855384],[36.9207091,37.5890069],[36.9186811,37.5883254],[36.9151708,37.5886486],[36.9169814,37.5844318]]]},"properties":{"@id":"relation/8376544","admin_level":"8","boundary":"administrative","name":"Akçakoyunlu Mahallesi","type":"boundary","@relations":[{"role":"subarea","rel":3671449,"reltags":{"admin_level":"6","boundary":"administrative","name":"Onikişubat","name:ce":"Оникишубат","name:de":"Onikişubat","name:en":"Onikişubat","name:tr":"Onikişubat","name:tr:suffix":"İlçesi","name:tt":"Оникишубат","network":"TR46-districts","population":"448317","population:date":"31-12-2021","type":"boundary","wikidata":"Q16960466","wikipedia":"tr:Onikişubat"}}]},"id":"relation/8376544"},
{"type":"Feature","geometry":{"type":"Polygon","coordinates":[[[36.9207091,37.5890069],[36.9229618,37.5855384],[36.925833,37.5851707],[36.9267728,37.5858245],[36.9268841,37.5899146],[36.922687,37.5895049],[36.9207091,37.5890069]]]},"properties":{"@id":"relation/8376545","admin_level":"8","boundary":"administrative","name":"Şehit Evliya Mahallesi","type":"boundary","@relations":[{"role":"subarea","rel":3671449,"reltags":{"admin_level":"6","boundary":"administrative","name":"Onikişubat","name:ce":"Оникишубат","name:de":"Onikişubat","name:en":"Onikişubat","name:tr":"Onikişubat","name:tr:suffix":"İlçesi","name:tt":"Оникишубат","network":"TR46-districts","population":"448317","population:date":"31-12-2021","type":"boundary","wikidata":"Q16960466","wikipedia":"tr:Onikişubat"}}]},"id":"relation/8376545"},
{"type":"Feature","geometry":{"type":"Polygon","coordinates":[[[36.919723,37.5979713],[36.922687,37.5895049],[36.9268841,37.5899146],[36.91924,37.6334121],[36.8850303,37.6312949],[36.8993418,37.6075788],[36.9061897,37.6055166],[36.919723,37.5979713]]]},"properties":{"@id":"relation/8376546","admin_level":"8","alt_name":"Yörükselim Mahallesi","boundary":"administrative","name":"Yürükselim Mahallesi","type":"boundary","@relations":[{"role":"subarea","rel":3671449,"reltags":{"admin_level":"6","boundary":"administrative","name":"Onikişubat","name:ce":"Оникишубат","name:de":"Onikişubat","name:en":"Onikişubat","name:tr":"Onikişubat","name:tr:suffix":"İlçesi","name:tt":"Оникишубат","network":"TR46-districts","population":"448317","population:date":"31-12-2021","type":"boundary","wikidata":"Q16960466","wikipedia":"tr:Onikişubat"}}]},"id":"relation/8376546"},
{"type":"Feature","geometry":{"type":"Polygon","coordinates":[[[36.891894,37.6015577],[36.8989964,37.5925982],[36.9049009,37.5936045],[36.8975942,37.6026382],[36.891894,37.6015577]]]},"properties":{"@id":"relation/8377880","admin_level":"8","boundary":"administrative","name":"Tavşan Tepe Mahallesi","type":"boundary","@relations":[{"role":"subarea","rel":3671449,"reltags":{"admin_level":"6","boundary":"administrative","name":"Onikişubat","name:ce":"Оникишубат","name:de":"Onikişubat","name:en":"Onikişubat","name:tr":"Onikişubat","name:tr:suffix":"İlçesi","name:tt":"Оникишубат","network":"TR46-districts","population":"448317","population:date":"31-12-2021","type":"boundary","wikidata":"Q16960466","wikipedia":"tr:Onikişubat"}}]},"id":"relation/8377880"},
{"type":"Feature","geometry":{"type":"Polygon","coordinates":[[[36.9102989,37.5949315],[36.9061897,37.6055166],[36.8993418,37.6075788],[36.8975942,37.6026382],[36.9049009,37.5936045],[36.9102989,37.5949315]]]},"properties":{"@id":"relation/8377881","admin_level":"8","boundary":"administrative","name":"Saçaklızade Mahallesi","type":"boundary","@relations":[{"role":"subarea","rel":3671449,"reltags":{"admin_level":"6","boundary":"administrative","name":"Onikişubat","name:ce":"Оникишубат","name:de":"Onikişubat","name:en":"Onikişubat","name:tr":"Onikişubat","name:tr:suffix":"İlçesi","name:tt":"Оникишубат","network":"TR46-districts","population":"448317","population:date":"31-12-2021","type":"boundary","wikidata":"Q16960466","wikipedia":"tr:Onikişubat"}}]},"id":"relation/8377881"},
{"type":"Feature","geometry":{"type":"Polygon","coordinates":[[[36.9102989,37.5949315],[36.9106127,37.5949833],[36.9146147,37.5962349],[36.919723,37.5979713],[36.9061897,37.6055166],[36.9102989,37.5949315]]]},"properties":{"@id":"relation/8377882","admin_level":"8","boundary":"administrative","name":"Çamlık Mahallesi","type":"boundary","@relations":[{"role":"subarea","rel":3671449,"reltags":{"admin_level":"6","boundary":"administrative","name":"Onikişubat","name:ce":"Оникишубат","name:de":"Onikişubat","name:en":"Onikişubat","name:tr":"Onikişubat","name:tr:suffix":"İlçesi","name:tt":"Оникишубат","network":"TR46-districts","population":"448317","population:date":"31-12-2021","type":"boundary","wikidata":"Q16960466","wikipedia":"tr:Onikişubat"}}]},"id":"relation/8377882"},
{"type":"Feature","geometry":{"type":"Polygon","coordinates":[[[36.8371044,37.5910603],[36.8408047,37.5987934],[36.8313926,37.6000098],[36.8153732,37.600572],[36.8341548,37.5886076],[36.8371044,37.5910603]]]},"properties":{"@id":"relation/8404028","admin_level":"8","boundary":"administrative","name":"Üngüt Mahallesi","type":"boundary","@relations":[{"role":"subarea","rel":3671449,"reltags":{"admin_level":"6","boundary":"administrative","name":"Onikişubat","name:ce":"Оникишубат","name:de":"Onikişubat","name:en":"Onikişubat","name:tr":"Onikişubat","name:tr:suffix":"İlçesi","name:tt":"Оникишубат","network":"TR46-districts","population":"448317","population:date":"31-12-2021","type":"boundary","wikidata":"Q16960466","wikipedia":"tr:Onikişubat"}}]},"id":"relation/8404028"},
{"type":"Feature","geometry":{"type":"Polygon","coordinates":[[[36.8313926,37.6000098],[36.8300406,37.6043145],[36.8276846,37.6099904],[36.8153732,37.600572],[36.8313926,37.6000098]]]},"properties":{"@id":"relation/8404228","admin_level":"8","boundary":"administrative","name":"Gedemen Mahallesi","type":"boundary","@relations":[{"role":"subarea","rel":3671449,"reltags":{"admin_level":"6","boundary":"administrative","name":"Onikişubat","name:ce":"Оникишубат","name:de":"Onikişubat","name:en":"Onikişubat","name:tr":"Onikişubat","name:tr:suffix":"İlçesi","name:tt":"Оникишубат","network":"TR46-districts","population":"448317","population:date":"31-12-2021","type":"boundary","wikidata":"Q16960466","wikipedia":"tr:Onikişubat"}}]},"id":"relation/8404228"},
{"type":"Feature","geometry":{"type":"Polygon","coordinates":[[[36.9602502,37.5712852],[36.9575179,37.5757032],[36.9438796,37.5750571],[36.9428527,37.5712639],[36.9602502,37.5712852]]]},"properties":{"@id":"relation/9261486","admin_level":"8","boundary":"administrative","name":"Namık Kemal Mahallesi","type":"boundary","@relations":[{"role":"subarea","rel":3671448,"reltags":{"admin_level":"6","boundary":"administrative","name":"Dulkadiroğlu","name:ce":"ДулкадирогӀлу","name:de":"Dulkadiroğlu","name:en":"Dulkadiroğlu","name:tr":"Dulkadiroğlu","name:tr:suffix":"İlçesi","name:tt":"Дулкадироглу","network":"TR46-districts","population":"223532","population:date":"31-12-2021","type":"boundary","wikidata":"Q16836177","wikipedia":"tr:Dulkadiroğlu"}}]},"id":"relation/9261486"},
{"type":"Feature","geometry":{"type":"Polygon","coordinates":[[[36.6850609,37.270477],[36.7329365,37.2512298],[36.7429482,37.2386597],[36.7761009,37.2336818],[36.8104219,37.228338],[36.8469689,37.2619519],[36.7441287,37.2778921],[36.6868345,37.2749464],[36.6850609,37.270477]]]},"properties":{"@id":"relation/9316045","admin_level":"8","boundary":"administrative","name":"Şekeroba Mahallesi","type":"boundary","@relations":[{"role":"subarea","rel":1341115,"reltags":{"admin_level":"6","boundary":"administrative","name":"Türkoğlu","name:ce":"ТуьркогӀлу","name:de":"Türkoğlu","name:en":"Türkoğlu","name:fa":"ترک‌اوغلی","name:ku":"Kirdoxlî","name:ru":"Тюркоглу","name:tr":"Türkoğlu","name:tr:suffix":"İlçesi","name:tt":"Түркоглу","name:ur":"ترک اوغلو","name:zh":"蒂爾克奧盧","network":"TR46-districts","population":"78588","population:date":"31-12-2021","postal_code":"46800","type":"boundary","wikidata":"Q993676","wikipedia":"tr:Türkoğlu"}},{"role":"subarea","rel":3671449,"reltags":{"admin_level":"6","boundary":"administrative","name":"Onikişubat","name:ce":"Оникишубат","name:de":"Onikişubat","name:en":"Onikişubat","name:tr":"Onikişubat","name:tr:suffix":"İlçesi","name:tt":"Оникишубат","network":"TR46-districts","population":"448317","population:date":"31-12-2021","type":"boundary","wikidata":"Q16960466","wikipedia":"tr:Onikişubat"}}]},"id":"relation/9316045"},
{"type":"Feature","geometry":{"type":"Polygon","coordinates":[[[36.6850609,37.270477],[36.6741795,37.2472865],[36.6965365,37.2202735],[36.7456425,37.2335744],[36.7429482,37.2386597],[36.7329365,37.2512298],[36.6850609,37.270477]]]},"properties":{"@id":"relation/9316139","admin_level":"8","boundary":"administrative","name":"Dedeler Mahallesi","type":"boundary","@relations":[{"role":"subarea","rel":1341115,"reltags":{"admin_level":"6","boundary":"administrative","name":"Türkoğlu","name:ce":"ТуьркогӀлу","name:de":"Türkoğlu","name:en":"Türkoğlu","name:fa":"ترک‌اوغلی","name:ku":"Kirdoxlî","name:ru":"Тюркоглу","name:tr":"Türkoğlu","name:tr:suffix":"İlçesi","name:tt":"Түркоглу","name:ur":"ترک اوغلو","name:zh":"蒂爾克奧盧","network":"TR46-districts","population":"78588","population:date":"31-12-2021","postal_code":"46800","type":"boundary","wikidata":"Q993676","wikipedia":"tr:Türkoğlu"}},{"role":"subarea","rel":3671449,"reltags":{"admin_level":"6","boundary":"administrative","name":"Onikişubat","name:ce":"Оникишубат","name:de":"Onikişubat","name:en":"Onikişubat","name:tr":"Onikişubat","name:tr:suffix":"İlçesi","name:tt":"Оникишубат","network":"TR46-districts","population":"448317","population:date":"31-12-2021","type":"boundary","wikidata":"Q16960466","wikipedia":"tr:Onikişubat"}}]},"id":"relation/9316139"},
{"type":"Feature","geometry":{"type":"Polygon","coordinates":[[[36.7429482,37.2386597],[36.7456425,37.2335744],[36.7761009,37.2336818],[36.7429482,37.2386597]]]},"properties":{"@id":"relation/9316321","admin_level":"8","boundary":"administrative","name":"Yeşilyurt Mahallesi","type":"boundary","@relations":[{"role":"subarea","rel":1341115,"reltags":{"admin_level":"6","boundary":"administrative","name":"Türkoğlu","name:ce":"ТуьркогӀлу","name:de":"Türkoğlu","name:en":"Türkoğlu","name:fa":"ترک‌اوغلی","name:ku":"Kirdoxlî","name:ru":"Тюркоглу","name:tr":"Türkoğlu","name:tr:suffix":"İlçesi","name:tt":"Түркоглу","name:ur":"ترک اوغلو","name:zh":"蒂爾克奧盧","network":"TR46-districts","population":"78588","population:date":"31-12-2021","postal_code":"46800","type":"boundary","wikidata":"Q993676","wikipedia":"tr:Türkoğlu"}},{"role":"subarea","rel":3671449,"reltags":{"admin_level":"6","boundary":"administrative","name":"Onikişubat","name:ce":"Оникишубат","name:de":"Onikişubat","name:en":"Onikişubat","name:tr":"Onikişubat","name:tr:suffix":"İlçesi","name:tt":"Оникишубат","network":"TR46-districts","population":"448317","population:date":"31-12-2021","type":"boundary","wikidata":"Q16960466","wikipedia":"tr:Onikişubat"}}]},"id":"relation/9316321"},
{"type":"Feature","geometry":{"type":"Polygon","coordinates":[[[37.6926121,37.9572287],[37.6955187,37.9933725],[37.6604998,37.9947592],[37.6582468,37.976494],[37.6222086,37.9545191],[37.603097,37.9577975],[37.6161398,37.9441115],[37.6258963,37.9511977],[37.6926121,37.9572287]]]},"properties":{"@id":"relation/13727566","admin_level":"8","boundary":"administrative","name":"Kapıdere Mahallesi","type":"boundary","@relations":[{"role":"subarea","rel":1825945,"reltags":{"admin_level":"6","alt_name":"Muhacîr","boundary":"administrative","name":"Doğanşehir","name:de":"Doğanşehir","name:en":"Doğanşehir","name:fa":"دوغان‌شهر","name:hy":"Վերանշեհր","name:ku":"Wêranşar","name:ru":"Доганшехир","name:tr":"Doğanşehir","name:tr:suffix":"İlçesi","name:zh":"多安謝希爾","network":"TR44-districts","source":"http://rehber.malatya.bel.tr/KentrehberiApp/Index","type":"boundary","wikidata":"Q1004642","wikipedia":"tr:Doğanşehir"}}]},"id":"relation/13727566"},
{"type":"Feature","geometry":{"type":"Polygon","coordinates":[[[37.6582468,37.976494],[37.6323956,37.9836442],[37.6013303,38.0131128],[37.5808275,38.0057076],[37.603097,37.9577975],[37.6222086,37.9545191],[37.6582468,37.976494]]]},"properties":{"@id":"relation/13727567","admin_level":"8","boundary":"administrative","name":"Bıçakçı Mahallesi","type":"boundary","@relations":[{"role":"subarea","rel":1825945,"reltags":{"admin_level":"6","alt_name":"Muhacîr","boundary":"administrative","name":"Doğanşehir","name:de":"Doğanşehir","name:en":"Doğanşehir","name:fa":"دوغان‌شهر","name:hy":"Վերանշեհր","name:ku":"Wêranşar","name:ru":"Доганшехир","name:tr":"Doğanşehir","name:tr:suffix":"İlçesi","name:zh":"多安謝希爾","network":"TR44-districts","source":"http://rehber.malatya.bel.tr/KentrehberiApp/Index","type":"boundary","wikidata":"Q1004642","wikipedia":"tr:Doğanşehir"}}]},"id":"relation/13727567"},
{"type":"Feature","geometry":{"type":"Polygon","coordinates":[[[37.2089536,38.207031],[37.2148347,38.1953926],[37.2339964,38.1944904],[37.2254455,38.2074491],[37.2089536,38.207031]]]},"properties":{"@id":"relation/13936888","admin_level":"8","boundary":"administrative","name":"Cumhuriyet Mahallesi","type":"boundary","@relations":[{"role":"subarea","rel":1341120,"reltags":{"admin_level":"6","boundary":"administrative","name":"Elbistan","name:ar":"البستان","name:ce":"Элбистан","name:de":"Elbistan","name:el":"Ελμπιστάν","name:en":"Elbistan","name:fa":"البستان","name:he":"אלביסטן","name:hy":"Ալբիստան","name:ku":"Albistan","name:ru":"Эльбистан","name:tr":"Elbistan","name:tr:suffix":"İlçesi","name:uk":"Ельбістан","name:ur":"البستان","name:zh":"埃爾比斯坦","network":"TR46-districts","population":"141977","population:date":"31-12-2021","postal_code":"46300","type":"boundary","website":"https://eczanelik.com/kahramanmaras-elbistan-nobetci-eczaneleri.html","wikidata":"Q117181","wikipedia":"tr:Elbistan"}}]},"id":"relation/13936888"},
{"type":"Feature","geometry":{"type":"Polygon","coordinates":[[[37.2089536,38.207031],[37.2254455,38.2074491],[37.2144914,38.2242238],[37.197411,38.217683],[37.2089536,38.207031]]]},"properties":{"@id":"relation/13936889","admin_level":"8","boundary":"administrative","name":"Orhangazi Mahallesi","type":"boundary","@relations":[{"role":"subarea","rel":1341120,"reltags":{"admin_level":"6","boundary":"administrative","name":"Elbistan","name:ar":"البستان","name:ce":"Элбистан","name:de":"Elbistan","name:el":"Ελμπιστάν","name:en":"Elbistan","name:fa":"البستان","name:he":"אלביסטן","name:hy":"Ալբիստան","name:ku":"Albistan","name:ru":"Эльбистан","name:tr":"Elbistan","name:tr:suffix":"İlçesi","name:uk":"Ельбістан","name:ur":"البستان","name:zh":"埃爾比斯坦","network":"TR46-districts","population":"141977","population:date":"31-12-2021","postal_code":"46300","type":"boundary","website":"https://eczanelik.com/kahramanmaras-elbistan-nobetci-eczaneleri.html","wikidata":"Q117181","wikipedia":"tr:Elbistan"}}]},"id":"relation/13936889"},
{"type":"Feature","geometry":{"type":"Polygon","coordinates":[[[36.9303524,37.5807067],[36.9331729,37.5778255],[36.9372055,37.5795759],[36.9307244,37.5832089],[36.9303524,37.5807067]]]},"properties":{"@id":"relation/17049292","admin_level":"8","boundary":"administrative","name":"İsa Divanlı Mahallesi","type":"boundary","@relations":[{"role":"subarea","rel":3671448,"reltags":{"admin_level":"6","boundary":"administrative","name":"Dulkadiroğlu","name:ce":"ДулкадирогӀлу","name:de":"Dulkadiroğlu","name:en":"Dulkadiroğlu","name:tr":"Dulkadiroğlu","name:tr:suffix":"İlçesi","name:tt":"Дулкадироглу","network":"TR46-districts","population":"223532","population:date":"31-12-2021","type":"boundary","wikidata":"Q16836177","wikipedia":"tr:Dulkadiroğlu"}}]},"id":"relation/17049292"},
{"type":"Feature","geometry":{"type":"Polygon","coordinates":[[[36.9303524,37.5807067],[36.9307244,37.5832089],[36.9267728,37.5858245],[36.925833,37.5851707],[36.926609,37.5842886],[36.9274528,37.5814106],[36.9303524,37.5807067]]]},"properties":{"@id":"relation/17049293","admin_level":"8","boundary":"administrative","name":"Kurtuluş Mahallesi","type":"boundary","@relations":[{"role":"subarea","rel":3671448,"reltags":{"admin_level":"6","boundary":"administrative","name":"Dulkadiroğlu","name:ce":"ДулкадирогӀлу","name:de":"Dulkadiroğlu","name:en":"Dulkadiroğlu","name:tr":"Dulkadiroğlu","name:tr:suffix":"İlçesi","name:tt":"Дулкадироглу","network":"TR46-districts","population":"223532","population:date":"31-12-2021","type":"boundary","wikidata":"Q16836177","wikipedia":"tr:Dulkadiroğlu"}}]},"id":"relation/17049293"},
{"type":"Feature","geometry":{"type":"Polygon","coordinates":[[[36.9573802,37.5770657],[36.9457062,37.5818035],[36.9455467,37.5812144],[36.9551325,37.5776439],[36.9573802,37.5770657]]]},"properties":{"@id":"relation/17049294","admin_level":"8","boundary":"administrative","name":"Şeyh Şamil Mahallesi","type":"boundary","@relations":[{"role":"subarea","rel":3671448,"reltags":{"admin_level":"6","boundary":"administrative","name":"Dulkadiroğlu","name:ce":"ДулкадирогӀлу","name:de":"Dulkadiroğlu","name:en":"Dulkadiroğlu","name:tr":"Dulkadiroğlu","name:tr:suffix":"İlçesi","name:tt":"Дулкадироглу","network":"TR46-districts","population":"223532","population:date":"31-12-2021","type":"boundary","wikidata":"Q16836177","wikipedia":"tr:Dulkadiroğlu"}}]},"id":"relation/17049294"},
{"type":"Feature","geometry":{"type":"Polygon","coordinates":[[[36.9551325,37.5776439],[36.9455467,37.5812144],[36.9446635,37.5779524],[36.9551325,37.5776439]]]},"properties":{"@id":"relation/17049295","admin_level":"8","boundary":"administrative","name":"Dulkadiroğlu Mahallesi","type":"boundary","@relations":[{"role":"subarea","rel":3671448,"reltags":{"admin_level":"6","boundary":"administrative","name":"Dulkadiroğlu","name:ce":"ДулкадирогӀлу","name:de":"Dulkadiroğlu","name:en":"Dulkadiroğlu","name:tr":"Dulkadiroğlu","name:tr:suffix":"İlçesi","name:tt":"Дулкадироглу","network":"TR46-districts","population":"223532","population:date":"31-12-2021","type":"boundary","wikidata":"Q16836177","wikipedia":"tr:Dulkadiroğlu"}}]},"id":"relation/17049295"},
{"type":"Feature","geometry":{"type":"Polygon","coordinates":[[[36.9575179,37.5757032],[36.9573802,37.5770657],[36.9551325,37.5776439],[36.9446635,37.5779524],[36.9438796,37.5750571],[36.9575179,37.5757032]]]},"properties":{"@id":"relation/17049296","admin_level":"8","boundary":"administrative","name":"Bağlarbaşı Mahallesi","type":"boundary","@relations":[{"role":"subarea","rel":3671448,"reltags":{"admin_level":"6","boundary":"administrative","name":"Dulkadiroğlu","name:ce":"ДулкадирогӀлу","name:de":"Dulkadiroğlu","name:en":"Dulkadiroğlu","name:tr":"Dulkadiroğlu","name:tr:suffix":"İlçesi","name:tt":"Дулкадироглу","network":"TR46-districts","population":"223532","population:date":"31-12-2021","type":"boundary","wikidata":"Q16836177","wikipedia":"tr:Dulkadiroğlu"}}]},"id":"relation/17049296"},
{"type":"Feature","geometry":{"type":"Polygon","coordinates":[[[36.9557479,37.5581706],[36.9602502,37.5712852],[36.9428527,37.5712639],[36.9428009,37.5711902],[36.9557479,37.5581706]]]},"properties":{"@id":"relation/17049297","admin_level":"8","boundary":"administrative","name":"Yavuz Selim Mahallesi","type":"boundary","@relations":[{"role":"subarea","rel":3671448,"reltags":{"admin_level":"6","boundary":"administrative","name":"Dulkadiroğlu","name:ce":"ДулкадирогӀлу","name:de":"Dulkadiroğlu","name:en":"Dulkadiroğlu","name:tr":"Dulkadiroğlu","name:tr:suffix":"İlçesi","name:tt":"Дулкадироглу","network":"TR46-districts","population":"223532","population:date":"31-12-2021","type":"boundary","wikidata":"Q16836177","wikipedia":"tr:Dulkadiroğlu"}}]},"id":"relation/17049297"},
{"type":"Feature","geometry":{"type":"Polygon","coordinates":[[[36.9225288,37.5562484],[36.9195624,37.5406402],[36.9392296,37.5637856],[36.9319735,37.5657179],[36.9248231,37.5683181],[36.9225288,37.5562484]]]},"properties":{"@id":"relation/17049298","admin_level":"8","boundary":"administrative","name":"İstasyon Mahallesi","type":"boundary","@relations":[{"role":"subarea","rel":3671448,"reltags":{"admin_level":"6","boundary":"administrative","name":"Dulkadiroğlu","name:ce":"ДулкадирогӀлу","name:de":"Dulkadiroğlu","name:en":"Dulkadiroğlu","name:tr":"Dulkadiroğlu","name:tr:suffix":"İlçesi","name:tt":"Дулкадироглу","network":"TR46-districts","population":"223532","population:date":"31-12-2021","type":"boundary","wikidata":"Q16836177","wikipedia":"tr:Dulkadiroğlu"}}]},"id":"relation/17049298"},
{"type":"Feature","geometry":{"type":"Polygon","coordinates":[[[36.8993418,37.6075788],[36.8850303,37.6312949],[36.8571246,37.6316178],[36.8276846,37.6099904],[36.8300406,37.6043145],[36.8507494,37.5998906],[36.8713487,37.6019441],[36.8800032,37.6021457],[36.891894,37.6015577],[36.8975942,37.6026382],[36.8993418,37.6075788]]]},"properties":{"@id":"relation/17225403","admin_level":"8","alt_name":"Cancık Mahallesi","boundary":"administrative","name":"Rasim Özdenören Mahallesi","type":"boundary","@relations":[{"role":"subarea","rel":3671449,"reltags":{"admin_level":"6","boundary":"administrative","name":"Onikişubat","name:ce":"Оникишубат","name:de":"Onikişubat","name:en":"Onikişubat","name:tr":"Onikişubat","name:tr:suffix":"İlçesi","name:tt":"Оникишубат","network":"TR46-districts","population":"448317","population:date":"31-12-2021","type":"boundary","wikidata":"Q16960466","wikipedia":"tr:Onikişubat"}}]},"id":"relation/17225403"},
{"type":"Feature","geometry":{"type":"Polygon","coordinates":[[[37.1639107,37.391134],[37.1523251,37.4020397],[37.1496685,37.3910673],[37.1639107,37.391134]]]},"properties":{"@id":"relation/17635730","admin_level":"8","boundary":"administrative","name":"Çiğdemtepe Mahallesi","type":"boundary"},"id":"relation/17635730"}
]}