{"type":"FeatureCollection", "features": [
{"type":"Feature","geometry":{"type":"Polygon","coordinates":[[[32.4646044,41.3085478],[32.3407921,41.3153476],[32.2790763,41.3081334],[32.2418749,41.2863193],[32.2489923,41.2556622],[32.1744023,41.2473788],[32.1284628,41.2186362],[32.089687,41.1603353],[32.0610933,41.1616799],[31.9791455,41.0575751],[31.9809328,41.0463319],[32.0278735,41.0200991],[32.0839072,41.0078012],[32.1713391,41.048679],[32.2359168,41.030299],[32.2754958,41.0324993],[32.3358939,41.0474752],[32.4377524,41.0548959],[32.4582526,41.142643],[32.522217,41.2279619],[32.5138201,41.2559955],[32.4646044,41.3085478]]]},"properties":{"@id":"relation/1245153","admin_level":"6","alt_name":"耶尼傑","boundary":"administrative","name":"Yenice","name:ce":"Йенидже","name:de":"Yenice","name:en":"Yenice","name:fa":"ینیج","name:tr":"Yenice","name:tr:suffix":"İlçesi","name:tt":"Ениҗе","name:ur":"ینیجہ","network":"TR78-provinces","population":"19854","population:date":"31-12-2021","type":"boundary","wikidata":"Q130228","wikipedia":"tr:Yenice, Karabük"},"id":"relation/1245153"},
{"type":"Feature","geometry":{"type":"Polygon","coordinates":[[[32.674825,41.2169295],[32.671847,41.2311425],[32.6676502,41.2434387],[32.6509278,41.2821646],[32.5816363,41.3264386],[32.4786283,41.3601099],[32.4646044,41.3085478],[32.5138201,41.2559955],[32.522217,41.2279619],[32.4582526,41.142643],[32.4377524,41.0548959],[32.5562161,41.0503312],[32.5965809,41.0016343],[32.6411808,41.0489127],[32.7229414,41.0342437],[32.7382744,41.0058369],[32.8043099,41.0005159],[32.8161757,41.0381427],[32.8111761,41.0935141],[32.7773878,41.1298523],[32.7725787,41.1630801],[32.7330402,41.1898832],[32.6719366,41.2080411],[32.674825,41.2169295]]]},"properties":{"@id":"relation/1245154","admin_level":"6","boundary":"administrative","name":"Karabük Merkez","name:de":"Karabük","name:en":"Karabük","name:tr":"Karabük Merkez","name:tr:suffix":"İlçesi","network":"TR78-provinces","type":"boundary","wikidata":"Q189697","wikipedia":"tr:Karabük"},"id":"relation/1245154"},
{"type":"Feature","geometry":{"type":"Polygon","coordinates":[[[32.3394831,40.8667807],[32.4193772,40.8537081],[32.4924578,40.8826503],[32.5349025,40.8466225],[32.5915529,40.8194488],[32.6408422,40.8464273],[32.6857316,40.846967],[32.702721,40.8795318],[32.7646635,40.8974249],[32.8167149,40.9807461],[32.8043099,41.0005159],[32.7382744,41.0058369],[32.7229414,41.0342437],[32.6411808,41.0489127],[32.5965809,41.0016343],[32.5562161,41.0503312],[32.4377524,41.0548959],[32.3358939,41.0474752],[32.2754958,41.0324993],[32.3082506,41.0287747],[32.3341686,40.9566673],[32.3988471,40.9600251],[32.3827721,40.9103679],[32.3394831,40.8667807]]]},"properties":{"@id":"relation/1245155","admin_level":"6","boundary":"administrative","name":"Eskipazar","name:ce":"Эскипазар","name:de":"Eskipazar","name:en":"Eskipazar","name:fa":"اسکی‌بازار","name:ru":"Эскипазар","name:tr":"Eskipazar","name:tr:suffix":"İlçesi","name:tt":"Эскипазар","name:ur":"اسکی پازار","network":"TR78-provinces","old_name":"Mecidiye","place":"town","population":"12550","population:date":"31-12-2021","type":"boundary","wikidata":"Q1367851","wikipedia":"tr:Eskipazar"},"id":"relation/1245155"},
{"type":"Feature","geometry":{"type":"Polygon","coordinates":[[[32.9812197,41.2942522],[33.0109529,41.31742],[33.0684359,41.3188589],[33.1229849,41.3495407],[33.1522081,41.4323593],[33.1133587,41.4439909],[33.0940298,41.4846015],[33.0591627,41.4880029],[33.0535996,41.5774022],[32.9567583,41.5862025],[32.9226084,41.5604876],[32.8784233,41.5738291],[32.7906158,41.5610488],[32.803857,41.5205344],[32.8410498,41.5206699],[32.843699,41.4739707],[32.817395,41.4384594],[32.8156428,41.3927966],[32.8517821,41.3311502],[32.9136571,41.3020329],[32.9812197,41.2942522]]]},"properties":{"@id":"relation/1245156","admin_level":"6","boundary":"administrative","name":"Eflani","name:ce":"Эфлани","name:de":"Eflani","name:el":"Εφλανί","name:en":"Eflani","name:fa":"عفلانی","name:tr":"Eflani","name:tr:suffix":"İlçesi","name:tt":"Эфлани","name:ur":"عفلانی","name:zh":"伊夫萊尼","network":"TR78-provinces","population":"8409","population:date":"31-12-2021","type":"boundary","wikidata":"Q1296393","wikipedia":"tr:Eflani"},"id":"relation/1245156"},
{"type":"Feature","geometry":{"type":"Polygon","coordinates":[[[32.9755873,41.1543742],[32.9196825,41.160942],[32.7773878,41.1298523],[32.8111761,41.0935141],[32.8161757,41.0381427],[32.8043099,41.0005159],[32.8167149,40.9807461],[32.8444003,40.9523537],[32.9051684,40.9458061],[32.9897975,40.9784078],[33.0474757,40.9850169],[33.0595487,41.1080554],[33.0101309,41.1494799],[32.9755873,41.1543742]]]},"properties":{"@id":"relation/1245157","admin_level":"6","boundary":"administrative","name":"Ovacık","name:ce":"Оваджик","name:de":"Ovacık","name:en":"Ovacık","name:fa":"اواجیک","name:tr":"Ovacık","name:tr:suffix":"İlçesi","name:tt":"Оваҗык","name:ur":"اوواجک","network":"TR78-provinces","population":"3674","population:date":"31-12-2021","type":"boundary","wikidata":"Q1974304","wikipedia":"tr:Ovacık, Karabük"},"id":"relation/1245157"},
{"type":"Feature","geometry":{"type":"Polygon","coordinates":[[[32.6676502,41.2434387],[32.671847,41.2311425],[32.674825,41.2169295],[32.6719366,41.2080411],[32.7330402,41.1898832],[32.7725787,41.1630801],[32.7773878,41.1298523],[32.9196825,41.160942],[32.9755873,41.1543742],[32.9265796,41.1871737],[32.9386852,41.2546015],[32.9812197,41.2942522],[32.9136571,41.3020329],[32.8517821,41.3311502],[32.8156428,41.3927966],[32.817395,41.4384594],[32.843699,41.4739707],[32.8410498,41.5206699],[32.803857,41.5205344],[32.7344237,41.5050655],[32.6964464,41.5295066],[32.6423475,41.4892958],[32.6448437,41.4548179],[32.6750383,41.3981301],[32.661965,41.3689536],[32.5898352,41.355522],[32.5816363,41.3264386],[32.6509278,41.2821646],[32.6676502,41.2434387]]]},"properties":{"@id":"relation/1245158","admin_level":"6","boundary":"administrative","name":"Safranbolu","name:ar":"زعفرانبول","name:bg":"Сафранболу","name:ce":"Сафранболу","name:de":"Safranbolu","name:el":"Σαφράμπολη","name:en":"Safranbolu","name:fa":"سافران‌بولو","name:he":"ספרנבולו","name:hy":"Սաֆրանբոլու","name:ja":"サフランボル","name:ka":"საფრანბოლუ","name:ko":"사프란볼루","name:pt":"Saframbolu","name:ru":"Сафранболу","name:tr":"Safranbolu","name:tr:suffix":"İlçesi","name:tt":"Сафранболу","name:uk":"Сафранболу","name:ur":"سفرانبولو","name:zh":"番紅花城","network":"TR78-provinces","population":"69449","population:date":"31-12-2021","type":"boundary","wikidata":"Q192501","wikipedia":"tr:Safranbolu"},"id":"relation/1245158"},
{"type":"Feature","geometry":{"type":"Polygon","coordinates":[[[31.9809328,41.0463319],[31.9269972,41.0118792],[31.8536456,41.0082997],[31.7674454,40.9487561],[31.8309876,40.8646646],[31.8720398,40.8592674],[31.907245,40.8252838],[32.0031164,40.8385207],[32.0360097,40.8551236],[32.1973236,40.8389192],[32.3394831,40.8667807],[32.3827721,40.9103679],[32.3988471,40.9600251],[32.3341686,40.9566673],[32.3082506,41.0287747],[32.2754958,41.0324993],[32.2359168,41.030299],[32.1713391,41.048679],[32.0839072,41.0078012],[32.0278735,41.0200991],[31.9809328,41.0463319]]]},"properties":{"@id":"relation/1795634","admin_level":"6","boundary":"administrative","name":"Mengen","name:az":"Məngən","name:ce":"Менген","name:de":"Mengen","name:en":"Mengen","name:fa":"منگن","name:tr":"Mengen","name:tr:suffix":"İlçesi","name:tt":"Менген","name:uk":"Менґен","name:ur":"منگین","network":"TR14-districts","population":"13679","population:date":"31-12-2021","type":"boundary","wikidata":"Q3123478","wikipedia":"tr:Mengen"},"id":"relation/1795634"},
{"type":"Feature","geometry":{"type":"Polygon","coordinates":[[[32.6574906,41.2211831],[32.652874,41.2188449],[32.674825,41.2169295],[32.671847,41.2311425],[32.6603948,41.2231115],[32.6574906,41.2211831]]]},"properties":{"@id":"relation/5710570","admin_level":"8","boundary":"administrative","name":"100. Yıl Mahallesi","type":"boundary","@relations":[{"role":"subarea","rel":1245154,"reltags":{"admin_level":"6","boundary":"administrative","name":"Karabük Merkez","name:de":"Karabük","name:en":"Karabük","name:tr":"Karabük Merkez","name:tr:suffix":"İlçesi","network":"TR78-provinces","type":"boundary","wikidata":"Q189697","wikipedia":"tr:Karabük"}}]},"id":"relation/5710570"},
{"type":"Feature","geometry":{"type":"Polygon","coordinates":[[[32.652874,41.2188449],[32.6491691,41.2177718],[32.6483503,41.2048154],[32.6719366,41.2080411],[32.674825,41.2169295],[32.652874,41.2188449]]]},"properties":{"@id":"relation/5711042","admin_level":"8","boundary":"administrative","name":"Kılavuzlar Mahallesi","type":"boundary"},"id":"relation/5711042"},
{"type":"Feature","geometry":{"type":"Polygon","coordinates":[[[32.651242,41.2294871],[32.6425907,41.2199779],[32.6491691,41.2177718],[32.652874,41.2188449],[32.6574906,41.2211831],[32.651242,41.2294871]]]},"properties":{"@id":"relation/5711294","admin_level":"8","boundary":"administrative","name":"Üniversite Mahallesi","type":"boundary","@relations":[{"role":"subarea","rel":1245154,"reltags":{"admin_level":"6","boundary":"administrative","name":"Karabük Merkez","name:de":"Karabük","name:en":"Karabük","name:tr":"Karabük Merkez","name:tr:suffix":"İlçesi","network":"TR78-provinces","type":"boundary","wikidata":"Q189697","wikipedia":"tr:Karabük"}}]},"id":"relation/5711294"},
{"type":"Feature","geometry":{"type":"Polygon","coordinates":[[[32.660377,41.2251693],[32.6560067,41.2428048],[32.651242,41.2294871],[32.6574906,41.2211831],[32.6603948,41.2231115],[32.660377,41.2251693]]]},"properties":{"@id":"relation/5711304","admin_level":"8","boundary":"administrative","name":"5000 Evler Cumhuriyet Mahallesi","type":"boundary","@relations":[{"role":"subarea","rel":1245154,"reltags":{"admin_level":"6","boundary":"administrative","name":"Karabük Merkez","name:de":"Karabük","name:en":"Karabük","name:tr":"Karabük Merkez","name:tr:suffix":"İlçesi","network":"TR78-provinces","type":"boundary","wikidata":"Q189697","wikipedia":"tr:Karabük"}}]},"id":"relation/5711304"},
{"type":"Feature","geometry":{"type":"Polygon","coordinates":[[[32.660377,41.2251693],[32.6579644,41.2427814],[32.6560067,41.2428048],[32.660377,41.2251693]]]},"properties":{"@id":"relation/5711848","admin_level":"8","boundary":"administrative","name":"5000 Evler 75. Yıl Mahallesi","type":"boundary","@relations":[{"role":"subarea","rel":1245154,"reltags":{"admin_level":"6","boundary":"administrative","name":"Karabük Merkez","name:de":"Karabük","name:en":"Karabük","name:tr":"Karabük Merkez","name:tr:suffix":"İlçesi","network":"TR78-provinces","type":"boundary","wikidata":"Q189697","wikipedia":"tr:Karabük"}}]},"id":"relation/5711848"},
{"type":"Feature","geometry":{"type":"Polygon","coordinates":[[[32.6178821,41.1967981],[32.6202567,41.205854],[32.6125889,41.2076053],[32.6178821,41.1967981]]]},"properties":{"@id":"relation/9542193","admin_level":"8","boundary":"administrative","name":"Yenişehir Mahallesi","type":"boundary"},"id":"relation/9542193"},
{"type":"Feature","geometry":{"type":"Polygon","coordinates":[[[32.671847,41.2311425],[32.6676502,41.2434387],[32.6579644,41.2427814],[32.660377,41.2251693],[32.6603948,41.2231115],[32.671847,41.2311425]]]},"properties":{"@id":"relation/9542345","admin_level":"8","boundary":"administrative","name":"5000 Evler Bahçelievler Mahallesi","type":"boundary","@relations":[{"role":"subarea","rel":1245154,"reltags":{"admin_level":"6","boundary":"administrative","name":"Karabük Merkez","name:de":"Karabük","name:en":"Karabük","name:tr":"Karabük Merkez","name:tr:suffix":"İlçesi","network":"TR78-provinces","type":"boundary","wikidata":"Q189697","wikipedia":"tr:Karabük"}}]},"id":"relation/9542345"},
{"type":"Feature","geometry":{"type":"Polygon","coordinates":[[[32.6483503,41.2048154],[32.6491691,41.2177718],[32.6425907,41.2199779],[32.6319485,41.2149277],[32.6367812,41.2048425],[32.6483503,41.2048154]]]},"properties":{"@id":"relation/9542374","admin_level":"8","boundary":"administrative","name":"Kurtuluş Mahallesi","type":"boundary","@relations":[{"role":"subarea","rel":1245154,"reltags":{"admin_level":"6","boundary":"administrative","name":"Karabük Merkez","name:de":"Karabük","name:en":"Karabük","name:tr":"Karabük Merkez","name:tr:suffix":"İlçesi","network":"TR78-provinces","type":"boundary","wikidata":"Q189697","wikipedia":"tr:Karabük"}}]},"id":"relation/9542374"},
{"type":"Feature","geometry":{"type":"Polygon","coordinates":[[[32.6319485,41.2149277],[32.6259798,41.2136029],[32.6246349,41.2074196],[32.6233861,41.2059446],[32.6272688,41.1968646],[32.6367812,41.2048425],[32.6319485,41.2149277]]]},"properties":{"@id":"relation/9544640","admin_level":"8","boundary":"administrative","name":"Yeşil Mahallesi","type":"boundary","@relations":[{"role":"subarea","rel":1245154,"reltags":{"admin_level":"6","boundary":"administrative","name":"Karabük Merkez","name:de":"Karabük","name:en":"Karabük","name:tr":"Karabük Merkez","name:tr:suffix":"İlçesi","network":"TR78-provinces","type":"boundary","wikidata":"Q189697","wikipedia":"tr:Karabük"}}]},"id":"relation/9544640"},
{"type":"Feature","geometry":{"type":"Polygon","coordinates":[[[32.6178821,41.1967981],[32.6189026,41.1944493],[32.619718,41.1939487],[32.6272688,41.1968646],[32.6233861,41.2059446],[32.6202567,41.205854],[32.6178821,41.1967981]]]},"properties":{"@id":"relation/9544641","admin_level":"8","boundary":"administrative","name":"Ergenekon Mahallesi","type":"boundary","@relations":[{"role":"subarea","rel":1245154,"reltags":{"admin_level":"6","boundary":"administrative","name":"Karabük Merkez","name:de":"Karabük","name:en":"Karabük","name:tr":"Karabük Merkez","name:tr:suffix":"İlçesi","network":"TR78-provinces","type":"boundary","wikidata":"Q189697","wikipedia":"tr:Karabük"}}]},"id":"relation/9544641"},
{"type":"Feature","geometry":{"type":"Polygon","coordinates":[[[32.6094612,41.1998904],[32.6178821,41.1967981],[32.6125889,41.2076053],[32.6115829,41.2093575],[32.6065832,41.2078885],[32.6094612,41.1998904]]]},"properties":{"@id":"relation/9544642","admin_level":"8","boundary":"administrative","name":"Kartaltepe Mahallesi","type":"boundary","@relations":[{"role":"subarea","rel":1245154,"reltags":{"admin_level":"6","boundary":"administrative","name":"Karabük Merkez","name:de":"Karabük","name:en":"Karabük","name:tr":"Karabük Merkez","name:tr:suffix":"İlçesi","network":"TR78-provinces","type":"boundary","wikidata":"Q189697","wikipedia":"tr:Karabük"}}]},"id":"relation/9544642"},
{"type":"Feature","geometry":{"type":"Polygon","coordinates":[[[32.6233861,41.2059446],[32.6246349,41.2074196],[32.6205409,41.2130827],[32.6115829,41.2093575],[32.6125889,41.2076053],[32.6202567,41.205854],[32.6233861,41.2059446]]]},"properties":{"@id":"relation/9544643","admin_level":"8","boundary":"administrative","name":"Şirinevler Mahallesi","type":"boundary","@relations":[{"role":"subarea","rel":1245154,"reltags":{"admin_level":"6","boundary":"administrative","name":"Karabük Merkez","name:de":"Karabük","name:en":"Karabük","name:tr":"Karabük Merkez","name:tr:suffix":"İlçesi","network":"TR78-provinces","type":"boundary","wikidata":"Q189697","wikipedia":"tr:Karabük"}}]},"id":"relation/9544643"},
{"type":"Feature","geometry":{"type":"Polygon","coordinates":[[[32.6259798,41.2136029],[32.6205409,41.2130827],[32.6246349,41.2074196],[32.6259798,41.2136029]]]},"properties":{"@id":"relation/9544644","admin_level":"8","boundary":"administrative","name":"Adatepe Mahallesi","type":"boundary","@relations":[{"role":"subarea","rel":1245154,"reltags":{"admin_level":"6","boundary":"administrative","name":"Karabük Merkez","name:de":"Karabük","name:en":"Karabük","name:tr":"Karabük Merkez","name:tr:suffix":"İlçesi","network":"TR78-provinces","type":"boundary","wikidata":"Q189697","wikipedia":"tr:Karabük"}}]},"id":"relation/9544644"},
{"type":"Feature","geometry":{"type":"Polygon","coordinates":[[[32.6065832,41.2078885],[32.6074318,41.1999071],[32.6094612,41.1998904],[32.6065832,41.2078885]]]},"properties":{"@id":"relation/9544645","admin_level":"8","boundary":"administrative","name":"Namık Kemal Mahallesi","type":"boundary","@relations":[{"role":"subarea","rel":1245154,"reltags":{"admin_level":"6","boundary":"administrative","name":"Karabük Merkez","name:de":"Karabük","name:en":"Karabük","name:tr":"Karabük Merkez","name:tr:suffix":"İlçesi","network":"TR78-provinces","type":"boundary","wikidata":"Q189697","wikipedia":"tr:Karabük"}}]},"id":"relation/9544645"},
{"type":"Feature","geometry":{"type":"Polygon","coordinates":[[[32.6074318,41.1999071],[32.6065832,41.2078885],[32.6035051,41.1983571],[32.6071314,41.1984863],[32.6074318,41.1999071]]]},"properties":{"@id":"relation/9545320","admin_level":"8","boundary":"administrative","name":"Atatürk Mahallesi","type":"boundary","@relations":[{"role":"subarea","rel":1245154,"reltags":{"admin_level":"6","boundary":"administrative","name":"Karabük Merkez","name:de":"Karabük","name:en":"Karabük","name:tr":"Karabük Merkez","name:tr:suffix":"İlçesi","network":"TR78-provinces","type":"boundary","wikidata":"Q189697","wikipedia":"tr:Karabük"}}]},"id":"relation/9545320"},
{"type":"Feature","geometry":{"type":"Polygon","coordinates":[[[32.6094612,41.1998904],[32.6074318,41.1999071],[32.6071314,41.1984863],[32.6066391,41.1944459],[32.6189026,41.1944493],[32.6178821,41.1967981],[32.6094612,41.1998904]]]},"properties":{"@id":"relation/9545321","admin_level":"8","boundary":"administrative","name":"Bayır Mahallesi","type":"boundary","@relations":[{"role":"subarea","rel":1245154,"reltags":{"admin_level":"6","boundary":"administrative","name":"Karabük Merkez","name:de":"Karabük","name:en":"Karabük","name:tr":"Karabük Merkez","name:tr:suffix":"İlçesi","network":"TR78-provinces","type":"boundary","wikidata":"Q189697","wikipedia":"tr:Karabük"}}]},"id":"relation/9545321"},
{"type":"Feature","geometry":{"type":"Polygon","coordinates":[[[32.6066391,41.1944459],[32.6024674,41.1921456],[32.606201,41.1909831],[32.619718,41.1939487],[32.6189026,41.1944493],[32.6066391,41.1944459]]]},"properties":{"@id":"relation/9545322","admin_level":"8","boundary":"administrative","name":"Hürriyet Mahallesi","type":"boundary","@relations":[{"role":"subarea","rel":1245154,"reltags":{"admin_level":"6","boundary":"administrative","name":"Karabük Merkez","name:de":"Karabük","name:en":"Karabük","name:tr":"Karabük Merkez","name:tr:suffix":"İlçesi","network":"TR78-provinces","type":"boundary","wikidata":"Q189697","wikipedia":"tr:Karabük"}}]},"id":"relation/9545322"},
{"type":"Feature","geometry":{"type":"Polygon","coordinates":[[[32.6035051,41.1983571],[32.5951016,41.1933898],[32.6024674,41.1921456],[32.6066391,41.1944459],[32.6071314,41.1984863],[32.6035051,41.1983571]]]},"properties":{"@id":"relation/9545323","admin_level":"8","boundary":"administrative","name":"Yeni Mahallesi","type":"boundary","@relations":[{"role":"subarea","rel":1245154,"reltags":{"admin_level":"6","boundary":"administrative","name":"Karabük Merkez","name:de":"Karabük","name:en":"Karabük","name:tr":"Karabük Merkez","name:tr:suffix":"İlçesi","network":"TR78-provinces","type":"boundary","wikidata":"Q189697","wikipedia":"tr:Karabük"}}]},"id":"relation/9545323"},
{"type":"Feature","geometry":{"type":"Polygon","coordinates":[[[32.6024674,41.1921456],[32.5951016,41.1933898],[32.606201,41.1909831],[32.6024674,41.1921456]]]},"properties":{"@id":"relation/9545324","admin_level":"8","boundary":"administrative","name":"Soğuksu Mahallesi","type":"boundary","@relations":[{"role":"subarea","rel":1245154,"reltags":{"admin_level":"6","boundary":"administrative","name":"Karabük Merkez","name:de":"Karabük","name:en":"Karabük","name:tr":"Karabük Merkez","name:tr:suffix":"İlçesi","network":"TR78-provinces","type":"boundary","wikidata":"Q189697","wikipedia":"tr:Karabük"}}]},"id":"relation/9545324"}
]}