{"type":"FeatureCollection", "features": [
{"type":"Feature","geometry":{"type":"Polygon","coordinates":[[[43.7035758,40.6139563],[43.7206386,40.634601],[43.7254221,40.6627502],[43.7480871,40.6755492],[43.7353107,40.7126749],[43.7483121,40.7308892],[43.7070922,40.820006],[43.6783805,40.8446098],[43.671597,40.936657],[43.592067,40.986089],[43.6194803,40.9292074],[43.5885408,40.8604439],[43.5604705,40.8490856],[43.5580052,40.8172387],[43.5044202,40.7897799],[43.4840791,40.7945563],[43.4741429,40.7580819],[43.4333515,40.7080236],[43.4602933,40.7027633],[43.5348042,40.7121354],[43.5756297,40.7093846],[43.6084135,40.6892206],[43.6448078,40.6923501],[43.6660088,40.6609682],[43.6851673,40.6527962],[43.7035758,40.6139563]]]},"properties":{"@id":"relation/1838389","admin_level":"6","boundary":"administrative","name":"Akyaka","name:az":"Ağyaxa","name:ce":"Акйака","name:de":"Akyaka","name:el":"Ακγιάκα","name:en":"Akyaka","name:fa":"اکیاکا","name:hy":"Ղզըլ-Չախչախ","name:ku":"Şûrêgel","name:ru":"Акьяка","name:tr":"Akyaka","name:tr:suffix":"İlçesi","name:tt":"Акьяка","name:uk":"Ак'яка","name:ur":"اکیاکا","network":"TR36-districts","old_name":"Kızılcakçak;Şöregel","old_name:az":"Şörəyel","old_name:ru":"Кызылчакчак;Шурегель","type":"boundary","wikidata":"Q424414","wikipedia":"tr:Akyaka"},"id":"relation/1838389"},
{"type":"Feature","geometry":{"type":"Polygon","coordinates":[[[43.2716721,40.7252668],[43.2867581,40.7004185],[43.3715021,40.6976926],[43.3928221,40.6853105],[43.427297,40.6842786],[43.4333515,40.7080236],[43.4741429,40.7580819],[43.4840791,40.7945563],[43.5044202,40.7897799],[43.5580052,40.8172387],[43.5604705,40.8490856],[43.5885408,40.8604439],[43.6194803,40.9292074],[43.592067,40.986089],[43.525904,41.011735],[43.4840989,41.0161629],[43.4246991,41.0697983],[43.3616774,41.0964801],[43.3141835,41.0795029],[43.2306865,41.0021978],[43.2055322,40.984555],[43.1500589,40.9684638],[43.0783397,40.9750708],[43.03662,40.9571713],[43.070655,40.9310558],[43.2177371,40.8854744],[43.2350579,40.8672846],[43.2459636,40.825065],[43.2783599,40.8090437],[43.2626051,40.7456348],[43.2716721,40.7252668]]]},"properties":{"@id":"relation/1838390","admin_level":"6","boundary":"administrative","name":"Arpaçay","name:ce":"Арпачай","name:de":"Arpaçay","name:en":"Arpaçay","name:fa":"قارص","name:hy":"Զարիշատ","name:ku":"Zarûşad","name:ru":"Арпачай","name:tr":"Arpaçay","name:tr:suffix":"İlçesi","name:tt":"Арпачай","name:uk":"Арпачай","name:ur":"ارپاچائے","network":"TR36-districts","type":"boundary","wikidata":"Q698806","wikipedia":"tr:Arpaçay"},"id":"relation/1838390"},
{"type":"Feature","geometry":{"type":"Polygon","coordinates":[[[43.4899507,40.1083556],[43.5303283,40.1181585],[43.576591,40.1175022],[43.599667,40.1306614],[43.6486323,40.1320412],[43.6608334,40.1527545],[43.7100824,40.1628117],[43.6963872,40.1910792],[43.6728907,40.2059064],[43.6838349,40.2408652],[43.6764015,40.2605399],[43.6409417,40.2724221],[43.6350154,40.294414],[43.5907744,40.3457829],[43.6200149,40.3978481],[43.6053555,40.4378737],[43.5421709,40.4763969],[43.5001075,40.4561352],[43.448753,40.4736566],[43.4341937,40.4933879],[43.4029574,40.508887],[43.3415443,40.4990008],[43.2287626,40.4430867],[43.1987698,40.4144156],[43.2019888,40.3831238],[43.1915046,40.3532205],[43.2377805,40.3476458],[43.2395952,40.3170137],[43.264836,40.297369],[43.2977644,40.3033525],[43.3641898,40.2518741],[43.4425644,40.222682],[43.461874,40.1960803],[43.4645244,40.1680215],[43.4864844,40.1483445],[43.4899507,40.1083556]]]},"properties":{"@id":"relation/1838391","admin_level":"6","boundary":"administrative","name":"Digor","name:az":"Diqor","name:ce":"Дигор","name:fa":"دیگور","name:hy":"Տեկոր","name:ku":"Dîxor","name:ru":"Дигор","name:tr":"Digor","name:tr:suffix":"İlçesi","name:tt":"Дигор","name:uk":"Дігор","name:ur":"دیگور","name:zza":"Diğor","network":"TR36-districts","old_name":"Tekor","type":"boundary","wikidata":"Q1027545","wikipedia":"tr:Digor"},"id":"relation/1838391"},
{"type":"Feature","geometry":{"type":"Polygon","coordinates":[[[43.2395952,40.3170137],[43.2377805,40.3476458],[43.1915046,40.3532205],[43.2019888,40.3831238],[43.1987698,40.4144156],[43.2287626,40.4430867],[43.3415443,40.4990008],[43.4029574,40.508887],[43.4341937,40.4933879],[43.448753,40.4736566],[43.5001075,40.4561352],[43.5421709,40.4763969],[43.5714847,40.5014505],[43.6108883,40.5138283],[43.6433979,40.5617375],[43.6715096,40.5673474],[43.7035758,40.6139563],[43.6851673,40.6527962],[43.6660088,40.6609682],[43.6448078,40.6923501],[43.6084135,40.6892206],[43.5756297,40.7093846],[43.5348042,40.7121354],[43.4602933,40.7027633],[43.4333515,40.7080236],[43.427297,40.6842786],[43.3928221,40.6853105],[43.3715021,40.6976926],[43.2867581,40.7004185],[43.2716721,40.7252668],[43.2643373,40.6899203],[43.2219664,40.6725967],[43.1952405,40.7056289],[43.1614912,40.7227317],[43.124696,40.7032042],[43.0851523,40.7058609],[42.9915552,40.7264191],[42.9880898,40.7384243],[42.9420434,40.764978],[42.8937926,40.8180681],[42.8614301,40.809982],[42.8514048,40.7313047],[42.8001659,40.7089163],[42.8528533,40.6654462],[42.8416825,40.6486737],[42.8554133,40.6071659],[42.8426134,40.576239],[42.8479661,40.5483042],[42.9168533,40.5088574],[42.9771295,40.4488771],[42.9738629,40.4143742],[42.9528671,40.3845731],[42.9709424,40.3583647],[42.992647,40.3650694],[43.0159739,40.3446714],[43.0690648,40.349951],[43.0878607,40.3361428],[43.1427552,40.3302583],[43.1833041,40.3121695],[43.2395952,40.3170137]]]},"properties":{"@id":"relation/1838392","admin_level":"6","boundary":"administrative","name":"Kars Merkez","name:ab":"Ҟарс","name:ar":"قارص","name:az":"Qars","name:be":"Карс","name:bg":"Карс","name:ce":"Карс","name:de":"Kars","name:el":"Καρς","name:en":"Kars","name:fa":"قارص","name:he":"קארס","name:hy":"Կարս","name:ja":"カルス","name:ka":"ყარსი","name:ko":"카르스","name:ku":"Qers","name:pa":"ਕਾਰਸ","name:pnt":"Καρς","name:pt":"Cars","name:ru":"Карс","name:sr":"Карс","name:tg":"Қорс","name:th":"คาร์ส","name:tr":"Kars Merkez","name:tr:suffix":"İlçesi","name:tt":"Карс","name:uk":"Карс","name:ur":"قارص","name:zh":"卡爾斯","name:zza":"Qers","network":"TR36-districts","type":"boundary","wikidata":"Q127063","wikipedia":"tr:Kars"},"id":"relation/1838392"},
{"type":"Feature","geometry":{"type":"Polygon","coordinates":[[[42.7865838,40.25321],[42.8098545,40.2180565],[42.8135594,40.1801735],[42.8492209,40.1490875],[42.8479394,40.0848899],[42.7908256,40.0644401],[42.7605734,40.0764117],[42.7081555,40.0583343],[42.7066787,40.0229593],[42.7467429,39.9600238],[42.792925,39.9725456],[42.8643301,39.9731069],[42.883893,39.9808928],[43.0529675,39.9883763],[43.0933412,39.9839103],[43.2707978,39.9944458],[43.3316163,40.0461472],[43.357981,40.0438592],[43.3661802,40.0660031],[43.3425199,40.0930287],[43.3464148,40.1176741],[43.3755235,40.1306268],[43.43635,40.1093976],[43.4899507,40.1083556],[43.4864844,40.1483445],[43.4645244,40.1680215],[43.461874,40.1960803],[43.4425644,40.222682],[43.3641898,40.2518741],[43.2977644,40.3033525],[43.264836,40.297369],[43.2395952,40.3170137],[43.1833041,40.3121695],[43.1427552,40.3302583],[43.0878607,40.3361428],[43.0690648,40.349951],[43.0159739,40.3446714],[42.9903249,40.3251115],[42.9329268,40.3176574],[42.9312483,40.2857621],[42.8917413,40.30258],[42.7865838,40.25321]]]},"properties":{"@id":"relation/1838393","admin_level":"6","alt_name:ku":"Qaxizman","boundary":"administrative","name":"Kağızman","name:ce":"КагӀизман","name:fa":"کاقیزمان","name:hy":"Կաղզվան","name:ka":"ყაღიზმანი","name:ku":"Kaxizman","name:ru":"Кагызман","name:tr":"Kağızman","name:tr:suffix":"İlçesi","name:tt":"Кагызман","name:uk":"Кагизман","name:ur":"قاغزمان","name:zh":"卡厄茲曼","network":"TR36-districts","type":"boundary","wikidata":"Q990201","wikipedia":"tr:Kağızman"},"id":"relation/1838393"},
{"type":"Feature","geometry":{"type":"Polygon","coordinates":[[[42.481983,40.4300184],[42.4662259,40.3826708],[42.4464143,40.3969106],[42.4147062,40.385621],[42.3958936,40.363123],[42.3753092,40.3799481],[42.337378,40.3768439],[42.3257686,40.3873107],[42.2433814,40.3519549],[42.2154706,40.3470856],[42.1339574,40.3523501],[42.1355586,40.3289018],[42.1086615,40.2951089],[42.1204674,40.2674973],[42.1104557,40.2557053],[42.1457141,40.2375981],[42.1909788,40.2323465],[42.2164839,40.2060057],[42.2780835,40.2147672],[42.3129008,40.1823271],[42.363318,40.1752973],[42.4031794,40.1234629],[42.4285726,40.0996765],[42.430738,40.0824337],[42.4775822,40.0522189],[42.5011619,40.0266362],[42.5350133,40.0159632],[42.5613404,39.9838522],[42.5425468,39.9474281],[42.5566822,39.9346359],[42.6306977,39.934833],[42.7467429,39.9600238],[42.7066787,40.0229593],[42.7081555,40.0583343],[42.7605734,40.0764117],[42.7908256,40.0644401],[42.8479394,40.0848899],[42.8492209,40.1490875],[42.8135594,40.1801735],[42.8098545,40.2180565],[42.7865838,40.25321],[42.7919524,40.2877321],[42.7648358,40.3165146],[42.7878307,40.3229157],[42.7490807,40.3839874],[42.7086342,40.4355663],[42.6468291,40.431524],[42.6482034,40.4531091],[42.5937334,40.4651657],[42.5404151,40.442626],[42.481983,40.4300184]]]},"properties":{"@id":"relation/1838394","admin_level":"6","alt_name:ku":"Qamuşan","boundary":"administrative","name":"Sarıkamış","name:az":"Sarıqamış","name:bg":"Саръкамъш","name:ce":"Сарикамиш","name:de":"Sarıkamış","name:en":"Sarıkamış","name:fa":"ساری‌قمیش","name:hy":"Սարիղամիշ","name:ku":"Sarîqamîş","name:ru":"Сарыкамыш","name:tr":"Sarıkamış","name:tr:suffix":"İlçesi","name:tt":"Сарыкамыш","name:uk":"Сарикамиш","name:ur":"ساریکامیش","name:zh":"薩勒卡默什","name:zza":"Sarıqamış","network":"TR36-districts","type":"boundary","wikidata":"Q844542","wikipedia":"tr:Sarıkamış"},"id":"relation/1838394"},
{"type":"Feature","geometry":{"type":"Polygon","coordinates":[[[42.8001659,40.7089163],[42.7478535,40.6933379],[42.6707411,40.6538197],[42.6182058,40.6447048],[42.6023765,40.6291667],[42.544812,40.6042297],[42.5169571,40.5726666],[42.5197789,40.5590431],[42.4858123,40.522276],[42.46221,40.5131612],[42.4792115,40.4914653],[42.481983,40.4300184],[42.5404151,40.442626],[42.5937334,40.4651657],[42.6482034,40.4531091],[42.6468291,40.431524],[42.7086342,40.4355663],[42.7490807,40.3839874],[42.7878307,40.3229157],[42.7648358,40.3165146],[42.7919524,40.2877321],[42.7865838,40.25321],[42.8917413,40.30258],[42.9312483,40.2857621],[42.9329268,40.3176574],[42.9903249,40.3251115],[43.0159739,40.3446714],[42.992647,40.3650694],[42.9709424,40.3583647],[42.9528671,40.3845731],[42.9738629,40.4143742],[42.9771295,40.4488771],[42.9168533,40.5088574],[42.8479661,40.5483042],[42.8426134,40.576239],[42.8554133,40.6071659],[42.8416825,40.6486737],[42.8528533,40.6654462],[42.8001659,40.7089163]]]},"properties":{"@id":"relation/1838395","admin_level":"6","boundary":"administrative","name":"Selim","name:az":"Səlim","name:ce":"Селим","name:de":"Selim","name:el":"Σελίμκιοϊ","name:en":"Selim","name:fa":"سلیم","name:hy":"Նոր-Սելիմ","name:ku":"Selîm","name:ru":"Селим","name:tr":"Selim","name:tr:suffix":"İlçesi","name:tt":"Сэлим","name:uk":"Селім","name:ur":"سلیم","network":"TR36-districts","type":"boundary","wikidata":"Q1027550","wikipedia":"tr:Selim, Kars"},"id":"relation/1838395"},
{"type":"Feature","geometry":{"type":"Polygon","coordinates":[[[42.8937926,40.8180681],[42.9420434,40.764978],[42.9880898,40.7384243],[42.9915552,40.7264191],[43.0851523,40.7058609],[43.124696,40.7032042],[43.1614912,40.7227317],[43.1952405,40.7056289],[43.2219664,40.6725967],[43.2643373,40.6899203],[43.2716721,40.7252668],[43.2626051,40.7456348],[43.2783599,40.8090437],[43.2459636,40.825065],[43.2350579,40.8672846],[43.2177371,40.8854744],[43.070655,40.9310558],[43.03662,40.9571713],[42.9725773,40.9132992],[42.9503745,40.8772707],[42.9064207,40.8832757],[42.8937926,40.8180681]]]},"properties":{"@id":"relation/1838396","admin_level":"6","alt_name:hy":"Նովոդուբովկա","boundary":"administrative","name":"Susuz","name:ce":"Сусуз","name:de":"Susuz","name:en":"Susuz","name:fa":"سوسوز","name:hy":"Սուսուզ","name:ku":"Cilawûz","name:ru":"Сусуз","name:tr":"Susuz","name:tr:suffix":"İlçesi","name:tt":"Сусуз","name:ur":"سوسوز","network":"TR36-districts","old_name":"Cilavuz","type":"boundary","wikidata":"Q1022236","wikipedia":"tr:Susuz"},"id":"relation/1838396"},
{"type":"Feature","geometry":{"type":"Polygon","coordinates":[[[43.0894675,40.601703],[43.0697373,40.5955356],[43.0914552,40.5985212],[43.0894675,40.601703]]]},"properties":{"@id":"relation/7820838","admin_level":"8","boundary":"administrative","name":"Bülbül Mahallesi","type":"boundary"},"id":"relation/7820838"},
{"type":"Feature","geometry":{"type":"Polygon","coordinates":[[[43.0894675,40.601703],[43.0914552,40.5985212],[43.0978611,40.6060053],[43.0958983,40.6078169],[43.0913804,40.6044476],[43.0894675,40.601703]]]},"properties":{"@id":"relation/7820839","admin_level":"8","boundary":"administrative","name":"Ortakapı Mahallesi","type":"boundary"},"id":"relation/7820839"},
{"type":"Feature","geometry":{"type":"Polygon","coordinates":[[[43.0902139,40.6108096],[43.0913804,40.6044476],[43.0958983,40.6078169],[43.0973978,40.6109448],[43.0902139,40.6108096]]]},"properties":{"@id":"relation/7820840","admin_level":"8","boundary":"administrative","name":"Yusufpaşa Mahallesi","type":"boundary"},"id":"relation/7820840"},
{"type":"Feature","geometry":{"type":"Polygon","coordinates":[[[43.0973978,40.6109448],[43.0981418,40.6118928],[43.0985716,40.6161717],[43.0867146,40.6134787],[43.0902139,40.6108096],[43.0973978,40.6109448]]]},"properties":{"@id":"relation/7820841","admin_level":"8","boundary":"administrative","name":"Kaleiçi Mahallesi","type":"boundary"},"id":"relation/7820841"},
{"type":"Feature","geometry":{"type":"Polygon","coordinates":[[[43.0973978,40.6109448],[43.0958983,40.6078169],[43.0978611,40.6060053],[43.0995415,40.6074875],[43.1076847,40.6136435],[43.0981418,40.6118928],[43.0973978,40.6109448]]]},"properties":{"@id":"relation/7820842","admin_level":"8","boundary":"administrative","name":"Merkez Mahallesi","type":"boundary"},"id":"relation/7820842"},
{"type":"Feature","geometry":{"type":"Polygon","coordinates":[[[43.0985716,40.6161717],[43.0981418,40.6118928],[43.1076847,40.6136435],[43.1102472,40.6147337],[43.0985716,40.6161717]]]},"properties":{"@id":"relation/7820843","admin_level":"8","boundary":"administrative","name":"Bayrampaşa Mahallesi","type":"boundary"},"id":"relation/7820843"},
{"type":"Feature","geometry":{"type":"Polygon","coordinates":[[[43.1102472,40.6147337],[43.1076847,40.6136435],[43.0995415,40.6074875],[43.1021985,40.6032456],[43.1042618,40.6015501],[43.112855,40.6135109],[43.1108126,40.614883],[43.1102472,40.6147337]]]},"properties":{"@id":"relation/7820844","admin_level":"8","boundary":"administrative","name":"İstasyon Mahallesi","type":"boundary"},"id":"relation/7820844"},
{"type":"Feature","geometry":{"type":"Polygon","coordinates":[[[43.1131925,40.6133652],[43.112855,40.6135109],[43.1042618,40.6015501],[43.1092089,40.6018884],[43.1311349,40.593818],[43.1326897,40.6046047],[43.1131925,40.6133652]]]},"properties":{"@id":"relation/7820845","admin_level":"8","boundary":"administrative","name":"Hafızpaşa Mahallesi","type":"boundary"},"id":"relation/7820845"},
{"type":"Feature","geometry":{"type":"Polygon","coordinates":[[[43.1021998,40.5992271],[43.1042618,40.6015501],[43.1021985,40.6032456],[43.094945,40.5956385],[43.096559,40.594734],[43.0983397,40.5966045],[43.1021998,40.5992271]]]},"properties":{"@id":"relation/7823046","admin_level":"8","boundary":"administrative","name":"Yeni Mahalle","type":"boundary"},"id":"relation/7823046"},
{"type":"Feature","geometry":{"type":"Polygon","coordinates":[[[43.1021985,40.6032456],[43.0995415,40.6074875],[43.0978611,40.6060053],[43.0914552,40.5985212],[43.094945,40.5956385],[43.1021985,40.6032456]]]},"properties":{"@id":"relation/7823049","admin_level":"8","boundary":"administrative","name":"Cumhuriyet Mahallesi","type":"boundary"},"id":"relation/7823049"},
{"type":"Feature","geometry":{"type":"Polygon","coordinates":[[[43.094945,40.5956385],[43.0914552,40.5985212],[43.0697373,40.5955356],[43.0740367,40.569239],[43.0871278,40.5902235],[43.096559,40.594734],[43.094945,40.5956385]]]},"properties":{"@id":"relation/7823050","admin_level":"8","boundary":"administrative","name":"Şehitler Mahallesi","type":"boundary"},"id":"relation/7823050"},
{"type":"Feature","geometry":{"type":"Polygon","coordinates":[[[43.096559,40.594734],[43.0871278,40.5902235],[43.100184,40.582132],[43.0983397,40.5966045],[43.096559,40.594734]]]},"properties":{"@id":"relation/7823281","admin_level":"8","boundary":"administrative","name":"Örnek Mahallesi","type":"boundary"},"id":"relation/7823281"},
{"type":"Feature","geometry":{"type":"Polygon","coordinates":[[[43.1021998,40.5992271],[43.0983397,40.5966045],[43.100184,40.582132],[43.110476,40.5819619],[43.1021998,40.5992271]]]},"properties":{"@id":"relation/7823643","admin_level":"8","boundary":"administrative","name":"Halitpaşa Mahallesi","type":"boundary"},"id":"relation/7823643"},
{"type":"Feature","geometry":{"type":"Polygon","coordinates":[[[43.1042618,40.6015501],[43.1021998,40.5992271],[43.110476,40.5819619],[43.114608,40.577491],[43.1276276,40.5872641],[43.1092089,40.6018884],[43.1042618,40.6015501]]]},"properties":{"@id":"relation/7823644","admin_level":"8","boundary":"administrative","name":"Alpaslan Mahallesi","type":"boundary"},"id":"relation/7823644"},
{"type":"Feature","geometry":{"type":"Polygon","coordinates":[[[43.1311349,40.593818],[43.1092089,40.6018884],[43.1276276,40.5872641],[43.1311349,40.593818]]]},"properties":{"@id":"relation/7823645","admin_level":"8","boundary":"administrative","name":"Bahçelievler Mahallesi","type":"boundary"},"id":"relation/7823645"},
{"type":"Feature","geometry":{"type":"Polygon","coordinates":[[[43.0871278,40.5902235],[43.0740367,40.569239],[43.114608,40.577491],[43.110476,40.5819619],[43.100184,40.582132],[43.0871278,40.5902235]]]},"properties":{"@id":"relation/7823669","admin_level":"8","boundary":"administrative","name":"Yenişehir Mahallesi","type":"boundary"},"id":"relation/7823669"},
{"type":"Feature","geometry":{"type":"Polygon","coordinates":[[[43.1332868,40.6135489],[43.1131925,40.6133652],[43.1326897,40.6046047],[43.1332868,40.6135489]]]},"properties":{"@id":"relation/7823670","admin_level":"8","boundary":"administrative","name":"Aydınlıkevler Mahallesi","type":"boundary"},"id":"relation/7823670"},
{"type":"Feature","geometry":{"type":"Polygon","coordinates":[[[43.112855,40.6135109],[43.1131925,40.6133652],[43.1332868,40.6135489],[43.1347744,40.6324711],[43.1108126,40.614883],[43.112855,40.6135109]]]},"properties":{"@id":"relation/7823671","admin_level":"8","boundary":"administrative","name":"Karadağ Mahallesi","type":"boundary"},"id":"relation/7823671"},
{"type":"Feature","geometry":{"type":"Polygon","coordinates":[[[43.1102472,40.6147337],[43.1108126,40.614883],[43.1347744,40.6324711],[43.0985716,40.6161717],[43.1102472,40.6147337]]]},"properties":{"@id":"relation/7823978","admin_level":"8","boundary":"administrative","name":"Atatürk Mahallesi","type":"boundary"},"id":"relation/7823978"},
{"type":"Feature","geometry":{"type":"Polygon","coordinates":[[[43.0894675,40.601703],[43.0913804,40.6044476],[43.0902139,40.6108096],[43.081774,40.6057217],[43.0697373,40.5955356],[43.0894675,40.601703]]]},"properties":{"@id":"relation/7825591","admin_level":"8","boundary":"administrative","name":"Fevzi Çakmak Mahallesi","type":"boundary"},"id":"relation/7825591"},
{"type":"Feature","geometry":{"type":"Polygon","coordinates":[[[43.0902139,40.6108096],[43.0867146,40.6134787],[43.081774,40.6057217],[43.0902139,40.6108096]]]},"properties":{"@id":"relation/7825592","admin_level":"8","boundary":"administrative","name":"Sukapı Mahallesi","type":"boundary"},"id":"relation/7825592"}
]}