{"type":"FeatureCollection", "features": [
{"type":"Feature","geometry":{"type":"Polygon","coordinates":[[[34.2176,41.1825],[34.2410393,41.1915214],[34.2606315,41.2089787],[34.2938318,41.2126978],[34.2993681,41.2399544],[34.3216814,41.2531444],[34.3109095,41.2642498],[34.3354402,41.2865294],[34.3573206,41.2942979],[34.4222021,41.2695221],[34.4300502,41.2880254],[34.4608994,41.304785],[34.4658038,41.3233813],[34.4364738,41.3429869],[34.4706235,41.3522099],[34.4814507,41.3802656],[34.4733898,41.3991251],[34.449588,41.4252445],[34.4526852,41.4607746],[34.4308312,41.4905151],[34.4419714,41.5045335],[34.4256159,41.5217409],[34.3790605,41.5449202],[34.353076,41.5518886],[34.3650615,41.5726986],[34.3616294,41.5936214],[34.3435798,41.6082454],[34.33213,41.6318542],[34.3431007,41.6410495],[34.3171585,41.6551802],[34.300241,41.6799403],[34.2976426,41.7030628],[34.3253775,41.7418973],[34.3087013,41.7465672],[34.2757988,41.7373436],[34.238834,41.7440633],[34.2187447,41.7364401],[34.1686819,41.7533856],[34.1289566,41.7437639],[34.1217527,41.7102535],[34.1095336,41.681206],[34.0758133,41.6555674],[34.04236,41.6440605],[34.0492866,41.6143444],[34.0317299,41.5900682],[33.998813,41.5701088],[33.9350226,41.5484768],[33.9163154,41.5473063],[33.9329278,41.5175112],[33.9291078,41.494519],[33.9893535,41.4805208],[33.9710231,41.4478378],[33.9351137,41.431013],[33.9505747,41.4192331],[33.9485552,41.4010532],[33.9710231,41.3739632],[34.0114211,41.3642317],[34.0208972,41.3543115],[34.0575745,41.338666],[34.087978,41.3183616],[34.1231392,41.3179871],[34.1607942,41.3020653],[34.1440864,41.2683359],[34.1173314,41.2511842],[34.1115,41.1827],[34.1378,41.1785],[34.1762,41.1814],[34.1867,41.1721],[34.2176,41.1825]]]},"properties":{"@id":"relation/1426789","admin_level":"6","boundary":"administrative","name":"Taşköprü","name:ce":"Ташкоьпруь","name:de":"Taşköprü","name:en":"Taşköprü","name:fa":"داش‌کوپرو","name:tr":"Taşköprü","name:tr:suffix":"İlçesi","name:tt":"Ташкөпрү","name:ur":"تاشکوپرو","name:zh":"塔什克普呂","network":"TR37-districts","population":"36961","population:date":"31-12-2022","type":"boundary","wikidata":"Q3906644","wikipedia":"tr:Taşköprü"},"id":"relation/1426789"},
{"type":"Feature","geometry":{"type":"Polygon","coordinates":[[[34.4419714,41.5045335],[34.4647023,41.5105955],[34.4905056,41.5285094],[34.5384356,41.5441362],[34.5690393,41.5821226],[34.5793301,41.6036445],[34.5991684,41.6120351],[34.5960438,41.6264223],[34.6067604,41.6543948],[34.597332,41.679292],[34.5508196,41.7036688],[34.5255041,41.7316645],[34.5127724,41.7364797],[34.4585399,41.7281628],[34.4084049,41.7387161],[34.3727745,41.7370105],[34.3253775,41.7418973],[34.2976426,41.7030628],[34.300241,41.6799403],[34.3171585,41.6551802],[34.3431007,41.6410495],[34.33213,41.6318542],[34.3435798,41.6082454],[34.3616294,41.5936214],[34.3650615,41.5726986],[34.353076,41.5518886],[34.3790605,41.5449202],[34.4256159,41.5217409],[34.4419714,41.5045335]]]},"properties":{"@id":"relation/1426790","admin_level":"6","boundary":"administrative","name":"Hanönü","name:ce":"ХӀаноьнуь","name:de":"Hanönü","name:en":"Hanönü","name:fa":"هانونو","name:ru":"Ханёню","name:tr":"Hanönü","name:tr:suffix":"İlçesi","name:tt":"Ханөнү","name:ur":"خان اونو","network":"TR37-districts","old_name":"Gökçeağaç","population":"4134","population:date":"31-12-2021","type":"boundary","wikidata":"Q2671081","wikipedia":"tr:Hanönü"},"id":"relation/1426790"},
{"type":"Feature","geometry":{"type":"Polygon","coordinates":[[[33.8622288,41.0971313],[33.8507651,41.0820038],[33.8532,41.0502],[33.8221,41.0343],[33.7967,40.9786],[33.7675,40.9384],[33.7991,40.9184],[33.8132,40.8803],[33.8472,40.8494],[33.8918,40.8416],[33.9246,40.8565],[33.9514,40.8567],[33.9898,40.8469],[33.9986,40.8276],[34.055,40.8277],[34.0783717,40.8133361],[34.0895,40.8274],[34.1232,40.8386],[34.1755,40.8393],[34.2104,40.8568],[34.2401,40.8658],[34.2383,40.8767],[34.2537,40.9151],[34.2674,40.9747],[34.2961,40.9765],[34.3422,40.9693],[34.3704,40.9835],[34.373,40.9947],[34.3244,41.034],[34.3216,41.0797],[34.2935,41.0896],[34.2694,41.0774],[34.2418,41.0744],[34.2202,41.0957],[34.2216,41.1363],[34.2331,41.1496],[34.2291,41.1722],[34.2176,41.1825],[34.1867,41.1721],[34.1762,41.1814],[34.1378,41.1785],[34.1115,41.1827],[34.0904,41.1753],[34.0506,41.1823],[34.0322,41.161],[34.0415,41.133],[33.9993,41.1233],[33.9819,41.1129],[33.9443,41.124],[33.9117,41.1201],[33.8684,41.1072],[33.8622288,41.0971313]]]},"properties":{"@id":"relation/1781114","admin_level":"6","boundary":"administrative","name":"Tosya","name:ar":"طوسيه","name:ce":"Тосйа","name:de":"Tosya","name:el":"Τόσια","name:en":"Tosya","name:fa":"توسیا","name:ru":"Тосья","name:tr":"Tosya","name:tr:suffix":"İlçesi","name:tt":"Тосья","name:ur":"توسیا","name:zh":"托斯亞","network":"TR37-districts","population":"39708","population:date":"31-12-2021","type":"boundary","wikidata":"Q255479","wikipedia":"tr:Tosya"},"id":"relation/1781114"},
{"type":"Feature","geometry":{"type":"Polygon","coordinates":[[[34.0948446,41.9163321],[34.0967559,41.9470111],[34.1182351,41.974477],[34.0616831,41.9796428],[34.0479783,41.9807036],[33.9982775,41.9802442],[33.974834,41.9798291],[33.9881115,41.9673916],[34.0013576,41.9617523],[34.0074499,41.9663061],[34.0099551,41.9684958],[34.0245168,41.9657537],[34.03083,41.96567],[34.05101,41.96452],[34.0647519,41.9305488],[34.0948446,41.9163321]]]},"properties":{"@id":"relation/1801985","admin_level":"6","boundary":"administrative","name":"Abana","name:av":"Абана","name:ce":"Абана","name:de":"Abana","name:en":"Abana","name:fa":"آبانا","name:ru":"Абана","name:tr":"Abana","name:tr:suffix":"İlçesi","name:tt":"Абана","name:ur":"ابانا","network":"TR37-districts","population":"4027","population:date":"31-12-2021","type":"boundary","wikidata":"Q2006400","wikipedia":"tr:Abana"},"id":"relation/1801985"},
{"type":"Feature","geometry":{"type":"Polygon","coordinates":[[[33.1376469,41.3818034],[33.1229849,41.3495407],[33.0946633,41.3396257],[33.0684359,41.3188589],[33.0109529,41.31742],[32.9386852,41.2546015],[32.9252716,41.1984532],[32.9265796,41.1871737],[32.9912482,41.1485751],[33.0101309,41.1494799],[33.0595487,41.1080554],[33.0572734,41.0745632],[33.0772161,41.0611358],[33.1147993,41.0517269],[33.1328452,41.0618558],[33.1791914,41.0744568],[33.2482127,41.0471639],[33.296892,41.036571],[33.3213521,41.0055097],[33.3201498,40.9863791],[33.3877901,40.9769598],[33.4268474,40.9848225],[33.4156894,41.0141021],[33.432083,41.0348231],[33.462038,41.0323628],[33.4689411,41.0526009],[33.4461213,41.0681638],[33.4651521,41.0939071],[33.4424838,41.1200446],[33.423599,41.115372],[33.4149901,41.1378383],[33.4372446,41.1584307],[33.4720689,41.1574882],[33.4740404,41.2097058],[33.462984,41.2284469],[33.4730224,41.2543629],[33.5054866,41.2774693],[33.52393,41.3026909],[33.5597129,41.3087098],[33.5602273,41.3285537],[33.5405468,41.343076],[33.5123834,41.3290633],[33.4954174,41.3474066],[33.4621642,41.3374713],[33.3820851,41.3499539],[33.3613866,41.3644715],[33.3084411,41.3826818],[33.2729344,41.3803949],[33.2500901,41.3662541],[33.2117471,41.3772035],[33.1866376,41.3716017],[33.1376469,41.3818034]]]},"properties":{"@id":"relation/1801986","admin_level":"6","boundary":"administrative","name":"Araç","name:ce":"Арач","name:de":"Araç","name:en":"Araç","name:fa":"آراچ","name:tr":"Araç","name:tr:suffix":"İlçesi","name:tt":"Арач","name:ur":"اراچ","network":"TR37-districts","population":"17920","population:date":"31-12-2021","type":"boundary","wikidata":"Q2670913","wikipedia":"tr:Araç, Kastamonu"},"id":"relation/1801986"},
{"type":"Feature","geometry":{"type":"Polygon","coordinates":[[[33.3596977,41.8998477],[33.3097136,41.8473699],[33.3312211,41.8283385],[33.3208559,41.7945404],[33.3048194,41.7631282],[33.2179603,41.7570616],[33.1539487,41.7313516],[33.133127,41.728608],[33.1132503,41.739376],[33.1468385,41.7119987],[33.1490152,41.6857755],[33.1426691,41.6573985],[33.1661267,41.6667766],[33.207453,41.6635146],[33.2233597,41.6553589],[33.2075071,41.6118055],[33.2160698,41.5890564],[33.2084215,41.5623928],[33.1696391,41.5458288],[33.1850594,41.5389451],[33.2526888,41.5268762],[33.2748345,41.5454782],[33.3298624,41.5550014],[33.3524412,41.5453048],[33.3693525,41.5721736],[33.3906654,41.5732134],[33.4160905,41.5906269],[33.4505471,41.5922098],[33.4684947,41.602266],[33.468967,41.6274425],[33.4922093,41.6435223],[33.526812,41.6770768],[33.5141941,41.6943271],[33.4814845,41.702976],[33.4888084,41.7181176],[33.5088094,41.7176256],[33.4967804,41.7468855],[33.5018272,41.7671371],[33.4878269,41.7798054],[33.4797795,41.8091209],[33.5000302,41.8259554],[33.5077651,41.8458428],[33.4666787,41.873967],[33.4427076,41.8847632],[33.3712008,41.8920528],[33.3596977,41.8998477]]]},"properties":{"@id":"relation/1801987","admin_level":"6","boundary":"administrative","name":"Azdavay","name:ce":"Аздавай","name:de":"Azdavay","name:en":"Azdavay","name:fa":"آزداوای","name:tr":"Azdavay","name:tr:suffix":"İlçesi","name:tt":"Аздавай","name:ur":"ازداواے","network":"TR37-districts","population":"7290","population:date":"31-12-2021","type":"boundary","wikidata":"Q1871083","wikipedia":"tr:Azdavay"},"id":"relation/1801987"},
{"type":"Feature","geometry":{"type":"Polygon","coordinates":[[[33.468967,41.6274425],[33.492727,41.6130638],[33.5272572,41.6084272],[33.5609367,41.618431],[33.5780796,41.6111568],[33.5960828,41.5910181],[33.6084592,41.6108068],[33.6025141,41.6460036],[33.6357306,41.6781245],[33.6891012,41.694843],[33.6921715,41.7180465],[33.6452865,41.7298177],[33.6131858,41.7254618],[33.6160182,41.7526171],[33.5769652,41.7484549],[33.5447787,41.7698394],[33.5520743,41.7790569],[33.5361098,41.796912],[33.5453796,41.8281304],[33.5077651,41.8458428],[33.5000302,41.8259554],[33.4797795,41.8091209],[33.4878269,41.7798054],[33.5018272,41.7671371],[33.4967804,41.7468855],[33.5088094,41.7176256],[33.4888084,41.7181176],[33.4814845,41.702976],[33.5141941,41.6943271],[33.526812,41.6770768],[33.4922093,41.6435223],[33.468967,41.6274425]]]},"properties":{"@id":"relation/1801988","admin_level":"6","boundary":"administrative","name":"Ağlı","name:ar":"أغلي","name:ce":"АгӀли","name:de":"Ağlı","name:en":"Ağlı","name:fa":"آغلی","name:tr":"Ağlı","name:tr:suffix":"İlçesi","name:tt":"Аглы","name:ur":"آغلی","network":"TR37-districts","population":"3006","population:date":"31-12-2021","type":"boundary","wikidata":"Q2491340","wikipedia":"tr:Ağlı"},"id":"relation/1801988"},
{"type":"Feature","geometry":{"type":"Polygon","coordinates":[[[33.913662,41.9729215],[33.9235164,41.9330929],[33.9189791,41.9130563],[33.9322493,41.86632],[33.9128883,41.8542825],[33.9294939,41.8437523],[33.9709506,41.8388216],[33.9638156,41.8190773],[33.9884415,41.7919135],[34.0365168,41.7999728],[34.0581393,41.7888997],[34.0627559,41.7682787],[34.1000257,41.7564402],[34.1174411,41.7581236],[34.1227626,41.7770727],[34.1568033,41.7933389],[34.1685194,41.8227288],[34.1231084,41.863183],[34.099609,41.8530127],[34.089117,41.8694331],[34.1015583,41.9047396],[34.0948446,41.9163321],[34.0647519,41.9305488],[34.05101,41.96452],[34.03083,41.96567],[34.0245168,41.9657537],[34.0099551,41.9684958],[34.0074499,41.9663061],[34.0013576,41.9617523],[33.9881115,41.9673916],[33.974834,41.9798291],[33.913662,41.9729215]]]},"properties":{"@id":"relation/1801989","admin_level":"6","boundary":"administrative","name":"Bozkurt","name:ce":"Бозкурт","name:de":"Bozkurt","name:en":"Bozkurt","name:fa":"بوزکورت","name:hy":"Բոզքուրթ","name:ru":"Бозкурт","name:tr":"Bozkurt","name:tr:suffix":"İlçesi","name:tt":"Бозкурт","name:ur":"بوزکورت","network":"TR37-districts","type":"boundary","wikidata":"Q2355171","wikipedia":"tr:Bozkurt, Kastamonu"},"id":"relation/1801989"},
{"type":"Feature","geometry":{"type":"Polygon","coordinates":[[[33.3386519,41.917726],[33.3498423,41.9325913],[33.3452108,41.9670194],[33.3320581,41.9775356],[33.3617116,41.9915845],[33.3725341,42.0156435],[33.3444924,42.0196008],[33.2792034,41.9996191],[33.2662342,41.9910099],[33.2101786,41.9775584],[33.1793225,41.9661359],[33.1689905,41.9555488],[33.030868,41.9271229],[33.0063056,41.9115654],[32.9862626,41.9092161],[32.9814935,41.895565],[32.8593242,41.8585385],[32.8323419,41.8620966],[32.8178787,41.8557177],[32.783173,41.8599778],[32.7527831,41.8421499],[32.7530765,41.8217024],[32.7743,41.7773],[32.806102,41.7888659],[32.8328131,41.7861612],[32.8412554,41.7557954],[32.867821,41.7345012],[32.9095145,41.7480135],[32.9447549,41.7611441],[33.0164226,41.7751705],[33.0867004,41.7448688],[33.1132503,41.739376],[33.1239916,41.7677578],[33.1008423,41.8182912],[33.1551147,41.8414892],[33.1798803,41.8589659],[33.2026907,41.8640624],[33.1987803,41.8842016],[33.2131183,41.8890535],[33.2665597,41.8873554],[33.2936063,41.8985136],[33.3248891,41.9220365],[33.3386519,41.917726]]]},"properties":{"@id":"relation/1801990","admin_level":"6","boundary":"administrative","name":"Cide","name:ce":"Джиде","name:de":"Cide","name:en":"Cide","name:fa":"جیده","name:ru":"Джиде","name:tr":"Cide","name:tr:suffix":"İlçesi","name:tt":"Җиде","name:ur":"جیدے","network":"TR37-districts","population":"22136","population:date":"31-12-2021","type":"boundary","wikidata":"Q2670870","wikipedia":"tr:Cide"},"id":"relation/1801990"},
{"type":"Feature","geometry":{"type":"Polygon","coordinates":[[[33.468967,41.6274425],[33.4684947,41.602266],[33.4505471,41.5922098],[33.4160905,41.5906269],[33.3906654,41.5732134],[33.3693525,41.5721736],[33.3524412,41.5453048],[33.3298624,41.5550014],[33.2748345,41.5454782],[33.2526888,41.5268762],[33.1850594,41.5389451],[33.1696391,41.5458288],[33.1229038,41.5243644],[33.1095304,41.5257091],[33.0954915,41.5023579],[33.0940298,41.4846015],[33.1076688,41.4754454],[33.0991397,41.4578823],[33.1133587,41.4439909],[33.1522081,41.4323593],[33.150769,41.4029945],[33.1376469,41.3818034],[33.1866376,41.3716017],[33.2117471,41.3772035],[33.2500901,41.3662541],[33.2729344,41.3803949],[33.3084411,41.3826818],[33.3613866,41.3644715],[33.3820851,41.3499539],[33.4621642,41.3374713],[33.4954174,41.3474066],[33.5238708,41.3826179],[33.5479057,41.391091],[33.5404014,41.4202034],[33.5505119,41.4375648],[33.5847989,41.4715586],[33.6121918,41.4837884],[33.6081377,41.5009239],[33.5864194,41.501195],[33.5810589,41.5249229],[33.5431802,41.5338236],[33.5545715,41.5634999],[33.570958,41.5590823],[33.5979072,41.5796497],[33.5960828,41.5910181],[33.5780796,41.6111568],[33.5609367,41.618431],[33.5272572,41.6084272],[33.492727,41.6130638],[33.468967,41.6274425]]]},"properties":{"@id":"relation/1801991","admin_level":"6","boundary":"administrative","name":"Daday","name:ar":"داداي","name:ce":"Дадай","name:de":"Daday","name:en":"Daday","name:fa":"دادای","name:tr":"Daday","name:tr:suffix":"İlçesi","name:tt":"Дадай","name:ur":"دادے","network":"TR37-districts","population":"8073","population:date":"31-12-2021","type":"boundary","wikidata":"Q2674056","wikipedia":"tr:Daday"},"id":"relation/1801991"},
{"type":"Feature","geometry":{"type":"Polygon","coordinates":[[[33.9163154,41.5473063],[33.9350226,41.5484768],[33.998813,41.5701088],[34.0317299,41.5900682],[34.0492866,41.6143444],[34.04236,41.6440605],[34.0758133,41.6555674],[34.1095336,41.681206],[34.1217527,41.7102535],[34.1289566,41.7437639],[34.1000257,41.7564402],[34.0627559,41.7682787],[34.0581393,41.7888997],[34.0365168,41.7999728],[33.9884415,41.7919135],[33.9638156,41.8190773],[33.9709506,41.8388216],[33.9294939,41.8437523],[33.9128883,41.8542825],[33.8811314,41.8554272],[33.8844097,41.8277653],[33.8733356,41.8084237],[33.8507238,41.8001081],[33.8547992,41.7558186],[33.7964773,41.7527452],[33.7810895,41.7388684],[33.7911506,41.7060849],[33.7761112,41.6891788],[33.7759632,41.6733272],[33.7995952,41.6600691],[33.7833777,41.645031],[33.7851064,41.6249266],[33.7618721,41.6271493],[33.7487384,41.6089259],[33.7697319,41.5953481],[33.7310088,41.5649685],[33.7172379,41.5648951],[33.7247,41.5450998],[33.7509732,41.5460313],[33.7679816,41.5355777],[33.792872,41.5414775],[33.8283838,41.5307261],[33.8822479,41.5370215],[33.8862323,41.5463089],[33.9163154,41.5473063]]]},"properties":{"@id":"relation/1801992","admin_level":"6","boundary":"administrative","int_name":"Devrekani","name":"Devrekani","name:de":"Devrekani","name:en":"Devrekani","name:tr":"Devrekani","name:tr:suffix":"İlçesi","network":"TR37-districts","population":"12132","population:date":"31-12-2021","type":"boundary","wikidata":"Q534638","wikipedia":"tr:Devrekani"},"id":"relation/1801992"},
{"type":"Feature","geometry":{"type":"Polygon","coordinates":[[[33.5565545,41.9958021],[33.4548705,42.0111032],[33.4130512,42.0084579],[33.3725341,42.0156435],[33.3617116,41.9915845],[33.3320581,41.9775356],[33.3452108,41.9670194],[33.3498423,41.9325913],[33.3386519,41.917726],[33.3596977,41.8998477],[33.3712008,41.8920528],[33.4427076,41.8847632],[33.4666787,41.873967],[33.5016515,41.8927899],[33.4952116,41.9193074],[33.5047066,41.9398688],[33.55048,41.98472],[33.5565545,41.9958021]]]},"properties":{"@id":"relation/1801993","admin_level":"6","boundary":"administrative","name":"Doğanyurt","name:ce":"ДогӀанйурт","name:de":"Doğanyurt","name:en":"Doğanyurt","name:fa":"دوغانیورت","name:ru":"Доганьюрт","name:tr":"Doğanyurt","name:tr:suffix":"İlçesi","name:tt":"Доганъюрт","name:ur":"دوغانیورت","network":"TR37-districts","population":"5428","population:date":"31-12-2021","type":"boundary","wikidata":"Q2670793","wikipedia":"tr:Doğanyurt"},"id":"relation/1801993"},
{"type":"Feature","geometry":{"type":"Polygon","coordinates":[[[34.1115,41.1827],[34.1173314,41.2511842],[34.1440864,41.2683359],[34.1607942,41.3020653],[34.1231392,41.3179871],[34.087978,41.3183616],[34.0575745,41.338666],[34.0208972,41.3543115],[34.0114211,41.3642317],[33.9710231,41.3739632],[33.9485552,41.4010532],[33.9505747,41.4192331],[33.9351137,41.431013],[33.9710231,41.4478378],[33.9893535,41.4805208],[33.9291078,41.494519],[33.9329278,41.5175112],[33.9163154,41.5473063],[33.8862323,41.5463089],[33.8822479,41.5370215],[33.8283838,41.5307261],[33.792872,41.5414775],[33.7679816,41.5355777],[33.7509732,41.5460313],[33.7247,41.5450998],[33.7172379,41.5648951],[33.7038624,41.5578317],[33.6649879,41.5529727],[33.6155191,41.558387],[33.5979072,41.5796497],[33.570958,41.5590823],[33.5545715,41.5634999],[33.5431802,41.5338236],[33.5810589,41.5249229],[33.5864194,41.501195],[33.6081377,41.5009239],[33.6121918,41.4837884],[33.5847989,41.4715586],[33.5505119,41.4375648],[33.5404014,41.4202034],[33.5479057,41.391091],[33.5238708,41.3826179],[33.4954174,41.3474066],[33.5123834,41.3290633],[33.5405468,41.343076],[33.5602273,41.3285537],[33.5597129,41.3087098],[33.5700456,41.2768406],[33.6170606,41.2761482],[33.6428093,41.2615677],[33.6675961,41.2299826],[33.6611788,41.1954645],[33.6394861,41.1800175],[33.6328961,41.1638245],[33.6444709,41.1334165],[33.6662983,41.1306939],[33.6752104,41.1115119],[33.6947203,41.0937549],[33.6822721,41.0589112],[33.6847321,41.0474703],[33.7459659,41.0614918],[33.7626303,41.0793054],[33.8131091,41.0782485],[33.8622288,41.0971313],[33.8684,41.1072],[33.9117,41.1201],[33.9443,41.124],[33.9819,41.1129],[33.9993,41.1233],[34.0415,41.133],[34.0322,41.161],[34.0506,41.1823],[34.0904,41.1753],[34.1115,41.1827]]]},"properties":{"@id":"relation/1801994","admin_level":"6","alt_name":"Kastamonu","boundary":"administrative","name":"Kastamonu Merkez","name:ab":"Касҭамону","name:ar":"قسطموني","name:bg":"Кастамону","name:ce":"Кастамону","name:cv":"Кастамону","name:de":"Kastamonu","name:el":"Κασταμονή","name:en":"Kastamonu","name:fa":"قسطمونی","name:hy":"Քասթամոնու","name:ja":"カスタモヌ","name:ka":"კასთამონუ","name:ko":"카스타모누","name:os":"Кастамону","name:pt":"Castamonu","name:ru":"Кастамону","name:sr":"Кастамону","name:tg":"Кастамону","name:tr":"Kastamonu Merkez","name:tr:suffix":"İlçesi","name:tt":"Кастамону","name:uk":"Кастамону","name:ur":"کاستامونو","name:zh":"卡斯塔莫努省","name:zza":"Qestamonu","network":"TR37-districts","old_name":"Tumana","population":"152541","population:date":"31-12-2021","type":"boundary","wikidata":"Q155915","wikipedia":"tr:Kastamonu"},"id":"relation/1801994"},
{"type":"Feature","geometry":{"type":"Polygon","coordinates":[[[33.6921715,41.7180465],[33.7055397,41.7174699],[33.7156248,41.6893864],[33.736782,41.6858771],[33.7563085,41.6959878],[33.7394857,41.7323798],[33.7528753,41.7494154],[33.7810895,41.7388684],[33.7964773,41.7527452],[33.8547992,41.7558186],[33.8507238,41.8001081],[33.8286208,41.8225659],[33.7968574,41.8367922],[33.7958335,41.8449488],[33.7588405,41.8583747],[33.7255726,41.8793586],[33.6850292,41.8860008],[33.6689757,41.9042574],[33.6427116,41.9199062],[33.5933594,41.8952422],[33.5706996,41.8935246],[33.5664081,41.9095593],[33.5425981,41.9081797],[33.5273551,41.9170323],[33.5016515,41.8927899],[33.4666787,41.873967],[33.5077651,41.8458428],[33.5453796,41.8281304],[33.5361098,41.796912],[33.5520743,41.7790569],[33.5447787,41.7698394],[33.5769652,41.7484549],[33.6160182,41.7526171],[33.6131858,41.7254618],[33.6452865,41.7298177],[33.6921715,41.7180465]]]},"properties":{"@id":"relation/1801995","admin_level":"6","boundary":"administrative","name":"Küre","name:ce":"Куьре","name:de":"Küre","name:en":"Küre","name:fa":"کوره","name:tr":"Küre","name:tr:suffix":"İlçesi","name:tt":"Күре","name:uk":"Кюре","name:ur":"کورے","network":"TR37-districts","population:date":"31-12-2021","type":"boundary","wikidata":"Q2045860","wikimedia_commons":"Category:Küre","wikipedia":"tr:Küre, Kastamonu"},"id":"relation/1801995"},
{"type":"Feature","geometry":{"type":"Polygon","coordinates":[[[32.9095145,41.7480135],[32.9389811,41.7149626],[32.9187622,41.6989211],[32.9159695,41.6717558],[32.9028059,41.6525405],[32.9066448,41.6281143],[32.8721514,41.5984015],[32.8671085,41.5741514],[32.902779,41.5590813],[32.9226084,41.5604876],[32.9567583,41.5862025],[32.9909658,41.5878589],[33.0328699,41.572435],[33.0535996,41.5774022],[33.0588636,41.536908],[33.0526119,41.5062312],[33.0591627,41.4880029],[33.0940298,41.4846015],[33.0954915,41.5023579],[33.1095304,41.5257091],[33.1229038,41.5243644],[33.1696391,41.5458288],[33.2084215,41.5623928],[33.2160698,41.5890564],[33.2075071,41.6118055],[33.2233597,41.6553589],[33.207453,41.6635146],[33.1661267,41.6667766],[33.1426691,41.6573985],[33.1490152,41.6857755],[33.1468385,41.7119987],[33.1132503,41.739376],[33.0867004,41.7448688],[33.0164226,41.7751705],[32.9447549,41.7611441],[32.9095145,41.7480135]]]},"properties":{"@id":"relation/1801996","admin_level":"6","boundary":"administrative","name":"Pınarbaşı","name:ce":"Пинарбаши","name:de":"Pınarbaşı","name:en":"Pınarbaşı","name:fa":"پینارباشی","name:tr":"Pınarbaşı","name:tr:suffix":"İlçesi","name:tt":"Пынарбашы","name:uk":"Пинарбаши","name:ur":"پینارباشی","name:zh":"潘爾巴夏","network":"TR37-districts","population":"5688","population:date":"31-12-2021","type":"boundary","wikidata":"Q3056024","wikipedia":"tr:Pınarbaşı, Kastamonu"},"id":"relation/1801996"},
{"type":"Feature","geometry":{"type":"Polygon","coordinates":[[[33.7172379,41.5648951],[33.7310088,41.5649685],[33.7697319,41.5953481],[33.7487384,41.6089259],[33.7618721,41.6271493],[33.7851064,41.6249266],[33.7833777,41.645031],[33.7995952,41.6600691],[33.7759632,41.6733272],[33.7761112,41.6891788],[33.7911506,41.7060849],[33.7810895,41.7388684],[33.7528753,41.7494154],[33.7394857,41.7323798],[33.7563085,41.6959878],[33.736782,41.6858771],[33.7156248,41.6893864],[33.7055397,41.7174699],[33.6921715,41.7180465],[33.6891012,41.694843],[33.6357306,41.6781245],[33.6025141,41.6460036],[33.6084592,41.6108068],[33.5960828,41.5910181],[33.5979072,41.5796497],[33.6155191,41.558387],[33.6649879,41.5529727],[33.7038624,41.5578317],[33.7172379,41.5648951]]]},"properties":{"@id":"relation/1801997","admin_level":"6","boundary":"administrative","name":"Seydiler","name:ce":"Сейдилер","name:de":"Seydiler","name:en":"Seydiler","name:fa":"سیدیلر","name:tr":"Seydiler","name:tr:suffix":"İlçesi","name:tt":"Сейдилер","name:ur":"سیدیلر","network":"TR37-districts","population":"4289","population:date":"31-12-2021","type":"boundary","wikidata":"Q2674078","wikipedia":"tr:Seydiler"},"id":"relation/1801997"},
{"type":"Feature","geometry":{"type":"Polygon","coordinates":[[[34.1289566,41.7437639],[34.1686819,41.7533856],[34.2187447,41.7364401],[34.238834,41.7440633],[34.2503928,41.7771367],[34.2378615,41.7930086],[34.2945956,41.8151459],[34.3099398,41.8496457],[34.2945837,41.8586969],[34.3004107,41.8747218],[34.2644195,41.8820609],[34.2548612,41.8939137],[34.263232,41.9165912],[34.2282089,41.9314637],[34.2311211,41.9540898],[34.1744344,41.9593179],[34.1660105,41.9662236],[34.1182351,41.974477],[34.0967559,41.9470111],[34.0948446,41.9163321],[34.1015583,41.9047396],[34.089117,41.8694331],[34.099609,41.8530127],[34.1231084,41.863183],[34.1685194,41.8227288],[34.1568033,41.7933389],[34.1227626,41.7770727],[34.1174411,41.7581236],[34.1000257,41.7564402],[34.1289566,41.7437639]]]},"properties":{"@id":"relation/1801998","admin_level":"6","boundary":"administrative","name":"Çatalzeytin","name:de":"Çatalzeytin","name:en":"Çatalzeytin","name:tr":"Çatalzeytin","name:tr:suffix":"İlçesi","network":"TR37-districts","population":"7229","population:date":"31-12-2021","type":"boundary","wikidata":"Q2252011","wikipedia":"tr:Çatalzeytin"},"id":"relation/1801998"},
{"type":"Feature","geometry":{"type":"Polygon","coordinates":[[[33.4689411,41.0526009],[33.4800005,41.0656255],[33.513038,41.0516037],[33.5267543,41.0175992],[33.552246,41.0223265],[33.5764412,41.0181243],[33.6319038,41.0230038],[33.6721515,41.045699],[33.6847321,41.0474703],[33.6822721,41.0589112],[33.6947203,41.0937549],[33.6752104,41.1115119],[33.6662983,41.1306939],[33.6444709,41.1334165],[33.6328961,41.1638245],[33.6394861,41.1800175],[33.6611788,41.1954645],[33.6675961,41.2299826],[33.6428093,41.2615677],[33.6170606,41.2761482],[33.5700456,41.2768406],[33.5597129,41.3087098],[33.52393,41.3026909],[33.5054866,41.2774693],[33.4730224,41.2543629],[33.462984,41.2284469],[33.4740404,41.2097058],[33.4720689,41.1574882],[33.4372446,41.1584307],[33.4149901,41.1378383],[33.423599,41.115372],[33.4424838,41.1200446],[33.4651521,41.0939071],[33.4461213,41.0681638],[33.4689411,41.0526009]]]},"properties":{"@id":"relation/1801999","admin_level":"6","boundary":"administrative","name":"İhsangazi","name:ce":"ИхӀсангази","name:de":"İhsangazi","name:en":"İhsangazi","name:fa":"ایهسانگازی","name:tr":"İhsangazi","name:tr:suffix":"İlçesi","name:tt":"Ихсангази","name:ur":"احسان غازی","network":"TR37-districts","population":"5292","population:date":"31-12-2021","type":"boundary","wikidata":"Q1984386","wikipedia":"tr:İhsangazi"},"id":"relation/1801999"},
{"type":"Feature","geometry":{"type":"Polygon","coordinates":[[[33.9128883,41.8542825],[33.9322493,41.86632],[33.9189791,41.9130563],[33.9235164,41.9330929],[33.913662,41.9729215],[33.8231135,41.9741025],[33.7910738,41.9732768],[33.7848073,41.9732857],[33.7711373,41.9764651],[33.759975,41.9795833],[33.7585265,41.9793792],[33.747046,41.9776128],[33.7281942,41.9784714],[33.7250253,41.9786878],[33.6799724,41.9804836],[33.570024,41.9917427],[33.5565545,41.9958021],[33.55048,41.98472],[33.5047066,41.9398688],[33.4952116,41.9193074],[33.5016515,41.8927899],[33.5273551,41.9170323],[33.5425981,41.9081797],[33.5664081,41.9095593],[33.5706996,41.8935246],[33.5933594,41.8952422],[33.6427116,41.9199062],[33.6689757,41.9042574],[33.6850292,41.8860008],[33.7255726,41.8793586],[33.7588405,41.8583747],[33.7958335,41.8449488],[33.7968574,41.8367922],[33.8286208,41.8225659],[33.8507238,41.8001081],[33.8733356,41.8084237],[33.8844097,41.8277653],[33.8811314,41.8554272],[33.9128883,41.8542825]]]},"properties":{"@id":"relation/1802000","admin_level":"6","boundary":"administrative","name":"İnebolu","name:ar":"اني بولو","name:ce":"Инеболу","name:de":"İnebolu","name:en":"İnebolu","name:fa":"اینه‌بولو","name:tr":"İnebolu","name:tr:suffix":"İlçesi","name:tt":"Инеболу","name:ur":"انےبولو","name:zh":"伊內博盧","network":"TR37-districts","population":"20675","population:date":"31-12-2021","type":"boundary","wikidata":"Q282654","wikipedia":"tr:İnebolu"},"id":"relation/1802000"},
{"type":"Feature","geometry":{"type":"Polygon","coordinates":[[[33.3596977,41.8998477],[33.3386519,41.917726],[33.3248891,41.9220365],[33.2936063,41.8985136],[33.2665597,41.8873554],[33.2131183,41.8890535],[33.1987803,41.8842016],[33.2026907,41.8640624],[33.1798803,41.8589659],[33.1551147,41.8414892],[33.1008423,41.8182912],[33.1239916,41.7677578],[33.1132503,41.739376],[33.133127,41.728608],[33.1539487,41.7313516],[33.2179603,41.7570616],[33.3048194,41.7631282],[33.3208559,41.7945404],[33.3312211,41.8283385],[33.3097136,41.8473699],[33.3596977,41.8998477]]]},"properties":{"@id":"relation/1802001","admin_level":"6","boundary":"administrative","name":"Şenpazar","name:ce":"Шенпазар","name:de":"Şenpazar","name:en":"Şenpazar","name:fa":"شنپازار","name:tr":"Şenpazar","name:tr:suffix":"İlçesi","name:tt":"Шенпазар","name:ur":"شین پازار","network":"TR37-districts","population":"4304","population:date":"31-12-2021","type":"boundary","wikidata":"Q388894","wikipedia":"tr:Şenpazar"},"id":"relation/1802001"},
{"type":"Feature","geometry":{"type":"Polygon","coordinates":[[[34.0702258,41.034273],[34.0634096,41.0368786],[34.0786507,40.9838324],[34.0667194,41.0037835],[34.0694641,41.0055964],[34.0713965,41.005746],[34.0731236,41.0066167],[34.0736333,41.0071081],[34.0779935,41.0081111],[34.0810999,41.0079599],[34.0818061,41.009187],[34.0816717,41.01234],[34.0800626,41.0182215],[34.0797341,41.0194191],[34.0798274,41.020691],[34.0799075,41.0209675],[34.0800315,41.0213079],[34.080249,41.021794],[34.0814282,41.025114],[34.0702258,41.034273]]]},"properties":{"@id":"relation/9774660","admin_level":"8","boundary":"administrative","name":"Yavuz Selim mahallesi","type":"boundary"},"id":"relation/9774660"},
{"type":"Feature","geometry":{"type":"Polygon","coordinates":[[[34.0702258,41.034273],[34.0815097,41.018428],[34.0800626,41.0182215],[34.0797341,41.0194191],[34.0798274,41.020691],[34.0799075,41.0209675],[34.0800315,41.0213079],[34.080249,41.021794],[34.0814282,41.025114],[34.0702258,41.034273]]]},"properties":{"@id":"relation/9798274","admin_level":"8","boundary":"administrative","name":"Karasapaca","type":"boundary"},"id":"relation/9798274"},
{"type":"Feature","geometry":{"type":"Polygon","coordinates":[[[34.082437,41.011546],[34.0815097,41.018428],[34.0800626,41.0182215],[34.0816717,41.01234],[34.082437,41.011546]]]},"properties":{"@id":"relation/9798275","admin_level":"8","boundary":"administrative","name":"Sapaca","type":"boundary"},"id":"relation/9798275"},
{"type":"Feature","geometry":{"type":"Polygon","coordinates":[[[34.0786507,40.9838324],[34.082437,41.011546],[34.0816717,41.01234],[34.0818061,41.009187],[34.0810999,41.0079599],[34.0779935,41.0081111],[34.0736333,41.0071081],[34.0731236,41.0066167],[34.0713965,41.005746],[34.0694641,41.0055964],[34.0667194,41.0037835],[34.0786507,40.9838324]]]},"properties":{"@id":"relation/9798276","admin_level":"8","boundary":"administrative","name":"Kösen","type":"boundary"},"id":"relation/9798276"},
{"type":"Feature","geometry":{"type":"Polygon","coordinates":[[[33.7724179,41.3782255],[33.7642975,41.3804786],[33.7675811,41.3757552],[33.7715884,41.376388],[33.7724179,41.3782255]]]},"properties":{"@id":"relation/12310782","admin_level":"8","boundary":"administrative","name":"Akmescit Mahallesi","type":"boundary","@relations":[{"role":"subarea","rel":1801994,"reltags":{"admin_level":"6","alt_name":"Kastamonu","boundary":"administrative","name":"Kastamonu Merkez","name:ab":"Касҭамону","name:ar":"قسطموني","name:bg":"Кастамону","name:ce":"Кастамону","name:cv":"Кастамону","name:de":"Kastamonu","name:el":"Κασταμονή","name:en":"Kastamonu","name:fa":"قسطمونی","name:hy":"Քասթամոնու","name:ja":"カスタモヌ","name:ka":"კასთამონუ","name:ko":"카스타모누","name:os":"Кастамону","name:pt":"Castamonu","name:ru":"Кастамону","name:sr":"Кастамону","name:tg":"Кастамону","name:tr":"Kastamonu Merkez","name:tr:suffix":"İlçesi","name:tt":"Кастамону","name:uk":"Кастамону","name:ur":"کاستامونو","name:zh":"卡斯塔莫努省","name:zza":"Qestamonu","network":"TR37-districts","old_name":"Tumana","population":"152541","population:date":"31-12-2021","type":"boundary","wikidata":"Q155915","wikipedia":"tr:Kastamonu"}}]},"id":"relation/12310782"},
{"type":"Feature","geometry":{"type":"Polygon","coordinates":[[[33.7721772,41.3749662],[33.7715884,41.376388],[33.7675811,41.3757552],[33.7711841,41.3736526],[33.7721772,41.3749662]]]},"properties":{"@id":"relation/12310801","admin_level":"8","boundary":"administrative","name":"Atabeygazi Mahallesi","type":"boundary","@relations":[{"role":"subarea","rel":1801994,"reltags":{"admin_level":"6","alt_name":"Kastamonu","boundary":"administrative","name":"Kastamonu Merkez","name:ab":"Касҭамону","name:ar":"قسطموني","name:bg":"Кастамону","name:ce":"Кастамону","name:cv":"Кастамону","name:de":"Kastamonu","name:el":"Κασταμονή","name:en":"Kastamonu","name:fa":"قسطمونی","name:hy":"Քասթամոնու","name:ja":"カスタモヌ","name:ka":"კასთამონუ","name:ko":"카스타모누","name:os":"Кастамону","name:pt":"Castamonu","name:ru":"Кастамону","name:sr":"Кастамону","name:tg":"Кастамону","name:tr":"Kastamonu Merkez","name:tr:suffix":"İlçesi","name:tt":"Кастамону","name:uk":"Кастамону","name:ur":"کاستامونو","name:zh":"卡斯塔莫努省","name:zza":"Qestamonu","network":"TR37-districts","old_name":"Tumana","population":"152541","population:date":"31-12-2021","type":"boundary","wikidata":"Q155915","wikipedia":"tr:Kastamonu"}}]},"id":"relation/12310801"},
{"type":"Feature","geometry":{"type":"Polygon","coordinates":[[[33.7712002,41.3729602],[33.7733513,41.372296],[33.7721772,41.3749662],[33.7711841,41.3736526],[33.7712002,41.3729602]]]},"properties":{"@id":"relation/12310807","admin_level":"8","boundary":"administrative","name":"Yavuz Selim Mahallesi","type":"boundary","@relations":[{"role":"subarea","rel":1801994,"reltags":{"admin_level":"6","alt_name":"Kastamonu","boundary":"administrative","name":"Kastamonu Merkez","name:ab":"Касҭамону","name:ar":"قسطموني","name:bg":"Кастамону","name:ce":"Кастамону","name:cv":"Кастамону","name:de":"Kastamonu","name:el":"Κασταμονή","name:en":"Kastamonu","name:fa":"قسطمونی","name:hy":"Քասթամոնու","name:ja":"カスタモヌ","name:ka":"კასთამონუ","name:ko":"카스타모누","name:os":"Кастамону","name:pt":"Castamonu","name:ru":"Кастамону","name:sr":"Кастамону","name:tg":"Кастамону","name:tr":"Kastamonu Merkez","name:tr:suffix":"İlçesi","name:tt":"Кастамону","name:uk":"Кастамону","name:ur":"کاستامونو","name:zh":"卡斯塔莫努省","name:zza":"Qestamonu","network":"TR37-districts","old_name":"Tumana","population":"152541","population:date":"31-12-2021","type":"boundary","wikidata":"Q155915","wikipedia":"tr:Kastamonu"}}]},"id":"relation/12310807"},
{"type":"Feature","geometry":{"type":"Polygon","coordinates":[[[33.773995,41.3721269],[33.7762902,41.3743454],[33.7764424,41.3776001],[33.7743518,41.3783543],[33.7724179,41.3782255],[33.7715884,41.376388],[33.7721772,41.3749662],[33.7733513,41.372296],[33.773995,41.3721269]]]},"properties":{"@id":"relation/12310813","admin_level":"8","boundary":"administrative","name":"Hepkebirler Mahallesi","type":"boundary","@relations":[{"role":"subarea","rel":1801994,"reltags":{"admin_level":"6","alt_name":"Kastamonu","boundary":"administrative","name":"Kastamonu Merkez","name:ab":"Касҭамону","name:ar":"قسطموني","name:bg":"Кастамону","name:ce":"Кастамону","name:cv":"Кастамону","name:de":"Kastamonu","name:el":"Κασταμονή","name:en":"Kastamonu","name:fa":"قسطمونی","name:hy":"Քասթամոնու","name:ja":"カスタモヌ","name:ka":"კასთამონუ","name:ko":"카스타모누","name:os":"Кастамону","name:pt":"Castamonu","name:ru":"Кастамону","name:sr":"Кастамону","name:tg":"Кастамону","name:tr":"Kastamonu Merkez","name:tr:suffix":"İlçesi","name:tt":"Кастамону","name:uk":"Кастамону","name:ur":"کاستامونو","name:zh":"卡斯塔莫努省","name:zza":"Qestamonu","network":"TR37-districts","old_name":"Tumana","population":"152541","population:date":"31-12-2021","type":"boundary","wikidata":"Q155915","wikipedia":"tr:Kastamonu"}}]},"id":"relation/12310813"},
{"type":"Feature","geometry":{"type":"Polygon","coordinates":[[[33.7743518,41.3783543],[33.7764424,41.3776001],[33.7786606,41.3803845],[33.7759235,41.3819568],[33.7743518,41.3783543]]]},"properties":{"@id":"relation/12310814","admin_level":"8","boundary":"administrative","name":"Topçuoğlu Mahallesi","type":"boundary","@relations":[{"role":"subarea","rel":1801994,"reltags":{"admin_level":"6","alt_name":"Kastamonu","boundary":"administrative","name":"Kastamonu Merkez","name:ab":"Касҭамону","name:ar":"قسطموني","name:bg":"Кастамону","name:ce":"Кастамону","name:cv":"Кастамону","name:de":"Kastamonu","name:el":"Κασταμονή","name:en":"Kastamonu","name:fa":"قسطمونی","name:hy":"Քասթամոնու","name:ja":"カスタモヌ","name:ka":"კასთამონუ","name:ko":"카스타모누","name:os":"Кастамону","name:pt":"Castamonu","name:ru":"Кастамону","name:sr":"Кастамону","name:tg":"Кастамону","name:tr":"Kastamonu Merkez","name:tr:suffix":"İlçesi","name:tt":"Кастамону","name:uk":"Кастамону","name:ur":"کاستامونو","name:zh":"卡斯塔莫努省","name:zza":"Qestamonu","network":"TR37-districts","old_name":"Tumana","population":"152541","population:date":"31-12-2021","type":"boundary","wikidata":"Q155915","wikipedia":"tr:Kastamonu"}}]},"id":"relation/12310814"},
{"type":"Feature","geometry":{"type":"Polygon","coordinates":[[[33.7724179,41.3782255],[33.7743518,41.3783543],[33.7759235,41.3819568],[33.7690759,41.3863077],[33.7543666,41.3882315],[33.7557828,41.3841906],[33.7642975,41.3804786],[33.7724179,41.3782255]]]},"properties":{"@id":"relation/12310820","admin_level":"8","boundary":"administrative","name":"Honsalar Mahallesi","type":"boundary","@relations":[{"role":"subarea","rel":1801994,"reltags":{"admin_level":"6","alt_name":"Kastamonu","boundary":"administrative","name":"Kastamonu Merkez","name:ab":"Касҭамону","name:ar":"قسطموني","name:bg":"Кастамону","name:ce":"Кастамону","name:cv":"Кастамону","name:de":"Kastamonu","name:el":"Κασταμονή","name:en":"Kastamonu","name:fa":"قسطمونی","name:hy":"Քասթամոնու","name:ja":"カスタモヌ","name:ka":"კასთამონუ","name:ko":"카스타모누","name:os":"Кастамону","name:pt":"Castamonu","name:ru":"Кастамону","name:sr":"Кастамону","name:tg":"Кастамону","name:tr":"Kastamonu Merkez","name:tr:suffix":"İlçesi","name:tt":"Кастамону","name:uk":"Кастамону","name:ur":"کاستامونو","name:zh":"卡斯塔莫努省","name:zza":"Qestamonu","network":"TR37-districts","old_name":"Tumana","population":"152541","population:date":"31-12-2021","type":"boundary","wikidata":"Q155915","wikipedia":"tr:Kastamonu"}}]},"id":"relation/12310820"},
{"type":"Feature","geometry":{"type":"Polygon","coordinates":[[[33.779767,41.3869605],[33.7781525,41.389294],[33.7690759,41.3863077],[33.7759235,41.3819568],[33.7786606,41.3803845],[33.779767,41.3869605]]]},"properties":{"@id":"relation/12310831","admin_level":"8","boundary":"administrative","name":"İsmailbey Mahallesi","type":"boundary","@relations":[{"role":"subarea","rel":1801994,"reltags":{"admin_level":"6","alt_name":"Kastamonu","boundary":"administrative","name":"Kastamonu Merkez","name:ab":"Касҭамону","name:ar":"قسطموني","name:bg":"Кастамону","name:ce":"Кастамону","name:cv":"Кастамону","name:de":"Kastamonu","name:el":"Κασταμονή","name:en":"Kastamonu","name:fa":"قسطمونی","name:hy":"Քասթամոնու","name:ja":"カスタモヌ","name:ka":"კასთამონუ","name:ko":"카스타모누","name:os":"Кастамону","name:pt":"Castamonu","name:ru":"Кастамону","name:sr":"Кастамону","name:tg":"Кастамону","name:tr":"Kastamonu Merkez","name:tr:suffix":"İlçesi","name:tt":"Кастамону","name:uk":"Кастамону","name:ur":"کاستامونو","name:zh":"卡斯塔莫努省","name:zza":"Qestamonu","network":"TR37-districts","old_name":"Tumana","population":"152541","population:date":"31-12-2021","type":"boundary","wikidata":"Q155915","wikipedia":"tr:Kastamonu"}}]},"id":"relation/12310831"},
{"type":"Feature","geometry":{"type":"Polygon","coordinates":[[[33.7792361,41.3736325],[33.7762902,41.3743454],[33.773995,41.3721269],[33.7792361,41.3736325]]]},"properties":{"@id":"relation/12310834","admin_level":"8","boundary":"administrative","name":"İsfendiyar Mahallesi","type":"boundary","@relations":[{"role":"subarea","rel":1801994,"reltags":{"admin_level":"6","alt_name":"Kastamonu","boundary":"administrative","name":"Kastamonu Merkez","name:ab":"Касҭамону","name:ar":"قسطموني","name:bg":"Кастамону","name:ce":"Кастамону","name:cv":"Кастамону","name:de":"Kastamonu","name:el":"Κασταμονή","name:en":"Kastamonu","name:fa":"قسطمونی","name:hy":"Քասթամոնու","name:ja":"カスタモヌ","name:ka":"კასთამონუ","name:ko":"카스타모누","name:os":"Кастамону","name:pt":"Castamonu","name:ru":"Кастамону","name:sr":"Кастамону","name:tg":"Кастамону","name:tr":"Kastamonu Merkez","name:tr:suffix":"İlçesi","name:tt":"Кастамону","name:uk":"Кастамону","name:ur":"کاستامونو","name:zh":"卡斯塔莫努省","name:zza":"Qestamonu","network":"TR37-districts","old_name":"Tumana","population":"152541","population:date":"31-12-2021","type":"boundary","wikidata":"Q155915","wikipedia":"tr:Kastamonu"}}]},"id":"relation/12310834"},
{"type":"Feature","geometry":{"type":"Polygon","coordinates":[[[33.7810975,41.3781108],[33.7786606,41.3803845],[33.7764424,41.3776001],[33.7762902,41.3743454],[33.7792361,41.3736325],[33.781634,41.3758143],[33.7810975,41.3781108]]]},"properties":{"@id":"relation/12310839","admin_level":"8","boundary":"administrative","name":"Cebrail Mahallesi","type":"boundary","@relations":[{"role":"subarea","rel":1801994,"reltags":{"admin_level":"6","alt_name":"Kastamonu","boundary":"administrative","name":"Kastamonu Merkez","name:ab":"Касҭамону","name:ar":"قسطموني","name:bg":"Кастамону","name:ce":"Кастамону","name:cv":"Кастамону","name:de":"Kastamonu","name:el":"Κασταμονή","name:en":"Kastamonu","name:fa":"قسطمونی","name:hy":"Քասթամոնու","name:ja":"カスタモヌ","name:ka":"კასთამონუ","name:ko":"카스타모누","name:os":"Кастамону","name:pt":"Castamonu","name:ru":"Кастамону","name:sr":"Кастамону","name:tg":"Кастамону","name:tr":"Kastamonu Merkez","name:tr:suffix":"İlçesi","name:tt":"Кастамону","name:uk":"Кастамону","name:ur":"کاستامونو","name:zh":"卡斯塔莫努省","name:zza":"Qestamonu","network":"TR37-districts","old_name":"Tumana","population":"152541","population:date":"31-12-2021","type":"boundary","wikidata":"Q155915","wikipedia":"tr:Kastamonu"}}]},"id":"relation/12310839"},
{"type":"Feature","geometry":{"type":"Polygon","coordinates":[[[33.779767,41.3869605],[33.7786606,41.3803845],[33.7810975,41.3781108],[33.7886614,41.3807734],[33.7861025,41.3865733],[33.7827766,41.3858126],[33.779767,41.3869605]]]},"properties":{"@id":"relation/12310842","admin_level":"8","boundary":"administrative","name":"Aktekke Mahallesi","type":"boundary","@relations":[{"role":"subarea","rel":1801994,"reltags":{"admin_level":"6","alt_name":"Kastamonu","boundary":"administrative","name":"Kastamonu Merkez","name:ab":"Касҭамону","name:ar":"قسطموني","name:bg":"Кастамону","name:ce":"Кастамону","name:cv":"Кастамону","name:de":"Kastamonu","name:el":"Κασταμονή","name:en":"Kastamonu","name:fa":"قسطمونی","name:hy":"Քասթամոնու","name:ja":"カスタモヌ","name:ka":"კასთამონუ","name:ko":"카스타모누","name:os":"Кастамону","name:pt":"Castamonu","name:ru":"Кастамону","name:sr":"Кастамону","name:tg":"Кастамону","name:tr":"Kastamonu Merkez","name:tr:suffix":"İlçesi","name:tt":"Кастамону","name:uk":"Кастамону","name:ur":"کاستامونو","name:zh":"卡斯塔莫努省","name:zza":"Qestamonu","network":"TR37-districts","old_name":"Tumana","population":"152541","population:date":"31-12-2021","type":"boundary","wikidata":"Q155915","wikipedia":"tr:Kastamonu"}}]},"id":"relation/12310842"},
{"type":"Feature","geometry":{"type":"Polygon","coordinates":[[[33.8059616,41.3915477],[33.7861025,41.3865733],[33.7886614,41.3807734],[33.789525,41.3803991],[33.8059616,41.3915477]]]},"properties":{"@id":"relation/12310851","admin_level":"8","boundary":"administrative","name":"Esentepe Mahallesi","type":"boundary","@relations":[{"role":"subarea","rel":1801994,"reltags":{"admin_level":"6","alt_name":"Kastamonu","boundary":"administrative","name":"Kastamonu Merkez","name:ab":"Касҭамону","name:ar":"قسطموني","name:bg":"Кастамону","name:ce":"Кастамону","name:cv":"Кастамону","name:de":"Kastamonu","name:el":"Κασταμονή","name:en":"Kastamonu","name:fa":"قسطمونی","name:hy":"Քասթամոնու","name:ja":"カスタモヌ","name:ka":"კასთამონუ","name:ko":"카스타모누","name:os":"Кастамону","name:pt":"Castamonu","name:ru":"Кастамону","name:sr":"Кастамону","name:tg":"Кастамону","name:tr":"Kastamonu Merkez","name:tr:suffix":"İlçesi","name:tt":"Кастамону","name:uk":"Кастамону","name:ur":"کاستامونو","name:zh":"卡斯塔莫努省","name:zza":"Qestamonu","network":"TR37-districts","old_name":"Tumana","population":"152541","population:date":"31-12-2021","type":"boundary","wikidata":"Q155915","wikipedia":"tr:Kastamonu"}}]},"id":"relation/12310851"},
{"type":"Feature","geometry":{"type":"Polygon","coordinates":[[[33.7742203,41.3627304],[33.7870574,41.3729522],[33.781634,41.3758143],[33.7792361,41.3736325],[33.773995,41.3721269],[33.7733513,41.372296],[33.7742203,41.3627304]]]},"properties":{"@id":"relation/12310863","admin_level":"8","boundary":"administrative","name":"Beyçelebi Mahallesi","type":"boundary","@relations":[{"role":"subarea","rel":1801994,"reltags":{"admin_level":"6","alt_name":"Kastamonu","boundary":"administrative","name":"Kastamonu Merkez","name:ab":"Касҭамону","name:ar":"قسطموني","name:bg":"Кастамону","name:ce":"Кастамону","name:cv":"Кастамону","name:de":"Kastamonu","name:el":"Κασταμονή","name:en":"Kastamonu","name:fa":"قسطمونی","name:hy":"Քասթամոնու","name:ja":"カスタモヌ","name:ka":"კასთამონუ","name:ko":"카스타모누","name:os":"Кастамону","name:pt":"Castamonu","name:ru":"Кастамону","name:sr":"Кастамону","name:tg":"Кастамону","name:tr":"Kastamonu Merkez","name:tr:suffix":"İlçesi","name:tt":"Кастамону","name:uk":"Кастамону","name:ur":"کاستامونو","name:zh":"卡斯塔莫努省","name:zza":"Qestamonu","network":"TR37-districts","old_name":"Tumana","population":"152541","population:date":"31-12-2021","type":"boundary","wikidata":"Q155915","wikipedia":"tr:Kastamonu"}}]},"id":"relation/12310863"},
{"type":"Feature","geometry":{"type":"Polygon","coordinates":[[[33.7886614,41.3807734],[33.7810975,41.3781108],[33.781634,41.3758143],[33.7870574,41.3729522],[33.789525,41.3803991],[33.7886614,41.3807734]]]},"properties":{"@id":"relation/12310866","admin_level":"8","boundary":"administrative","name":"Kırkçeşme Mahallesi","type":"boundary","@relations":[{"role":"subarea","rel":1801994,"reltags":{"admin_level":"6","alt_name":"Kastamonu","boundary":"administrative","name":"Kastamonu Merkez","name:ab":"Касҭамону","name:ar":"قسطموني","name:bg":"Кастамону","name:ce":"Кастамону","name:cv":"Кастамону","name:de":"Kastamonu","name:el":"Κασταμονή","name:en":"Kastamonu","name:fa":"قسطمونی","name:hy":"Քասթամոնու","name:ja":"カスタモヌ","name:ka":"კასთამონუ","name:ko":"카스타모누","name:os":"Кастамону","name:pt":"Castamonu","name:ru":"Кастамону","name:sr":"Кастамону","name:tg":"Кастамону","name:tr":"Kastamonu Merkez","name:tr:suffix":"İlçesi","name:tt":"Кастамону","name:uk":"Кастамону","name:ur":"کاستامونو","name:zh":"卡斯塔莫努省","name:zza":"Qestamonu","network":"TR37-districts","old_name":"Tumana","population":"152541","population:date":"31-12-2021","type":"boundary","wikidata":"Q155915","wikipedia":"tr:Kastamonu"}}]},"id":"relation/12310866"},
{"type":"Feature","geometry":{"type":"Polygon","coordinates":[[[33.7690759,41.3863077],[33.7781525,41.389294],[33.786478,41.4069836],[33.7609219,41.420662],[33.7543666,41.3882315],[33.7690759,41.3863077]]]},"properties":{"@id":"relation/12310936","admin_level":"8","boundary":"administrative","name":"Candaroğulları Mahallesi","type":"boundary","@relations":[{"role":"subarea","rel":1801994,"reltags":{"admin_level":"6","alt_name":"Kastamonu","boundary":"administrative","name":"Kastamonu Merkez","name:ab":"Касҭамону","name:ar":"قسطموني","name:bg":"Кастамону","name:ce":"Кастамону","name:cv":"Кастамону","name:de":"Kastamonu","name:el":"Κασταμονή","name:en":"Kastamonu","name:fa":"قسطمونی","name:hy":"Քասթամոնու","name:ja":"カスタモヌ","name:ka":"კასთამონუ","name:ko":"카스타모누","name:os":"Кастамону","name:pt":"Castamonu","name:ru":"Кастамону","name:sr":"Кастамону","name:tg":"Кастамону","name:tr":"Kastamonu Merkez","name:tr:suffix":"İlçesi","name:tt":"Кастамону","name:uk":"Кастамону","name:ur":"کاستامونو","name:zh":"卡斯塔莫努省","name:zza":"Qestamonu","network":"TR37-districts","old_name":"Tumana","population":"152541","population:date":"31-12-2021","type":"boundary","wikidata":"Q155915","wikipedia":"tr:Kastamonu"}}]},"id":"relation/12310936"},
{"type":"Feature","geometry":{"type":"Polygon","coordinates":[[[33.7733513,41.372296],[33.7712002,41.3729602],[33.7521841,41.3683819],[33.7742203,41.3627304],[33.7733513,41.372296]]]},"properties":{"@id":"relation/12310941","admin_level":"8","boundary":"administrative","name":"Saraçlar Mahallesi","type":"boundary","@relations":[{"role":"subarea","rel":1801994,"reltags":{"admin_level":"6","alt_name":"Kastamonu","boundary":"administrative","name":"Kastamonu Merkez","name:ab":"Касҭамону","name:ar":"قسطموني","name:bg":"Кастамону","name:ce":"Кастамону","name:cv":"Кастамону","name:de":"Kastamonu","name:el":"Κασταμονή","name:en":"Kastamonu","name:fa":"قسطمونی","name:hy":"Քասթամոնու","name:ja":"カスタモヌ","name:ka":"კასთამონუ","name:ko":"카스타모누","name:os":"Кастамону","name:pt":"Castamonu","name:ru":"Кастамону","name:sr":"Кастамону","name:tg":"Кастамону","name:tr":"Kastamonu Merkez","name:tr:suffix":"İlçesi","name:tt":"Кастамону","name:uk":"Кастамону","name:ur":"کاستامونو","name:zh":"卡斯塔莫努省","name:zza":"Qestamonu","network":"TR37-districts","old_name":"Tumana","population":"152541","population:date":"31-12-2021","type":"boundary","wikidata":"Q155915","wikipedia":"tr:Kastamonu"}}]},"id":"relation/12310941"},
{"type":"Feature","geometry":{"type":"Polygon","coordinates":[[[33.7675811,41.3757552],[33.7642975,41.3804786],[33.7557828,41.3841906],[33.7521841,41.3683819],[33.7712002,41.3729602],[33.7711841,41.3736526],[33.7675811,41.3757552]]]},"properties":{"@id":"relation/12310942","admin_level":"8","boundary":"administrative","name":"Hisarardı Mahallesi","type":"boundary","@relations":[{"role":"subarea","rel":1801994,"reltags":{"admin_level":"6","alt_name":"Kastamonu","boundary":"administrative","name":"Kastamonu Merkez","name:ab":"Касҭамону","name:ar":"قسطموني","name:bg":"Кастамону","name:ce":"Кастамону","name:cv":"Кастамону","name:de":"Kastamonu","name:el":"Κασταμονή","name:en":"Kastamonu","name:fa":"قسطمونی","name:hy":"Քասթամոնու","name:ja":"カスタモヌ","name:ka":"კასთამონუ","name:ko":"카스타모누","name:os":"Кастамону","name:pt":"Castamonu","name:ru":"Кастамону","name:sr":"Кастамону","name:tg":"Кастамону","name:tr":"Kastamonu Merkez","name:tr:suffix":"İlçesi","name:tt":"Кастамону","name:uk":"Кастамону","name:ur":"کاستامونو","name:zh":"卡斯塔莫努省","name:zza":"Qestamonu","network":"TR37-districts","old_name":"Tumana","population":"152541","population:date":"31-12-2021","type":"boundary","wikidata":"Q155915","wikipedia":"tr:Kastamonu"}}]},"id":"relation/12310942"},
{"type":"Feature","geometry":{"type":"Polygon","coordinates":[[[33.7781525,41.389294],[33.779767,41.3869605],[33.7827766,41.3858126],[33.7873149,41.4019702],[33.8104355,41.4137507],[33.8016379,41.4198092],[33.786478,41.4069836],[33.7781525,41.389294]]]},"properties":{"@id":"relation/12310965","admin_level":"8","boundary":"administrative","name":"İnönü Mahallesi","type":"boundary","@relations":[{"role":"subarea","rel":1801994,"reltags":{"admin_level":"6","alt_name":"Kastamonu","boundary":"administrative","name":"Kastamonu Merkez","name:ab":"Касҭамону","name:ar":"قسطموني","name:bg":"Кастамону","name:ce":"Кастамону","name:cv":"Кастамону","name:de":"Kastamonu","name:el":"Κασταμονή","name:en":"Kastamonu","name:fa":"قسطمونی","name:hy":"Քասթամոնու","name:ja":"カスタモヌ","name:ka":"კასთამონუ","name:ko":"카스타모누","name:os":"Кастамону","name:pt":"Castamonu","name:ru":"Кастамону","name:sr":"Кастамону","name:tg":"Кастамону","name:tr":"Kastamonu Merkez","name:tr:suffix":"İlçesi","name:tt":"Кастамону","name:uk":"Кастамону","name:ur":"کاستامونو","name:zh":"卡斯塔莫努省","name:zza":"Qestamonu","network":"TR37-districts","old_name":"Tumana","population":"152541","population:date":"31-12-2021","type":"boundary","wikidata":"Q155915","wikipedia":"tr:Kastamonu"}}]},"id":"relation/12310965"},
{"type":"Feature","geometry":{"type":"Polygon","coordinates":[[[33.7827766,41.3858126],[33.7861025,41.3865733],[33.8059616,41.3915477],[33.8104355,41.4137507],[33.7873149,41.4019702],[33.7827766,41.3858126]]]},"properties":{"@id":"relation/12310984","admin_level":"8","boundary":"administrative","name":"Mehmet Akif Ersoy Mahallesi","type":"boundary","@relations":[{"role":"subarea","rel":1801994,"reltags":{"admin_level":"6","alt_name":"Kastamonu","boundary":"administrative","name":"Kastamonu Merkez","name:ab":"Касҭамону","name:ar":"قسطموني","name:bg":"Кастамону","name:ce":"Кастамону","name:cv":"Кастамону","name:de":"Kastamonu","name:el":"Κασταμονή","name:en":"Kastamonu","name:fa":"قسطمونی","name:hy":"Քասթամոնու","name:ja":"カスタモヌ","name:ka":"კასთამონუ","name:ko":"카스타모누","name:os":"Кастамону","name:pt":"Castamonu","name:ru":"Кастамону","name:sr":"Кастамону","name:tg":"Кастамону","name:tr":"Kastamonu Merkez","name:tr:suffix":"İlçesi","name:tt":"Кастамону","name:uk":"Кастамону","name:ur":"کاستامونو","name:zh":"卡斯塔莫努省","name:zza":"Qestamonu","network":"TR37-districts","old_name":"Tumana","population":"152541","population:date":"31-12-2021","type":"boundary","wikidata":"Q155915","wikipedia":"tr:Kastamonu"}}]},"id":"relation/12310984"},
{"type":"Feature","geometry":{"type":"Polygon","coordinates":[[[33.8016379,41.4198092],[33.7991166,41.4306615],[33.7719297,41.4353992],[33.7609219,41.420662],[33.786478,41.4069836],[33.8016379,41.4198092]]]},"properties":{"@id":"relation/12310987","admin_level":"8","boundary":"administrative","name":"Kuzeykent Mahallesi","type":"boundary","@relations":[{"role":"subarea","rel":1801994,"reltags":{"admin_level":"6","alt_name":"Kastamonu","boundary":"administrative","name":"Kastamonu Merkez","name:ab":"Касҭамону","name:ar":"قسطموني","name:bg":"Кастамону","name:ce":"Кастамону","name:cv":"Кастамону","name:de":"Kastamonu","name:el":"Κασταμονή","name:en":"Kastamonu","name:fa":"قسطمونی","name:hy":"Քասթամոնու","name:ja":"カスタモヌ","name:ka":"კასთამონუ","name:ko":"카스타모누","name:os":"Кастамону","name:pt":"Castamonu","name:ru":"Кастамону","name:sr":"Кастамону","name:tg":"Кастамону","name:tr":"Kastamonu Merkez","name:tr:suffix":"İlçesi","name:tt":"Кастамону","name:uk":"Кастамону","name:ur":"کاستامونو","name:zh":"卡斯塔莫努省","name:zza":"Qestamonu","network":"TR37-districts","old_name":"Tumana","population":"152541","population:date":"31-12-2021","type":"boundary","wikidata":"Q155915","wikipedia":"tr:Kastamonu"}}]},"id":"relation/12310987"},
{"type":"Feature","geometry":{"type":"Polygon","coordinates":[[[33.570024,41.9917427],[33.5565545,41.9958021],[33.55048,41.98472],[33.570024,41.9917427]]]},"properties":{"@id":"relation/13764055","admin_level":"8","alt_name":"Köroğlu Köyü","boundary":"administrative","name":"Köroğlu","type":"boundary","wikidata":"Q6596431","wikipedia":"tr:Köroğlu, İnebolu","@relations":[{"role":"subarea","rel":1802000,"reltags":{"admin_level":"6","boundary":"administrative","name":"İnebolu","name:ar":"اني بولو","name:ce":"Инеболу","name:de":"İnebolu","name:en":"İnebolu","name:fa":"اینه‌بولو","name:tr":"İnebolu","name:tr:suffix":"İlçesi","name:tt":"Инеболу","name:ur":"انےبولو","name:zh":"伊內博盧","network":"TR37-districts","population":"20675","population:date":"31-12-2021","type":"boundary","wikidata":"Q282654","wikipedia":"tr:İnebolu"}}]},"id":"relation/13764055"},
{"type":"Feature","geometry":{"type":"Polygon","coordinates":[[[33.9881115,41.9673916],[34.0013576,41.9617523],[34.0074499,41.9663061],[33.9982775,41.9802442],[33.974834,41.9798291],[33.9881115,41.9673916]]]},"properties":{"@id":"relation/14165507","admin_level":"8","boundary":"administrative","name":"Konakören Mahallesi","type":"boundary"},"id":"relation/14165507"},
{"type":"Feature","geometry":{"type":"Polygon","coordinates":[[[34.0429412,41.9762446],[34.05012,41.97268],[34.0616831,41.9796428],[34.0479783,41.9807036],[34.0429412,41.9762446]]]},"properties":{"@id":"relation/14166342","admin_level":"8","boundary":"administrative","name":"Hacıveli Mahallesi","type":"boundary"},"id":"relation/14166342"},
{"type":"Feature","geometry":{"type":"Polygon","coordinates":[[[34.0479783,41.9807036],[33.9982775,41.9802442],[34.0074499,41.9663061],[34.0099551,41.9684958],[34.0271667,41.972933],[34.0429412,41.9762446],[34.0479783,41.9807036]]]},"properties":{"@id":"relation/14166352","admin_level":"8","boundary":"administrative","name":"Abana Merkez Mahallesi","type":"boundary"},"id":"relation/14166352"},
{"type":"Feature","geometry":{"type":"Polygon","coordinates":[[[34.0271667,41.972933],[34.0245168,41.9657537],[34.03083,41.96567],[34.05101,41.96452],[34.05012,41.97268],[34.0429412,41.9762446],[34.0271667,41.972933]]]},"properties":{"@id":"relation/14166353","admin_level":"8","boundary":"administrative","name":"Çayırcık Mahallesi","type":"boundary"},"id":"relation/14166353"},
{"type":"Feature","geometry":{"type":"Polygon","coordinates":[[[34.0271667,41.972933],[34.0099551,41.9684958],[34.0245168,41.9657537],[34.0271667,41.972933]]]},"properties":{"@id":"relation/14166368","admin_level":"8","boundary":"administrative","name":"Bağlık Mahallesi","type":"boundary"},"id":"relation/14166368"},
{"type":"Feature","geometry":{"type":"Polygon","coordinates":[[[34.0099551,41.9684958],[34.0074499,41.9663061],[34.0013576,41.9617523],[33.9864158,41.9567294],[33.9845612,41.940127],[34.0014191,41.9368585],[34.0221449,41.9446235],[34.03146,41.95012],[34.03083,41.96567],[34.0245168,41.9657537],[34.0099551,41.9684958]]]},"properties":{"@id":"relation/14168016","admin_level":"8","boundary":"administrative","name":"Bozkurt Merkez Mahallesi","type":"boundary"},"id":"relation/14168016"},
{"type":"Feature","geometry":{"type":"Polygon","coordinates":[[[34.025216,41.9427215],[34.03146,41.95012],[34.0221449,41.9446235],[34.025216,41.9427215]]]},"properties":{"@id":"relation/14168017","admin_level":"8","boundary":"administrative","name":"Yeni Mahallesi","type":"boundary"},"id":"relation/14168017"},
{"type":"Feature","geometry":{"type":"Polygon","coordinates":[[[33.9971104,41.9262946],[34.0197812,41.9276558],[34.025216,41.9427215],[34.0221449,41.9446235],[34.0014191,41.9368585],[33.9971104,41.9262946]]]},"properties":{"@id":"relation/14168018","admin_level":"8","boundary":"administrative","name":"Yüksek Mahallesi","type":"boundary"},"id":"relation/14168018"},
{"type":"Feature","geometry":{"type":"Polygon","coordinates":[[[34.0014191,41.9368585],[33.9845612,41.940127],[33.9971104,41.9262946],[34.0014191,41.9368585]]]},"properties":{"@id":"relation/14168019","admin_level":"8","boundary":"administrative","name":"Şen Mahallesi","type":"boundary"},"id":"relation/14168019"},
{"type":"Feature","geometry":{"type":"Polygon","coordinates":[[[33.9881115,41.9673916],[33.9864158,41.9567294],[34.0013576,41.9617523],[33.9881115,41.9673916]]]},"properties":{"@id":"relation/14168020","admin_level":"8","boundary":"administrative","name":"Hamza Mahallesi","type":"boundary"},"id":"relation/14168020"},
{"type":"Feature","geometry":{"type":"Polygon","coordinates":[[[33.7617826,41.9748708],[33.759975,41.9795833],[33.7585265,41.9793792],[33.7589907,41.9773051],[33.7516243,41.9654922],[33.7582441,41.9648115],[33.7597139,41.9659358],[33.7617826,41.9748708]]]},"properties":{"@id":"relation/14175211","admin_level":"8","boundary":"administrative","name":"Aşağıhatipbağı Mahallesi","type":"boundary"},"id":"relation/14175211"},
{"type":"Feature","geometry":{"type":"Polygon","coordinates":[[[33.7634075,41.9647387],[33.7582441,41.9648115],[33.7516243,41.9654922],[33.7505775,41.9548344],[33.7752899,41.9513606],[33.7634075,41.9647387]]]},"properties":{"@id":"relation/14175267","admin_level":"8","boundary":"administrative","name":"Yeşilöz Mahallesi","type":"boundary"},"id":"relation/14175267"},
{"type":"Feature","geometry":{"type":"Polygon","coordinates":[[[33.7673027,41.9731816],[33.7597139,41.9659358],[33.7582441,41.9648115],[33.7634075,41.9647387],[33.7768575,41.9657531],[33.7774869,41.9676961],[33.7673027,41.9731816]]]},"properties":{"@id":"relation/14175280","admin_level":"8","boundary":"administrative","name":"Karaca Mahallesi","type":"boundary"},"id":"relation/14175280"},
{"type":"Feature","geometry":{"type":"Polygon","coordinates":[[[33.7711373,41.9764651],[33.759975,41.9795833],[33.7617826,41.9748708],[33.7673027,41.9731816],[33.7711373,41.9764651]]]},"properties":{"@id":"relation/14175281","admin_level":"8","boundary":"administrative","name":"Camikebir Mahallesi","type":"boundary"},"id":"relation/14175281"},
{"type":"Feature","geometry":{"type":"Polygon","coordinates":[[[33.7848073,41.9732857],[33.7711373,41.9764651],[33.7673027,41.9731816],[33.7774869,41.9676961],[33.7848073,41.9732857]]]},"properties":{"@id":"relation/14176492","admin_level":"8","boundary":"administrative","name":"Karadeniz Mahallesi","type":"boundary"},"id":"relation/14176492"},
{"type":"Feature","geometry":{"type":"Polygon","coordinates":[[[33.7910738,41.9732768],[33.7848073,41.9732857],[33.7774869,41.9676961],[33.7768575,41.9657531],[33.7966938,41.9640466],[33.7936562,41.9680713],[33.7910738,41.9732768]]]},"properties":{"@id":"relation/14176493","admin_level":"8","boundary":"administrative","name":"Yeni Mahallesi","type":"boundary"},"id":"relation/14176493"},
{"type":"Feature","geometry":{"type":"Polygon","coordinates":[[[33.8231135,41.9741025],[33.7910738,41.9732768],[33.7936562,41.9680713],[33.8231135,41.9741025]]]},"properties":{"@id":"relation/14176503","admin_level":"8","boundary":"administrative","name":"Yakaboyu Mahallesi","type":"boundary"},"id":"relation/14176503"},
{"type":"Feature","geometry":{"type":"Polygon","coordinates":[[[33.7752899,41.9513606],[33.7966938,41.9640466],[33.7768575,41.9657531],[33.7634075,41.9647387],[33.7752899,41.9513606]]]},"properties":{"@id":"relation/14176504","admin_level":"8","boundary":"administrative","name":"Çamlıca Mahallesi","type":"boundary"},"id":"relation/14176504"},
{"type":"Feature","geometry":{"type":"Polygon","coordinates":[[[33.7597139,41.9659358],[33.7673027,41.9731816],[33.7617826,41.9748708],[33.7597139,41.9659358]]]},"properties":{"@id":"relation/14176546","admin_level":"8","boundary":"administrative","name":"Yukarıhatipbağı Mahallesi","type":"boundary"},"id":"relation/14176546"},
{"type":"Feature","geometry":{"type":"Polygon","coordinates":[[[33.7497717,41.9693313],[33.7516243,41.9654922],[33.7589907,41.9773051],[33.7476599,41.9761953],[33.7497717,41.9693313]]]},"properties":{"@id":"relation/14177548","admin_level":"8","boundary":"administrative","name":"Avara Mahallesi","type":"boundary"},"id":"relation/14177548"},
{"type":"Feature","geometry":{"type":"Polygon","coordinates":[[[33.747046,41.9776128],[33.7476599,41.9761953],[33.7589907,41.9773051],[33.7585265,41.9793792],[33.747046,41.9776128]]]},"properties":{"@id":"relation/14177558","admin_level":"8","boundary":"administrative","name":"Boyran Mahallesi","type":"boundary"},"id":"relation/14177558"},
{"type":"Feature","geometry":{"type":"Polygon","coordinates":[[[33.7281942,41.9784714],[33.7134461,41.9707556],[33.7442874,41.9680162],[33.7497717,41.9693313],[33.7476599,41.9761953],[33.747046,41.9776128],[33.7281942,41.9784714]]]},"properties":{"@id":"relation/14179693","admin_level":"8","boundary":"administrative","name":"Cünüriye Mahallesi","type":"boundary"},"id":"relation/14179693"},
{"type":"Feature","geometry":{"type":"Polygon","coordinates":[[[33.7134461,41.9707556],[33.7281942,41.9784714],[33.7250253,41.9786878],[33.7134461,41.9707556]]]},"properties":{"@id":"relation/14179705","admin_level":"8","boundary":"administrative","name":"Kızılkara Mahallesi","type":"boundary"},"id":"relation/14179705"},
{"type":"Feature","geometry":{"type":"Polygon","coordinates":[[[33.7497717,41.9693313],[33.7442874,41.9680162],[33.7505775,41.9548344],[33.7516243,41.9654922],[33.7497717,41.9693313]]]},"properties":{"@id":"relation/14179764","admin_level":"8","boundary":"administrative","name":"Musa Mahallesi","type":"boundary"},"id":"relation/14179764"}
]}