{"type":"FeatureCollection", "features": [
{"type":"Feature","geometry":{"type":"Polygon","coordinates":[[[36.991779,36.8295771],[36.9931927,36.8123158],[37.0148857,36.8047764],[37.0339853,36.8019325],[37.0818046,36.8035788],[37.0983555,36.8008109],[37.1422466,36.7870538],[37.1517791,36.7830268],[37.1600545,36.7837819],[37.1782814,36.7932616],[37.1916897,36.799385],[37.2107546,36.8029078],[37.216097,36.8046692],[37.2219631,36.8044175],[37.2370474,36.7918355],[37.241447,36.7894866],[37.2437515,36.792926],[37.2506652,36.7953587],[37.2531792,36.8002238],[37.2530745,36.8152365],[37.2414292,36.8210368],[37.2437265,36.8275974],[37.2518175,36.843325],[37.2585216,36.8488576],[37.266797,36.8542222],[37.2788092,36.8565007],[37.2729742,36.8680598],[37.2732961,36.8699567],[37.2584259,36.8740679],[37.257632,36.8779128],[37.2490704,36.8809079],[37.2481799,36.8899355],[37.2387171,36.886443],[37.2255528,36.8882965],[37.2185469,36.8747888],[37.2090626,36.8829418],[37.1976471,36.8879189],[37.1941388,36.89154],[37.1851909,36.8949722],[37.1753204,36.9003433],[37.1744406,36.8977007],[37.167424,36.8971258],[37.154721,36.8884595],[37.1474898,36.8978037],[37.1406984,36.9032088],[37.1255064,36.9068549],[37.1170843,36.9061944],[37.1099496,36.9034233],[37.0990813,36.9008152],[37.0892128,36.9050613],[37.0731354,36.8896875],[37.0615839,36.8820817],[37.0519325,36.8816731],[37.0442759,36.8789339],[37.0391866,36.8787873],[37.0409243,36.8747906],[37.0365525,36.873569],[37.0365952,36.8659747],[37.0326089,36.8605194],[37.0282801,36.8574035],[37.0338597,36.854987],[37.0208371,36.8511665],[37.0187786,36.843871],[37.0123805,36.8431444],[37.0071037,36.8394085],[36.995189,36.8345645],[36.991779,36.8295771]]]},"properties":{"@id":"relation/1240867","admin_level":"6","boundary":"administrative","name":"Polateli","name:ce":"Полатели","name:de":"Polateli","name:en":"Polateli","name:ku":"Spenaq","name:ru":"Полатели","name:tr":"Polateli","name:tr:suffix":"İlçesi","name:tt":"Полатэли","name:ur":"پقلاتیلی","network":"TR79-districts","old_name":"Güldüzü;Ispanak","type":"boundary","wikidata":"Q1018509","wikipedia":"tr:Polateli"},"id":"relation/1240867"},
{"type":"Feature","geometry":{"type":"Polygon","coordinates":[[[37.3592889,36.7307],[37.356348,36.7370786],[37.3573512,36.7428304],[37.3544329,36.7433505],[37.3528397,36.74991],[37.34265,36.7486978],[37.3360276,36.7521236],[37.3273051,36.7530519],[37.304678,36.757496],[37.2997588,36.7588627],[37.299689,36.7727132],[37.3051286,36.7766878],[37.2959822,36.7802025],[37.2929406,36.7826815],[37.2821367,36.7871282],[37.2826409,36.7929064],[37.2802055,36.7940748],[37.2828019,36.8020989],[37.2893625,36.808168],[37.2950917,36.8070771],[37.3049676,36.8225377],[37.3086154,36.8258442],[37.3120487,36.8257154],[37.315278,36.8343029],[37.3118985,36.8434819],[37.3070061,36.8450188],[37.2928226,36.8448986],[37.2864604,36.8427092],[37.2840142,36.8550379],[37.2788092,36.8565007],[37.266797,36.8542222],[37.2585216,36.8488576],[37.2518175,36.843325],[37.2437265,36.8275974],[37.2414292,36.8210368],[37.2530745,36.8152365],[37.2531792,36.8002238],[37.2506652,36.7953587],[37.2437515,36.792926],[37.241447,36.7894866],[37.2370474,36.7918355],[37.2219631,36.8044175],[37.216097,36.8046692],[37.2107546,36.8029078],[37.1916897,36.799385],[37.1782814,36.7932616],[37.1600545,36.7837819],[37.1517791,36.7830268],[37.1422466,36.7870538],[37.0983555,36.8008109],[37.0818046,36.8035788],[37.0339853,36.8019325],[37.0148857,36.8047764],[36.9931927,36.8123158],[36.991779,36.8295771],[36.9895881,36.8393654],[36.9493225,36.8417472],[36.9428181,36.8354707],[36.9234663,36.8329487],[36.9149523,36.832527],[36.9129394,36.8269161],[36.9033827,36.8264877],[36.8859613,36.8298061],[36.8839079,36.8333356],[36.8689586,36.8280124],[36.8655287,36.8309377],[36.8576519,36.82986],[36.8495538,36.8360607],[36.8464427,36.8365417],[36.8387005,36.8414717],[36.839744,36.8451623],[36.8342908,36.8511081],[36.828531,36.8507223],[36.827053,36.8476762],[36.8144339,36.8489547],[36.8023415,36.8489547],[36.7947203,36.8504455],[36.7893008,36.8528848],[36.7855748,36.8574923],[36.7818489,36.8669775],[36.7737196,36.876055],[36.7646977,36.8795787],[36.7602356,36.8802029],[36.7554534,36.8758375],[36.7465103,36.8705103],[36.7379379,36.8715231],[36.7302239,36.8710038],[36.7252994,36.8673088],[36.7285716,36.8637251],[36.7304706,36.8544541],[36.7300415,36.8513549],[36.7252242,36.8492086],[36.7210936,36.8494834],[36.7181432,36.8456971],[36.7210615,36.8440057],[36.7240655,36.8357627],[36.719892,36.8336589],[36.7177174,36.8270786],[36.7236985,36.8258692],[36.7279949,36.8212632],[36.7392896,36.8184005],[36.7470908,36.8202668],[36.7517872,36.8192205],[36.7630063,36.8099482],[36.7675306,36.8083553],[36.7883898,36.7970917],[36.7941144,36.7969506],[36.7996847,36.7935312],[36.8122477,36.7924615],[36.8202562,36.7900632],[36.8248428,36.7916892],[36.8324949,36.7913517],[36.8526518,36.786204],[36.8713846,36.7808566],[36.8756109,36.7806433],[36.8844646,36.777231],[36.8898284,36.7785497],[36.8974135,36.7771425],[36.9033646,36.7777387],[36.9173503,36.7847928],[36.9227191,36.7853785],[36.9311976,36.7801583],[36.9354257,36.7737758],[36.9414544,36.773348],[36.9465924,36.7755981],[36.955478,36.7698438],[36.9617225,36.7677795],[36.9702265,36.7633369],[36.9849211,36.7618023],[36.9951416,36.7648481],[36.9984367,36.7619957],[36.9960106,36.758622],[36.9973418,36.7537382],[37.0000454,36.7509039],[36.9986882,36.7473815],[36.993873,36.7445934],[36.9962295,36.7384996],[37.0037856,36.7366483],[37.0155004,36.7358643],[37.0221527,36.7368744],[37.0295847,36.7362485],[37.0374771,36.7352155],[37.0413741,36.7276197],[37.0462832,36.7242457],[37.0478385,36.7203611],[37.0466662,36.715539],[37.0434165,36.711634],[37.0397647,36.7032997],[37.0315833,36.6990365],[37.0207729,36.6986493],[37.0174344,36.6955139],[37.013864,36.6863294],[37.0195851,36.6820537],[37.0207753,36.6650211],[37.0348112,36.6647325],[37.036096,36.664046],[37.0483986,36.6579531],[37.0575111,36.6541931],[37.0571179,36.6454212],[37.0856366,36.6344097],[37.0997517,36.6484476],[37.1064736,36.6714085],[37.1144577,36.6714858],[37.1207761,36.6662579],[37.1241342,36.6653818],[37.1346233,36.6713662],[37.1413469,36.6765725],[37.1467761,36.6701929],[37.1549631,36.661055],[37.1589939,36.6605824],[37.1618813,36.6557409],[37.1767015,36.660214],[37.1865711,36.663067],[37.2049058,36.6704352],[37.2173635,36.6744786],[37.2238545,36.6722559],[37.2374415,36.6715862],[37.2404353,36.6701674],[37.2554921,36.6692602],[37.2652367,36.6671663],[37.2776232,36.6632361],[37.2794225,36.6698848],[37.2913079,36.668134],[37.2911412,36.6658304],[37.2961307,36.6635956],[37.3034978,36.66583],[37.3189701,36.6630626],[37.3200219,36.6658959],[37.3179495,36.6705617],[37.3187971,36.6848196],[37.3229579,36.6997022],[37.3356628,36.7047262],[37.3422687,36.7059406],[37.3570429,36.7056644],[37.3569,36.7089],[37.3684,36.7079],[37.3685,36.72],[37.3631,36.7228],[37.3592889,36.7307]]]},"properties":{"@id":"relation/1240868","admin_level":"6","boundary":"administrative","name":"Kilis Merkez","name:ar":"مركز كلس","name:de":"Kilis","name:el":"Κιλίς","name:en":"Kilis","name:es":"Kilis","name:fa":"کیلیس","name:fr":"Kilis","name:hy":"Քիլիս","name:ka":"ქილისი","name:ku":"Kilîs","name:ru":"Килис","name:tr":"Kilis Merkez","name:tr:suffix":"İlçesi","name:uk":"Кіліс","name:ur":"کیلیس","name:zh":"基利斯","network":"TR79-districts","type":"boundary","wikidata":"Q206881","wikipedia":"tr:Kilis"},"id":"relation/1240868"},
{"type":"Feature","geometry":{"type":"Polygon","coordinates":[[[37.3592889,36.7307],[37.3631,36.7228],[37.3685,36.72],[37.3684,36.7079],[37.3569,36.7089],[37.3570429,36.7056644],[37.3422687,36.7059406],[37.3356628,36.7047262],[37.3229579,36.6997022],[37.3187971,36.6848196],[37.3179495,36.6705617],[37.3200219,36.6658959],[37.3189701,36.6630626],[37.3255461,36.6614642],[37.3450776,36.6583912],[37.3717281,36.6533189],[37.3927028,36.6488826],[37.4062529,36.6437753],[37.4253707,36.6424401],[37.4428955,36.6324823],[37.4524065,36.6322275],[37.4584935,36.6339515],[37.4705103,36.6339871],[37.4740849,36.6330498],[37.4871103,36.6495826],[37.4881256,36.6531571],[37.4883704,36.6658316],[37.4910545,36.6702914],[37.4966814,36.6743544],[37.5246953,36.6875515],[37.5612237,36.7008387],[37.5685848,36.7039154],[37.5670194,36.7125189],[37.5651215,36.7160924],[37.5627441,36.7291691],[37.5538444,36.7297184],[37.5539303,36.7339832],[37.5492954,36.7347829],[37.5422573,36.7398815],[37.5363028,36.7419535],[37.5324833,36.739443],[37.5239217,36.7377836],[37.5121522,36.7410335],[37.5071847,36.7450915],[37.4965095,36.7516164],[37.495265,36.7541179],[37.4975288,36.7636589],[37.4888384,36.776894],[37.4802232,36.7833389],[37.4697518,36.7853496],[37.4659538,36.7888639],[37.4573922,36.7929021],[37.454431,36.7957115],[37.4532401,36.8052044],[37.4482512,36.8090871],[37.4461913,36.8164999],[37.44367,36.8153661],[37.4292719,36.8155637],[37.4180603,36.8117156],[37.41364,36.8112861],[37.404778,36.8069139],[37.3955297,36.8050584],[37.380681,36.804122],[37.3818397,36.7944228],[37.3865497,36.7838716],[37.3825854,36.7758585],[37.391088,36.7710244],[37.3990059,36.7708955],[37.4011516,36.7661084],[37.3972571,36.7597739],[37.384361,36.7491234],[37.3885667,36.7355481],[37.3915923,36.7283941],[37.3832774,36.7276804],[37.3704135,36.7247137],[37.3667765,36.7282222],[37.36521,36.7325387],[37.3592889,36.7307]]]},"properties":{"@id":"relation/1240869","admin_level":"6","boundary":"administrative","name":"Elbeyli","name:ce":"Элбейли","name:de":"Elbeyli","name:en":"Elbeyli","name:ku":"Eliyê Mentarê","name:ru":"Элбейли","name:tr":"Elbeyli","name:tr:suffix":"İlçesi","name:ur":"ال بےلی","name:zh":"埃尔贝伊利","network":"TR79-districts","type":"boundary","wikidata":"Q1018515","wikipedia":"tr:Elbeyli"},"id":"relation/1240869"},
{"type":"Feature","geometry":{"type":"Polygon","coordinates":[[[37.0892128,36.9050613],[37.0895112,36.9067134],[37.0816147,36.9097889],[37.081899,36.915472],[37.070092,36.9197008],[37.0646149,36.91859],[37.0608115,36.9239894],[37.0624369,36.9289425],[37.0687079,36.9305977],[37.0685041,36.934354],[37.062614,36.9364722],[37.0629653,36.941195],[37.0612031,36.94676],[37.070269,36.9515466],[37.0703494,36.9569308],[37.0640355,36.9650578],[37.060672,36.9675866],[37.0526147,36.9684053],[37.0508337,36.9759997],[37.0552325,36.9790723],[37.0576948,36.9849003],[37.0632416,36.9886453],[37.065559,36.9939241],[37.0617127,36.9971845],[37.0528722,36.996966],[37.0493853,36.9934785],[37.038179,36.9899093],[37.023443,36.9893909],[37.0170057,36.9958607],[37.0178318,37.0005906],[37.0106113,37.0045919],[37.0059013,37.0128252],[37.0029509,37.0204494],[36.9997644,37.0217686],[37.0031655,37.0303084],[37.0067811,37.0354472],[37.0021237,37.0374413],[36.9882635,37.0382284],[36.9602072,37.0211261],[36.9568598,37.0135277],[36.9500792,37.0078733],[36.9513023,37.0024584],[36.9453585,37.0009076],[36.9387174,36.9929215],[36.9381326,36.9884611],[36.9314217,36.9831005],[36.9264543,36.9742211],[36.9282675,36.9675009],[36.9273984,36.9641491],[36.9177854,36.9532185],[36.9176888,36.9499089],[36.9121742,36.9471909],[36.9113481,36.9434695],[36.8953299,36.9392421],[36.8870366,36.9302118],[36.8815327,36.9262408],[36.8890428,36.9128256],[36.8820155,36.9061429],[36.8842256,36.9045214],[36.8808836,36.898919],[36.8818009,36.8937109],[36.8682826,36.8939941],[36.8670648,36.8970915],[36.8584228,36.8946633],[36.8536913,36.9032045],[36.8448776,36.9037493],[36.8407363,36.9058984],[36.8381882,36.9100334],[36.8322444,36.9112901],[36.8323195,36.9148201],[36.8375283,36.9175564],[36.8323517,36.9197351],[36.8278885,36.9197265],[36.8143272,36.9245984],[36.803475,36.9194392],[36.794613,36.9189117],[36.7940605,36.913692],[36.7911744,36.9115174],[36.7898574,36.9062759],[36.7769694,36.8964309],[36.7684883,36.8946119],[36.7665678,36.8898968],[36.7581028,36.8828173],[36.752513,36.8813756],[36.7475241,36.8774622],[36.7436457,36.8725831],[36.7465103,36.8705103],[36.7554534,36.8758375],[36.7602356,36.8802029],[36.7646977,36.8795787],[36.7737196,36.876055],[36.7818489,36.8669775],[36.7855748,36.8574923],[36.7893008,36.8528848],[36.7947203,36.8504455],[36.8023415,36.8489547],[36.8144339,36.8489547],[36.827053,36.8476762],[36.828531,36.8507223],[36.8342908,36.8511081],[36.839744,36.8451623],[36.8387005,36.8414717],[36.8464427,36.8365417],[36.8495538,36.8360607],[36.8576519,36.82986],[36.8655287,36.8309377],[36.8689586,36.8280124],[36.8839079,36.8333356],[36.8859613,36.8298061],[36.9033827,36.8264877],[36.9129394,36.8269161],[36.9149523,36.832527],[36.9234663,36.8329487],[36.9428181,36.8354707],[36.9493225,36.8417472],[36.9895881,36.8393654],[36.991779,36.8295771],[36.995189,36.8345645],[37.0071037,36.8394085],[37.0123805,36.8431444],[37.0187786,36.843871],[37.0208371,36.8511665],[37.0338597,36.854987],[37.0282801,36.8574035],[37.0326089,36.8605194],[37.0365952,36.8659747],[37.0365525,36.873569],[37.0409243,36.8747906],[37.0391866,36.8787873],[37.0442759,36.8789339],[37.0519325,36.8816731],[37.0615839,36.8820817],[37.0731354,36.8896875],[37.0892128,36.9050613]]]},"properties":{"@id":"relation/1240870","admin_level":"6","boundary":"administrative","name":"Musabeyli","name:ce":"Мусабейли","name:de":"Musabeyli","name:en":"Musabeyli","name:fa":"موسی بی‌لی","name:ku":"Girê Murad","name:tr":"Musabeyli","name:tr:suffix":"İlçesi","name:tt":"Мусабейли","name:ur":"موسی بےلی","network":"TR79-districts","type":"boundary","wikidata":"Q1018542","wikipedia":"tr:Musabeyli"},"id":"relation/1240870"},
{"type":"Feature","geometry":{"type":"Polygon","coordinates":[[[37.1106148,36.7041241],[37.0894468,36.6531166],[37.0860779,36.6458172],[37.0872474,36.6379231],[37.0856366,36.6344097],[37.0997517,36.6484476],[37.1064736,36.6714085],[37.1056795,36.6749245],[37.1170091,36.6755613],[37.1217727,36.6718267],[37.1197986,36.6828923],[37.115829,36.694937],[37.1157163,36.7031822],[37.121762,36.7026919],[37.1169549,36.7091974],[37.1160013,36.7103764],[37.1159411,36.7112992],[37.113592,36.7111083],[37.1116984,36.7084592],[37.1106148,36.7041241]]]},"properties":{"@id":"relation/13645820","admin_level":"8","boundary":"administrative","name":"Ebulüla Mahallesi","type":"boundary","@relations":[{"role":"subarea","rel":1240868,"reltags":{"admin_level":"6","boundary":"administrative","name":"Kilis Merkez","name:ar":"مركز كلس","name:de":"Kilis","name:el":"Κιλίς","name:en":"Kilis","name:es":"Kilis","name:fa":"کیلیس","name:fr":"Kilis","name:hy":"Քիլիս","name:ka":"ქილისი","name:ku":"Kilîs","name:ru":"Килис","name:tr":"Kilis Merkez","name:tr:suffix":"İlçesi","name:uk":"Кіліс","name:ur":"کیلیس","name:zh":"基利斯","network":"TR79-districts","type":"boundary","wikidata":"Q206881","wikipedia":"tr:Kilis"}}]},"id":"relation/13645820"},
{"type":"Feature","geometry":{"type":"Polygon","coordinates":[[[37.1811453,36.6798585],[37.1703422,36.6850691],[37.1682608,36.6834429],[37.1707606,36.6782029],[37.1716833,36.6715513],[37.1754169,36.6665171],[37.1767015,36.660214],[37.1865711,36.663067],[37.2049058,36.6704352],[37.2034085,36.6746922],[37.1946752,36.6722483],[37.1870685,36.6777469],[37.1811453,36.6798585]]]},"properties":{"@id":"relation/13646128","admin_level":"8","boundary":"administrative","name":"Arpakesmez Köyü","type":"boundary","@relations":[{"role":"subarea","rel":1240868,"reltags":{"admin_level":"6","boundary":"administrative","name":"Kilis Merkez","name:ar":"مركز كلس","name:de":"Kilis","name:el":"Κιλίς","name:en":"Kilis","name:es":"Kilis","name:fa":"کیلیس","name:fr":"Kilis","name:hy":"Քիլիս","name:ka":"ქილისი","name:ku":"Kilîs","name:ru":"Килис","name:tr":"Kilis Merkez","name:tr:suffix":"İlçesi","name:uk":"Кіліс","name:ur":"کیلیس","name:zh":"基利斯","network":"TR79-districts","type":"boundary","wikidata":"Q206881","wikipedia":"tr:Kilis"}}]},"id":"relation/13646128"},
{"type":"Feature","geometry":{"type":"Polygon","coordinates":[[[37.1467761,36.6701929],[37.1549631,36.661055],[37.1589939,36.6605824],[37.1618813,36.6557409],[37.1767015,36.660214],[37.1754169,36.6665171],[37.1716833,36.6715513],[37.1707606,36.6782029],[37.161802,36.6753204],[37.1612978,36.6785729],[37.155987,36.6800099],[37.1539485,36.6695979],[37.1467761,36.6701929]]]},"properties":{"@id":"relation/13646129","admin_level":"8","boundary":"administrative","name":"İnanlı Köyü","type":"boundary","@relations":[{"role":"subarea","rel":1240868,"reltags":{"admin_level":"6","boundary":"administrative","name":"Kilis Merkez","name:ar":"مركز كلس","name:de":"Kilis","name:el":"Κιλίς","name:en":"Kilis","name:es":"Kilis","name:fa":"کیلیس","name:fr":"Kilis","name:hy":"Քիլիս","name:ka":"ქილისი","name:ku":"Kilîs","name:ru":"Килис","name:tr":"Kilis Merkez","name:tr:suffix":"İlçesi","name:uk":"Кіліс","name:ur":"کیلیس","name:zh":"基利斯","network":"TR79-districts","type":"boundary","wikidata":"Q206881","wikipedia":"tr:Kilis"}}]},"id":"relation/13646129"},
{"type":"Feature","geometry":{"type":"Polygon","coordinates":[[[37.1467761,36.6701929],[37.1539485,36.6695979],[37.155987,36.6800099],[37.1529293,36.6826686],[37.1425223,36.6889321],[37.1398294,36.6916593],[37.1338427,36.6940509],[37.1262038,36.6997801],[37.1237898,36.7040811],[37.1225184,36.7131058],[37.1211322,36.712242],[37.1192257,36.7111504],[37.1178621,36.7107428],[37.1169549,36.7091974],[37.121762,36.7026919],[37.1157163,36.7031822],[37.115829,36.694937],[37.1197986,36.6828923],[37.1217727,36.6718267],[37.1170091,36.6755613],[37.1056795,36.6749245],[37.1064736,36.6714085],[37.1144577,36.6714858],[37.1207761,36.6662579],[37.1241342,36.6653818],[37.1346233,36.6713662],[37.1413469,36.6765725],[37.1467761,36.6701929]]]},"properties":{"@id":"relation/13646130","admin_level":"8","boundary":"administrative","name":"Yavuz Sultan Selim Mahallesi","type":"boundary","@relations":[{"role":"subarea","rel":1240868,"reltags":{"admin_level":"6","boundary":"administrative","name":"Kilis Merkez","name:ar":"مركز كلس","name:de":"Kilis","name:el":"Κιλίς","name:en":"Kilis","name:es":"Kilis","name:fa":"کیلیس","name:fr":"Kilis","name:hy":"Քիլիս","name:ka":"ქილისი","name:ku":"Kilîs","name:ru":"Килис","name:tr":"Kilis Merkez","name:tr:suffix":"İlçesi","name:uk":"Кіліс","name:ur":"کیلیس","name:zh":"基利斯","network":"TR79-districts","type":"boundary","wikidata":"Q206881","wikipedia":"tr:Kilis"}}]},"id":"relation/13646130"},
{"type":"Feature","geometry":{"type":"Polygon","coordinates":[[[37.1160013,36.7103764],[37.1169549,36.7091974],[37.1178621,36.7107428],[37.1170207,36.7109207],[37.1160013,36.7103764]]]},"properties":{"@id":"relation/13646131","admin_level":"8","boundary":"administrative","name":"Mullahamit Mahallesi","type":"boundary","@relations":[{"role":"subarea","rel":1240868,"reltags":{"admin_level":"6","boundary":"administrative","name":"Kilis Merkez","name:ar":"مركز كلس","name:de":"Kilis","name:el":"Κιλίς","name:en":"Kilis","name:es":"Kilis","name:fa":"کیلیس","name:fr":"Kilis","name:hy":"Քիլիս","name:ka":"ქილისი","name:ku":"Kilîs","name:ru":"Килис","name:tr":"Kilis Merkez","name:tr:suffix":"İlçesi","name:uk":"Кіліс","name:ur":"کیلیس","name:zh":"基利斯","network":"TR79-districts","type":"boundary","wikidata":"Q206881","wikipedia":"tr:Kilis"}}]},"id":"relation/13646131"},
{"type":"Feature","geometry":{"type":"Polygon","coordinates":[[[37.1106148,36.7041241],[37.1116984,36.7084592],[37.1095332,36.7115671],[37.1082774,36.7127187],[37.1075056,36.7128784],[37.102375,36.7107471],[37.1049285,36.7063261],[37.1106148,36.7041241]]]},"properties":{"@id":"relation/13646132","admin_level":"8","boundary":"administrative","name":"Kazım Karabekir Mahallesi","type":"boundary","@relations":[{"role":"subarea","rel":1240868,"reltags":{"admin_level":"6","boundary":"administrative","name":"Kilis Merkez","name:ar":"مركز كلس","name:de":"Kilis","name:el":"Κιλίς","name:en":"Kilis","name:es":"Kilis","name:fa":"کیلیس","name:fr":"Kilis","name:hy":"Քիլիս","name:ka":"ქილისი","name:ku":"Kilîs","name:ru":"Килис","name:tr":"Kilis Merkez","name:tr:suffix":"İlçesi","name:uk":"Кіліс","name:ur":"کیلیس","name:zh":"基利斯","network":"TR79-districts","type":"boundary","wikidata":"Q206881","wikipedia":"tr:Kilis"}}]},"id":"relation/13646132"},
{"type":"Feature","geometry":{"type":"Polygon","coordinates":[[[37.0397647,36.7032997],[37.0315833,36.6990365],[37.0207729,36.6986493],[37.0174344,36.6955139],[37.013864,36.6863294],[37.0195851,36.6820537],[37.0207753,36.6650211],[37.0348112,36.6647325],[37.036096,36.664046],[37.0459842,36.6716374],[37.0505762,36.6767315],[37.0476955,36.6815371],[37.0485806,36.6920077],[37.045421,36.6935261],[37.0447826,36.7019737],[37.0422184,36.7026618],[37.0397647,36.7032997]]]},"properties":{"@id":"relation/13646133","admin_level":"8","boundary":"administrative","name":"Demirışık Köyü","type":"boundary","@relations":[{"role":"subarea","rel":1240868,"reltags":{"admin_level":"6","boundary":"administrative","name":"Kilis Merkez","name:ar":"مركز كلس","name:de":"Kilis","name:el":"Κιλίς","name:en":"Kilis","name:es":"Kilis","name:fa":"کیلیس","name:fr":"Kilis","name:hy":"Քիլիս","name:ka":"ქილისი","name:ku":"Kilîs","name:ru":"Килис","name:tr":"Kilis Merkez","name:tr:suffix":"İlçesi","name:uk":"Кіліс","name:ur":"کیلیس","name:zh":"基利斯","network":"TR79-districts","type":"boundary","wikidata":"Q206881","wikipedia":"tr:Kilis"}}]},"id":"relation/13646133"},
{"type":"Feature","geometry":{"type":"Polygon","coordinates":[[[37.1049285,36.7063261],[37.102375,36.7107471],[37.0944786,36.7103256],[37.0745551,36.7104203],[37.069931,36.7161913],[37.0640302,36.7174985],[37.062099,36.7126909],[37.0586121,36.7100676],[37.0530331,36.7108675],[37.0518207,36.7050101],[37.0425832,36.7043477],[37.0422184,36.7026618],[37.0447826,36.7019737],[37.045421,36.6935261],[37.0485806,36.6920077],[37.0476955,36.6815371],[37.0630646,36.6874695],[37.0690405,36.692055],[37.0869899,36.7000124],[37.093116,36.7045972],[37.097311,36.7061971],[37.1049285,36.7063261]]]},"properties":{"@id":"relation/13646134","admin_level":"8","boundary":"administrative","name":"Öncüpınar Mahallesi","type":"boundary","wikidata":"Q20988493","wikipedia":"tr:Öncüpınar","@relations":[{"role":"subarea","rel":1240868,"reltags":{"admin_level":"6","boundary":"administrative","name":"Kilis Merkez","name:ar":"مركز كلس","name:de":"Kilis","name:el":"Κιλίς","name:en":"Kilis","name:es":"Kilis","name:fa":"کیلیس","name:fr":"Kilis","name:hy":"Քիլիս","name:ka":"ქილისი","name:ku":"Kilîs","name:ru":"Килис","name:tr":"Kilis Merkez","name:tr:suffix":"İlçesi","name:uk":"Кіліс","name:ur":"کیلیس","name:zh":"基利斯","network":"TR79-districts","type":"boundary","wikidata":"Q206881","wikipedia":"tr:Kilis"}}]},"id":"relation/13646134"},
{"type":"Feature","geometry":{"type":"Polygon","coordinates":[[[37.036096,36.664046],[37.0483986,36.6579531],[37.0575111,36.6541931],[37.0678818,36.6624033],[37.0771408,36.6675067],[37.0801771,36.6703638],[37.0779133,36.6797259],[37.0695019,36.6800357],[37.0637512,36.6775748],[37.0536017,36.6781599],[37.0505762,36.6767315],[37.0459842,36.6716374],[37.036096,36.664046]]]},"properties":{"@id":"relation/13646135","admin_level":"8","boundary":"administrative","name":"Akçabağlar Köyü","type":"boundary","@relations":[{"role":"subarea","rel":1240868,"reltags":{"admin_level":"6","boundary":"administrative","name":"Kilis Merkez","name:ar":"مركز كلس","name:de":"Kilis","name:el":"Κιλίς","name:en":"Kilis","name:es":"Kilis","name:fa":"کیلیس","name:fr":"Kilis","name:hy":"Քիլիս","name:ka":"ქილისი","name:ku":"Kilîs","name:ru":"Килис","name:tr":"Kilis Merkez","name:tr:suffix":"İlçesi","name:uk":"Кіліс","name:ur":"کیلیس","name:zh":"基利斯","network":"TR79-districts","type":"boundary","wikidata":"Q206881","wikipedia":"tr:Kilis"}}]},"id":"relation/13646135"},
{"type":"Feature","geometry":{"type":"Polygon","coordinates":[[[37.1157673,36.7127425],[37.1144637,36.7132478],[37.1143739,36.7126974],[37.1157807,36.7126801],[37.1157673,36.7127425]]]},"properties":{"@id":"relation/13646240","admin_level":"8","boundary":"administrative","name":"Hacıgümüş Mahallesi","type":"boundary","@relations":[{"role":"subarea","rel":1240868,"reltags":{"admin_level":"6","boundary":"administrative","name":"Kilis Merkez","name:ar":"مركز كلس","name:de":"Kilis","name:el":"Κιλίς","name:en":"Kilis","name:es":"Kilis","name:fa":"کیلیس","name:fr":"Kilis","name:hy":"Քիլիս","name:ka":"ქილისი","name:ku":"Kilîs","name:ru":"Килис","name:tr":"Kilis Merkez","name:tr:suffix":"İlçesi","name:uk":"Кіліс","name:ur":"کیلیس","name:zh":"基利斯","network":"TR79-districts","type":"boundary","wikidata":"Q206881","wikipedia":"tr:Kilis"}}]},"id":"relation/13646240"},
{"type":"Feature","geometry":{"type":"Polygon","coordinates":[[[37.1160013,36.7103764],[37.1170207,36.7109207],[37.1166604,36.7120919],[37.1164164,36.712736],[37.1157673,36.7127425],[37.1157807,36.7126801],[37.1159411,36.7112992],[37.1160013,36.7103764]]]},"properties":{"@id":"relation/13646241","admin_level":"8","boundary":"administrative","name":"Hindioğlu Mahallesi","type":"boundary","@relations":[{"role":"subarea","rel":1240868,"reltags":{"admin_level":"6","boundary":"administrative","name":"Kilis Merkez","name:ar":"مركز كلس","name:de":"Kilis","name:el":"Κιλίς","name:en":"Kilis","name:es":"Kilis","name:fa":"کیلیس","name:fr":"Kilis","name:hy":"Քիլիս","name:ka":"ქილისი","name:ku":"Kilîs","name:ru":"Килис","name:tr":"Kilis Merkez","name:tr:suffix":"İlçesi","name:uk":"Кіліс","name:ur":"کیلیس","name:zh":"基利斯","network":"TR79-districts","type":"boundary","wikidata":"Q206881","wikipedia":"tr:Kilis"}}]},"id":"relation/13646241"},
{"type":"Feature","geometry":{"type":"Polygon","coordinates":[[[37.112064,36.7154205],[37.1134016,36.7161805],[37.1112585,36.7171115],[37.1106537,36.7154387],[37.112064,36.7154205]]]},"properties":{"@id":"relation/13646242","admin_level":"8","boundary":"administrative","name":"Şehitler Mahallesi","type":"boundary","@relations":[{"role":"subarea","rel":1240868,"reltags":{"admin_level":"6","boundary":"administrative","name":"Kilis Merkez","name:ar":"مركز كلس","name:de":"Kilis","name:el":"Κιλίς","name:en":"Kilis","name:es":"Kilis","name:fa":"کیلیس","name:fr":"Kilis","name:hy":"Քիլիս","name:ka":"ქილისი","name:ku":"Kilîs","name:ru":"Килис","name:tr":"Kilis Merkez","name:tr:suffix":"İlçesi","name:uk":"Кіліс","name:ur":"کیلیس","name:zh":"基利斯","network":"TR79-districts","type":"boundary","wikidata":"Q206881","wikipedia":"tr:Kilis"}}]},"id":"relation/13646242"},
{"type":"Feature","geometry":{"type":"Polygon","coordinates":[[[37.1129148,36.7141551],[37.1130636,36.7141637],[37.1144074,36.7142626],[37.1148324,36.7161954],[37.114586,36.7165537],[37.1134016,36.7161805],[37.112064,36.7154205],[37.1129148,36.7141551]]]},"properties":{"@id":"relation/13646243","admin_level":"8","boundary":"administrative","name":"Tekye Mahallesi","type":"boundary","@relations":[{"role":"subarea","rel":1240868,"reltags":{"admin_level":"6","boundary":"administrative","name":"Kilis Merkez","name:ar":"مركز كلس","name:de":"Kilis","name:el":"Κιλίς","name:en":"Kilis","name:es":"Kilis","name:fa":"کیلیس","name:fr":"Kilis","name:hy":"Քիլիս","name:ka":"ქილისი","name:ku":"Kilîs","name:ru":"Килис","name:tr":"Kilis Merkez","name:tr:suffix":"İlçesi","name:uk":"Кіліс","name:ur":"کیلیس","name:zh":"基利斯","network":"TR79-districts","type":"boundary","wikidata":"Q206881","wikipedia":"tr:Kilis"}}]},"id":"relation/13646243"},
{"type":"Feature","geometry":{"type":"Polygon","coordinates":[[[37.1096599,36.7139466],[37.1129148,36.7141551],[37.112064,36.7154205],[37.1106537,36.7154387],[37.1098198,36.7141792],[37.1096599,36.7139466]]]},"properties":{"@id":"relation/13646244","admin_level":"8","boundary":"administrative","name":"Yeni Mahalle","type":"boundary","@relations":[{"role":"subarea","rel":1240868,"reltags":{"admin_level":"6","boundary":"administrative","name":"Kilis Merkez","name:ar":"مركز كلس","name:de":"Kilis","name:el":"Κιλίς","name:en":"Kilis","name:es":"Kilis","name:fa":"کیلیس","name:fr":"Kilis","name:hy":"Քիլիս","name:ka":"ქილისი","name:ku":"Kilîs","name:ru":"Килис","name:tr":"Kilis Merkez","name:tr:suffix":"İlçesi","name:uk":"Кіліс","name:ur":"کیلیس","name:zh":"基利斯","network":"TR79-districts","type":"boundary","wikidata":"Q206881","wikipedia":"tr:Kilis"}}]},"id":"relation/13646244"},
{"type":"Feature","geometry":{"type":"Polygon","coordinates":[[[37.1128193,36.7135906],[37.113044,36.712653],[37.1131191,36.7114727],[37.1143739,36.7126974],[37.1144637,36.7132478],[37.1146542,36.7137358],[37.1143699,36.7138143],[37.1127946,36.7136456],[37.1128193,36.7135906]]]},"properties":{"@id":"relation/13646245","admin_level":"8","boundary":"administrative","name":"Cumhuriyet Mahallesi","type":"boundary","@relations":[{"role":"subarea","rel":1240868,"reltags":{"admin_level":"6","boundary":"administrative","name":"Kilis Merkez","name:ar":"مركز كلس","name:de":"Kilis","name:el":"Κιλίς","name:en":"Kilis","name:es":"Kilis","name:fa":"کیلیس","name:fr":"Kilis","name:hy":"Քիլիս","name:ka":"ქილისი","name:ku":"Kilîs","name:ru":"Килис","name:tr":"Kilis Merkez","name:tr:suffix":"İlçesi","name:uk":"Кіліс","name:ur":"کیلیس","name:zh":"基利斯","network":"TR79-districts","type":"boundary","wikidata":"Q206881","wikipedia":"tr:Kilis"}}]},"id":"relation/13646245"},
{"type":"Feature","geometry":{"type":"Polygon","coordinates":[[[37.1131191,36.7114727],[37.113592,36.7111083],[37.1159411,36.7112992],[37.1157807,36.7126801],[37.1143739,36.7126974],[37.1131191,36.7114727]]]},"properties":{"@id":"relation/13646246","admin_level":"8","boundary":"administrative","name":"Nacaroğlu Mahallesi","type":"boundary","@relations":[{"role":"subarea","rel":1240868,"reltags":{"admin_level":"6","boundary":"administrative","name":"Kilis Merkez","name:ar":"مركز كلس","name:de":"Kilis","name:el":"Κιλίς","name:en":"Kilis","name:es":"Kilis","name:fa":"کیلیس","name:fr":"Kilis","name:hy":"Քիլիս","name:ka":"ქილისი","name:ku":"Kilîs","name:ru":"Килис","name:tr":"Kilis Merkez","name:tr:suffix":"İlçesi","name:uk":"Кіліс","name:ur":"کیلیس","name:zh":"基利斯","network":"TR79-districts","type":"boundary","wikidata":"Q206881","wikipedia":"tr:Kilis"}}]},"id":"relation/13646246"},
{"type":"Feature","geometry":{"type":"Polygon","coordinates":[[[37.1143699,36.7138143],[37.1144074,36.7142626],[37.1130636,36.7141637],[37.1127946,36.7136456],[37.1143699,36.7138143]]]},"properties":{"@id":"relation/13646247","admin_level":"8","boundary":"administrative","name":"Şıhlar Mahallesi","type":"boundary","@relations":[{"role":"subarea","rel":1240868,"reltags":{"admin_level":"6","boundary":"administrative","name":"Kilis Merkez","name:ar":"مركز كلس","name:de":"Kilis","name:el":"Κιλίς","name:en":"Kilis","name:es":"Kilis","name:fa":"کیلیس","name:fr":"Kilis","name:hy":"Քիլիս","name:ka":"ქილისი","name:ku":"Kilîs","name:ru":"Килис","name:tr":"Kilis Merkez","name:tr:suffix":"İlçesi","name:uk":"Кіліс","name:ur":"کیلیس","name:zh":"基利斯","network":"TR79-districts","type":"boundary","wikidata":"Q206881","wikipedia":"tr:Kilis"}}]},"id":"relation/13646247"},
{"type":"Feature","geometry":{"type":"Polygon","coordinates":[[[37.1128193,36.7135906],[37.1127946,36.7136456],[37.1130636,36.7141637],[37.1129148,36.7141551],[37.1096599,36.7139466],[37.1088756,36.7128283],[37.1096867,36.7129317],[37.1128193,36.7135906]]]},"properties":{"@id":"relation/13646248","admin_level":"8","boundary":"administrative","name":"Zeytinli Mahallesi","type":"boundary","@relations":[{"role":"subarea","rel":1240868,"reltags":{"admin_level":"6","boundary":"administrative","name":"Kilis Merkez","name:ar":"مركز كلس","name:de":"Kilis","name:el":"Κιλίς","name:en":"Kilis","name:es":"Kilis","name:fa":"کیلیس","name:fr":"Kilis","name:hy":"Քիլիս","name:ka":"ქილისი","name:ku":"Kilîs","name:ru":"Килис","name:tr":"Kilis Merkez","name:tr:suffix":"İlçesi","name:uk":"Кіліс","name:ur":"کیلیس","name:zh":"基利斯","network":"TR79-districts","type":"boundary","wikidata":"Q206881","wikipedia":"tr:Kilis"}}]},"id":"relation/13646248"},
{"type":"Feature","geometry":{"type":"Polygon","coordinates":[[[37.1096867,36.7129317],[37.113044,36.712653],[37.1128193,36.7135906],[37.1096867,36.7129317]]]},"properties":{"@id":"relation/13646249","admin_level":"8","boundary":"administrative","name":"Bölük Mahallesi","type":"boundary","@relations":[{"role":"subarea","rel":1240868,"reltags":{"admin_level":"6","boundary":"administrative","name":"Kilis Merkez","name:ar":"مركز كلس","name:de":"Kilis","name:el":"Κιλίς","name:en":"Kilis","name:es":"Kilis","name:fa":"کیلیس","name:fr":"Kilis","name:hy":"Քիլիս","name:ka":"ქილისი","name:ku":"Kilîs","name:ru":"Килис","name:tr":"Kilis Merkez","name:tr:suffix":"İlçesi","name:uk":"Кіліс","name:ur":"کیلیس","name:zh":"基利斯","network":"TR79-districts","type":"boundary","wikidata":"Q206881","wikipedia":"tr:Kilis"}}]},"id":"relation/13646249"},
{"type":"Feature","geometry":{"type":"Polygon","coordinates":[[[37.1095332,36.7115671],[37.1131191,36.7114727],[37.113044,36.712653],[37.1096867,36.7129317],[37.1088756,36.7128283],[37.1082774,36.7127187],[37.1095332,36.7115671]]]},"properties":{"@id":"relation/13646250","admin_level":"8","boundary":"administrative","name":"Mercidabık Mahallesi","type":"boundary","@relations":[{"role":"subarea","rel":1240868,"reltags":{"admin_level":"6","boundary":"administrative","name":"Kilis Merkez","name:ar":"مركز كلس","name:de":"Kilis","name:el":"Κιλίς","name:en":"Kilis","name:es":"Kilis","name:fa":"کیلیس","name:fr":"Kilis","name:hy":"Քիլիս","name:ka":"ქილისი","name:ku":"Kilîs","name:ru":"Килис","name:tr":"Kilis Merkez","name:tr:suffix":"İlçesi","name:uk":"Кіліс","name:ur":"کیلیس","name:zh":"基利斯","network":"TR79-districts","type":"boundary","wikidata":"Q206881","wikipedia":"tr:Kilis"}}]},"id":"relation/13646250"},
{"type":"Feature","geometry":{"type":"Polygon","coordinates":[[[37.1116984,36.7084592],[37.113592,36.7111083],[37.1131191,36.7114727],[37.1095332,36.7115671],[37.1116984,36.7084592]]]},"properties":{"@id":"relation/13646251","admin_level":"8","boundary":"administrative","name":"Kartalbey Mahallesi","type":"boundary","@relations":[{"role":"subarea","rel":1240868,"reltags":{"admin_level":"6","boundary":"administrative","name":"Kilis Merkez","name:ar":"مركز كلس","name:de":"Kilis","name:el":"Κιλίς","name:en":"Kilis","name:es":"Kilis","name:fa":"کیلیس","name:fr":"Kilis","name:hy":"Քիլիս","name:ka":"ქილისი","name:ku":"Kilîs","name:ru":"Килис","name:tr":"Kilis Merkez","name:tr:suffix":"İlçesi","name:uk":"Кіліс","name:ur":"کیلیس","name:zh":"基利斯","network":"TR79-districts","type":"boundary","wikidata":"Q206881","wikipedia":"tr:Kilis"}}]},"id":"relation/13646251"},
{"type":"Feature","geometry":{"type":"Polygon","coordinates":[[[37.1075056,36.7128784],[37.1054247,36.7152345],[37.1013547,36.7153713],[37.0906806,36.7173953],[37.0829987,36.7173609],[37.069931,36.7161913],[37.0745551,36.7104203],[37.0944786,36.7103256],[37.102375,36.7107471],[37.1075056,36.7128784]]]},"properties":{"@id":"relation/13646266","admin_level":"8","boundary":"administrative","name":"Şıh Mehmet Mahallesi","type":"boundary","@relations":[{"role":"subarea","rel":1240868,"reltags":{"admin_level":"6","boundary":"administrative","name":"Kilis Merkez","name:ar":"مركز كلس","name:de":"Kilis","name:el":"Κιλίς","name:en":"Kilis","name:es":"Kilis","name:fa":"کیلیس","name:fr":"Kilis","name:hy":"Քիլիս","name:ka":"ქილისი","name:ku":"Kilîs","name:ru":"Килис","name:tr":"Kilis Merkez","name:tr:suffix":"İlçesi","name:uk":"Кіліс","name:ur":"کیلیس","name:zh":"基利斯","network":"TR79-districts","type":"boundary","wikidata":"Q206881","wikipedia":"tr:Kilis"}}]},"id":"relation/13646266"},
{"type":"Feature","geometry":{"type":"Polygon","coordinates":[[[37.1096599,36.7139466],[37.1098198,36.7141792],[37.1087775,36.7147056],[37.1076348,36.7150087],[37.1054247,36.7152345],[37.1075056,36.7128784],[37.1082774,36.7127187],[37.1088756,36.7128283],[37.1096599,36.7139466]]]},"properties":{"@id":"relation/13646267","admin_level":"8","boundary":"administrative","name":"Hürriyet Mahallesi","type":"boundary","@relations":[{"role":"subarea","rel":1240868,"reltags":{"admin_level":"6","boundary":"administrative","name":"Kilis Merkez","name:ar":"مركز كلس","name:de":"Kilis","name:el":"Κιλίς","name:en":"Kilis","name:es":"Kilis","name:fa":"کیلیس","name:fr":"Kilis","name:hy":"Քիլիս","name:ka":"ქილისი","name:ku":"Kilîs","name:ru":"Килис","name:tr":"Kilis Merkez","name:tr:suffix":"İlçesi","name:uk":"Кіліс","name:ur":"کیلیس","name:zh":"基利斯","network":"TR79-districts","type":"boundary","wikidata":"Q206881","wikipedia":"tr:Kilis"}}]},"id":"relation/13646267"},
{"type":"Feature","geometry":{"type":"Polygon","coordinates":[[[37.0653713,36.7359092],[37.0650387,36.7379298],[37.0566595,36.7397246],[37.0569491,36.7423747],[37.0470054,36.7429301],[37.0349657,36.7415838],[37.0295847,36.7362485],[37.0374771,36.7352155],[37.0413741,36.7276197],[37.0462832,36.7242457],[37.0478385,36.7203611],[37.0466662,36.715539],[37.0434165,36.711634],[37.0397647,36.7032997],[37.0422184,36.7026618],[37.0425832,36.7043477],[37.0518207,36.7050101],[37.0530331,36.7108675],[37.0549106,36.7162945],[37.0574212,36.7171115],[37.0588267,36.7222027],[37.0643091,36.7243181],[37.0617127,36.7267689],[37.0653713,36.7359092]]]},"properties":{"@id":"relation/13646359","admin_level":"8","boundary":"administrative","name":"Doğançay Köyü","type":"boundary","@relations":[{"role":"subarea","rel":1240868,"reltags":{"admin_level":"6","boundary":"administrative","name":"Kilis Merkez","name:ar":"مركز كلس","name:de":"Kilis","name:el":"Κιλίς","name:en":"Kilis","name:es":"Kilis","name:fa":"کیلیس","name:fr":"Kilis","name:hy":"Քիլիս","name:ka":"ქილისი","name:ku":"Kilîs","name:ru":"Килис","name:tr":"Kilis Merkez","name:tr:suffix":"İlçesi","name:uk":"Кіліс","name:ur":"کیلیس","name:zh":"基利斯","network":"TR79-districts","type":"boundary","wikidata":"Q206881","wikipedia":"tr:Kilis"}}]},"id":"relation/13646359"},
{"type":"Feature","geometry":{"type":"Polygon","coordinates":[[[37.069931,36.7161913],[37.0829987,36.7173609],[37.0864856,36.7222887],[37.0891142,36.7301053],[37.0804989,36.7293916],[37.0800912,36.7335533],[37.0671093,36.7325817],[37.0653713,36.7359092],[37.0617127,36.7267689],[37.0643091,36.7243181],[37.0588267,36.7222027],[37.0574212,36.7171115],[37.0549106,36.7162945],[37.0530331,36.7108675],[37.0586121,36.7100676],[37.062099,36.7126909],[37.0640302,36.7174985],[37.069931,36.7161913]]]},"properties":{"@id":"relation/13646360","admin_level":"8","boundary":"administrative","name":"Tahtalı Köyü","type":"boundary","@relations":[{"role":"subarea","rel":1240868,"reltags":{"admin_level":"6","boundary":"administrative","name":"Kilis Merkez","name:ar":"مركز كلس","name:de":"Kilis","name:el":"Κιλίς","name:en":"Kilis","name:es":"Kilis","name:fa":"کیلیس","name:fr":"Kilis","name:hy":"Քիլիս","name:ka":"ქილისი","name:ku":"Kilîs","name:ru":"Килис","name:tr":"Kilis Merkez","name:tr:suffix":"İlçesi","name:uk":"Кіліс","name:ur":"کیلیس","name:zh":"基利斯","network":"TR79-districts","type":"boundary","wikidata":"Q206881","wikipedia":"tr:Kilis"}}]},"id":"relation/13646360"},
{"type":"Feature","geometry":{"type":"Polygon","coordinates":[[[37.1041664,36.7173556],[37.1068919,36.7175544],[37.1068169,36.7177995],[37.1059585,36.7205128],[37.1035337,36.7187971],[37.1041664,36.7173556]]]},"properties":{"@id":"relation/13646732","admin_level":"8","boundary":"administrative","name":"Hasan Kamil Demirbaş Mahallesi","type":"boundary","@relations":[{"role":"subarea","rel":1240868,"reltags":{"admin_level":"6","boundary":"administrative","name":"Kilis Merkez","name:ar":"مركز كلس","name:de":"Kilis","name:el":"Κιλίς","name:en":"Kilis","name:es":"Kilis","name:fa":"کیلیس","name:fr":"Kilis","name:hy":"Քիլիս","name:ka":"ქილისი","name:ku":"Kilîs","name:ru":"Килис","name:tr":"Kilis Merkez","name:tr:suffix":"İlçesi","name:uk":"Кіліс","name:ur":"کیلیس","name:zh":"基利斯","network":"TR79-districts","type":"boundary","wikidata":"Q206881","wikipedia":"tr:Kilis"}}]},"id":"relation/13646732"},
{"type":"Feature","geometry":{"type":"Polygon","coordinates":[[[37.1054247,36.7152345],[37.1076348,36.7150087],[37.1068919,36.7175544],[37.1041664,36.7173556],[37.1054247,36.7152345]]]},"properties":{"@id":"relation/13646733","admin_level":"8","boundary":"administrative","name":"Polat Paşa Mahallesi","type":"boundary","@relations":[{"role":"subarea","rel":1240868,"reltags":{"admin_level":"6","boundary":"administrative","name":"Kilis Merkez","name:ar":"مركز كلس","name:de":"Kilis","name:el":"Κιλίς","name:en":"Kilis","name:es":"Kilis","name:fa":"کیلیس","name:fr":"Kilis","name:hy":"Քիլիս","name:ka":"ქილისი","name:ku":"Kilîs","name:ru":"Килис","name:tr":"Kilis Merkez","name:tr:suffix":"İlçesi","name:uk":"Кіліс","name:ur":"کیلیس","name:zh":"基利斯","network":"TR79-districts","type":"boundary","wikidata":"Q206881","wikipedia":"tr:Kilis"}}]},"id":"relation/13646733"},
{"type":"Feature","geometry":{"type":"Polygon","coordinates":[[[37.1013547,36.7153713],[37.1054247,36.7152345],[37.1041664,36.7173556],[37.1035337,36.7187971],[37.1013547,36.7153713]]]},"properties":{"@id":"relation/13646734","admin_level":"8","boundary":"administrative","name":"Barış Mahallesi","type":"boundary","@relations":[{"role":"subarea","rel":1240868,"reltags":{"admin_level":"6","boundary":"administrative","name":"Kilis Merkez","name:ar":"مركز كلس","name:de":"Kilis","name:el":"Κιλίς","name:en":"Kilis","name:es":"Kilis","name:fa":"کیلیس","name:fr":"Kilis","name:hy":"Քիլիս","name:ka":"ქილისი","name:ku":"Kilîs","name:ru":"Килис","name:tr":"Kilis Merkez","name:tr:suffix":"İlçesi","name:uk":"Кіліс","name:ur":"کیلیس","name:zh":"基利斯","network":"TR79-districts","type":"boundary","wikidata":"Q206881","wikipedia":"tr:Kilis"}}]},"id":"relation/13646734"},
{"type":"Feature","geometry":{"type":"Polygon","coordinates":[[[37.0634564,36.7558102],[37.0754886,36.7462779],[37.0810997,36.740277],[37.0836103,36.7355051],[37.0966458,36.7306986],[37.1001932,36.7282152],[37.1052933,36.729211],[37.105385,36.7355009],[37.1003151,36.7396837],[37.0987165,36.7456159],[37.0929551,36.7511866],[37.090981,36.7494587],[37.0805204,36.7540061],[37.0733535,36.7534903],[37.0713365,36.7551752],[37.0634564,36.7558102]]]},"properties":{"@id":"relation/13646735","admin_level":"8","boundary":"administrative","name":"Mehmet Sanlı Mahallesi","type":"boundary","@relations":[{"role":"subarea","rel":1240868,"reltags":{"admin_level":"6","boundary":"administrative","name":"Kilis Merkez","name:ar":"مركز كلس","name:de":"Kilis","name:el":"Κιλίς","name:en":"Kilis","name:es":"Kilis","name:fa":"کیلیس","name:fr":"Kilis","name:hy":"Քիլիս","name:ka":"ქილისი","name:ku":"Kilîs","name:ru":"Килис","name:tr":"Kilis Merkez","name:tr:suffix":"İlçesi","name:uk":"Кіліс","name:ur":"کیلیس","name:zh":"基利斯","network":"TR79-districts","type":"boundary","wikidata":"Q206881","wikipedia":"tr:Kilis"}}]},"id":"relation/13646735"},
{"type":"Feature","geometry":{"type":"Polygon","coordinates":[[[37.0653713,36.7359092],[37.0671093,36.7325817],[37.0800912,36.7335533],[37.0804989,36.7293916],[37.0891142,36.7301053],[37.0864856,36.7222887],[37.0829987,36.7173609],[37.0906806,36.7173953],[37.1013547,36.7153713],[37.1035337,36.7187971],[37.1059585,36.7205128],[37.1058941,36.7224778],[37.1040702,36.7245675],[37.1001932,36.7282152],[37.0966458,36.7306986],[37.0836103,36.7355051],[37.0810997,36.740277],[37.0754886,36.7462779],[37.0634564,36.7558102],[37.0512199,36.7629541],[37.0511234,36.7570834],[37.0492244,36.7559316],[37.0519495,36.7501894],[37.0470054,36.7429301],[37.0569491,36.7423747],[37.0566595,36.7397246],[37.0650387,36.7379298],[37.0653713,36.7359092]]]},"properties":{"@id":"relation/13646736","admin_level":"8","boundary":"administrative","name":"Ekrem Çetin Mahallesi","type":"boundary","@relations":[{"role":"subarea","rel":1240868,"reltags":{"admin_level":"6","boundary":"administrative","name":"Kilis Merkez","name:ar":"مركز كلس","name:de":"Kilis","name:el":"Κιλίς","name:en":"Kilis","name:es":"Kilis","name:fa":"کیلیس","name:fr":"Kilis","name:hy":"Քիլիս","name:ka":"ქილისი","name:ku":"Kilîs","name:ru":"Килис","name:tr":"Kilis Merkez","name:tr:suffix":"İlçesi","name:uk":"Кіліс","name:ur":"کیلیس","name:zh":"基利斯","network":"TR79-districts","type":"boundary","wikidata":"Q206881","wikipedia":"tr:Kilis"}}]},"id":"relation/13646736"},
{"type":"Feature","geometry":{"type":"Polygon","coordinates":[[[37.1178621,36.7107428],[37.1192257,36.7111504],[37.1183556,36.7118437],[37.1166604,36.7120919],[37.1170207,36.7109207],[37.1178621,36.7107428]]]},"properties":{"@id":"relation/13646738","admin_level":"8","boundary":"administrative","name":"Mıhali Mahallesi","type":"boundary","@relations":[{"role":"subarea","rel":1240868,"reltags":{"admin_level":"6","boundary":"administrative","name":"Kilis Merkez","name:ar":"مركز كلس","name:de":"Kilis","name:el":"Κιλίς","name:en":"Kilis","name:es":"Kilis","name:fa":"کیلیس","name:fr":"Kilis","name:hy":"Քիլիս","name:ka":"ქილისი","name:ku":"Kilîs","name:ru":"Килис","name:tr":"Kilis Merkez","name:tr:suffix":"İlçesi","name:uk":"Кіліс","name:ur":"کیلیس","name:zh":"基利斯","network":"TR79-districts","type":"boundary","wikidata":"Q206881","wikipedia":"tr:Kilis"}}]},"id":"relation/13646738"},
{"type":"Feature","geometry":{"type":"Polygon","coordinates":[[[37.1192257,36.7111504],[37.1211322,36.712242],[37.1209896,36.7124049],[37.1187606,36.7130413],[37.1183556,36.7118437],[37.1192257,36.7111504]]]},"properties":{"@id":"relation/13647033","admin_level":"8","boundary":"administrative","name":"Şıh Ahmet Mahallesi","type":"boundary","@relations":[{"role":"subarea","rel":1240868,"reltags":{"admin_level":"6","boundary":"administrative","name":"Kilis Merkez","name:ar":"مركز كلس","name:de":"Kilis","name:el":"Κιλίς","name:en":"Kilis","name:es":"Kilis","name:fa":"کیلیس","name:fr":"Kilis","name:hy":"Քիլիս","name:ka":"ქილისი","name:ku":"Kilîs","name:ru":"Килис","name:tr":"Kilis Merkez","name:tr:suffix":"İlçesi","name:uk":"Кіліс","name:ur":"کیلیس","name:zh":"基利斯","network":"TR79-districts","type":"boundary","wikidata":"Q206881","wikipedia":"tr:Kilis"}}]},"id":"relation/13647033"},
{"type":"Feature","geometry":{"type":"Polygon","coordinates":[[[37.1087775,36.7147056],[37.1098198,36.7141792],[37.1106537,36.7154387],[37.1112585,36.7171115],[37.1113041,36.7173695],[37.1096174,36.7175059],[37.1087775,36.7147056]]]},"properties":{"@id":"relation/13647034","admin_level":"8","boundary":"administrative","name":"Tosyalı Mahallesi","type":"boundary","@relations":[{"role":"subarea","rel":1240868,"reltags":{"admin_level":"6","boundary":"administrative","name":"Kilis Merkez","name:ar":"مركز كلس","name:de":"Kilis","name:el":"Κιλίς","name:en":"Kilis","name:es":"Kilis","name:fa":"کیلیس","name:fr":"Kilis","name:hy":"Քիլիս","name:ka":"ქილისი","name:ku":"Kilîs","name:ru":"Килис","name:tr":"Kilis Merkez","name:tr:suffix":"İlçesi","name:uk":"Кіліс","name:ur":"کیلیس","name:zh":"基利斯","network":"TR79-districts","type":"boundary","wikidata":"Q206881","wikipedia":"tr:Kilis"}}]},"id":"relation/13647034"},
{"type":"Feature","geometry":{"type":"Polygon","coordinates":[[[37.1076348,36.7150087],[37.1087775,36.7147056],[37.1096174,36.7175059],[37.1083803,36.7176718],[37.1068169,36.7177995],[37.1068919,36.7175544],[37.1076348,36.7150087]]]},"properties":{"@id":"relation/13647035","admin_level":"8","boundary":"administrative","name":"Şıh Abdullah Mahallesi","type":"boundary","@relations":[{"role":"subarea","rel":1240868,"reltags":{"admin_level":"6","boundary":"administrative","name":"Kilis Merkez","name:ar":"مركز كلس","name:de":"Kilis","name:el":"Κιλίς","name:en":"Kilis","name:es":"Kilis","name:fa":"کیلیس","name:fr":"Kilis","name:hy":"Քիլիս","name:ka":"ქილისი","name:ku":"Kilîs","name:ru":"Килис","name:tr":"Kilis Merkez","name:tr:suffix":"İlçesi","name:uk":"Кіліс","name:ur":"کیلیس","name:zh":"基利斯","network":"TR79-districts","type":"boundary","wikidata":"Q206881","wikipedia":"tr:Kilis"}}]},"id":"relation/13647035"},
{"type":"Feature","geometry":{"type":"Polygon","coordinates":[[[37.1103982,36.7200232],[37.1096174,36.7175059],[37.1113041,36.7173695],[37.110765,36.7198678],[37.1103982,36.7200232]]]},"properties":{"@id":"relation/13647088","admin_level":"8","boundary":"administrative","name":"Akın Üzüm Mahallesi","type":"boundary","@relations":[{"role":"subarea","rel":1240868,"reltags":{"admin_level":"6","boundary":"administrative","name":"Kilis Merkez","name:ar":"مركز كلس","name:de":"Kilis","name:el":"Κιλίς","name:en":"Kilis","name:es":"Kilis","name:fa":"کیلیس","name:fr":"Kilis","name:hy":"Քիլիս","name:ka":"ქილისი","name:ku":"Kilîs","name:ru":"Килис","name:tr":"Kilis Merkez","name:tr:suffix":"İlçesi","name:uk":"Кіліс","name:ur":"کیلیس","name:zh":"基利斯","network":"TR79-districts","type":"boundary","wikidata":"Q206881","wikipedia":"tr:Kilis"}}]},"id":"relation/13647088"},
{"type":"Feature","geometry":{"type":"Polygon","coordinates":[[[37.1083803,36.7176718],[37.1096174,36.7175059],[37.1103982,36.7200232],[37.1089679,36.7209815],[37.1083803,36.7176718]]]},"properties":{"@id":"relation/13647089","admin_level":"8","boundary":"administrative","name":"Osman Gazi Mahallesi","type":"boundary","@relations":[{"role":"subarea","rel":1240868,"reltags":{"admin_level":"6","boundary":"administrative","name":"Kilis Merkez","name:ar":"مركز كلس","name:de":"Kilis","name:el":"Κιλίς","name:en":"Kilis","name:es":"Kilis","name:fa":"کیلیس","name:fr":"Kilis","name:hy":"Քիլիս","name:ka":"ქილისი","name:ku":"Kilîs","name:ru":"Килис","name:tr":"Kilis Merkez","name:tr:suffix":"İlçesi","name:uk":"Кіліс","name:ur":"کیلیس","name:zh":"基利斯","network":"TR79-districts","type":"boundary","wikidata":"Q206881","wikipedia":"tr:Kilis"}}]},"id":"relation/13647089"},
{"type":"Feature","geometry":{"type":"Polygon","coordinates":[[[37.1058941,36.7224778],[37.1059585,36.7205128],[37.1068169,36.7177995],[37.1083803,36.7176718],[37.1089679,36.7209815],[37.1058941,36.7224778]]]},"properties":{"@id":"relation/13647090","admin_level":"8","boundary":"administrative","name":"Nedim Ökmen Mahallesi","type":"boundary","@relations":[{"role":"subarea","rel":1240868,"reltags":{"admin_level":"6","boundary":"administrative","name":"Kilis Merkez","name:ar":"مركز كلس","name:de":"Kilis","name:el":"Κιλίς","name:en":"Kilis","name:es":"Kilis","name:fa":"کیلیس","name:fr":"Kilis","name:hy":"Քիլիս","name:ka":"ქილისი","name:ku":"Kilîs","name:ru":"Килис","name:tr":"Kilis Merkez","name:tr:suffix":"İlçesi","name:uk":"Кіліс","name:ur":"کیلیس","name:zh":"基利斯","network":"TR79-districts","type":"boundary","wikidata":"Q206881","wikipedia":"tr:Kilis"}}]},"id":"relation/13647090"},
{"type":"Feature","geometry":{"type":"Polygon","coordinates":[[[37.1040702,36.7245675],[37.1058941,36.7224778],[37.1089679,36.7209815],[37.1103982,36.7200232],[37.110765,36.7198678],[37.1112102,36.7255435],[37.1040702,36.7245675]]]},"properties":{"@id":"relation/13647091","admin_level":"8","boundary":"administrative","name":"İsmet Paşa Mahallesi","type":"boundary","@relations":[{"role":"subarea","rel":1240868,"reltags":{"admin_level":"6","boundary":"administrative","name":"Kilis Merkez","name:ar":"مركز كلس","name:de":"Kilis","name:el":"Κιλίς","name:en":"Kilis","name:es":"Kilis","name:fa":"کیلیس","name:fr":"Kilis","name:hy":"Քիլիս","name:ka":"ქილისი","name:ku":"Kilîs","name:ru":"Килис","name:tr":"Kilis Merkez","name:tr:suffix":"İlçesi","name:uk":"Кіліс","name:ur":"کیلیس","name:zh":"基利斯","network":"TR79-districts","type":"boundary","wikidata":"Q206881","wikipedia":"tr:Kilis"}}]},"id":"relation/13647091"},
{"type":"Feature","geometry":{"type":"Polygon","coordinates":[[[37.1001932,36.7282152],[37.1040702,36.7245675],[37.1112102,36.7255435],[37.1115697,36.7266657],[37.111634,36.739529],[37.1100569,36.7455643],[37.1028149,36.745358],[37.101109,36.74798],[37.0929551,36.7511866],[37.0987165,36.7456159],[37.1003151,36.7396837],[37.105385,36.7355009],[37.1052933,36.729211],[37.1001932,36.7282152]]]},"properties":{"@id":"relation/13647092","admin_level":"8","boundary":"administrative","name":"Atatürk Mahallesi","type":"boundary","@relations":[{"role":"subarea","rel":1240868,"reltags":{"admin_level":"6","boundary":"administrative","name":"Kilis Merkez","name:ar":"مركز كلس","name:de":"Kilis","name:el":"Κιλίς","name:en":"Kilis","name:es":"Kilis","name:fa":"کیلیس","name:fr":"Kilis","name:hy":"Քիլիս","name:ka":"ქილისი","name:ku":"Kilîs","name:ru":"Килис","name:tr":"Kilis Merkez","name:tr:suffix":"İlçesi","name:uk":"Кіліс","name:ur":"کیلیس","name:zh":"基利斯","network":"TR79-districts","type":"boundary","wikidata":"Q206881","wikipedia":"tr:Kilis"}}]},"id":"relation/13647092"},
{"type":"Feature","geometry":{"type":"Polygon","coordinates":[[[37.155987,36.6800099],[37.1612978,36.6785729],[37.161802,36.6753204],[37.1707606,36.6782029],[37.1682608,36.6834429],[37.1703422,36.6850691],[37.1627569,36.6886051],[37.1564698,36.6936294],[37.1342011,36.7050817],[37.1321127,36.7119673],[37.1308604,36.7122186],[37.1257371,36.7140584],[37.1225184,36.7131058],[37.1237898,36.7040811],[37.1262038,36.6997801],[37.1338427,36.6940509],[37.1398294,36.6916593],[37.1425223,36.6889321],[37.1529293,36.6826686],[37.155987,36.6800099]]]},"properties":{"@id":"relation/13648399","admin_level":"8","boundary":"administrative","name":"Necmettin Erbakan Mahallesi","type":"boundary","@relations":[{"role":"subarea","rel":1240868,"reltags":{"admin_level":"6","boundary":"administrative","name":"Kilis Merkez","name:ar":"مركز كلس","name:de":"Kilis","name:el":"Κιλίς","name:en":"Kilis","name:es":"Kilis","name:fa":"کیلیس","name:fr":"Kilis","name:hy":"Քիլիս","name:ka":"ქილისი","name:ku":"Kilîs","name:ru":"Килис","name:tr":"Kilis Merkez","name:tr:suffix":"İlçesi","name:uk":"Кіліс","name:ur":"کیلیس","name:zh":"基利斯","network":"TR79-districts","type":"boundary","wikidata":"Q206881","wikipedia":"tr:Kilis"}}]},"id":"relation/13648399"},
{"type":"Feature","geometry":{"type":"Polygon","coordinates":[[[37.1190225,36.715583],[37.121526,36.7152345],[37.120724,36.7162687],[37.1188679,36.7166363],[37.1186295,36.7160962],[37.1190225,36.715583]]]},"properties":{"@id":"relation/13648400","admin_level":"8","boundary":"administrative","name":"İslambey Mahallesi","type":"boundary","@relations":[{"role":"subarea","rel":1240868,"reltags":{"admin_level":"6","boundary":"administrative","name":"Kilis Merkez","name:ar":"مركز كلس","name:de":"Kilis","name:el":"Κιλίς","name:en":"Kilis","name:es":"Kilis","name:fa":"کیلیس","name:fr":"Kilis","name:hy":"Քիլիս","name:ka":"ქილისი","name:ku":"Kilîs","name:ru":"Килис","name:tr":"Kilis Merkez","name:tr:suffix":"İlçesi","name:uk":"Кіліс","name:ur":"کیلیس","name:zh":"基利斯","network":"TR79-districts","type":"boundary","wikidata":"Q206881","wikipedia":"tr:Kilis"}}]},"id":"relation/13648400"},
{"type":"Feature","geometry":{"type":"Polygon","coordinates":[[[37.1184897,36.714826],[37.1188707,36.7144105],[37.1192354,36.7144561],[37.1206133,36.7144643],[37.121778,36.7140073],[37.121526,36.7152345],[37.1190225,36.715583],[37.1184897,36.714826]]]},"properties":{"@id":"relation/13648401","admin_level":"8","boundary":"administrative","name":"Vaiz Mahallesi","type":"boundary","@relations":[{"role":"subarea","rel":1240868,"reltags":{"admin_level":"6","boundary":"administrative","name":"Kilis Merkez","name:ar":"مركز كلس","name:de":"Kilis","name:el":"Κιλίς","name:en":"Kilis","name:es":"Kilis","name:fa":"کیلیس","name:fr":"Kilis","name:hy":"Քիլիս","name:ka":"ქილისი","name:ku":"Kilîs","name:ru":"Килис","name:tr":"Kilis Merkez","name:tr:suffix":"İlçesi","name:uk":"Кіліс","name:ur":"کیلیس","name:zh":"基利斯","network":"TR79-districts","type":"boundary","wikidata":"Q206881","wikipedia":"tr:Kilis"}}]},"id":"relation/13648401"},
{"type":"Feature","geometry":{"type":"Polygon","coordinates":[[[37.1179935,36.7150668],[37.1184897,36.714826],[37.1190225,36.715583],[37.1186295,36.7160962],[37.1179104,36.7157484],[37.1179935,36.7150668]]]},"properties":{"@id":"relation/13648402","admin_level":"8","boundary":"administrative","name":"Tabakhane Mahallesi","type":"boundary","@relations":[{"role":"subarea","rel":1240868,"reltags":{"admin_level":"6","boundary":"administrative","name":"Kilis Merkez","name:ar":"مركز كلس","name:de":"Kilis","name:el":"Κιλίς","name:en":"Kilis","name:es":"Kilis","name:fa":"کیلیس","name:fr":"Kilis","name:hy":"Քիլիս","name:ka":"ქილისი","name:ku":"Kilîs","name:ru":"Килис","name:tr":"Kilis Merkez","name:tr:suffix":"İlçesi","name:uk":"Кіліс","name:ur":"کیلیس","name:zh":"基利斯","network":"TR79-districts","type":"boundary","wikidata":"Q206881","wikipedia":"tr:Kilis"}}]},"id":"relation/13648402"},
{"type":"Feature","geometry":{"type":"Polygon","coordinates":[[[37.1161315,36.7148216],[37.1179935,36.7150668],[37.1179104,36.7157484],[37.1159631,36.7157118],[37.1161315,36.7148216]]]},"properties":{"@id":"relation/13648403","admin_level":"8","boundary":"administrative","name":"Büyükkütah Mahallesi","type":"boundary","@relations":[{"role":"subarea","rel":1240868,"reltags":{"admin_level":"6","boundary":"administrative","name":"Kilis Merkez","name:ar":"مركز كلس","name:de":"Kilis","name:el":"Κιλίς","name:en":"Kilis","name:es":"Kilis","name:fa":"کیلیس","name:fr":"Kilis","name:hy":"Քիլիս","name:ka":"ქილისი","name:ku":"Kilîs","name:ru":"Килис","name:tr":"Kilis Merkez","name:tr:suffix":"İlçesi","name:uk":"Кіліс","name:ur":"کیلیس","name:zh":"基利斯","network":"TR79-districts","type":"boundary","wikidata":"Q206881","wikipedia":"tr:Kilis"}}]},"id":"relation/13648403"},
{"type":"Feature","geometry":{"type":"Polygon","coordinates":[[[37.116396,36.7142046],[37.1179694,36.7143013],[37.1188707,36.7144105],[37.1184897,36.714826],[37.1179935,36.7150668],[37.1161315,36.7148216],[37.1161455,36.7142992],[37.116396,36.7142046]]]},"properties":{"@id":"relation/13648404","admin_level":"8","boundary":"administrative","name":"Meşetlik Mahallesi","type":"boundary","@relations":[{"role":"subarea","rel":1240868,"reltags":{"admin_level":"6","boundary":"administrative","name":"Kilis Merkez","name:ar":"مركز كلس","name:de":"Kilis","name:el":"Κιλίς","name:en":"Kilis","name:es":"Kilis","name:fa":"کیلیس","name:fr":"Kilis","name:hy":"Քիլիս","name:ka":"ქილისი","name:ku":"Kilîs","name:ru":"Килис","name:tr":"Kilis Merkez","name:tr:suffix":"İlçesi","name:uk":"Кіліс","name:ur":"کیلیس","name:zh":"基利斯","network":"TR79-districts","type":"boundary","wikidata":"Q206881","wikipedia":"tr:Kilis"}}]},"id":"relation/13648404"},
{"type":"Feature","geometry":{"type":"Polygon","coordinates":[[[37.1148324,36.7161954],[37.1159631,36.7157118],[37.1179104,36.7157484],[37.1186295,36.7160962],[37.1188679,36.7166363],[37.1180257,36.7167562],[37.1162555,36.7166858],[37.114586,36.7165537],[37.1148324,36.7161954]]]},"properties":{"@id":"relation/13648405","admin_level":"8","boundary":"administrative","name":"İnnaplı Kütah Mahallesi","type":"boundary","@relations":[{"role":"subarea","rel":1240868,"reltags":{"admin_level":"6","boundary":"administrative","name":"Kilis Merkez","name:ar":"مركز كلس","name:de":"Kilis","name:el":"Κιλίς","name:en":"Kilis","name:es":"Kilis","name:fa":"کیلیس","name:fr":"Kilis","name:hy":"Քիլիս","name:ka":"ქილისი","name:ku":"Kilîs","name:ru":"Килис","name:tr":"Kilis Merkez","name:tr:suffix":"İlçesi","name:uk":"Кіліс","name:ur":"کیلیس","name:zh":"基利斯","network":"TR79-districts","type":"boundary","wikidata":"Q206881","wikipedia":"tr:Kilis"}}]},"id":"relation/13648405"},
{"type":"Feature","geometry":{"type":"Polygon","coordinates":[[[37.1183556,36.7118437],[37.1187606,36.7130413],[37.1179694,36.7143013],[37.116396,36.7142046],[37.1164164,36.712736],[37.1166604,36.7120919],[37.1183556,36.7118437]]]},"properties":{"@id":"relation/13648406","admin_level":"8","boundary":"administrative","name":"Çaylak Mahallesi","type":"boundary","@relations":[{"role":"subarea","rel":1240868,"reltags":{"admin_level":"6","boundary":"administrative","name":"Kilis Merkez","name:ar":"مركز كلس","name:de":"Kilis","name:el":"Κιλίς","name:en":"Kilis","name:es":"Kilis","name:fa":"کیلیس","name:fr":"Kilis","name:hy":"Քիլիս","name:ka":"ქილისი","name:ku":"Kilîs","name:ru":"Килис","name:tr":"Kilis Merkez","name:tr:suffix":"İlçesi","name:uk":"Кіліс","name:ur":"کیلیس","name:zh":"基利斯","network":"TR79-districts","type":"boundary","wikidata":"Q206881","wikipedia":"tr:Kilis"}}]},"id":"relation/13648406"},
{"type":"Feature","geometry":{"type":"Polygon","coordinates":[[[37.1192354,36.7144561],[37.1206543,36.7131704],[37.1206133,36.7144643],[37.1192354,36.7144561]]]},"properties":{"@id":"relation/13648407","admin_level":"8","boundary":"administrative","name":"Aslan Mahallesi","type":"boundary","@relations":[{"role":"subarea","rel":1240868,"reltags":{"admin_level":"6","boundary":"administrative","name":"Kilis Merkez","name:ar":"مركز كلس","name:de":"Kilis","name:el":"Κιλίς","name:en":"Kilis","name:es":"Kilis","name:fa":"کیلیس","name:fr":"Kilis","name:hy":"Քիլիս","name:ka":"ქილისი","name:ku":"Kilîs","name:ru":"Килис","name:tr":"Kilis Merkez","name:tr:suffix":"İlçesi","name:uk":"Кіліс","name:ur":"کیلیس","name:zh":"基利斯","network":"TR79-districts","type":"boundary","wikidata":"Q206881","wikipedia":"tr:Kilis"}}]},"id":"relation/13648407"},
{"type":"Feature","geometry":{"type":"Polygon","coordinates":[[[37.1206543,36.7131704],[37.1192354,36.7144561],[37.1188707,36.7144105],[37.1179694,36.7143013],[37.1187606,36.7130413],[37.1209896,36.7124049],[37.1206543,36.7131704]]]},"properties":{"@id":"relation/13648408","admin_level":"8","boundary":"administrative","name":"Abdioymağı Mahallesi","type":"boundary","@relations":[{"role":"subarea","rel":1240868,"reltags":{"admin_level":"6","boundary":"administrative","name":"Kilis Merkez","name:ar":"مركز كلس","name:de":"Kilis","name:el":"Κιλίς","name:en":"Kilis","name:es":"Kilis","name:fa":"کیلیس","name:fr":"Kilis","name:hy":"Քիլիս","name:ka":"ქილისი","name:ku":"Kilîs","name:ru":"Килис","name:tr":"Kilis Merkez","name:tr:suffix":"İlçesi","name:uk":"Кіліс","name:ur":"کیلیس","name:zh":"基利斯","network":"TR79-districts","type":"boundary","wikidata":"Q206881","wikipedia":"tr:Kilis"}}]},"id":"relation/13648408"},
{"type":"Feature","geometry":{"type":"Polygon","coordinates":[[[37.121778,36.7140073],[37.1206133,36.7144643],[37.1206543,36.7131704],[37.1209896,36.7124049],[37.1211322,36.712242],[37.1225184,36.7131058],[37.121778,36.7140073]]]},"properties":{"@id":"relation/13648409","admin_level":"8","boundary":"administrative","name":"Gaziler Mahallesi","type":"boundary","@relations":[{"role":"subarea","rel":1240868,"reltags":{"admin_level":"6","boundary":"administrative","name":"Kilis Merkez","name:ar":"مركز كلس","name:de":"Kilis","name:el":"Κιλίς","name:en":"Kilis","name:es":"Kilis","name:fa":"کیلیس","name:fr":"Kilis","name:hy":"Քիլիս","name:ka":"ქილისი","name:ku":"Kilîs","name:ru":"Килис","name:tr":"Kilis Merkez","name:tr:suffix":"İlçesi","name:uk":"Кіліс","name:ur":"کیلیس","name:zh":"基利斯","network":"TR79-districts","type":"boundary","wikidata":"Q206881","wikipedia":"tr:Kilis"}}]},"id":"relation/13648409"},
{"type":"Feature","geometry":{"type":"Polygon","coordinates":[[[37.1146542,36.7137358],[37.1161455,36.7142992],[37.1161315,36.7148216],[37.1159631,36.7157118],[37.1148324,36.7161954],[37.1144074,36.7142626],[37.1143699,36.7138143],[37.1146542,36.7137358]]]},"properties":{"@id":"relation/13648410","admin_level":"8","boundary":"administrative","name":"Canpolat Paşa Mahallesi","type":"boundary","@relations":[{"role":"subarea","rel":1240868,"reltags":{"admin_level":"6","boundary":"administrative","name":"Kilis Merkez","name:ar":"مركز كلس","name:de":"Kilis","name:el":"Κιλίς","name:en":"Kilis","name:es":"Kilis","name:fa":"کیلیس","name:fr":"Kilis","name:hy":"Քիլիս","name:ka":"ქილისი","name:ku":"Kilîs","name:ru":"Килис","name:tr":"Kilis Merkez","name:tr:suffix":"İlçesi","name:uk":"Кіліс","name:ur":"کیلیس","name:zh":"基利斯","network":"TR79-districts","type":"boundary","wikidata":"Q206881","wikipedia":"tr:Kilis"}}]},"id":"relation/13648410"},
{"type":"Feature","geometry":{"type":"Polygon","coordinates":[[[37.1108837,36.7196788],[37.1136336,36.7171095],[37.1130831,36.7192568],[37.11216,36.7193512],[37.1108837,36.7196788]]]},"properties":{"@id":"relation/13648411","admin_level":"8","boundary":"administrative","name":"Deveciler Mahallesi","type":"boundary","@relations":[{"role":"subarea","rel":1240868,"reltags":{"admin_level":"6","boundary":"administrative","name":"Kilis Merkez","name:ar":"مركز كلس","name:de":"Kilis","name:el":"Κιλίς","name:en":"Kilis","name:es":"Kilis","name:fa":"کیلیس","name:fr":"Kilis","name:hy":"Քիլիս","name:ka":"ქილისი","name:ku":"Kilîs","name:ru":"Килис","name:tr":"Kilis Merkez","name:tr:suffix":"İlçesi","name:uk":"Кіліс","name:ur":"کیلیس","name:zh":"基利斯","network":"TR79-districts","type":"boundary","wikidata":"Q206881","wikipedia":"tr:Kilis"}}]},"id":"relation/13648411"},
{"type":"Feature","geometry":{"type":"Polygon","coordinates":[[[37.1134016,36.7161805],[37.114586,36.7165537],[37.1144825,36.7166196],[37.1136336,36.7171095],[37.1108837,36.7196788],[37.110765,36.7198678],[37.1113041,36.7173695],[37.1112585,36.7171115],[37.1134016,36.7161805]]]},"properties":{"@id":"relation/13648412","admin_level":"8","boundary":"administrative","name":"Yedi Aralık Mahallesi","type":"boundary","@relations":[{"role":"subarea","rel":1240868,"reltags":{"admin_level":"6","boundary":"administrative","name":"Kilis Merkez","name:ar":"مركز كلس","name:de":"Kilis","name:el":"Κιλίς","name:en":"Kilis","name:es":"Kilis","name:fa":"کیلیس","name:fr":"Kilis","name:hy":"Քիլիս","name:ka":"ქილისი","name:ku":"Kilîs","name:ru":"Килис","name:tr":"Kilis Merkez","name:tr:suffix":"İlçesi","name:uk":"Кіліс","name:ur":"کیلیس","name:zh":"基利斯","network":"TR79-districts","type":"boundary","wikidata":"Q206881","wikipedia":"tr:Kilis"}}]},"id":"relation/13648412"},
{"type":"Feature","geometry":{"type":"Polygon","coordinates":[[[37.1144637,36.7132478],[37.1157673,36.7127425],[37.1164164,36.712736],[37.116396,36.7142046],[37.1161455,36.7142992],[37.1146542,36.7137358],[37.1144637,36.7132478]]]},"properties":{"@id":"relation/13648413","admin_level":"8","boundary":"administrative","name":"Nurettin Mahallesi","type":"boundary","@relations":[{"role":"subarea","rel":1240868,"reltags":{"admin_level":"6","boundary":"administrative","name":"Kilis Merkez","name:ar":"مركز كلس","name:de":"Kilis","name:el":"Κιλίς","name:en":"Kilis","name:es":"Kilis","name:fa":"کیلیس","name:fr":"Kilis","name:hy":"Քիլիս","name:ka":"ქილისი","name:ku":"Kilîs","name:ru":"Килис","name:tr":"Kilis Merkez","name:tr:suffix":"İlçesi","name:uk":"Кіліс","name:ur":"کیلیس","name:zh":"基利斯","network":"TR79-districts","type":"boundary","wikidata":"Q206881","wikipedia":"tr:Kilis"}}]},"id":"relation/13648413"},
{"type":"Feature","geometry":{"type":"Polygon","coordinates":[[[37.1702027,36.7038488],[37.1490759,36.7086949],[37.1321127,36.7119673],[37.1342011,36.7050817],[37.1564698,36.6936294],[37.1627569,36.6886051],[37.1703422,36.6850691],[37.1811453,36.6798585],[37.181468,36.6849056],[37.17885,36.68535],[37.1784317,36.6928207],[37.173078,36.6946015],[37.1702027,36.7038488]]]},"properties":{"@id":"relation/14133991","admin_level":"8","boundary":"administrative","name":"Mehmet Rıfat Kazancıoğlu Mahallesi","type":"boundary","@relations":[{"role":"subarea","rel":1240868,"reltags":{"admin_level":"6","boundary":"administrative","name":"Kilis Merkez","name:ar":"مركز كلس","name:de":"Kilis","name:el":"Κιλίς","name:en":"Kilis","name:es":"Kilis","name:fa":"کیلیس","name:fr":"Kilis","name:hy":"Քիլիս","name:ka":"ქილისი","name:ku":"Kilîs","name:ru":"Килис","name:tr":"Kilis Merkez","name:tr:suffix":"İlçesi","name:uk":"Кіліс","name:ur":"کیلیس","name:zh":"基利斯","network":"TR79-districts","type":"boundary","wikidata":"Q206881","wikipedia":"tr:Kilis"}}]},"id":"relation/14133991"},
{"type":"Feature","geometry":{"type":"Polygon","coordinates":[[[37.1246199,36.7190758],[37.1228986,36.7188899],[37.1193266,36.7182317],[37.1180579,36.7174577],[37.1180257,36.7167562],[37.1188679,36.7166363],[37.120724,36.7162687],[37.1234381,36.7156023],[37.1273464,36.7186466],[37.1246199,36.7190758]]]},"properties":{"@id":"relation/14133992","admin_level":"8","boundary":"administrative","name":"Aşıt Mahallesi","type":"boundary","@relations":[{"role":"subarea","rel":1240868,"reltags":{"admin_level":"6","boundary":"administrative","name":"Kilis Merkez","name:ar":"مركز كلس","name:de":"Kilis","name:el":"Κιλίς","name:en":"Kilis","name:es":"Kilis","name:fa":"کیلیس","name:fr":"Kilis","name:hy":"Քիլիս","name:ka":"ქილისი","name:ku":"Kilîs","name:ru":"Килис","name:tr":"Kilis Merkez","name:tr:suffix":"İlçesi","name:uk":"Кіліс","name:ur":"کیلیس","name:zh":"基利斯","network":"TR79-districts","type":"boundary","wikidata":"Q206881","wikipedia":"tr:Kilis"}}]},"id":"relation/14133992"},
{"type":"Feature","geometry":{"type":"Polygon","coordinates":[[[37.1225184,36.7131058],[37.1257371,36.7140584],[37.1234381,36.7156023],[37.120724,36.7162687],[37.121526,36.7152345],[37.121778,36.7140073],[37.1225184,36.7131058]]]},"properties":{"@id":"relation/14133993","admin_level":"8","boundary":"administrative","name":"Şehit Sakıp Mahallesi","type":"boundary","@relations":[{"role":"subarea","rel":1240868,"reltags":{"admin_level":"6","boundary":"administrative","name":"Kilis Merkez","name:ar":"مركز كلس","name:de":"Kilis","name:el":"Κιλίς","name:en":"Kilis","name:es":"Kilis","name:fa":"کیلیس","name:fr":"Kilis","name:hy":"Քիլիս","name:ka":"ქილისი","name:ku":"Kilîs","name:ru":"Килис","name:tr":"Kilis Merkez","name:tr:suffix":"İlçesi","name:uk":"Кіліс","name:ur":"کیلیس","name:zh":"基利斯","network":"TR79-districts","type":"boundary","wikidata":"Q206881","wikipedia":"tr:Kilis"}}]},"id":"relation/14133993"},
{"type":"Feature","geometry":{"type":"Polygon","coordinates":[[[37.120032,36.7193841],[37.1192285,36.7190969],[37.1193266,36.7182317],[37.1228986,36.7188899],[37.120032,36.7193841]]]},"properties":{"@id":"relation/14133994","admin_level":"8","boundary":"administrative","name":"Namık Kemal Mahallesi","type":"boundary","@relations":[{"role":"subarea","rel":1240868,"reltags":{"admin_level":"6","boundary":"administrative","name":"Kilis Merkez","name:ar":"مركز كلس","name:de":"Kilis","name:el":"Κιλίς","name:en":"Kilis","name:es":"Kilis","name:fa":"کیلیس","name:fr":"Kilis","name:hy":"Քիլիս","name:ka":"ქილისი","name:ku":"Kilîs","name:ru":"Килис","name:tr":"Kilis Merkez","name:tr:suffix":"İlçesi","name:uk":"Кіліс","name:ur":"کیلیس","name:zh":"基利斯","network":"TR79-districts","type":"boundary","wikidata":"Q206881","wikipedia":"tr:Kilis"}}]},"id":"relation/14133994"},
{"type":"Feature","geometry":{"type":"Polygon","coordinates":[[[37.1193266,36.7182317],[37.1192285,36.7190969],[37.1191871,36.7192486],[37.1175349,36.7189756],[37.1180579,36.7174577],[37.1193266,36.7182317]]]},"properties":{"@id":"relation/14133995","admin_level":"8","boundary":"administrative","name":"Hacıilyas Mahallesi","type":"boundary","@relations":[{"role":"subarea","rel":1240868,"reltags":{"admin_level":"6","boundary":"administrative","name":"Kilis Merkez","name:ar":"مركز كلس","name:de":"Kilis","name:el":"Κιλίς","name:en":"Kilis","name:es":"Kilis","name:fa":"کیلیس","name:fr":"Kilis","name:hy":"Քիլիս","name:ka":"ქილისი","name:ku":"Kilîs","name:ru":"Килис","name:tr":"Kilis Merkez","name:tr:suffix":"İlçesi","name:uk":"Кіліс","name:ur":"کیلیس","name:zh":"基利斯","network":"TR79-districts","type":"boundary","wikidata":"Q206881","wikipedia":"tr:Kilis"}}]},"id":"relation/14133995"},
{"type":"Feature","geometry":{"type":"Polygon","coordinates":[[[37.1163394,36.7187426],[37.1162184,36.7170508],[37.1162555,36.7166858],[37.1180257,36.7167562],[37.1180579,36.7174577],[37.1175349,36.7189756],[37.1174812,36.718967],[37.1163394,36.7187426]]]},"properties":{"@id":"relation/14133996","admin_level":"8","boundary":"administrative","name":"Hakverdi Mahallesi","type":"boundary","@relations":[{"role":"subarea","rel":1240868,"reltags":{"admin_level":"6","boundary":"administrative","name":"Kilis Merkez","name:ar":"مركز كلس","name:de":"Kilis","name:el":"Κιλίς","name:en":"Kilis","name:es":"Kilis","name:fa":"کیلیس","name:fr":"Kilis","name:hy":"Քիլիս","name:ka":"ქილისი","name:ku":"Kilîs","name:ru":"Килис","name:tr":"Kilis Merkez","name:tr:suffix":"İlçesi","name:uk":"Кіліс","name:ur":"کیلیس","name:zh":"基利斯","network":"TR79-districts","type":"boundary","wikidata":"Q206881","wikipedia":"tr:Kilis"}}]},"id":"relation/14133996"},
{"type":"Feature","geometry":{"type":"Polygon","coordinates":[[[37.1158598,36.71864],[37.1151089,36.7181811],[37.1162184,36.7170508],[37.1163394,36.7187426],[37.1158598,36.71864]]]},"properties":{"@id":"relation/14133997","admin_level":"8","boundary":"administrative","name":"Tırıklı Mahallesi","type":"boundary","@relations":[{"role":"subarea","rel":1240868,"reltags":{"admin_level":"6","boundary":"administrative","name":"Kilis Merkez","name:ar":"مركز كلس","name:de":"Kilis","name:el":"Κιλίς","name:en":"Kilis","name:es":"Kilis","name:fa":"کیلیس","name:fr":"Kilis","name:hy":"Քիլիս","name:ka":"ქილისი","name:ku":"Kilîs","name:ru":"Килис","name:tr":"Kilis Merkez","name:tr:suffix":"İlçesi","name:uk":"Кіліс","name:ur":"کیلیس","name:zh":"基利斯","network":"TR79-districts","type":"boundary","wikidata":"Q206881","wikipedia":"tr:Kilis"}}]},"id":"relation/14133997"},
{"type":"Feature","geometry":{"type":"Polygon","coordinates":[[[37.1144959,36.7180704],[37.1144825,36.7166196],[37.114586,36.7165537],[37.1162555,36.7166858],[37.1162184,36.7170508],[37.1151089,36.7181811],[37.1144959,36.7180704]]]},"properties":{"@id":"relation/14133998","admin_level":"8","boundary":"administrative","name":"Ketenciler Mahallesi","type":"boundary","@relations":[{"role":"subarea","rel":1240868,"reltags":{"admin_level":"6","boundary":"administrative","name":"Kilis Merkez","name:ar":"مركز كلس","name:de":"Kilis","name:el":"Κιλίς","name:en":"Kilis","name:es":"Kilis","name:fa":"کیلیس","name:fr":"Kilis","name:hy":"Քիլիս","name:ka":"ქილისი","name:ku":"Kilîs","name:ru":"Килис","name:tr":"Kilis Merkez","name:tr:suffix":"İlçesi","name:uk":"Кіліс","name:ur":"کیلیس","name:zh":"基利斯","network":"TR79-districts","type":"boundary","wikidata":"Q206881","wikipedia":"tr:Kilis"}}]},"id":"relation/14133998"},
{"type":"Feature","geometry":{"type":"Polygon","coordinates":[[[37.1144825,36.7166196],[37.1144959,36.7180704],[37.1135383,36.7192391],[37.1130831,36.7192568],[37.1136336,36.7171095],[37.1144825,36.7166196]]]},"properties":{"@id":"relation/14133999","admin_level":"8","boundary":"administrative","name":"Akpınar Mahallesi","type":"boundary","@relations":[{"role":"subarea","rel":1240868,"reltags":{"admin_level":"6","boundary":"administrative","name":"Kilis Merkez","name:ar":"مركز كلس","name:de":"Kilis","name:el":"Κιλίς","name:en":"Kilis","name:es":"Kilis","name:fa":"کیلیس","name:fr":"Kilis","name:hy":"Քիլիս","name:ka":"ქილისი","name:ku":"Kilîs","name:ru":"Килис","name:tr":"Kilis Merkez","name:tr:suffix":"İlçesi","name:uk":"Кіліс","name:ur":"کیلیس","name:zh":"基利斯","network":"TR79-districts","type":"boundary","wikidata":"Q206881","wikipedia":"tr:Kilis"}}]},"id":"relation/14133999"},
{"type":"Feature","geometry":{"type":"Polygon","coordinates":[[[37.1135383,36.7192391],[37.1163251,36.720358],[37.1171031,36.7205506],[37.1176958,36.7224606],[37.1177602,36.7244084],[37.1126264,36.7252598],[37.11216,36.7193512],[37.1130831,36.7192568],[37.1135383,36.7192391]]]},"properties":{"@id":"relation/14507533","admin_level":"8","boundary":"administrative","name":"Saraç Mehmet Çavuş Mahallesi","type":"boundary","@relations":[{"role":"subarea","rel":1240868,"reltags":{"admin_level":"6","boundary":"administrative","name":"Kilis Merkez","name:ar":"مركز كلس","name:de":"Kilis","name:el":"Κιλίς","name:en":"Kilis","name:es":"Kilis","name:fa":"کیلیس","name:fr":"Kilis","name:hy":"Քիլիս","name:ka":"ქილისი","name:ku":"Kilîs","name:ru":"Килис","name:tr":"Kilis Merkez","name:tr:suffix":"İlçesi","name:uk":"Кіліс","name:ur":"کیلیس","name:zh":"基利斯","network":"TR79-districts","type":"boundary","wikidata":"Q206881","wikipedia":"tr:Kilis"}}]},"id":"relation/14507533"},
{"type":"Feature","geometry":{"type":"Polygon","coordinates":[[[37.1209187,36.7223618],[37.1207428,36.7271387],[37.1177602,36.7244084],[37.1176958,36.7224606],[37.1179587,36.7224735],[37.1209187,36.7223618]]]},"properties":{"@id":"relation/14507534","admin_level":"8","boundary":"administrative","name":"Fatih Sultan Mehmet Mahallesi","type":"boundary","@relations":[{"role":"subarea","rel":1240868,"reltags":{"admin_level":"6","boundary":"administrative","name":"Kilis Merkez","name:ar":"مركز كلس","name:de":"Kilis","name:el":"Κιλίς","name:en":"Kilis","name:es":"Kilis","name:fa":"کیلیس","name:fr":"Kilis","name:hy":"Քիլիս","name:ka":"ქილისი","name:ku":"Kilîs","name:ru":"Килис","name:tr":"Kilis Merkez","name:tr:suffix":"İlçesi","name:uk":"Кіліс","name:ur":"کیلیس","name:zh":"基利斯","network":"TR79-districts","type":"boundary","wikidata":"Q206881","wikipedia":"tr:Kilis"}}]},"id":"relation/14507534"},
{"type":"Feature","geometry":{"type":"Polygon","coordinates":[[[37.1199791,36.7202257],[37.1209145,36.7221683],[37.1209187,36.7223618],[37.1179587,36.7224735],[37.1191871,36.7192486],[37.1192285,36.7190969],[37.120032,36.7193841],[37.1199791,36.7202257]]]},"properties":{"@id":"relation/14507535","admin_level":"8","boundary":"administrative","name":"Demirciler Mahallesi","type":"boundary"},"id":"relation/14507535"},
{"type":"Feature","geometry":{"type":"Polygon","coordinates":[[[37.1171031,36.7205506],[37.1174812,36.718967],[37.1175349,36.7189756],[37.1191871,36.7192486],[37.1179587,36.7224735],[37.1176958,36.7224606],[37.1171031,36.7205506]]]},"properties":{"@id":"relation/14507536","admin_level":"8","boundary":"administrative","name":"Okçular Mahallesi","type":"boundary","@relations":[{"role":"subarea","rel":1240868,"reltags":{"admin_level":"6","boundary":"administrative","name":"Kilis Merkez","name:ar":"مركز كلس","name:de":"Kilis","name:el":"Κιλίς","name:en":"Kilis","name:es":"Kilis","name:fa":"کیلیس","name:fr":"Kilis","name:hy":"Քիլիս","name:ka":"ქილისი","name:ku":"Kilîs","name:ru":"Килис","name:tr":"Kilis Merkez","name:tr:suffix":"İlçesi","name:uk":"Кіліс","name:ur":"کیلیس","name:zh":"基利斯","network":"TR79-districts","type":"boundary","wikidata":"Q206881","wikipedia":"tr:Kilis"}}]},"id":"relation/14507536"},
{"type":"Feature","geometry":{"type":"Polygon","coordinates":[[[37.1174812,36.718967],[37.1171031,36.7205506],[37.1163251,36.720358],[37.1158598,36.71864],[37.1163394,36.7187426],[37.1174812,36.718967]]]},"properties":{"@id":"relation/14507537","admin_level":"8","boundary":"administrative","name":"Karaali Mahallesi","type":"boundary","@relations":[{"role":"subarea","rel":1240868,"reltags":{"admin_level":"6","boundary":"administrative","name":"Kilis Merkez","name:ar":"مركز كلس","name:de":"Kilis","name:el":"Κιλίς","name:en":"Kilis","name:es":"Kilis","name:fa":"کیلیس","name:fr":"Kilis","name:hy":"Քիլիս","name:ka":"ქილისი","name:ku":"Kilîs","name:ru":"Килис","name:tr":"Kilis Merkez","name:tr:suffix":"İlçesi","name:uk":"Кіліс","name:ur":"کیلیس","name:zh":"基利斯","network":"TR79-districts","type":"boundary","wikidata":"Q206881","wikipedia":"tr:Kilis"}}]},"id":"relation/14507537"},
{"type":"Feature","geometry":{"type":"Polygon","coordinates":[[[37.1151089,36.7181811],[37.1158598,36.71864],[37.1163251,36.720358],[37.1135383,36.7192391],[37.1144959,36.7180704],[37.1151089,36.7181811]]]},"properties":{"@id":"relation/14507538","admin_level":"8","boundary":"administrative","name":"Müslüman Bey Mahallesi","type":"boundary","@relations":[{"role":"subarea","rel":1240868,"reltags":{"admin_level":"6","boundary":"administrative","name":"Kilis Merkez","name:ar":"مركز كلس","name:de":"Kilis","name:el":"Κιλίς","name:en":"Kilis","name:es":"Kilis","name:fa":"کیلیس","name:fr":"Kilis","name:hy":"Քիլիս","name:ka":"ქილისი","name:ku":"Kilîs","name:ru":"Килис","name:tr":"Kilis Merkez","name:tr:suffix":"İlçesi","name:uk":"Кіліс","name:ur":"کیلیس","name:zh":"基利斯","network":"TR79-districts","type":"boundary","wikidata":"Q206881","wikipedia":"tr:Kilis"}}]},"id":"relation/14507538"},
{"type":"Feature","geometry":{"type":"Polygon","coordinates":[[[37.1112102,36.7255435],[37.1126264,36.7252598],[37.1177602,36.7244084],[37.1207428,36.7271387],[37.1115697,36.7266657],[37.1112102,36.7255435]]]},"properties":{"@id":"relation/14507539","admin_level":"8","boundary":"administrative","name":"Namık Ünler Paşa Mahallesi","type":"boundary","@relations":[{"role":"subarea","rel":1240868,"reltags":{"admin_level":"6","boundary":"administrative","name":"Kilis Merkez","name:ar":"مركز كلس","name:de":"Kilis","name:el":"Κιλίς","name:en":"Kilis","name:es":"Kilis","name:fa":"کیلیس","name:fr":"Kilis","name:hy":"Քիլիս","name:ka":"ქილისი","name:ku":"Kilîs","name:ru":"Килис","name:tr":"Kilis Merkez","name:tr:suffix":"İlçesi","name:uk":"Кіліс","name:ur":"کیلیس","name:zh":"基利斯","network":"TR79-districts","type":"boundary","wikidata":"Q206881","wikipedia":"tr:Kilis"}}]},"id":"relation/14507539"},
{"type":"Feature","geometry":{"type":"Polygon","coordinates":[[[37.1199791,36.7202257],[37.123815,36.7218697],[37.1209145,36.7221683],[37.1199791,36.7202257]]]},"properties":{"@id":"relation/14507540","admin_level":"8","boundary":"administrative","name":"Muallim Rıfat Bilge Mahallesi","type":"boundary","@relations":[{"role":"subarea","rel":1240868,"reltags":{"admin_level":"6","boundary":"administrative","name":"Kilis Merkez","name:ar":"مركز كلس","name:de":"Kilis","name:el":"Κιλίς","name:en":"Kilis","name:es":"Kilis","name:fa":"کیلیس","name:fr":"Kilis","name:hy":"Քիլիս","name:ka":"ქილისი","name:ku":"Kilîs","name:ru":"Килис","name:tr":"Kilis Merkez","name:tr:suffix":"İlçesi","name:uk":"Кіліс","name:ur":"کیلیس","name:zh":"基利斯","network":"TR79-districts","type":"boundary","wikidata":"Q206881","wikipedia":"tr:Kilis"}}]},"id":"relation/14507540"},
{"type":"Feature","geometry":{"type":"Polygon","coordinates":[[[37.1209145,36.7221683],[37.123815,36.7218697],[37.1240634,36.7221468],[37.1248519,36.7264508],[37.1207428,36.7271387],[37.1209187,36.7223618],[37.1209145,36.7221683]]]},"properties":{"@id":"relation/14507541","admin_level":"8","boundary":"administrative","name":"Şörhabil Mahallesi","type":"boundary","@relations":[{"role":"subarea","rel":1240868,"reltags":{"admin_level":"6","boundary":"administrative","name":"Kilis Merkez","name:ar":"مركز كلس","name:de":"Kilis","name:el":"Κιλίς","name:en":"Kilis","name:es":"Kilis","name:fa":"کیلیس","name:fr":"Kilis","name:hy":"Քիլիս","name:ka":"ქილისი","name:ku":"Kilîs","name:ru":"Килис","name:tr":"Kilis Merkez","name:tr:suffix":"İlçesi","name:uk":"Кіліс","name:ur":"کیلیس","name:zh":"基利斯","network":"TR79-districts","type":"boundary","wikidata":"Q206881","wikipedia":"tr:Kilis"}}]},"id":"relation/14507541"},
{"type":"Feature","geometry":{"type":"Polygon","coordinates":[[[37.1199791,36.7202257],[37.120032,36.7193841],[37.1228986,36.7188899],[37.1246199,36.7190758],[37.124117,36.7219232],[37.1240634,36.7221468],[37.123815,36.7218697],[37.1199791,36.7202257]]]},"properties":{"@id":"relation/14507542","admin_level":"8","boundary":"administrative","name":"Kanuni Sultan Süleyman Mahallesi","type":"boundary","@relations":[{"role":"subarea","rel":1240868,"reltags":{"admin_level":"6","boundary":"administrative","name":"Kilis Merkez","name:ar":"مركز كلس","name:de":"Kilis","name:el":"Κιλίς","name:en":"Kilis","name:es":"Kilis","name:fa":"کیلیس","name:fr":"Kilis","name:hy":"Քիլիս","name:ka":"ქილისი","name:ku":"Kilîs","name:ru":"Килис","name:tr":"Kilis Merkez","name:tr:suffix":"İlçesi","name:uk":"Кіліс","name:ur":"کیلیس","name:zh":"基利斯","network":"TR79-districts","type":"boundary","wikidata":"Q206881","wikipedia":"tr:Kilis"}}]},"id":"relation/14507542"},
{"type":"Feature","geometry":{"type":"Polygon","coordinates":[[[37.1273464,36.7186466],[37.1297757,36.7226339],[37.124117,36.7219232],[37.1246199,36.7190758],[37.1273464,36.7186466]]]},"properties":{"@id":"relation/14507543","admin_level":"8","boundary":"administrative","name":"Bilali Habeş Mahallesi","type":"boundary","@relations":[{"role":"subarea","rel":1240868,"reltags":{"admin_level":"6","boundary":"administrative","name":"Kilis Merkez","name:ar":"مركز كلس","name:de":"Kilis","name:el":"Κιλίς","name:en":"Kilis","name:es":"Kilis","name:fa":"کیلیس","name:fr":"Kilis","name:hy":"Քիլիս","name:ka":"ქილისი","name:ku":"Kilîs","name:ru":"Килис","name:tr":"Kilis Merkez","name:tr:suffix":"İlçesi","name:uk":"Кіліс","name:ur":"کیلیس","name:zh":"基利斯","network":"TR79-districts","type":"boundary","wikidata":"Q206881","wikipedia":"tr:Kilis"}}]},"id":"relation/14507543"},
{"type":"Feature","geometry":{"type":"Polygon","coordinates":[[[37.1489918,36.7358491],[37.1497965,36.7412915],[37.146846,36.7432001],[37.1440995,36.748685],[37.1347546,36.7476706],[37.1311283,36.7426843],[37.1249485,36.7429938],[37.1250987,36.7401394],[37.1217298,36.7343788],[37.1226525,36.7301827],[37.1207428,36.7271387],[37.1248519,36.7264508],[37.1240634,36.7221468],[37.124117,36.7219232],[37.1297757,36.7226339],[37.1347654,36.7326247],[37.1415245,36.7357373],[37.1489918,36.7358491]]]},"properties":{"@id":"relation/14507544","admin_level":"8","boundary":"administrative","name":"Helvacıoğlu Mahallesi","type":"boundary","@relations":[{"role":"subarea","rel":1240868,"reltags":{"admin_level":"6","boundary":"administrative","name":"Kilis Merkez","name:ar":"مركز كلس","name:de":"Kilis","name:el":"Κιλίς","name:en":"Kilis","name:es":"Kilis","name:fa":"کیلیس","name:fr":"Kilis","name:hy":"Քիլիս","name:ka":"ქილისი","name:ku":"Kilîs","name:ru":"Килис","name:tr":"Kilis Merkez","name:tr:suffix":"İlçesi","name:uk":"Кіліс","name:ur":"کیلیس","name:zh":"基利斯","network":"TR79-districts","type":"boundary","wikidata":"Q206881","wikipedia":"tr:Kilis"}}]},"id":"relation/14507544"},
{"type":"Feature","geometry":{"type":"Polygon","coordinates":[[[37.1234381,36.7156023],[37.1257371,36.7140584],[37.1308604,36.7122186],[37.1311725,36.7124273],[37.1382401,36.7176394],[37.1592486,36.7218415],[37.1649563,36.7249545],[37.1764362,36.7272161],[37.1811032,36.7302085],[37.178759,36.7392882],[37.169044,36.7376159],[37.1645486,36.7347141],[37.1507299,36.7313091],[37.1489918,36.7358491],[37.1415245,36.7357373],[37.1347654,36.7326247],[37.1297757,36.7226339],[37.1273464,36.7186466],[37.1234381,36.7156023]]]},"properties":{"@id":"relation/14507545","admin_level":"8","boundary":"administrative","name":"Yaşar Aktürk Mahallesi","type":"boundary","@relations":[{"role":"subarea","rel":1240868,"reltags":{"admin_level":"6","boundary":"administrative","name":"Kilis Merkez","name:ar":"مركز كلس","name:de":"Kilis","name:el":"Κιλίς","name:en":"Kilis","name:es":"Kilis","name:fa":"کیلیس","name:fr":"Kilis","name:hy":"Քիլիս","name:ka":"ქილისი","name:ku":"Kilîs","name:ru":"Килис","name:tr":"Kilis Merkez","name:tr:suffix":"İlçesi","name:uk":"Кіліс","name:ur":"کیلیس","name:zh":"基利斯","network":"TR79-districts","type":"boundary","wikidata":"Q206881","wikipedia":"tr:Kilis"}}]},"id":"relation/14507545"},
{"type":"Feature","geometry":{"type":"Polygon","coordinates":[[[37.1311725,36.7124273],[37.1375656,36.7128199],[37.1559012,36.7117104],[37.1654928,36.7130263],[37.1690225,36.7108761],[37.1724129,36.7135767],[37.1837211,36.71411],[37.1819937,36.7186079],[37.1811032,36.7302085],[37.1764362,36.7272161],[37.1649563,36.7249545],[37.1592486,36.7218415],[37.1382401,36.7176394],[37.1311725,36.7124273]]]},"properties":{"@id":"relation/14507546","admin_level":"8","boundary":"administrative","name":"Albay İbrahim Karaoğlanoğlu Mahallesi","type":"boundary","@relations":[{"role":"subarea","rel":1240868,"reltags":{"admin_level":"6","boundary":"administrative","name":"Kilis Merkez","name:ar":"مركز كلس","name:de":"Kilis","name:el":"Κιλίς","name:en":"Kilis","name:es":"Kilis","name:fa":"کیلیس","name:fr":"Kilis","name:hy":"Քիլիս","name:ka":"ქილისი","name:ku":"Kilîs","name:ru":"Килис","name:tr":"Kilis Merkez","name:tr:suffix":"İlçesi","name:uk":"Кіліс","name:ur":"کیلیس","name:zh":"基利斯","network":"TR79-districts","type":"boundary","wikidata":"Q206881","wikipedia":"tr:Kilis"}}]},"id":"relation/14507546"},
{"type":"Feature","geometry":{"type":"Polygon","coordinates":[[[37.1311725,36.7124273],[37.1308604,36.7122186],[37.1321127,36.7119673],[37.1490759,36.7086949],[37.1702027,36.7038488],[37.1829057,36.7058186],[37.1837211,36.71411],[37.1724129,36.7135767],[37.1690225,36.7108761],[37.1654928,36.7130263],[37.1559012,36.7117104],[37.1375656,36.7128199],[37.1311725,36.7124273]]]},"properties":{"@id":"relation/14507547","admin_level":"8","boundary":"administrative","name":"Doğan Güreş Paşa Mahallesi","type":"boundary","@relations":[{"role":"subarea","rel":1240868,"reltags":{"admin_level":"6","boundary":"administrative","name":"Kilis Merkez","name:ar":"مركز كلس","name:de":"Kilis","name:el":"Κιλίς","name:en":"Kilis","name:es":"Kilis","name:fa":"کیلیس","name:fr":"Kilis","name:hy":"Քիլիս","name:ka":"ქილისი","name:ku":"Kilîs","name:ru":"Килис","name:tr":"Kilis Merkez","name:tr:suffix":"İlçesi","name:uk":"Кіліс","name:ur":"کیلیس","name:zh":"基利斯","network":"TR79-districts","type":"boundary","wikidata":"Q206881","wikipedia":"tr:Kilis"}}]},"id":"relation/14507547"},
{"type":"Feature","geometry":{"type":"Polygon","coordinates":[[[37.11216,36.7193512],[37.1126264,36.7252598],[37.1112102,36.7255435],[37.110765,36.7198678],[37.1108837,36.7196788],[37.11216,36.7193512]]]},"properties":{"@id":"relation/14507548","admin_level":"8","boundary":"administrative","name":"Mareşal Fevzi Çakmak Mahallesi","type":"boundary","@relations":[{"role":"subarea","rel":1240868,"reltags":{"admin_level":"6","boundary":"administrative","name":"Kilis Merkez","name:ar":"مركز كلس","name:de":"Kilis","name:el":"Κιλίς","name:en":"Kilis","name:es":"Kilis","name:fa":"کیلیس","name:fr":"Kilis","name:hy":"Քիլիս","name:ka":"ქილისი","name:ku":"Kilîs","name:ru":"Килис","name:tr":"Kilis Merkez","name:tr:suffix":"İlçesi","name:uk":"Кіліс","name:ur":"کیلیس","name:zh":"基利斯","network":"TR79-districts","type":"boundary","wikidata":"Q206881","wikipedia":"tr:Kilis"}}]},"id":"relation/14507548"},
{"type":"Feature","geometry":{"type":"Polygon","coordinates":[[[37.1207428,36.7271387],[37.1226525,36.7301827],[37.1217298,36.7343788],[37.1250987,36.7401394],[37.1249485,36.7429938],[37.1311283,36.7426843],[37.1347546,36.7476706],[37.1100569,36.7455643],[37.111634,36.739529],[37.1115697,36.7266657],[37.1207428,36.7271387]]]},"properties":{"@id":"relation/14507549","admin_level":"8","boundary":"administrative","name":"Mücahitler Mahallesi","type":"boundary","@relations":[{"role":"subarea","rel":1240868,"reltags":{"admin_level":"6","boundary":"administrative","name":"Kilis Merkez","name:ar":"مركز كلس","name:de":"Kilis","name:el":"Κιλίς","name:en":"Kilis","name:es":"Kilis","name:fa":"کیلیس","name:fr":"Kilis","name:hy":"Քիլիս","name:ka":"ქილისი","name:ku":"Kilîs","name:ru":"Килис","name:tr":"Kilis Merkez","name:tr:suffix":"İlçesi","name:uk":"Кіліс","name:ur":"کیلیس","name:zh":"基利斯","network":"TR79-districts","type":"boundary","wikidata":"Q206881","wikipedia":"tr:Kilis"}}]},"id":"relation/14507549"},
{"type":"Feature","geometry":{"type":"Polygon","coordinates":[[[37.1049285,36.7063261],[37.097311,36.7061971],[37.093116,36.7045972],[37.0869899,36.7000124],[37.0690405,36.692055],[37.0630646,36.6874695],[37.0476955,36.6815371],[37.0505762,36.6767315],[37.0536017,36.6781599],[37.0637512,36.6775748],[37.0695019,36.6800357],[37.0779133,36.6797259],[37.0801771,36.6703638],[37.0771408,36.6675067],[37.0678818,36.6624033],[37.0575111,36.6541931],[37.0571179,36.6454212],[37.0856366,36.6344097],[37.0872474,36.6379231],[37.0860779,36.6458172],[37.0894468,36.6531166],[37.1106148,36.7041241],[37.1049285,36.7063261]]]},"properties":{"@id":"relation/17225402","admin_level":"8","boundary":"administrative","name":"Mehmet Abdi Bulut Mahallesi","type":"boundary","@relations":[{"role":"subarea","rel":1240868,"reltags":{"admin_level":"6","boundary":"administrative","name":"Kilis Merkez","name:ar":"مركز كلس","name:de":"Kilis","name:el":"Κιλίς","name:en":"Kilis","name:es":"Kilis","name:fa":"کیلیس","name:fr":"Kilis","name:hy":"Քիլիս","name:ka":"ქილისი","name:ku":"Kilîs","name:ru":"Килис","name:tr":"Kilis Merkez","name:tr:suffix":"İlçesi","name:uk":"Кіліс","name:ur":"کیلیس","name:zh":"基利斯","network":"TR79-districts","type":"boundary","wikidata":"Q206881","wikipedia":"tr:Kilis"}}]},"id":"relation/17225402"}
]}