{"type":"FeatureCollection", "features": [
{"type":"Feature","geometry":{"type":"Polygon","coordinates":[[[33.4235701,39.5633554],[33.3977976,39.536756],[33.4104416,39.5177838],[33.3910252,39.4995413],[33.4188531,39.4741363],[33.3937047,39.4564111],[33.3851551,39.4107331],[33.4242883,39.3994163],[33.4477671,39.4307633],[33.5065754,39.4174912],[33.5738753,39.4458736],[33.6054697,39.4732317],[33.4898775,39.5527556],[33.4369402,39.5539964],[33.4235701,39.5633554]]]},"properties":{"@id":"relation/1251085","admin_level":"6","boundary":"administrative","name":"Çelebi","name:ce":"Челеби","name:de":"Çelebi","name:en":"Çelebi","name:tr":"Çelebi","name:tr:suffix":"İlçesi","network":"TR71-districts","type":"boundary","wikidata":"Q2424608","wikipedia":"tr:Çelebi, Kırıkkale"},"id":"relation/1251085"},
{"type":"Feature","geometry":{"type":"Polygon","coordinates":[[[33.4495506,39.6269473],[33.3279646,39.6270211],[33.3168124,39.6016543],[33.3220481,39.5565375],[33.3150958,39.5225814],[33.3450507,39.5080804],[33.3453082,39.4668122],[33.3937047,39.4564111],[33.4188531,39.4741363],[33.3910252,39.4995413],[33.4104416,39.5177838],[33.3977976,39.536756],[33.4235701,39.5633554],[33.4495506,39.6269473]]]},"properties":{"@id":"relation/1251090","admin_level":"6","alt_name":"Karakeçeli","boundary":"administrative","name":"Karakeçili","name:ce":"Каракечили","name:de":"Karakeçili","name:en":"Karakeçili","name:tr":"Karakeçili","name:tr:suffix":"İlçesi","network":"TR71-districts","type":"boundary","wikidata":"Q2671089","wikipedia":"tr:Karakeçili"},"id":"relation/1251090"},
{"type":"Feature","geometry":{"type":"Polygon","coordinates":[[[33.673294,39.7970161],[33.6486266,39.7799704],[33.6036138,39.7844962],[33.5715182,39.7575245],[33.4955467,39.7279753],[33.4624652,39.6875935],[33.4483743,39.669642],[33.4834306,39.6553978],[33.4495506,39.6269473],[33.4235701,39.5633554],[33.4369402,39.5539964],[33.4898775,39.5527556],[33.6054697,39.4732317],[33.6465014,39.4849184],[33.6875123,39.5114646],[33.7311421,39.4658653],[33.7563441,39.4781902],[33.7747286,39.5067605],[33.7298956,39.513854],[33.7320751,39.5281782],[33.7720669,39.5363682],[33.8551363,39.5782139],[33.8629991,39.6052898],[33.9067131,39.6579464],[33.9602992,39.6761937],[33.9578617,39.7053661],[33.9769425,39.7238174],[33.9538505,39.7709995],[33.8902398,39.7865717],[33.8527738,39.8187079],[33.835745,39.8030372],[33.7821461,39.7869625],[33.7330352,39.7996018],[33.673294,39.7970161]]]},"properties":{"@id":"relation/1251131","admin_level":"6","alt_name:el":"Κεσκίν","boundary":"administrative","name":"Keskin","name:ce":"Кешкин","name:de":"Keskin","name:el":"Κωκυσός","name:en":"Keskin","name:fa":"کسکین","name:tr":"Keskin","name:tr:suffix":"İlçesi","name:zh":"凱斯金","network":"TR71-districts","old_name":"Denek madeni","type":"boundary","wikidata":"Q596731","wikipedia":"tr:Keskin"},"id":"relation/1251131"},
{"type":"Feature","geometry":{"type":"Polygon","coordinates":[[[33.5393278,40.0368339],[33.4699344,39.9767255],[33.4480989,39.9881419],[33.4189828,39.9489376],[33.3896827,39.9633724],[33.3766364,39.9260619],[33.33149,39.9138307],[33.3037033,39.8884356],[33.311747,39.8755547],[33.2682323,39.8480193],[33.2982811,39.8217649],[33.2769906,39.7918788],[33.2859332,39.760436],[33.3519426,39.7771514],[33.382741,39.8012179],[33.4633509,39.8225327],[33.4789146,39.8416437],[33.4812596,39.8441246],[33.4835326,39.8572438],[33.4844847,39.8682934],[33.5163721,39.8885484],[33.5326915,39.9241261],[33.5643506,39.9675131],[33.5674936,40.0090879],[33.5393278,40.0368339]]]},"properties":{"@id":"relation/1251196","admin_level":"6","boundary":"administrative","name":"Yahşihan","name:ce":"ЙахӀшихӀан","name:de":"Yahşihan","name:en":"Yahşihan","name:fa":"یاخشی‌خان","name:tr":"Yahşihan","name:tr:suffix":"İlçesi","name:ur":"یاحشی خان","name:zh":"亞赫希漢","network":"TR71-districts","type":"boundary","wikidata":"Q1980493","wikipedia":"tr:Yahşihan"},"id":"relation/1251196"},
{"type":"Feature","geometry":{"type":"Polygon","coordinates":[[[33.8527738,39.8187079],[33.8902398,39.7865717],[33.9538505,39.7709995],[33.9769425,39.7238174],[34.0627407,39.7881246],[34.1033006,39.8030254],[34.0606553,39.8351561],[34.0947723,39.8859776],[34.0951588,39.908757],[34.1668467,39.9378722],[34.2078037,39.9719976],[34.1429546,40.0427169],[34.0913789,40.0697092],[34.0757464,40.115882],[34.0810713,40.1456131],[34.061618,40.1970729],[33.9947305,40.1901148],[33.9280136,40.1465996],[33.8938127,40.0729053],[33.879336,40.0181948],[33.902804,40.0030641],[33.8910832,39.9316008],[33.8750897,39.902215],[33.8326664,39.8582501],[33.8527738,39.8187079]]]},"properties":{"@id":"relation/1251197","admin_level":"6","boundary":"administrative","name":"Delice","name:ce":"Делидже","name:de":"Delice","name:en":"Delice","name:tr":"Delice","name:tr:suffix":"İlçesi","network":"TR71-districts","type":"boundary","wikidata":"Q2499402","wikipedia":"tr:Delice"},"id":"relation/1251197"},
{"type":"Feature","geometry":{"type":"Polygon","coordinates":[[[33.673294,39.7970161],[33.7330352,39.7996018],[33.7821461,39.7869625],[33.835745,39.8030372],[33.8527738,39.8187079],[33.8326664,39.8582501],[33.8750897,39.902215],[33.8910832,39.9316008],[33.902804,40.0030641],[33.879336,40.0181948],[33.8938127,40.0729053],[33.8590667,40.0859452],[33.7851579,40.100184],[33.7240874,40.0810306],[33.7101254,40.0675611],[33.6522499,40.0500661],[33.6211821,40.0583658],[33.5996034,40.0197259],[33.5936238,39.9764938],[33.6239338,39.9681134],[33.6398198,39.9401035],[33.628943,39.9013276],[33.6873136,39.8307516],[33.673294,39.7970161]]]},"properties":{"@id":"relation/1251198","admin_level":"6","alt_name":"Balışıh","boundary":"administrative","name":"Balışeyh","name:ce":"БалишейхӀ","name:de":"Balışıh","name:en":"Balışıh","name:tr":"Balışıh","name:tr:suffix":"İlçesi","network":"TR71-districts","type":"boundary","wikidata":"Q2300781","wikipedia":"tr:Balışeyh"},"id":"relation/1251198"},
{"type":"Feature","geometry":{"type":"Polygon","coordinates":[[[33.6211821,40.0583658],[33.6063913,40.0730933],[33.5943417,40.0775009],[33.5451818,40.0593251],[33.5393278,40.0368339],[33.5674936,40.0090879],[33.5643506,39.9675131],[33.5326915,39.9241261],[33.5163721,39.8885484],[33.4844847,39.8682934],[33.4835326,39.8572438],[33.4812596,39.8441246],[33.4789146,39.8416437],[33.4633509,39.8225327],[33.479953,39.8179351],[33.4637079,39.7954407],[33.4860472,39.7692919],[33.4711903,39.7569897],[33.4296658,39.7607458],[33.4022393,39.7307141],[33.3978906,39.7086837],[33.4624652,39.6875935],[33.4955467,39.7279753],[33.5715182,39.7575245],[33.6036138,39.7844962],[33.6486266,39.7799704],[33.673294,39.7970161],[33.6873136,39.8307516],[33.628943,39.9013276],[33.6398198,39.9401035],[33.6239338,39.9681134],[33.5936238,39.9764938],[33.5996034,40.0197259],[33.6211821,40.0583658]]]},"properties":{"@id":"relation/1251199","admin_level":"6","boundary":"administrative","name":"Kırıkkale Merkez","name:ce":"Кириккале","name:de":"Kırıkkale","name:el":"Κιρίκαλε","name:en":"Kırıkkale","name:fa":"قیریق‌قلعه","name:hy":"Քըրըքքալեի մարզ","name:ja":"クルッカレ","name:ka":"ქირიქკალე","name:ko":"크르칼레","name:ku":"Kirikkale","name:ru":"Кырыккале","name:sr":"Кирикале","name:tg":"Қириққалъа","name:tr":"Kırıkkale Merkez","name:tr:suffix":"İlçesi","name:uk":"Кириккале","name:ur":"قیریق قلعہ","name:uz":"Qirqqalʼa","name:zh":"克勒克卡萊","name:zza":"Qırıxqele","network":"TR71-districts","type":"boundary","wikidata":"Q206891","wikipedia":"tr:Kırıkkale"},"id":"relation/1251199"},
{"type":"Feature","geometry":{"type":"Polygon","coordinates":[[[33.2859332,39.760436],[33.2559664,39.7123155],[33.1925766,39.6750185],[33.1883239,39.6532181],[33.2312392,39.6432389],[33.261795,39.6775323],[33.3063411,39.6537468],[33.3279646,39.6270211],[33.4495506,39.6269473],[33.4834306,39.6553978],[33.4483743,39.669642],[33.4624652,39.6875935],[33.3978906,39.7086837],[33.4022393,39.7307141],[33.4296658,39.7607458],[33.4711903,39.7569897],[33.4860472,39.7692919],[33.4637079,39.7954407],[33.479953,39.8179351],[33.4633509,39.8225327],[33.382741,39.8012179],[33.3519426,39.7771514],[33.2859332,39.760436]]]},"properties":{"@id":"relation/1251200","admin_level":"6","boundary":"administrative","name":"Bahşılı","name:ce":"БахӀшили","name:de":"Bahşılı","name:en":"Bahşılı","name:tr":"Bahşılı","name:tr:suffix":"İlçesi","network":"TR71-districts","type":"boundary","wikidata":"Q2671055","wikipedia":"tr:Bahşılı"},"id":"relation/1251200"},
{"type":"Feature","geometry":{"type":"Polygon","coordinates":[[[33.6063913,40.0730933],[33.6211821,40.0583658],[33.6522499,40.0500661],[33.7101254,40.0675611],[33.7240874,40.0810306],[33.7851579,40.100184],[33.8590667,40.0859452],[33.8938127,40.0729053],[33.9280136,40.1465996],[33.9947305,40.1901148],[33.9664122,40.249114],[33.8780453,40.2666927],[33.7935695,40.2676472],[33.7915419,40.3194569],[33.7581476,40.3192397],[33.6933866,40.3327638],[33.6573939,40.3229996],[33.606058,40.3338432],[33.6281604,40.2852784],[33.6227595,40.2457664],[33.6055437,40.2148884],[33.6502502,40.1830715],[33.6369876,40.1506411],[33.611132,40.1272981],[33.6147899,40.1038223],[33.5943417,40.0775009],[33.6063913,40.0730933]]]},"properties":{"@id":"relation/1251201","admin_level":"6","boundary":"administrative","name":"Sulakyurt","name:ce":"Сулакйурт","name:de":"Sulakyurt","name:en":"Sulakyurt","name:tr":"Sulakyurt","name:tr:suffix":"İlçesi","network":"TR71-districts","old_name":"Yukarı Şamil;Yukarı Şamlı;Yukarışamı;Şeyhşami-i Kebîr","type":"boundary","wikidata":"Q2557043","wikipedia":"tr:Sulakyurt"},"id":"relation/1251201"},
{"type":"Feature","geometry":{"type":"Polygon","coordinates":[[[33.5719728,39.8730998],[33.5555449,39.8704051],[33.5657472,39.849159],[33.5783793,39.8532116],[33.5719728,39.8730998]]]},"properties":{"@id":"relation/4627613","admin_level":"8","alt_name":"Akşemsettin Mah.","boundary":"administrative","name":"Akşemsettin Mahallesi","type":"boundary","@relations":[{"role":"subarea","rel":1251199,"reltags":{"admin_level":"6","boundary":"administrative","name":"Kırıkkale Merkez","name:ce":"Кириккале","name:de":"Kırıkkale","name:el":"Κιρίκαλε","name:en":"Kırıkkale","name:fa":"قیریق‌قلعه","name:hy":"Քըրըքքալեի մարզ","name:ja":"クルッカレ","name:ka":"ქირიქკალე","name:ko":"크르칼레","name:ku":"Kirikkale","name:ru":"Кырыккале","name:sr":"Кирикале","name:tg":"Қириққалъа","name:tr":"Kırıkkale Merkez","name:tr:suffix":"İlçesi","name:uk":"Кириккале","name:ur":"قیریق قلعہ","name:uz":"Qirqqalʼa","name:zh":"克勒克卡萊","name:zza":"Qırıxqele","network":"TR71-districts","type":"boundary","wikidata":"Q206891","wikipedia":"tr:Kırıkkale"}}]},"id":"relation/4627613"},
{"type":"Feature","geometry":{"type":"Polygon","coordinates":[[[33.5958738,39.8709328],[33.5944578,39.8598842],[33.5995148,39.846757],[33.5958738,39.8709328]]]},"properties":{"@id":"relation/4627614","admin_level":"8","alt_name":"Aşağı Mahmutlar Mahallesi","boundary":"administrative","name":"Aşağımahmutlar Mahallesi","type":"boundary","@relations":[{"role":"subarea","rel":1251199,"reltags":{"admin_level":"6","boundary":"administrative","name":"Kırıkkale Merkez","name:ce":"Кириккале","name:de":"Kırıkkale","name:el":"Κιρίκαλε","name:en":"Kırıkkale","name:fa":"قیریق‌قلعه","name:hy":"Քըրըքքալեի մարզ","name:ja":"クルッカレ","name:ka":"ქირიქკალე","name:ko":"크르칼레","name:ku":"Kirikkale","name:ru":"Кырыккале","name:sr":"Кирикале","name:tg":"Қириққалъа","name:tr":"Kırıkkale Merkez","name:tr:suffix":"İlçesi","name:uk":"Кириккале","name:ur":"قیریق قلعہ","name:uz":"Qirqqalʼa","name:zh":"克勒克卡萊","name:zza":"Qırıxqele","network":"TR71-districts","type":"boundary","wikidata":"Q206891","wikipedia":"tr:Kırıkkale"}}]},"id":"relation/4627614"},
{"type":"Feature","geometry":{"type":"Polygon","coordinates":[[[33.5126807,39.8395012],[33.508872,39.8397351],[33.5067478,39.8391575],[33.5202332,39.8296585],[33.5303553,39.8301287],[33.5370351,39.8356948],[33.5397069,39.8418958],[33.5287769,39.8401696],[33.5220876,39.8399161],[33.5126807,39.8395012]]]},"properties":{"@id":"relation/4627615","admin_level":"8","alt_name":"Bahçelievler Mah.","boundary":"administrative","name":"Bahçelievler Mahallesi","type":"boundary","@relations":[{"role":"subarea","rel":1251199,"reltags":{"admin_level":"6","boundary":"administrative","name":"Kırıkkale Merkez","name:ce":"Кириккале","name:de":"Kırıkkale","name:el":"Κιρίκαλε","name:en":"Kırıkkale","name:fa":"قیریق‌قلعه","name:hy":"Քըրըքքալեի մարզ","name:ja":"クルッカレ","name:ka":"ქირიქკალე","name:ko":"크르칼레","name:ku":"Kirikkale","name:ru":"Кырыккале","name:sr":"Кирикале","name:tg":"Қириққалъа","name:tr":"Kırıkkale Merkez","name:tr:suffix":"İlçesi","name:uk":"Кириккале","name:ur":"قیریق قلعہ","name:uz":"Qirqqalʼa","name:zh":"克勒克卡萊","name:zza":"Qırıxqele","network":"TR71-districts","type":"boundary","wikidata":"Q206891","wikipedia":"tr:Kırıkkale"}}]},"id":"relation/4627615"},
{"type":"Feature","geometry":{"type":"Polygon","coordinates":[[[33.4835326,39.8572438],[33.4967523,39.8520573],[33.5016853,39.8506603],[33.5024175,39.8504668],[33.502435,39.8589047],[33.5002597,39.867091],[33.4844847,39.8682934],[33.4835326,39.8572438]]]},"properties":{"@id":"relation/4627616","admin_level":"8","alt_name":"Bağlarbaşı Mah.","boundary":"administrative","name":"Bağlarbaşı Mahallesi","type":"boundary","@relations":[{"role":"subarea","rel":1251199,"reltags":{"admin_level":"6","boundary":"administrative","name":"Kırıkkale Merkez","name:ce":"Кириккале","name:de":"Kırıkkale","name:el":"Κιρίκαλε","name:en":"Kırıkkale","name:fa":"قیریق‌قلعه","name:hy":"Քըրըքքալեի մարզ","name:ja":"クルッカレ","name:ka":"ქირიქკალე","name:ko":"크르칼레","name:ku":"Kirikkale","name:ru":"Кырыккале","name:sr":"Кирикале","name:tg":"Қириққалъа","name:tr":"Kırıkkale Merkez","name:tr:suffix":"İlçesi","name:uk":"Кириккале","name:ur":"قیریق قلعہ","name:uz":"Qirqqalʼa","name:zh":"克勒克卡萊","name:zza":"Qırıxqele","network":"TR71-districts","type":"boundary","wikidata":"Q206891","wikipedia":"tr:Kırıkkale"}}]},"id":"relation/4627616"},
{"type":"Feature","geometry":{"type":"Polygon","coordinates":[[[33.5268602,39.8696991],[33.513421,39.8663929],[33.51049,39.8484064],[33.5176798,39.8465008],[33.5268602,39.8696991]]]},"properties":{"@id":"relation/4627617","admin_level":"8","alt_name":"Etiler Mah.","boundary":"administrative","name":"Etiler Mahallesi","type":"boundary","@relations":[{"role":"subarea","rel":1251199,"reltags":{"admin_level":"6","boundary":"administrative","name":"Kırıkkale Merkez","name:ce":"Кириккале","name:de":"Kırıkkale","name:el":"Κιρίκαλε","name:en":"Kırıkkale","name:fa":"قیریق‌قلعه","name:hy":"Քըրըքքալեի մարզ","name:ja":"クルッカレ","name:ka":"ქირიქკალე","name:ko":"크르칼레","name:ku":"Kirikkale","name:ru":"Кырыккале","name:sr":"Кирикале","name:tg":"Қириққалъа","name:tr":"Kırıkkale Merkez","name:tr:suffix":"İlçesi","name:uk":"Кириккале","name:ur":"قیریق قلعہ","name:uz":"Qirqqalʼa","name:zh":"克勒克卡萊","name:zza":"Qırıxqele","network":"TR71-districts","type":"boundary","wikidata":"Q206891","wikipedia":"tr:Kırıkkale"}}]},"id":"relation/4627617"},
{"type":"Feature","geometry":{"type":"Polygon","coordinates":[[[33.5032196,39.8422828],[33.4954207,39.8393584],[33.4802372,39.8245214],[33.479953,39.8179351],[33.4637079,39.7954407],[33.5139691,39.8194012],[33.5202332,39.8296585],[33.5067478,39.8391575],[33.505382,39.8401605],[33.5032196,39.8422828]]]},"properties":{"@id":"relation/4627618","admin_level":"8","boundary":"administrative","name":"Fabrikalar Mahallesi","type":"boundary","@relations":[{"role":"subarea","rel":1251199,"reltags":{"admin_level":"6","boundary":"administrative","name":"Kırıkkale Merkez","name:ce":"Кириккале","name:de":"Kırıkkale","name:el":"Κιρίκαλε","name:en":"Kırıkkale","name:fa":"قیریق‌قلعه","name:hy":"Քըրըքքալեի մարզ","name:ja":"クルッカレ","name:ka":"ქირიქკალე","name:ko":"크르칼레","name:ku":"Kirikkale","name:ru":"Кырыккале","name:sr":"Кирикале","name:tg":"Қириққалъа","name:tr":"Kırıkkale Merkez","name:tr:suffix":"İlçesi","name:uk":"Кириккале","name:ur":"قیریق قلعہ","name:uz":"Qirqqalʼa","name:zh":"克勒克卡萊","name:zza":"Qırıxqele","network":"TR71-districts","type":"boundary","wikidata":"Q206891","wikipedia":"tr:Kırıkkale"}}]},"id":"relation/4627618"},
{"type":"Feature","geometry":{"type":"Polygon","coordinates":[[[33.5783793,39.8532116],[33.5657472,39.849159],[33.5544979,39.8464391],[33.560177,39.8365945],[33.5995148,39.846757],[33.5944578,39.8598842],[33.5783793,39.8532116]]]},"properties":{"@id":"relation/4627619","admin_level":"8","alt_name":"Fatih Mah.;Fatih","boundary":"administrative","name":"Fatih Mahallesi","type":"boundary","@relations":[{"role":"subarea","rel":1251199,"reltags":{"admin_level":"6","boundary":"administrative","name":"Kırıkkale Merkez","name:ce":"Кириккале","name:de":"Kırıkkale","name:el":"Κιρίκαλε","name:en":"Kırıkkale","name:fa":"قیریق‌قلعه","name:hy":"Քըրըքքալեի մարզ","name:ja":"クルッカレ","name:ka":"ქირიქკალე","name:ko":"크르칼레","name:ku":"Kirikkale","name:ru":"Кырыккале","name:sr":"Кирикале","name:tg":"Қириққалъа","name:tr":"Kırıkkale Merkez","name:tr:suffix":"İlçesi","name:uk":"Кириккале","name:ur":"قیریق قلعہ","name:uz":"Qirqqalʼa","name:zh":"克勒克卡萊","name:zza":"Qırıxqele","network":"TR71-districts","type":"boundary","wikidata":"Q206891","wikipedia":"tr:Kırıkkale"}}]},"id":"relation/4627619"},
{"type":"Feature","geometry":{"type":"Polygon","coordinates":[[[33.5373968,39.8673975],[33.5287769,39.8401696],[33.5397069,39.8418958],[33.547311,39.8442803],[33.542602,39.8682652],[33.5373968,39.8673975]]]},"properties":{"@id":"relation/4627620","admin_level":"8","alt_name":"Gündoğdu Mah.;Gündoğdu","boundary":"administrative","name":"Gündoğdu Mahallesi","type":"boundary","@relations":[{"role":"subarea","rel":1251199,"reltags":{"admin_level":"6","boundary":"administrative","name":"Kırıkkale Merkez","name:ce":"Кириккале","name:de":"Kırıkkale","name:el":"Κιρίκαλε","name:en":"Kırıkkale","name:fa":"قیریق‌قلعه","name:hy":"Քըրըքքալեի մարզ","name:ja":"クルッカレ","name:ka":"ქირიქკალე","name:ko":"크르칼레","name:ku":"Kirikkale","name:ru":"Кырыккале","name:sr":"Кирикале","name:tg":"Қириққалъа","name:tr":"Kırıkkale Merkez","name:tr:suffix":"İlçesi","name:uk":"Кириккале","name:ur":"قیریق قلعہ","name:uz":"Qirqqalʼa","name:zh":"克勒克卡萊","name:zza":"Qırıxqele","network":"TR71-districts","type":"boundary","wikidata":"Q206891","wikipedia":"tr:Kırıkkale"}}]},"id":"relation/4627620"},
{"type":"Feature","geometry":{"type":"Polygon","coordinates":[[[33.5126807,39.8395012],[33.5176798,39.8465008],[33.51049,39.8484064],[33.5098816,39.8403464],[33.508872,39.8397351],[33.5126807,39.8395012]]]},"properties":{"@id":"relation/4627621","admin_level":"8","alt_name":"Gürler Mah.;Gürler","boundary":"administrative","name":"Gürler Mahallesi","type":"boundary","@relations":[{"role":"subarea","rel":1251199,"reltags":{"admin_level":"6","boundary":"administrative","name":"Kırıkkale Merkez","name:ce":"Кириккале","name:de":"Kırıkkale","name:el":"Κιρίκαλε","name:en":"Kırıkkale","name:fa":"قیریق‌قلعه","name:hy":"Քըրըքքալեի մարզ","name:ja":"クルッカレ","name:ka":"ქირიქკალე","name:ko":"크르칼레","name:ku":"Kirikkale","name:ru":"Кырыккале","name:sr":"Кирикале","name:tg":"Қириққалъа","name:tr":"Kırıkkale Merkez","name:tr:suffix":"İlçesi","name:uk":"Кириккале","name:ur":"قیریق قلعہ","name:uz":"Qirqqalʼa","name:zh":"克勒克卡萊","name:zza":"Qırıxqele","network":"TR71-districts","type":"boundary","wikidata":"Q206891","wikipedia":"tr:Kırıkkale"}}]},"id":"relation/4627621"},
{"type":"Feature","geometry":{"type":"Polygon","coordinates":[[[33.5004112,39.8442042],[33.5033054,39.8441057],[33.5016853,39.8506603],[33.4967523,39.8520573],[33.5004112,39.8442042]]]},"properties":{"@id":"relation/4627622","admin_level":"8","alt_name":"Güzeltepe Mah.","boundary":"administrative","name":"Güzeltepe Mahallesi","type":"boundary","@relations":[{"role":"subarea","rel":1251199,"reltags":{"admin_level":"6","boundary":"administrative","name":"Kırıkkale Merkez","name:ce":"Кириккале","name:de":"Kırıkkale","name:el":"Κιρίκαλε","name:en":"Kırıkkale","name:fa":"قیریق‌قلعه","name:hy":"Քըրըքքալեի մարզ","name:ja":"クルッカレ","name:ka":"ქირიქკალე","name:ko":"크르칼레","name:ku":"Kirikkale","name:ru":"Кырыккале","name:sr":"Кирикале","name:tg":"Қириққалъа","name:tr":"Kırıkkale Merkez","name:tr:suffix":"İlçesi","name:uk":"Кириккале","name:ur":"قیریق قلعہ","name:uz":"Qirqqalʼa","name:zh":"克勒克卡萊","name:zza":"Qırıxqele","network":"TR71-districts","type":"boundary","wikidata":"Q206891","wikipedia":"tr:Kırıkkale"}}]},"id":"relation/4627622"},
{"type":"Feature","geometry":{"type":"Polygon","coordinates":[[[33.508863,39.842066],[33.5081712,39.8489991],[33.5044475,39.8499617],[33.508863,39.842066]]]},"properties":{"@id":"relation/4627623","admin_level":"8","alt_name":"Hüseyin Kahya Mah.","boundary":"administrative","name":"Hüseyin Kahya Mahallesi","type":"boundary","@relations":[{"role":"subarea","rel":1251199,"reltags":{"admin_level":"6","boundary":"administrative","name":"Kırıkkale Merkez","name:ce":"Кириккале","name:de":"Kırıkkale","name:el":"Κιρίκαλε","name:en":"Kırıkkale","name:fa":"قیریق‌قلعه","name:hy":"Քըրըքքալեի մարզ","name:ja":"クルッカレ","name:ka":"ქირიქკალე","name:ko":"크르칼레","name:ku":"Kirikkale","name:ru":"Кырыккале","name:sr":"Кирикале","name:tg":"Қириққалъа","name:tr":"Kırıkkale Merkez","name:tr:suffix":"İlçesi","name:uk":"Кириккале","name:ur":"قیریق قلعہ","name:uz":"Qirqqalʼa","name:zh":"克勒克卡萊","name:zza":"Qırıxqele","network":"TR71-districts","type":"boundary","wikidata":"Q206891","wikipedia":"tr:Kırıkkale"}}]},"id":"relation/4627623"},
{"type":"Feature","geometry":{"type":"Polygon","coordinates":[[[33.5037683,39.850129],[33.5044475,39.8499617],[33.5081712,39.8489991],[33.51049,39.8484064],[33.513421,39.8663929],[33.5087777,39.8655855],[33.502435,39.8589047],[33.5024175,39.8504668],[33.5037683,39.850129]]]},"properties":{"@id":"relation/4627624","admin_level":"8","alt_name":"Kaletepe Mah.","boundary":"administrative","name":"Kaletepe Mahallesi","type":"boundary","@relations":[{"role":"subarea","rel":1251199,"reltags":{"admin_level":"6","boundary":"administrative","name":"Kırıkkale Merkez","name:ce":"Кириккале","name:de":"Kırıkkale","name:el":"Κιρίκαλε","name:en":"Kırıkkale","name:fa":"قیریق‌قلعه","name:hy":"Քըրըքքալեի մարզ","name:ja":"クルッカレ","name:ka":"ქირიქკალე","name:ko":"크르칼레","name:ku":"Kirikkale","name:ru":"Кырыккале","name:sr":"Кирикале","name:tg":"Қириққалъа","name:tr":"Kırıkkale Merkez","name:tr:suffix":"İlçesi","name:uk":"Кириккале","name:ur":"قیریق قلعہ","name:uz":"Qirqqalʼa","name:zh":"克勒克卡萊","name:zza":"Qırıxqele","network":"TR71-districts","type":"boundary","wikidata":"Q206891","wikipedia":"tr:Kırıkkale"}}]},"id":"relation/4627624"},
{"type":"Feature","geometry":{"type":"Polygon","coordinates":[[[33.5202332,39.8296585],[33.5139691,39.8194012],[33.5324655,39.8171441],[33.5303553,39.8301287],[33.5202332,39.8296585]]]},"properties":{"@id":"relation/4627625","admin_level":"8","alt_name":"Karşıyaka Mah.;Karşıyaka","boundary":"administrative","name":"Karşıyaka Mahallesi","type":"boundary","@relations":[{"role":"subarea","rel":1251199,"reltags":{"admin_level":"6","boundary":"administrative","name":"Kırıkkale Merkez","name:ce":"Кириккале","name:de":"Kırıkkale","name:el":"Κιρίκαλε","name:en":"Kırıkkale","name:fa":"قیریق‌قلعه","name:hy":"Քըրըքքալեի մարզ","name:ja":"クルッカレ","name:ka":"ქირიქკალე","name:ko":"크르칼레","name:ku":"Kirikkale","name:ru":"Кырыккале","name:sr":"Кирикале","name:tg":"Қириққалъа","name:tr":"Kırıkkale Merkez","name:tr:suffix":"İlçesi","name:uk":"Кириккале","name:ur":"قیریق قلعہ","name:uz":"Qirqqalʼa","name:zh":"克勒克卡萊","name:zza":"Qırıxqele","network":"TR71-districts","type":"boundary","wikidata":"Q206891","wikipedia":"tr:Kırıkkale"}}]},"id":"relation/4627625"},
{"type":"Feature","geometry":{"type":"Polygon","coordinates":[[[33.5719728,39.8730998],[33.5783793,39.8532116],[33.5944578,39.8598842],[33.5958738,39.8709328],[33.5719728,39.8730998]]]},"properties":{"@id":"relation/4627626","admin_level":"8","alt_name":"Kimeski Mah.","boundary":"administrative","name":"Kimeski Mahallesi","type":"boundary","@relations":[{"role":"subarea","rel":1251199,"reltags":{"admin_level":"6","boundary":"administrative","name":"Kırıkkale Merkez","name:ce":"Кириккале","name:de":"Kırıkkale","name:el":"Κιρίκαλε","name:en":"Kırıkkale","name:fa":"قیریق‌قلعه","name:hy":"Քըրըքքալեի մարզ","name:ja":"クルッカレ","name:ka":"ქირიქკალე","name:ko":"크르칼레","name:ku":"Kirikkale","name:ru":"Кырыккале","name:sr":"Кирикале","name:tg":"Қириққалъа","name:tr":"Kırıkkale Merkez","name:tr:suffix":"İlçesi","name:uk":"Кириккале","name:ur":"قیریق قلعہ","name:uz":"Qirqqalʼa","name:zh":"克勒克卡萊","name:zza":"Qırıxqele","network":"TR71-districts","type":"boundary","wikidata":"Q206891","wikipedia":"tr:Kırıkkale"}}]},"id":"relation/4627626"},
{"type":"Feature","geometry":{"type":"Polygon","coordinates":[[[33.5176798,39.8465008],[33.5126807,39.8395012],[33.5220876,39.8399161],[33.5176798,39.8465008]]]},"properties":{"@id":"relation/4627627","admin_level":"8","alt_name":"Kurtuluş Mah.","boundary":"administrative","name":"Kurtuluş Mahallesi","type":"boundary","@relations":[{"role":"subarea","rel":1251199,"reltags":{"admin_level":"6","boundary":"administrative","name":"Kırıkkale Merkez","name:ce":"Кириккале","name:de":"Kırıkkale","name:el":"Κιρίκαλε","name:en":"Kırıkkale","name:fa":"قیریق‌قلعه","name:hy":"Քըրըքքալեի մարզ","name:ja":"クルッカレ","name:ka":"ქირიქკალე","name:ko":"크르칼레","name:ku":"Kirikkale","name:ru":"Кырыккале","name:sr":"Кирикале","name:tg":"Қириққалъа","name:tr":"Kırıkkale Merkez","name:tr:suffix":"İlçesi","name:uk":"Кириккале","name:ur":"قیریق قلعہ","name:uz":"Qirqqalʼa","name:zh":"克勒克卡萊","name:zza":"Qırıxqele","network":"TR71-districts","type":"boundary","wikidata":"Q206891","wikipedia":"tr:Kırıkkale"}}]},"id":"relation/4627627"},
{"type":"Feature","geometry":{"type":"Polygon","coordinates":[[[33.5087777,39.8655855],[33.5002597,39.867091],[33.502435,39.8589047],[33.5087777,39.8655855]]]},"properties":{"@id":"relation/4627628","admin_level":"8","alt_name":"Kırıkköyü Mah.","boundary":"administrative","name":"Kırıkköyü Mahallesi","type":"boundary","@relations":[{"role":"subarea","rel":1251199,"reltags":{"admin_level":"6","boundary":"administrative","name":"Kırıkkale Merkez","name:ce":"Кириккале","name:de":"Kırıkkale","name:el":"Κιρίκαλε","name:en":"Kırıkkale","name:fa":"قیریق‌قلعه","name:hy":"Քըրըքքալեի մարզ","name:ja":"クルッカレ","name:ka":"ქირიქკალე","name:ko":"크르칼레","name:ku":"Kirikkale","name:ru":"Кырыккале","name:sr":"Кирикале","name:tg":"Қириққалъа","name:tr":"Kırıkkale Merkez","name:tr:suffix":"İlçesi","name:uk":"Кириккале","name:ur":"قیریق قلعہ","name:uz":"Qirqqalʼa","name:zh":"克勒克卡萊","name:zza":"Qırıxqele","network":"TR71-districts","type":"boundary","wikidata":"Q206891","wikipedia":"tr:Kırıkkale"}}]},"id":"relation/4627628"},
{"type":"Feature","geometry":{"type":"Polygon","coordinates":[[[33.4802372,39.8245214],[33.4789146,39.8416437],[33.4633509,39.8225327],[33.479953,39.8179351],[33.4802372,39.8245214]]]},"properties":{"@id":"relation/4627629","admin_level":"8","alt_name":"Kızılırmak Mah.","boundary":"administrative","name":"Kızılırmak Mahallesi","type":"boundary","@relations":[{"role":"subarea","rel":1251199,"reltags":{"admin_level":"6","boundary":"administrative","name":"Kırıkkale Merkez","name:ce":"Кириккале","name:de":"Kırıkkale","name:el":"Κιρίκαλε","name:en":"Kırıkkale","name:fa":"قیریق‌قلعه","name:hy":"Քըրըքքալեի մարզ","name:ja":"クルッカレ","name:ka":"ქირიქკალე","name:ko":"크르칼레","name:ku":"Kirikkale","name:ru":"Кырыккале","name:sr":"Кирикале","name:tg":"Қириққалъа","name:tr":"Kırıkkale Merkez","name:tr:suffix":"İlçesi","name:uk":"Кириккале","name:ur":"قیریق قلعہ","name:uz":"Qirqqalʼa","name:zh":"克勒克卡萊","name:zza":"Qırıxqele","network":"TR71-districts","type":"boundary","wikidata":"Q206891","wikipedia":"tr:Kırıkkale"}}]},"id":"relation/4627629"},
{"type":"Feature","geometry":{"type":"Polygon","coordinates":[[[33.542602,39.8682652],[33.547311,39.8442803],[33.5544979,39.8464391],[33.5657472,39.849159],[33.5555449,39.8704051],[33.542602,39.8682652]]]},"properties":{"@id":"relation/4627630","admin_level":"8","alt_name":"Osmangazi Mah.","boundary":"administrative","name":"Osmangazi Mahallesi","type":"boundary","@relations":[{"role":"subarea","rel":1251199,"reltags":{"admin_level":"6","boundary":"administrative","name":"Kırıkkale Merkez","name:ce":"Кириккале","name:de":"Kırıkkale","name:el":"Κιρίκαλε","name:en":"Kırıkkale","name:fa":"قیریق‌قلعه","name:hy":"Քըրըքքալեի մարզ","name:ja":"クルッカレ","name:ka":"ქირიქკალე","name:ko":"크르칼레","name:ku":"Kirikkale","name:ru":"Кырыккале","name:sr":"Кирикале","name:tg":"Қириққалъа","name:tr":"Kırıkkale Merkez","name:tr:suffix":"İlçesi","name:uk":"Кириккале","name:ur":"قیریق قلعہ","name:uz":"Qirqqalʼa","name:zh":"克勒克卡萊","name:zza":"Qırıxqele","network":"TR71-districts","type":"boundary","wikidata":"Q206891","wikipedia":"tr:Kırıkkale"}}]},"id":"relation/4627630"},
{"type":"Feature","geometry":{"type":"Polygon","coordinates":[[[33.5024175,39.8504668],[33.5016853,39.8506603],[33.5033054,39.8441057],[33.5032196,39.8422828],[33.505382,39.8401605],[33.5037683,39.850129],[33.5024175,39.8504668]]]},"properties":{"@id":"relation/4627631","admin_level":"8","alt_name":"Ovacık Mah.","boundary":"administrative","name":"Ovacık Mahallesi","type":"boundary","@relations":[{"role":"subarea","rel":1251199,"reltags":{"admin_level":"6","boundary":"administrative","name":"Kırıkkale Merkez","name:ce":"Кириккале","name:de":"Kırıkkale","name:el":"Κιρίκαλε","name:en":"Kırıkkale","name:fa":"قیریق‌قلعه","name:hy":"Քըրըքքալեի մարզ","name:ja":"クルッカレ","name:ka":"ქირიქკალე","name:ko":"크르칼레","name:ku":"Kirikkale","name:ru":"Кырыккале","name:sr":"Кирикале","name:tg":"Қириққалъа","name:tr":"Kırıkkale Merkez","name:tr:suffix":"İlçesi","name:uk":"Кириккале","name:ur":"قیریق قلعہ","name:uz":"Qirqqalʼa","name:zh":"克勒克卡萊","name:zza":"Qırıxqele","network":"TR71-districts","type":"boundary","wikidata":"Q206891","wikipedia":"tr:Kırıkkale"}}]},"id":"relation/4627631"},
{"type":"Feature","geometry":{"type":"Polygon","coordinates":[[[33.5176798,39.8465008],[33.5220876,39.8399161],[33.5287769,39.8401696],[33.5373968,39.8673975],[33.5268602,39.8696991],[33.5176798,39.8465008]]]},"properties":{"@id":"relation/4627632","admin_level":"8","alt_name":"Sanayi Mah.","boundary":"administrative","name":"Sanayi Mahallesi","type":"boundary","@relations":[{"role":"subarea","rel":1251199,"reltags":{"admin_level":"6","boundary":"administrative","name":"Kırıkkale Merkez","name:ce":"Кириккале","name:de":"Kırıkkale","name:el":"Κιρίκαλε","name:en":"Kırıkkale","name:fa":"قیریق‌قلعه","name:hy":"Քըրըքքալեի մարզ","name:ja":"クルッカレ","name:ka":"ქირიქკალე","name:ko":"크르칼레","name:ku":"Kirikkale","name:ru":"Кырыккале","name:sr":"Кирикале","name:tg":"Қириққалъа","name:tr":"Kırıkkale Merkez","name:tr:suffix":"İlçesi","name:uk":"Кириккале","name:ur":"قیریق قلعہ","name:uz":"Qirqqalʼa","name:zh":"克勒克卡萊","name:zza":"Qırıxqele","network":"TR71-districts","type":"boundary","wikidata":"Q206891","wikipedia":"tr:Kırıkkale"}}]},"id":"relation/4627632"},
{"type":"Feature","geometry":{"type":"Polygon","coordinates":[[[33.5303553,39.8301287],[33.5324655,39.8171441],[33.5375475,39.8166011],[33.5370351,39.8356948],[33.5303553,39.8301287]]]},"properties":{"@id":"relation/4627633","admin_level":"8","alt_name":"Selim Özer Mah.","boundary":"administrative","name":"Selim Özer Mahallesi","type":"boundary","@relations":[{"role":"subarea","rel":1251199,"reltags":{"admin_level":"6","boundary":"administrative","name":"Kırıkkale Merkez","name:ce":"Кириккале","name:de":"Kırıkkale","name:el":"Κιρίκαλε","name:en":"Kırıkkale","name:fa":"قیریق‌قلعه","name:hy":"Քըրըքքալեի մարզ","name:ja":"クルッカレ","name:ka":"ქირიქკალე","name:ko":"크르칼레","name:ku":"Kirikkale","name:ru":"Кырыккале","name:sr":"Кирикале","name:tg":"Қириққалъа","name:tr":"Kırıkkale Merkez","name:tr:suffix":"İlçesi","name:uk":"Кириккале","name:ur":"قیریق قلعہ","name:uz":"Qirqqalʼa","name:zh":"克勒克卡萊","name:zza":"Qırıxqele","network":"TR71-districts","type":"boundary","wikidata":"Q206891","wikipedia":"tr:Kırıkkale"}}]},"id":"relation/4627633"},
{"type":"Feature","geometry":{"type":"Polygon","coordinates":[[[33.51049,39.8484064],[33.5081712,39.8489991],[33.508863,39.842066],[33.5098816,39.8403464],[33.51049,39.8484064]]]},"properties":{"@id":"relation/4627634","admin_level":"8","alt_name":"Tepebaşı Mah.","boundary":"administrative","name":"Tepebaşı Mahallesi","type":"boundary","@relations":[{"role":"subarea","rel":1251199,"reltags":{"admin_level":"6","boundary":"administrative","name":"Kırıkkale Merkez","name:ce":"Кириккале","name:de":"Kırıkkale","name:el":"Κιρίκαλε","name:en":"Kırıkkale","name:fa":"قیریق‌قلعه","name:hy":"Քըրըքքալեի մարզ","name:ja":"クルッカレ","name:ka":"ქირიქკალე","name:ko":"크르칼레","name:ku":"Kirikkale","name:ru":"Кырыккале","name:sr":"Кирикале","name:tg":"Қириққалъа","name:tr":"Kırıkkale Merkez","name:tr:suffix":"İlçesi","name:uk":"Кириккале","name:ur":"قیریق قلعہ","name:uz":"Qirqqalʼa","name:zh":"克勒克卡萊","name:zza":"Qırıxqele","network":"TR71-districts","type":"boundary","wikidata":"Q206891","wikipedia":"tr:Kırıkkale"}}]},"id":"relation/4627634"},
{"type":"Feature","geometry":{"type":"Polygon","coordinates":[[[33.4898023,39.8409394],[33.4954207,39.8393584],[33.5032196,39.8422828],[33.5033054,39.8441057],[33.5004112,39.8442042],[33.4898023,39.8409394]]]},"properties":{"@id":"relation/4627635","admin_level":"8","alt_name":"Yaylacık Mah.","boundary":"administrative","name":"Yaylacık Mahallesi","type":"boundary","@relations":[{"role":"subarea","rel":1251199,"reltags":{"admin_level":"6","boundary":"administrative","name":"Kırıkkale Merkez","name:ce":"Кириккале","name:de":"Kırıkkale","name:el":"Κιρίκαλε","name:en":"Kırıkkale","name:fa":"قیریق‌قلعه","name:hy":"Քըրըքքալեի մարզ","name:ja":"クルッカレ","name:ka":"ქირიქკალე","name:ko":"크르칼레","name:ku":"Kirikkale","name:ru":"Кырыккале","name:sr":"Кирикале","name:tg":"Қириққалъа","name:tr":"Kırıkkale Merkez","name:tr:suffix":"İlçesi","name:uk":"Кириккале","name:ur":"قیریق قلعہ","name:uz":"Qirqqalʼa","name:zh":"克勒克卡萊","name:zza":"Qırıxqele","network":"TR71-districts","type":"boundary","wikidata":"Q206891","wikipedia":"tr:Kırıkkale"}}]},"id":"relation/4627635"},
{"type":"Feature","geometry":{"type":"Polygon","coordinates":[[[33.4812596,39.8441246],[33.4789146,39.8416437],[33.4802372,39.8245214],[33.4954207,39.8393584],[33.4898023,39.8409394],[33.4812596,39.8441246]]]},"properties":{"@id":"relation/4627636","admin_level":"8","alt_name":"Yeni Mahallesi","boundary":"administrative","name":"Yenimahalle Mahallesi","type":"boundary","@relations":[{"role":"subarea","rel":1251199,"reltags":{"admin_level":"6","boundary":"administrative","name":"Kırıkkale Merkez","name:ce":"Кириккале","name:de":"Kırıkkale","name:el":"Κιρίκαλε","name:en":"Kırıkkale","name:fa":"قیریق‌قلعه","name:hy":"Քըրըքքալեի մարզ","name:ja":"クルッカレ","name:ka":"ქირიქკალე","name:ko":"크르칼레","name:ku":"Kirikkale","name:ru":"Кырыккале","name:sr":"Кирикале","name:tg":"Қириққалъа","name:tr":"Kırıkkale Merkez","name:tr:suffix":"İlçesi","name:uk":"Кириккале","name:ur":"قیریق قلعہ","name:uz":"Qirqqalʼa","name:zh":"克勒克卡萊","name:zza":"Qırıxqele","network":"TR71-districts","type":"boundary","wikidata":"Q206891","wikipedia":"tr:Kırıkkale"}}]},"id":"relation/4627636"},
{"type":"Feature","geometry":{"type":"Polygon","coordinates":[[[33.505382,39.8401605],[33.5067478,39.8391575],[33.508872,39.8397351],[33.5098816,39.8403464],[33.508863,39.842066],[33.5044475,39.8499617],[33.5037683,39.850129],[33.505382,39.8401605]]]},"properties":{"@id":"relation/4627637","admin_level":"8","alt_name":"Yenidoğan Mah.","boundary":"administrative","name":"Yenidoğan Mahallesi","type":"boundary","@relations":[{"role":"subarea","rel":1251199,"reltags":{"admin_level":"6","boundary":"administrative","name":"Kırıkkale Merkez","name:ce":"Кириккале","name:de":"Kırıkkale","name:el":"Κιρίκαλε","name:en":"Kırıkkale","name:fa":"قیریق‌قلعه","name:hy":"Քըրըքքալեի մարզ","name:ja":"クルッカレ","name:ka":"ქირიქკალე","name:ko":"크르칼레","name:ku":"Kirikkale","name:ru":"Кырыккале","name:sr":"Кирикале","name:tg":"Қириққалъа","name:tr":"Kırıkkale Merkez","name:tr:suffix":"İlçesi","name:uk":"Кириккале","name:ur":"قیریق قلعہ","name:uz":"Qirqqalʼa","name:zh":"克勒克卡萊","name:zza":"Qırıxqele","network":"TR71-districts","type":"boundary","wikidata":"Q206891","wikipedia":"tr:Kırıkkale"}}]},"id":"relation/4627637"},
{"type":"Feature","geometry":{"type":"Polygon","coordinates":[[[33.5397069,39.8418958],[33.5370351,39.8356948],[33.5375475,39.8166011],[33.5627177,39.8187664],[33.560177,39.8365945],[33.5544979,39.8464391],[33.547311,39.8442803],[33.5397069,39.8418958]]]},"properties":{"@id":"relation/4627638","admin_level":"8","alt_name":"Yuva Mah.;Yuva","boundary":"administrative","name":"Yuva Mahallesi","type":"boundary","@relations":[{"role":"subarea","rel":1251199,"reltags":{"admin_level":"6","boundary":"administrative","name":"Kırıkkale Merkez","name:ce":"Кириккале","name:de":"Kırıkkale","name:el":"Κιρίκαλε","name:en":"Kırıkkale","name:fa":"قیریق‌قلعه","name:hy":"Քըրըքքալեի մարզ","name:ja":"クルッカレ","name:ka":"ქირიქკალე","name:ko":"크르칼레","name:ku":"Kirikkale","name:ru":"Кырыккале","name:sr":"Кирикале","name:tg":"Қириққалъа","name:tr":"Kırıkkale Merkez","name:tr:suffix":"İlçesi","name:uk":"Кириккале","name:ur":"قیریق قلعہ","name:uz":"Qirqqalʼa","name:zh":"克勒克卡萊","name:zza":"Qırıxqele","network":"TR71-districts","type":"boundary","wikidata":"Q206891","wikipedia":"tr:Kırıkkale"}}]},"id":"relation/4627638"},
{"type":"Feature","geometry":{"type":"Polygon","coordinates":[[[33.4967523,39.8520573],[33.4835326,39.8572438],[33.4812596,39.8441246],[33.4898023,39.8409394],[33.5004112,39.8442042],[33.4967523,39.8520573]]]},"properties":{"@id":"relation/4627639","admin_level":"8","alt_name":"Çalılıöz Mah.","boundary":"administrative","name":"Çalılıöz Mahallesi","type":"boundary","@relations":[{"role":"subarea","rel":1251199,"reltags":{"admin_level":"6","boundary":"administrative","name":"Kırıkkale Merkez","name:ce":"Кириккале","name:de":"Kırıkkale","name:el":"Κιρίκαλε","name:en":"Kırıkkale","name:fa":"قیریق‌قلعه","name:hy":"Քըրըքքալեի մարզ","name:ja":"クルッカレ","name:ka":"ქირიქკალე","name:ko":"크르칼레","name:ku":"Kirikkale","name:ru":"Кырыккале","name:sr":"Кирикале","name:tg":"Қириққалъа","name:tr":"Kırıkkale Merkez","name:tr:suffix":"İlçesi","name:uk":"Кириккале","name:ur":"قیریق قلعہ","name:uz":"Qirqqalʼa","name:zh":"克勒克卡萊","name:zza":"Qırıxqele","network":"TR71-districts","type":"boundary","wikidata":"Q206891","wikipedia":"tr:Kırıkkale"}}]},"id":"relation/4627639"},
{"type":"Feature","geometry":{"type":"Polygon","coordinates":[[[33.5627177,39.8187664],[33.5995148,39.846757],[33.560177,39.8365945],[33.5627177,39.8187664]]]},"properties":{"@id":"relation/4627640","admin_level":"8","alt_name":"Çullu Mah.;Çullu","boundary":"administrative","name":"Çullu Mahallesi","type":"boundary","@relations":[{"role":"subarea","rel":1251199,"reltags":{"admin_level":"6","boundary":"administrative","name":"Kırıkkale Merkez","name:ce":"Кириккале","name:de":"Kırıkkale","name:el":"Κιρίκαλε","name:en":"Kırıkkale","name:fa":"قیریق‌قلعه","name:hy":"Քըրըքքալեի մարզ","name:ja":"クルッカレ","name:ka":"ქირიქკალე","name:ko":"크르칼레","name:ku":"Kirikkale","name:ru":"Кырыккале","name:sr":"Кирикале","name:tg":"Қириққалъа","name:tr":"Kırıkkale Merkez","name:tr:suffix":"İlçesi","name:uk":"Кириккале","name:ur":"قیریق قلعہ","name:uz":"Qirqqalʼa","name:zh":"克勒克卡萊","name:zza":"Qırıxqele","network":"TR71-districts","type":"boundary","wikidata":"Q206891","wikipedia":"tr:Kırıkkale"}}]},"id":"relation/4627640"},
{"type":"Feature","geometry":{"type":"Polygon","coordinates":[[[33.6063913,40.0730933],[33.6147899,40.1038223],[33.5943417,40.0775009],[33.6063913,40.0730933]]]},"properties":{"@id":"relation/17528570","admin_level":"8","boundary":"administrative","name":"Amberdere Köyü","type":"boundary"},"id":"relation/17528570"}
]}