{"type":"FeatureCollection", "features": [
{"type":"Feature","geometry":{"type":"Polygon","coordinates":[[[34.2700992,38.8992618],[34.3546355,38.8492218],[34.3906018,38.8822554],[34.4405488,38.9788178],[34.487009,38.9786607],[34.5062335,39.0092621],[34.5678593,39.0238129],[34.6004117,39.0144996],[34.625459,39.0609587],[34.521153,39.0764405],[34.6308926,39.1667387],[34.5940612,39.2069239],[34.7032326,39.2586218],[34.675976,39.2859055],[34.5808,39.3294],[34.5281,39.2703],[34.4363,39.2021],[34.3719,39.2475],[34.2498,39.1841],[34.2600858,39.1732331],[34.2313471,39.1007926],[34.2581811,39.0802112],[34.2578604,39.0082375],[34.2222961,38.9410579],[34.2700992,38.8992618]]]},"properties":{"@id":"relation/1721351","admin_level":"6","boundary":"administrative","name":"Mucur","name:ce":"Муджур","name:de":"Mucur","name:en":"Mucur","name:fa":"موجور","name:ru":"Муджур","name:tr":"Mucur","name:tr:suffix":"İlçesi","name:tt":"Муҗур","name:ur":"موجور","name:zh":"穆朱爾","network":"TR40-districts","type":"boundary","wikidata":"Q1051730","wikipedia":"tr:Mucur, Kırşehir"},"id":"relation/1721351"},
{"type":"Feature","geometry":{"type":"Polygon","coordinates":[[[34.1587359,39.5188794],[34.0995637,39.5421113],[34.0297107,39.5475552],[34.0079599,39.6111479],[34.0129898,39.653944],[33.9543916,39.673605],[33.9067131,39.6579464],[33.8551363,39.5782139],[33.7720669,39.5363682],[33.7747286,39.5067605],[33.8378808,39.4999903],[33.8898709,39.4368114],[33.945191,39.4226308],[33.9917333,39.3379274],[34.0275065,39.3031386],[34.0508373,39.3276601],[34.0619954,39.3946041],[34.0911169,39.4349098],[34.0878108,39.4837175],[34.1587359,39.5188794]]]},"properties":{"@id":"relation/1830534","admin_level":"6","boundary":"administrative","name":"Akpınar","name:ce":"Акпинар","name:de":"Akpınar","name:en":"Akpınar","name:fa":"اکپینار","name:ru":"Акпынар","name:tr":"Akpınar","name:tr:suffix":"İlçesi","network":"TR40-districts","type":"boundary","wikidata":"Q556388","wikipedia":"tr:Akpınar"},"id":"relation/1830534"},
{"type":"Feature","geometry":{"type":"Polygon","coordinates":[[[33.9543916,39.673605],[34.0129898,39.653944],[34.0079599,39.6111479],[34.0297107,39.5475552],[34.0995637,39.5421113],[34.1587359,39.5188794],[34.1918313,39.5194319],[34.2128649,39.6167028],[34.1112321,39.702968],[34.0937069,39.735647],[34.044145,39.7712774],[33.9578617,39.7053661],[33.9543916,39.673605]]]},"properties":{"@id":"relation/1830535","admin_level":"6","boundary":"administrative","name":"Akçakent","name:ce":"Акчакент","name:de":"Akçakent","name:en":"Akçakent","name:ku":"Şehrî Cedîd","name:ru":"Акчакент","name:tr":"Akçakent","name:tr:suffix":"İlçesi","network":"TR40-districts","old_name":"Şehricedit","type":"boundary","wikidata":"Q548125","wikipedia":"tr:Akçakent"},"id":"relation/1830535"},
{"type":"Feature","geometry":{"type":"Polygon","coordinates":[[[34.2498,39.1841],[34.3719,39.2475],[34.4363,39.2021],[34.5281,39.2703],[34.5808,39.3294],[34.5965,39.3404],[34.5499,39.4028],[34.5063,39.3821],[34.4409,39.3946],[34.4248,39.4373],[34.4732,39.4594],[34.3884,39.4864],[34.3481,39.4614],[34.3108,39.4659],[34.3072,39.4168],[34.2558,39.4297],[34.2483,39.3808],[34.2064,39.3654],[34.2046,39.3173],[34.1791,39.3079],[34.2087,39.262],[34.2174,39.2026],[34.2498,39.1841]]]},"properties":{"@id":"relation/1830536","admin_level":"6","boundary":"administrative","name":"Boztepe","name:ce":"Бозтепе","name:de":"Boztepe","name:en":"Boztepe","name:fa":"بزتپه","name:ru":"Бозтепе","name:tr":"Boztepe","name:tr:suffix":"İlçesi","network":"TR40-districts","type":"boundary","wikidata":"Q2476181","wikipedia":"tr:Boztepe"},"id":"relation/1830536"},
{"type":"Feature","geometry":{"type":"Polygon","coordinates":[[[33.7747286,39.5067605],[33.7311421,39.4658653],[33.6875123,39.5114646],[33.5738753,39.4458736],[33.5065754,39.4174912],[33.4477671,39.4307633],[33.4063338,39.3652268],[33.4562873,39.3428609],[33.4616088,39.302491],[33.5070562,39.2903689],[33.5584567,39.2083192],[33.6816376,39.1431606],[33.8456404,39.1717996],[33.8832398,39.2256976],[33.9468223,39.2726784],[34.0275065,39.3031386],[33.9917333,39.3379274],[33.945191,39.4226308],[33.8898709,39.4368114],[33.8378808,39.4999903],[33.7747286,39.5067605]]]},"properties":{"@id":"relation/1830537","admin_level":"6","boundary":"administrative","name":"Kaman","name:ce":"Каман","name:fa":"کامان","name:ku":"Qaman","name:ru":"Каман","name:tr":"Kaman","name:tr:suffix":"İlçesi","name:zh":"卡曼","network":"TR40-districts","type":"boundary","wikidata":"Q1074968","wikipedia":"tr:Kaman, Kırşehir"},"id":"relation/1830537"},
{"type":"Feature","geometry":{"type":"Polygon","coordinates":[[[34.2498,39.1841],[34.2174,39.2026],[34.2087,39.262],[34.1791,39.3079],[34.2046,39.3173],[34.2064,39.3654],[34.2483,39.3808],[34.2558,39.4297],[34.3072,39.4168],[34.3108,39.4659],[34.2369176,39.4915323],[34.1918313,39.5194319],[34.1587359,39.5188794],[34.0878108,39.4837175],[34.0911169,39.4349098],[34.0619954,39.3946041],[34.0508373,39.3276601],[34.0275065,39.3031386],[33.9468223,39.2726784],[33.8832398,39.2256976],[33.8456404,39.1717996],[33.6816376,39.1431606],[33.7455901,39.1015468],[33.7579396,39.0764487],[33.8149945,39.0769344],[33.8979541,39.0382087],[33.9478741,39.0509266],[34.0048863,39.0274378],[33.969205,38.9744824],[34.0355016,38.9608706],[34.0804013,38.8755869],[34.1791206,38.8199336],[34.224299,38.8250252],[34.2700992,38.8992618],[34.2222961,38.9410579],[34.2578604,39.0082375],[34.2581811,39.0802112],[34.2313471,39.1007926],[34.2600858,39.1732331],[34.2498,39.1841]]]},"properties":{"@id":"relation/1830538","admin_level":"6","boundary":"administrative","name":"Kırşehir Merkez","name:ar":"قرشهر","name:bg":"Кършехир","name:ce":"КиршехӀир","name:el":"Κίρσεχιρ","name:fa":"قر شهر","name:hy":"Քըրշեհիր","name:ja":"クルシェヒル","name:ka":"ქირშეჰირი","name:ko":"키르셰히르","name:ku":"Qîrşehir","name:pa":"ਕਿਰਸੇਹਰ","name:ru":"Кыршехир","name:sr":"Киршехир","name:tr":"Kırşehir Merkez","name:tr:suffix":"İlçesi","name:uk":"Киршехір","name:ur":"قر شہر","name:zh":"克爾謝希爾","name:zza":"Qırşeher","network":"TR40-districts","type":"boundary","wikidata":"Q208005","wikipedia":"tr:Kırşehir"},"id":"relation/1830538"},
{"type":"Feature","geometry":{"type":"Polygon","coordinates":[[[34.5965,39.3404],[34.6714979,39.3836464],[34.636687,39.4145704],[34.4977325,39.4673504],[34.494111,39.5370505],[34.4770141,39.573789],[34.4859962,39.6165308],[34.4529449,39.6339093],[34.4683247,39.6754858],[34.3726001,39.6971995],[34.3056523,39.7001639],[34.2511394,39.7161539],[34.1814855,39.7975584],[34.0627407,39.7881246],[34.044145,39.7712774],[34.0937069,39.735647],[34.1112321,39.702968],[34.2128649,39.6167028],[34.1918313,39.5194319],[34.2369176,39.4915323],[34.3108,39.4659],[34.3481,39.4614],[34.3884,39.4864],[34.4732,39.4594],[34.4248,39.4373],[34.4409,39.3946],[34.5063,39.3821],[34.5499,39.4028],[34.5965,39.3404]]]},"properties":{"@id":"relation/1830539","admin_level":"6","boundary":"administrative","name":"Çiçekdağı","name:ce":"ЧичекдагӀи","name:de":"Çiçekdağı","name:en":"Çiçekdağı","name:fa":"چیچک‌داغی","name:ku":"Mecîdiye","name:ru":"Чичекдагы","name:tr":"Çiçekdağı","name:tr:suffix":"İlçesi","name:uk":"Чічекдаґи","name:zh":"奇切克達厄","network":"TR40-districts","old_name":"Mecidiye","type":"boundary","wikidata":"Q1813015","wikipedia":"tr:Çiçekdağı"},"id":"relation/1830539"},
{"type":"Feature","geometry":{"type":"Polygon","coordinates":[[[34.1732013,39.1471016],[34.1604945,39.1596307],[34.1618003,39.1466209],[34.1732013,39.1471016]]]},"properties":{"@id":"relation/6662544","admin_level":"8","boundary":"administrative","name":"Aşıkpaşa Mahallesi","type":"boundary","@relations":[{"role":"subarea","rel":1830538,"reltags":{"admin_level":"6","boundary":"administrative","name":"Kırşehir Merkez","name:ar":"قرشهر","name:bg":"Кършехир","name:ce":"КиршехӀир","name:el":"Κίρσεχιρ","name:fa":"قر شهر","name:hy":"Քըրշեհիր","name:ja":"クルシェヒル","name:ka":"ქირშეჰირი","name:ko":"키르셰히르","name:ku":"Qîrşehir","name:pa":"ਕਿਰਸੇਹਰ","name:ru":"Кыршехир","name:sr":"Киршехир","name:tr":"Kırşehir Merkez","name:tr:suffix":"İlçesi","name:uk":"Киршехір","name:ur":"قر شہر","name:zh":"克爾謝希爾","name:zza":"Qırşeher","network":"TR40-districts","type":"boundary","wikidata":"Q208005","wikipedia":"tr:Kırşehir"}}]},"id":"relation/6662544"},
{"type":"Feature","geometry":{"type":"Polygon","coordinates":[[[33.7244654,39.3579769],[33.7136658,39.3570985],[33.7083506,39.3524601],[33.7145519,39.347756],[33.7244654,39.3579769]]]},"properties":{"@id":"relation/13558050","admin_level":"8","boundary":"administrative","name":"Orta Mahalle","type":"boundary","@relations":[{"role":"subarea","rel":1830537,"reltags":{"admin_level":"6","boundary":"administrative","name":"Kaman","name:ce":"Каман","name:fa":"کامان","name:ku":"Qaman","name:ru":"Каман","name:tr":"Kaman","name:tr:suffix":"İlçesi","name:zh":"卡曼","network":"TR40-districts","type":"boundary","wikidata":"Q1074968","wikipedia":"tr:Kaman, Kırşehir"}}]},"id":"relation/13558050"},
{"type":"Feature","geometry":{"type":"Polygon","coordinates":[[[33.723371,39.3590388],[33.7169015,39.3680469],[33.7107539,39.3625642],[33.7150347,39.3597936],[33.723371,39.3590388]]]},"properties":{"@id":"relation/13558051","admin_level":"8","boundary":"administrative","name":"Yenimahalle","type":"boundary","@relations":[{"role":"subarea","rel":1830537,"reltags":{"admin_level":"6","boundary":"administrative","name":"Kaman","name:ce":"Каман","name:fa":"کامان","name:ku":"Qaman","name:ru":"Каман","name:tr":"Kaman","name:tr:suffix":"İlçesi","name:zh":"卡曼","network":"TR40-districts","type":"boundary","wikidata":"Q1074968","wikipedia":"tr:Kaman, Kırşehir"}}]},"id":"relation/13558051"},
{"type":"Feature","geometry":{"type":"Polygon","coordinates":[[[33.7244654,39.3579769],[33.723371,39.3590388],[33.7150347,39.3597936],[33.7136658,39.3570985],[33.7244654,39.3579769]]]},"properties":{"@id":"relation/13558052","admin_level":"8","alt_name":"Gaffar","boundary":"administrative","name":"Gaffar Mahallesi","type":"boundary","@relations":[{"role":"subarea","rel":1830537,"reltags":{"admin_level":"6","boundary":"administrative","name":"Kaman","name:ce":"Каман","name:fa":"کامان","name:ku":"Qaman","name:ru":"Каман","name:tr":"Kaman","name:tr:suffix":"İlçesi","name:zh":"卡曼","network":"TR40-districts","type":"boundary","wikidata":"Q1074968","wikipedia":"tr:Kaman, Kırşehir"}}]},"id":"relation/13558052"},
{"type":"Feature","geometry":{"type":"Polygon","coordinates":[[[34.1732013,39.1471016],[34.1618003,39.1466209],[34.160544,39.1461164],[34.1732013,39.1471016]]]},"properties":{"@id":"relation/14250038","admin_level":"8","boundary":"administrative","name":"Medrese Mahallesi","type":"boundary","@relations":[{"role":"subarea","rel":1830538,"reltags":{"admin_level":"6","boundary":"administrative","name":"Kırşehir Merkez","name:ar":"قرشهر","name:bg":"Кършехир","name:ce":"КиршехӀир","name:el":"Κίρσεχιρ","name:fa":"قر شهر","name:hy":"Քըրշեհիր","name:ja":"クルシェヒル","name:ka":"ქირშეჰირი","name:ko":"키르셰히르","name:ku":"Qîrşehir","name:pa":"ਕਿਰਸੇਹਰ","name:ru":"Кыршехир","name:sr":"Киршехир","name:tr":"Kırşehir Merkez","name:tr:suffix":"İlçesi","name:uk":"Киршехір","name:ur":"قر شہر","name:zh":"克爾謝希爾","name:zza":"Qırşeher","network":"TR40-districts","type":"boundary","wikidata":"Q208005","wikipedia":"tr:Kırşehir"}}]},"id":"relation/14250038"},
{"type":"Feature","geometry":{"type":"Polygon","coordinates":[[[34.1604945,39.1596307],[34.160544,39.1461164],[34.1618003,39.1466209],[34.1604945,39.1596307]]]},"properties":{"@id":"relation/14250039","admin_level":"8","boundary":"administrative","name":"Ahievran Mahallesi","type":"boundary","@relations":[{"role":"subarea","rel":1830538,"reltags":{"admin_level":"6","boundary":"administrative","name":"Kırşehir Merkez","name:ar":"قرشهر","name:bg":"Кършехир","name:ce":"КиршехӀир","name:el":"Κίρσεχιρ","name:fa":"قر شهر","name:hy":"Քըրշեհիր","name:ja":"クルシェヒル","name:ka":"ქირშეჰირი","name:ko":"키르셰히르","name:ku":"Qîrşehir","name:pa":"ਕਿਰਸੇਹਰ","name:ru":"Кыршехир","name:sr":"Киршехир","name:tr":"Kırşehir Merkez","name:tr:suffix":"İlçesi","name:uk":"Киршехір","name:ur":"قر شہر","name:zh":"克爾謝希爾","name:zza":"Qırşeher","network":"TR40-districts","type":"boundary","wikidata":"Q208005","wikipedia":"tr:Kırşehir"}}]},"id":"relation/14250039"}
]}