{"type":"FeatureCollection", "features": [
{"type":"Feature","geometry":{"type":"Polygon","coordinates":[[[29.1351486,39.0341986],[29.2075703,39.0928845],[29.2183941,39.1273007],[29.2058366,39.1648975],[29.1271405,39.1633702],[29.0702723,39.1737944],[29.0550633,39.2142805],[29.0641005,39.2892121],[29.0369889,39.3802509],[29.0693906,39.4071648],[29.0749666,39.4465068],[29.045214,39.4569603],[28.9857903,39.5174937],[28.948499,39.5315787],[28.9232171,39.4917366],[28.951413,39.4589221],[28.9503045,39.4075591],[28.891778,39.4006522],[28.8941906,39.3759824],[28.7969908,39.3025249],[28.7586232,39.2846221],[28.6246197,39.3225658],[28.6077116,39.2944542],[28.6186219,39.2463178],[28.6539827,39.1943767],[28.6320531,39.1634928],[28.608588,39.1100729],[28.6657902,39.1018509],[28.7570777,39.0736548],[28.8746451,39.0875693],[28.9411949,39.0676164],[28.9434619,39.0203006],[28.9286525,38.983057],[28.9605188,38.9257632],[29.0011167,38.8591595],[29.0678872,38.8718589],[29.0267161,38.89062],[29.0453948,38.9398813],[29.0744603,38.9691293],[29.0787373,39.0583126],[29.1351486,39.0341986]]]},"properties":{"@id":"relation/1593755","admin_level":"6","boundary":"administrative","name":"Simav","name:ce":"Симав","name:fa":"سیماو","name:tr":"Simav","name:tr:suffix":"İlçesi","name:zh":"錫馬夫","network":"TR43-districts","type":"boundary","wikidata":"Q1948344","wikipedia":"tr:Simav"},"id":"relation/1593755"},
{"type":"Feature","geometry":{"type":"Polygon","coordinates":[[[29.6870709,39.0810043],[29.6311646,39.0922811],[29.5930759,39.12116],[29.5219729,39.1227149],[29.4634107,39.1421103],[29.4233474,39.1835203],[29.3559583,39.1497465],[29.2588552,39.1437463],[29.2183941,39.1273007],[29.2312501,39.091582],[29.3115487,39.0515724],[29.3007624,38.9809885],[29.2318673,38.951992],[29.2324486,38.914624],[29.1811761,38.8534803],[29.247068,38.7928845],[29.3276438,38.8160793],[29.3970641,38.8714766],[29.4778983,38.8507698],[29.519617,38.9046768],[29.5567727,38.9016901],[29.6418155,38.9330098],[29.7495236,38.9154051],[29.7418948,38.9629122],[29.7532052,39.0010373],[29.6773906,39.0257184],[29.6870709,39.0810043]]]},"properties":{"@id":"relation/1668902","admin_level":"6","boundary":"administrative","name":"Gediz","name:ce":"Гедиз","name:fa":"گدیز","name:tr":"Gediz","name:tr:suffix":"İlçesi","name:uk":"Ґедіз","name:zh":"蓋迪茲","network":"TR43-districts","type":"boundary","wikidata":"Q1958867","wikipedia":"tr:Gediz, Kütahya"},"id":"relation/1668902"},
{"type":"Feature","geometry":{"type":"Polygon","coordinates":[[[29.1351486,39.0341986],[29.0787373,39.0583126],[29.0744603,38.9691293],[29.0453948,38.9398813],[29.0267161,38.89062],[29.0678872,38.8718589],[29.1611329,38.9123101],[29.194881,38.940794],[29.1594007,38.9695641],[29.1351486,39.0341986]]]},"properties":{"@id":"relation/1669548","admin_level":"6","boundary":"administrative","name":"Pazarlar","name:ce":"Пазарлар","name:fa":"بازارلار","name:tr":"Pazarlar","name:tr:suffix":"İlçesi","network":"TR43-districts","type":"boundary","wikidata":"Q2671066","wikipedia":"tr:Pazarlar"},"id":"relation/1669548"},
{"type":"Feature","geometry":{"type":"Polygon","coordinates":[[[29.0678872,38.8718589],[29.1186319,38.8444937],[29.1811761,38.8534803],[29.2324486,38.914624],[29.2318673,38.951992],[29.3007624,38.9809885],[29.3115487,39.0515724],[29.2312501,39.091582],[29.2183941,39.1273007],[29.2075703,39.0928845],[29.1351486,39.0341986],[29.1594007,38.9695641],[29.194881,38.940794],[29.1611329,38.9123101],[29.0678872,38.8718589]]]},"properties":{"@id":"relation/1669549","admin_level":"6","boundary":"administrative","name":"Şaphane","name:ce":"ШапхӀане","name:fa":"شبخانه","name:tr":"Şaphane","name:tr:suffix":"İlçesi","name:tt":"Шапхане","network":"TR43-districts","type":"boundary","wikidata":"Q953775","wikipedia":"tr:Şaphane, Kütahya"},"id":"relation/1669549"},
{"type":"Feature","geometry":{"type":"Polygon","coordinates":[[[29.7654894,39.725928],[29.7299372,39.7495017],[29.7348056,39.7899921],[29.7775979,39.82701],[29.7604957,39.8678206],[29.6467573,39.865404],[29.5605848,39.8788571],[29.5088778,39.8716419],[29.4716972,39.8384283],[29.4238387,39.8269099],[29.4019949,39.7938285],[29.3692011,39.7870132],[29.3898257,39.7300985],[29.4346763,39.7092466],[29.4780204,39.7123927],[29.5124655,39.6684364],[29.6228161,39.6784387],[29.6681553,39.7006923],[29.7359148,39.700647],[29.7654894,39.725928]]]},"properties":{"@id":"relation/1671338","admin_level":"6","boundary":"administrative","name":"Domaniç","name:ce":"Доманич","name:de":"Domaniç","name:en":"Domaniç","name:fa":"دومانیچ","name:ru":"Доманич","name:tr":"Domaniç","name:tr:suffix":"İlçesi","name:tt":"Доманич","network":"TR43-districts","type":"boundary","wikidata":"Q2671001","wikipedia":"tr:Domaniç"},"id":"relation/1671338"},
{"type":"Feature","geometry":{"type":"Polygon","coordinates":[[[28.6117642,38.7358384],[28.7067142,38.782006],[28.7038481,38.8363239],[28.861041,38.9037059],[28.9097789,38.8943054],[28.9605188,38.9257632],[28.9286525,38.983057],[28.9434619,39.0203006],[28.9411949,39.0676164],[28.8746451,39.0875693],[28.7570777,39.0736548],[28.6657902,39.1018509],[28.608588,39.1100729],[28.6320531,39.1634928],[28.5843324,39.1392857],[28.5082031,39.0477688],[28.4849081,38.9998196],[28.415771,38.9468635],[28.4375975,38.8774673],[28.4677219,38.8779378],[28.4885787,38.8410447],[28.5298259,38.8151433],[28.5875579,38.8227867],[28.5752497,38.7700444],[28.6117642,38.7358384]]]},"properties":{"@id":"relation/1821131","admin_level":"6","boundary":"administrative","name":"Demirci","name:ce":"Демирджи","name:fa":"دمیرجی","name:tr":"Demirci","name:tr:suffix":"İlçesi","name:tt":"Демирҗи","name:ur":"دیمیرجی","name:zh":"代米爾吉","network":"TR45-districts","type":"boundary","wikidata":"Q1011968","wikipedia":"tr:Demirci"},"id":"relation/1821131"},
{"type":"Feature","geometry":{"type":"Polygon","coordinates":[[[28.9605188,38.9257632],[28.9097789,38.8943054],[28.861041,38.9037059],[28.7038481,38.8363239],[28.7067142,38.782006],[28.6117642,38.7358384],[28.6610514,38.6882436],[28.7182775,38.6788308],[28.746073,38.7099364],[28.7767123,38.6941521],[28.9023685,38.6989083],[28.9362716,38.6933482],[29.0383089,38.7284834],[29.0662192,38.7903525],[29.1186319,38.8444937],[29.0678872,38.8718589],[29.0011167,38.8591595],[28.9605188,38.9257632]]]},"properties":{"@id":"relation/1821206","admin_level":"6","boundary":"administrative","name":"Selendi","name:ce":"Селенди","name:fa":"سلندی","name:tr":"Selendi","name:tr:suffix":"İlçesi","name:tt":"Селенди","name:ur":"سیلیندی","network":"TR45-districts","type":"boundary","wikidata":"Q2674090","wikipedia":"tr:Selendi"},"id":"relation/1821206"},
{"type":"Feature","geometry":{"type":"Polygon","coordinates":[[[29.6151098,39.3499182],[29.6236918,39.3291182],[29.5283774,39.2192239],[29.4658537,39.2107177],[29.4233474,39.1835203],[29.4634107,39.1421103],[29.5219729,39.1227149],[29.5930759,39.12116],[29.6311646,39.0922811],[29.6870709,39.0810043],[29.7390342,39.1292801],[29.7477568,39.1554384],[29.7432146,39.2546529],[29.6765221,39.255922],[29.7032715,39.3243307],[29.7021085,39.3823357],[29.6689625,39.3589596],[29.6151098,39.3499182]]]},"properties":{"@id":"relation/1824811","admin_level":"6","boundary":"administrative","name":"Çavdarhisar","name:ce":"ЧавдархӀисар","name:fa":"چاودارحصار","name:tr":"Çavdarhisar","name:tr:suffix":"İlçesi","network":"TR43-districts","type":"boundary","wikidata":"Q2424690","wikipedia":"tr:Çavdarhisar"},"id":"relation/1824811"},
{"type":"Feature","geometry":{"type":"Polygon","coordinates":[[[29.4233474,39.1835203],[29.4658537,39.2107177],[29.5283774,39.2192239],[29.6236918,39.3291182],[29.6151098,39.3499182],[29.5577313,39.3463918],[29.4697179,39.3649794],[29.3906942,39.4457766],[29.309682,39.4890744],[29.1950341,39.47156],[29.1485623,39.4516275],[29.0749666,39.4465068],[29.0693906,39.4071648],[29.0369889,39.3802509],[29.0641005,39.2892121],[29.0550633,39.2142805],[29.1250259,39.2535098],[29.2109674,39.272612],[29.2847658,39.2515608],[29.3313753,39.2826342],[29.3736691,39.2843044],[29.4073315,39.2565736],[29.4233474,39.1835203]]]},"properties":{"@id":"relation/1824831","admin_level":"6","boundary":"administrative","name":"Emet","name:ce":"Эмет","name:de":"Emet","name:en":"Emet","name:fa":"امت","name:tr":"Emet","name:tr:suffix":"İlçesi","name:tt":"Эмет","name:zh":"埃梅特","network":"TR43-districts","type":"boundary","wikidata":"Q1859664","wikipedia":"tr:Emet"},"id":"relation/1824831"},
{"type":"Feature","geometry":{"type":"Polygon","coordinates":[[[29.0550633,39.2142805],[29.0702723,39.1737944],[29.1271405,39.1633702],[29.2058366,39.1648975],[29.2183941,39.1273007],[29.2588552,39.1437463],[29.3559583,39.1497465],[29.4233474,39.1835203],[29.4073315,39.2565736],[29.3736691,39.2843044],[29.3313753,39.2826342],[29.2847658,39.2515608],[29.2109674,39.272612],[29.1250259,39.2535098],[29.0550633,39.2142805]]]},"properties":{"@id":"relation/1824832","admin_level":"6","boundary":"administrative","name":"Hisarcık","name:ce":"ХӀисарджик","name:de":"Hisarcık","name:en":"Hisarcık","name:fa":"حصارجیق","name:tr":"Hisarcık","name:tr:suffix":"İlçesi","network":"TR43-districts","type":"boundary","wikidata":"Q2671123","wikimedia_commons":"Category:Hisarcık","wikipedia":"tr:Hisarcık, Kütahya"},"id":"relation/1824832"},
{"type":"Feature","geometry":{"type":"Polygon","coordinates":[[[30.2008081,38.9328243],[30.2125084,38.958738],[30.2627262,38.9856202],[30.2422698,39.0594396],[30.2729309,39.1169911],[30.2487348,39.1699879],[30.2049189,39.1911604],[30.0928186,39.20439],[30.0552173,39.1929802],[29.9490725,39.1546939],[29.9095887,39.0998084],[29.8607704,39.0615158],[29.7532052,39.0010373],[29.7418948,38.9629122],[29.7495236,38.9154051],[29.8406783,38.9538855],[29.9563066,38.9506993],[29.974971,38.9903392],[30.014576,38.9988305],[30.0368822,38.9733534],[30.0560019,38.9043067],[30.0855918,38.8982841],[30.1224654,38.9379532],[30.2008081,38.9328243]]]},"properties":{"@id":"relation/1824948","admin_level":"6","boundary":"administrative","name":"Altıntaş","name:ce":"Алтинташ","name:fa":"آلتین‌تاش","name:tr":"Altıntaş","name:tr:suffix":"İlçesi","network":"TR43-districts","old_name":"Altuntaş;Kurtköy","type":"boundary","wikidata":"Q2034360","wikipedia":"tr:Altıntaş"},"id":"relation/1824948"},
{"type":"Feature","geometry":{"type":"Polygon","coordinates":[[[29.6870709,39.0810043],[29.6773906,39.0257184],[29.7532052,39.0010373],[29.8607704,39.0615158],[29.9095887,39.0998084],[29.9490725,39.1546939],[30.0552173,39.1929802],[29.9716604,39.2484517],[29.900249,39.2668069],[29.8755291,39.3154951],[29.840266,39.3303466],[29.7591142,39.4029742],[29.7296057,39.3929313],[29.7021085,39.3823357],[29.7032715,39.3243307],[29.6765221,39.255922],[29.7432146,39.2546529],[29.7477568,39.1554384],[29.7390342,39.1292801],[29.6870709,39.0810043]]]},"properties":{"@id":"relation/1824949","admin_level":"6","boundary":"administrative","name":"Aslanapa","name:ce":"Асланара","name:tr":"Aslanapa","name:tr:suffix":"İlçesi","network":"TR43-districts","old_name":"Gireği","type":"boundary","wikidata":"Q2534870","wikipedia":"tr:Aslanapa"},"id":"relation/1824949"},
{"type":"Feature","geometry":{"type":"Polygon","coordinates":[[[29.7495236,38.9154051],[29.8209779,38.9078462],[29.8790458,38.9160175],[29.9183778,38.8984669],[29.9623733,38.8320428],[30.0055396,38.8414291],[30.0607181,38.8251111],[30.1120368,38.84647],[30.1274299,38.9000176],[30.1789688,38.9018171],[30.2008081,38.9328243],[30.1224654,38.9379532],[30.0855918,38.8982841],[30.0560019,38.9043067],[30.0368822,38.9733534],[30.014576,38.9988305],[29.974971,38.9903392],[29.9563066,38.9506993],[29.8406783,38.9538855],[29.7495236,38.9154051]]]},"properties":{"@id":"relation/1824950","admin_level":"6","boundary":"administrative","name":"Dumlupınar","name:ce":"Думлупинар","name:de":"Dumlupınar","name:en":"Dumlupınar","name:tr":"Dumlupınar","name:tr:suffix":"İlçesi","network":"TR43-districts","old_name":"Dondupınar","type":"boundary","wikidata":"Q3041195","wikipedia":"tr:Dumlupınar"},"id":"relation/1824950"},
{"type":"Feature","geometry":{"type":"Polygon","coordinates":[[[30.2729309,39.1169911],[30.3080561,39.1531974],[30.378018,39.1534907],[30.422998,39.1871151],[30.4420038,39.2241318],[30.3936512,39.2710327],[30.3934165,39.316086],[30.343652,39.3745393],[30.3363751,39.4356633],[30.3401309,39.5289688],[30.2467052,39.5774743],[30.243301,39.6234085],[30.2084429,39.6767324],[30.1185382,39.6751063],[29.9819832,39.659962],[29.9188516,39.690175],[29.8477059,39.7115161],[29.8028685,39.7024813],[29.8309793,39.653087],[29.7432691,39.6092974],[29.7507619,39.5797492],[29.7234351,39.5335337],[29.7538472,39.4900087],[29.7631031,39.4264403],[29.7296057,39.3929313],[29.7591142,39.4029742],[29.840266,39.3303466],[29.8755291,39.3154951],[29.900249,39.2668069],[29.9716604,39.2484517],[30.0552173,39.1929802],[30.0928186,39.20439],[30.2049189,39.1911604],[30.2487348,39.1699879],[30.2729309,39.1169911]]]},"properties":{"@id":"relation/1824951","admin_level":"6","boundary":"administrative","name":"Kütahya Merkez","name:ar":"كوتاهية","name:bg":"Кютахия","name:ce":"КуьтахӀи","name:el":"Κιουτάχεια","name:fa":"کوتاهیه","name:grc":"Κοτυάειον","name:hu":"Kütahya","name:hy":"Քյութահյա","name:ja":"キュタヒヤ","name:ka":"ქუთაჰია","name:ko":"퀴타히아","name:la":"Cotyaeum","name:lt":"Kiutahija","name:lv":"Kitahja","name:mk":"Ќутахија","name:ml":"ക്യുട്ടാഹ്യ","name:ru":"Кютахья","name:sq":"Kytahia","name:sr":"Кутахја","name:tg":"Кутоҳиё","name:tr":"Kütahya Merkez","name:tr:suffix":"İlçesi","name:tt":"Кютахья","name:uk":"Кютаг'я","name:ur":"کوتاہیا","name:zh":"屈塔希亞","network":"TR43-districts","old_name:uk":"Кютах'я","type":"boundary","wikidata":"Q188894","wikipedia":"tr:Kütahya"},"id":"relation/1824951"},
{"type":"Feature","geometry":{"type":"Polygon","coordinates":[[[29.0749666,39.4465068],[29.1485623,39.4516275],[29.1950341,39.47156],[29.309682,39.4890744],[29.3906942,39.4457766],[29.4697179,39.3649794],[29.5577313,39.3463918],[29.6151098,39.3499182],[29.6689625,39.3589596],[29.7021085,39.3823357],[29.7296057,39.3929313],[29.7631031,39.4264403],[29.7538472,39.4900087],[29.7234351,39.5335337],[29.7507619,39.5797492],[29.7432691,39.6092974],[29.8309793,39.653087],[29.8028685,39.7024813],[29.7654894,39.725928],[29.7359148,39.700647],[29.6681553,39.7006923],[29.6228161,39.6784387],[29.5124655,39.6684364],[29.4780204,39.7123927],[29.4346763,39.7092466],[29.3898257,39.7300985],[29.3692011,39.7870132],[29.2644283,39.7494364],[29.2858101,39.7242398],[29.2486372,39.6907135],[29.1964474,39.5992687],[29.1679717,39.5938012],[29.0423054,39.6120725],[28.9505372,39.5497507],[28.948499,39.5315787],[28.9857903,39.5174937],[29.045214,39.4569603],[29.0749666,39.4465068]]]},"properties":{"@id":"relation/1824952","admin_level":"6","boundary":"administrative","name":"Tavşanlı","name:ce":"Тавшанли","name:de":"Tavşanlı","name:en":"Tavşanlı","name:fa":"دوشان‌لی","name:tr":"Tavşanlı","name:tr:suffix":"İlçesi","name:tt":"Тавшанлы","name:zh":"塔夫尚勒","network":"TR43-districts","type":"boundary","wikidata":"Q1948357","wikipedia":"tr:Tavşanlı"},"id":"relation/1824952"},
{"type":"Feature","geometry":{"type":"Polygon","coordinates":[[[30.0056469,39.416096],[30.0063658,39.4382272],[29.9949717,39.4311258],[29.9997032,39.4202651],[30.0045901,39.4152133],[30.0056469,39.416096]]]},"properties":{"@id":"relation/10667062","admin_level":"8","boundary":"administrative","name":"Vefa Mahallesi","type":"boundary","@relations":[{"role":"subarea","rel":1824951,"reltags":{"admin_level":"6","boundary":"administrative","name":"Kütahya Merkez","name:ar":"كوتاهية","name:bg":"Кютахия","name:ce":"КуьтахӀи","name:el":"Κιουτάχεια","name:fa":"کوتاهیه","name:grc":"Κοτυάειον","name:hu":"Kütahya","name:hy":"Քյութահյա","name:ja":"キュタヒヤ","name:ka":"ქუთაჰია","name:ko":"퀴타히아","name:la":"Cotyaeum","name:lt":"Kiutahija","name:lv":"Kitahja","name:mk":"Ќутахија","name:ml":"ക്യുട്ടാഹ്യ","name:ru":"Кютахья","name:sq":"Kytahia","name:sr":"Кутахја","name:tg":"Кутоҳиё","name:tr":"Kütahya Merkez","name:tr:suffix":"İlçesi","name:tt":"Кютахья","name:uk":"Кютаг'я","name:ur":"کوتاہیا","name:zh":"屈塔希亞","network":"TR43-districts","old_name:uk":"Кютах'я","type":"boundary","wikidata":"Q188894","wikipedia":"tr:Kütahya"}}]},"id":"relation/10667062"},
{"type":"Feature","geometry":{"type":"Polygon","coordinates":[[[30.0045901,39.4152133],[29.9997032,39.4202651],[29.994607,39.4198424],[29.995079,39.4147159],[30.0004904,39.4116469],[30.0045901,39.4152133]]]},"properties":{"@id":"relation/10667063","admin_level":"8","boundary":"administrative","name":"Fatih Mahallesi","type":"boundary","@relations":[{"role":"subarea","rel":1824951,"reltags":{"admin_level":"6","boundary":"administrative","name":"Kütahya Merkez","name:ar":"كوتاهية","name:bg":"Кютахия","name:ce":"КуьтахӀи","name:el":"Κιουτάχεια","name:fa":"کوتاهیه","name:grc":"Κοτυάειον","name:hu":"Kütahya","name:hy":"Քյութահյա","name:ja":"キュタヒヤ","name:ka":"ქუთაჰია","name:ko":"퀴타히아","name:la":"Cotyaeum","name:lt":"Kiutahija","name:lv":"Kitahja","name:mk":"Ќутахија","name:ml":"ക്യുട്ടാഹ്യ","name:ru":"Кютахья","name:sq":"Kytahia","name:sr":"Кутахја","name:tg":"Кутоҳиё","name:tr":"Kütahya Merkez","name:tr:suffix":"İlçesi","name:tt":"Кютахья","name:uk":"Кютаг'я","name:ur":"کوتاہیا","name:zh":"屈塔希亞","network":"TR43-districts","old_name:uk":"Кютах'я","type":"boundary","wikidata":"Q188894","wikipedia":"tr:Kütahya"}}]},"id":"relation/10667063"},
{"type":"Feature","geometry":{"type":"Polygon","coordinates":[[[29.994607,39.4198424],[29.989205,39.4242059],[29.9799997,39.4203106],[29.98052,39.4180852],[29.9823788,39.4164752],[29.9924601,39.4167793],[29.995079,39.4147159],[29.994607,39.4198424]]]},"properties":{"@id":"relation/10667064","admin_level":"8","boundary":"administrative","name":"Alipaşa Mahallesi","type":"boundary","@relations":[{"role":"subarea","rel":1824951,"reltags":{"admin_level":"6","boundary":"administrative","name":"Kütahya Merkez","name:ar":"كوتاهية","name:bg":"Кютахия","name:ce":"КуьтахӀи","name:el":"Κιουτάχεια","name:fa":"کوتاهیه","name:grc":"Κοτυάειον","name:hu":"Kütahya","name:hy":"Քյութահյա","name:ja":"キュタヒヤ","name:ka":"ქუთაჰია","name:ko":"퀴타히아","name:la":"Cotyaeum","name:lt":"Kiutahija","name:lv":"Kitahja","name:mk":"Ќутахија","name:ml":"ക്യുട്ടാഹ്യ","name:ru":"Кютахья","name:sq":"Kytahia","name:sr":"Кутахја","name:tg":"Кутоҳиё","name:tr":"Kütahya Merkez","name:tr:suffix":"İlçesi","name:tt":"Кютахья","name:uk":"Кютаг'я","name:ur":"کوتاہیا","name:zh":"屈塔希亞","network":"TR43-districts","old_name:uk":"Кютах'я","type":"boundary","wikidata":"Q188894","wikipedia":"tr:Kütahya"}}]},"id":"relation/10667064"},
{"type":"Feature","geometry":{"type":"Polygon","coordinates":[[[29.9799997,39.4203106],[29.989205,39.4242059],[29.9866676,39.4254408],[29.9824276,39.4227054],[29.9799997,39.4203106]]]},"properties":{"@id":"relation/10667065","admin_level":"8","boundary":"administrative","name":"Servi Mahallesi","type":"boundary","@relations":[{"role":"subarea","rel":1824951,"reltags":{"admin_level":"6","boundary":"administrative","name":"Kütahya Merkez","name:ar":"كوتاهية","name:bg":"Кютахия","name:ce":"КуьтахӀи","name:el":"Κιουτάχεια","name:fa":"کوتاهیه","name:grc":"Κοτυάειον","name:hu":"Kütahya","name:hy":"Քյութահյա","name:ja":"キュタヒヤ","name:ka":"ქუთაჰია","name:ko":"퀴타히아","name:la":"Cotyaeum","name:lt":"Kiutahija","name:lv":"Kitahja","name:mk":"Ќутахија","name:ml":"ക്യുട്ടാഹ്യ","name:ru":"Кютахья","name:sq":"Kytahia","name:sr":"Кутахја","name:tg":"Кутоҳиё","name:tr":"Kütahya Merkez","name:tr:suffix":"İlçesi","name:tt":"Кютахья","name:uk":"Кютаг'я","name:ur":"کوتاہیا","name:zh":"屈塔希亞","network":"TR43-districts","old_name:uk":"Кютах'я","type":"boundary","wikidata":"Q188894","wikipedia":"tr:Kütahya"}}]},"id":"relation/10667065"},
{"type":"Feature","geometry":{"type":"Polygon","coordinates":[[[29.9782562,39.4285278],[29.9753272,39.4247073],[29.9789138,39.4238093],[29.9803622,39.4233244],[29.9824276,39.4227054],[29.9866676,39.4254408],[29.9782562,39.4285278]]]},"properties":{"@id":"relation/10667066","admin_level":"8","boundary":"administrative","name":"Meydan Mahallesi","type":"boundary","@relations":[{"role":"subarea","rel":1824951,"reltags":{"admin_level":"6","boundary":"administrative","name":"Kütahya Merkez","name:ar":"كوتاهية","name:bg":"Кютахия","name:ce":"КуьтахӀи","name:el":"Κιουτάχεια","name:fa":"کوتاهیه","name:grc":"Κοτυάειον","name:hu":"Kütahya","name:hy":"Քյութահյա","name:ja":"キュタヒヤ","name:ka":"ქუთაჰია","name:ko":"퀴타히아","name:la":"Cotyaeum","name:lt":"Kiutahija","name:lv":"Kitahja","name:mk":"Ќутахија","name:ml":"ക്യുട്ടാഹ്യ","name:ru":"Кютахья","name:sq":"Kytahia","name:sr":"Кутахја","name:tg":"Кутоҳиё","name:tr":"Kütahya Merkez","name:tr:suffix":"İlçesi","name:tt":"Кютахья","name:uk":"Кютаг'я","name:ur":"کوتاہیا","name:zh":"屈塔希亞","network":"TR43-districts","old_name:uk":"Кютах'я","type":"boundary","wikidata":"Q188894","wikipedia":"tr:Kütahya"}}]},"id":"relation/10667066"},
{"type":"Feature","geometry":{"type":"Polygon","coordinates":[[[29.97257,39.4254367],[29.9747774,39.4247985],[29.9753272,39.4247073],[29.9782562,39.4285278],[29.982022,39.4382231],[29.97257,39.4254367]]]},"properties":{"@id":"relation/10667067","admin_level":"8","boundary":"administrative","name":"Fuatpaşa Mahallesi","type":"boundary","@relations":[{"role":"subarea","rel":1824951,"reltags":{"admin_level":"6","boundary":"administrative","name":"Kütahya Merkez","name:ar":"كوتاهية","name:bg":"Кютахия","name:ce":"КуьтахӀи","name:el":"Κιουτάχεια","name:fa":"کوتاهیه","name:grc":"Κοτυάειον","name:hu":"Kütahya","name:hy":"Քյութահյա","name:ja":"キュタヒヤ","name:ka":"ქუთაჰია","name:ko":"퀴타히아","name:la":"Cotyaeum","name:lt":"Kiutahija","name:lv":"Kitahja","name:mk":"Ќутахија","name:ml":"ക്യുട്ടാഹ്യ","name:ru":"Кютахья","name:sq":"Kytahia","name:sr":"Кутахја","name:tg":"Кутоҳиё","name:tr":"Kütahya Merkez","name:tr:suffix":"İlçesi","name:tt":"Кютахья","name:uk":"Кютаг'я","name:ur":"کوتاہیا","name:zh":"屈塔希亞","network":"TR43-districts","old_name:uk":"Кютах'я","type":"boundary","wikidata":"Q188894","wikipedia":"tr:Kütahya"}}]},"id":"relation/10667067"},
{"type":"Feature","geometry":{"type":"Polygon","coordinates":[[[29.982022,39.4382231],[29.9782562,39.4285278],[29.9866676,39.4254408],[29.989205,39.4242059],[29.9949717,39.4311258],[29.982022,39.4382231]]]},"properties":{"@id":"relation/10667068","admin_level":"8","boundary":"administrative","name":"Gaybiefendi Mahallesi","type":"boundary","@relations":[{"role":"subarea","rel":1824951,"reltags":{"admin_level":"6","boundary":"administrative","name":"Kütahya Merkez","name:ar":"كوتاهية","name:bg":"Кютахия","name:ce":"КуьтахӀи","name:el":"Κιουτάχεια","name:fa":"کوتاهیه","name:grc":"Κοτυάειον","name:hu":"Kütahya","name:hy":"Քյութահյա","name:ja":"キュタヒヤ","name:ka":"ქუთაჰია","name:ko":"퀴타히아","name:la":"Cotyaeum","name:lt":"Kiutahija","name:lv":"Kitahja","name:mk":"Ќутахија","name:ml":"ക്യുട്ടാഹ്യ","name:ru":"Кютахья","name:sq":"Kytahia","name:sr":"Кутахја","name:tg":"Кутоҳиё","name:tr":"Kütahya Merkez","name:tr:suffix":"İlçesi","name:tt":"Кютахья","name:uk":"Кютаг'я","name:ur":"کوتاہیا","name:zh":"屈塔希亞","network":"TR43-districts","old_name:uk":"Кютах'я","type":"boundary","wikidata":"Q188894","wikipedia":"tr:Kütahya"}}]},"id":"relation/10667068"},
{"type":"Feature","geometry":{"type":"Polygon","coordinates":[[[29.9997032,39.4202651],[29.9949717,39.4311258],[29.989205,39.4242059],[29.994607,39.4198424],[29.9997032,39.4202651]]]},"properties":{"@id":"relation/10667069","admin_level":"8","boundary":"administrative","name":"Yıldırım Beyazıt Mahallesi","type":"boundary","@relations":[{"role":"subarea","rel":1824951,"reltags":{"admin_level":"6","boundary":"administrative","name":"Kütahya Merkez","name:ar":"كوتاهية","name:bg":"Кютахия","name:ce":"КуьтахӀи","name:el":"Κιουτάχεια","name:fa":"کوتاهیه","name:grc":"Κοτυάειον","name:hu":"Kütahya","name:hy":"Քյութահյա","name:ja":"キュタヒヤ","name:ka":"ქუთაჰია","name:ko":"퀴타히아","name:la":"Cotyaeum","name:lt":"Kiutahija","name:lv":"Kitahja","name:mk":"Ќутахија","name:ml":"ക്യുട്ടാഹ്യ","name:ru":"Кютахья","name:sq":"Kytahia","name:sr":"Кутахја","name:tg":"Кутоҳиё","name:tr":"Kütahya Merkez","name:tr:suffix":"İlçesi","name:tt":"Кютахья","name:uk":"Кютаг'я","name:ur":"کوتاہیا","name:zh":"屈塔希亞","network":"TR43-districts","old_name:uk":"Кютах'я","type":"boundary","wikidata":"Q188894","wikipedia":"tr:Kütahya"}}]},"id":"relation/10667069"},
{"type":"Feature","geometry":{"type":"Polygon","coordinates":[[[29.9824276,39.4227054],[29.9803622,39.4233244],[29.976325,39.4202568],[29.9763132,39.418204],[29.98052,39.4180852],[29.9799997,39.4203106],[29.9824276,39.4227054]]]},"properties":{"@id":"relation/12281422","admin_level":"8","boundary":"administrative","name":"Balıklı Mahallesi","type":"boundary","@relations":[{"role":"subarea","rel":1824951,"reltags":{"admin_level":"6","boundary":"administrative","name":"Kütahya Merkez","name:ar":"كوتاهية","name:bg":"Кютахия","name:ce":"КуьтахӀи","name:el":"Κιουτάχεια","name:fa":"کوتاهیه","name:grc":"Κοτυάειον","name:hu":"Kütahya","name:hy":"Քյութահյա","name:ja":"キュタヒヤ","name:ka":"ქუთაჰია","name:ko":"퀴타히아","name:la":"Cotyaeum","name:lt":"Kiutahija","name:lv":"Kitahja","name:mk":"Ќутахија","name:ml":"ക്യുട്ടാഹ്യ","name:ru":"Кютахья","name:sq":"Kytahia","name:sr":"Кутахја","name:tg":"Кутоҳиё","name:tr":"Kütahya Merkez","name:tr:suffix":"İlçesi","name:tt":"Кютахья","name:uk":"Кютаг'я","name:ur":"کوتاہیا","name:zh":"屈塔希亞","network":"TR43-districts","old_name:uk":"Кютах'я","type":"boundary","wikidata":"Q188894","wikipedia":"tr:Kütahya"}}]},"id":"relation/12281422"},
{"type":"Feature","geometry":{"type":"Polygon","coordinates":[[[29.9803622,39.4233244],[29.9789138,39.4238093],[29.9758208,39.4204723],[29.976325,39.4202568],[29.9803622,39.4233244]]]},"properties":{"@id":"relation/12281423","admin_level":"8","boundary":"administrative","name":"Pirler Mahallesi","type":"boundary","@relations":[{"role":"subarea","rel":1824951,"reltags":{"admin_level":"6","boundary":"administrative","name":"Kütahya Merkez","name:ar":"كوتاهية","name:bg":"Кютахия","name:ce":"КуьтахӀи","name:el":"Κιουτάχεια","name:fa":"کوتاهیه","name:grc":"Κοτυάειον","name:hu":"Kütahya","name:hy":"Քյութահյա","name:ja":"キュタヒヤ","name:ka":"ქუთაჰია","name:ko":"퀴타히아","name:la":"Cotyaeum","name:lt":"Kiutahija","name:lv":"Kitahja","name:mk":"Ќутахија","name:ml":"ക്യുട്ടാഹ്യ","name:ru":"Кютахья","name:sq":"Kytahia","name:sr":"Кутахја","name:tg":"Кутоҳиё","name:tr":"Kütahya Merkez","name:tr:suffix":"İlçesi","name:tt":"Кютахья","name:uk":"Кютаг'я","name:ur":"کوتاہیا","name:zh":"屈塔希亞","network":"TR43-districts","old_name:uk":"Кютах'я","type":"boundary","wikidata":"Q188894","wikipedia":"tr:Kütahya"}}]},"id":"relation/12281423"},
{"type":"Feature","geometry":{"type":"Polygon","coordinates":[[[29.9747774,39.4247985],[29.9739003,39.421156],[29.9758208,39.4204723],[29.9789138,39.4238093],[29.9753272,39.4247073],[29.9747774,39.4247985]]]},"properties":{"@id":"relation/12281424","admin_level":"8","boundary":"administrative","name":"Cemalettin Mahallesi","type":"boundary","@relations":[{"role":"subarea","rel":1824951,"reltags":{"admin_level":"6","boundary":"administrative","name":"Kütahya Merkez","name:ar":"كوتاهية","name:bg":"Кютахия","name:ce":"КуьтахӀи","name:el":"Κιουτάχεια","name:fa":"کوتاهیه","name:grc":"Κοτυάειον","name:hu":"Kütahya","name:hy":"Քյութահյա","name:ja":"キュタヒヤ","name:ka":"ქუთაჰია","name:ko":"퀴타히아","name:la":"Cotyaeum","name:lt":"Kiutahija","name:lv":"Kitahja","name:mk":"Ќутахија","name:ml":"ക്യുട്ടാഹ്യ","name:ru":"Кютахья","name:sq":"Kytahia","name:sr":"Кутахја","name:tg":"Кутоҳиё","name:tr":"Kütahya Merkez","name:tr:suffix":"İlçesi","name:tt":"Кютахья","name:uk":"Кютаг'я","name:ur":"کوتاہیا","name:zh":"屈塔希亞","network":"TR43-districts","old_name:uk":"Кютах'я","type":"boundary","wikidata":"Q188894","wikipedia":"tr:Kütahya"}}]},"id":"relation/12281424"},
{"type":"Feature","geometry":{"type":"Polygon","coordinates":[[[29.9715517,39.4225341],[29.9739003,39.421156],[29.9747774,39.4247985],[29.97257,39.4254367],[29.9715517,39.4225341]]]},"properties":{"@id":"relation/12660536","admin_level":"8","boundary":"administrative","name":"Cedit Mahallesi","type":"boundary","@relations":[{"role":"subarea","rel":1824951,"reltags":{"admin_level":"6","boundary":"administrative","name":"Kütahya Merkez","name:ar":"كوتاهية","name:bg":"Кютахия","name:ce":"КуьтахӀи","name:el":"Κιουτάχεια","name:fa":"کوتاهیه","name:grc":"Κοτυάειον","name:hu":"Kütahya","name:hy":"Քյութահյա","name:ja":"キュタヒヤ","name:ka":"ქუთაჰია","name:ko":"퀴타히아","name:la":"Cotyaeum","name:lt":"Kiutahija","name:lv":"Kitahja","name:mk":"Ќутахија","name:ml":"ക്യുട്ടാഹ്യ","name:ru":"Кютахья","name:sq":"Kytahia","name:sr":"Кутахја","name:tg":"Кутоҳиё","name:tr":"Kütahya Merkez","name:tr:suffix":"İlçesi","name:tt":"Кютахья","name:uk":"Кютаг'я","name:ur":"کوتاہیا","name:zh":"屈塔希亞","network":"TR43-districts","old_name:uk":"Кютах'я","type":"boundary","wikidata":"Q188894","wikipedia":"tr:Kütahya"}}]},"id":"relation/12660536"},
{"type":"Feature","geometry":{"type":"Polygon","coordinates":[[[30.0469959,39.3986732],[30.0211474,39.4129981],[30.0197473,39.4106035],[30.0354579,39.3924374],[30.0469959,39.3986732]]]},"properties":{"@id":"relation/14140298","admin_level":"8","boundary":"administrative","name":"Dumlupınar Mahallesi","type":"boundary","@relations":[{"role":"subarea","rel":1824951,"reltags":{"admin_level":"6","boundary":"administrative","name":"Kütahya Merkez","name:ar":"كوتاهية","name:bg":"Кютахия","name:ce":"КуьтахӀи","name:el":"Κιουτάχεια","name:fa":"کوتاهیه","name:grc":"Κοτυάειον","name:hu":"Kütahya","name:hy":"Քյութահյա","name:ja":"キュタヒヤ","name:ka":"ქუთაჰია","name:ko":"퀴타히아","name:la":"Cotyaeum","name:lt":"Kiutahija","name:lv":"Kitahja","name:mk":"Ќутахија","name:ml":"ക്യുട്ടാഹ്യ","name:ru":"Кютахья","name:sq":"Kytahia","name:sr":"Кутахја","name:tg":"Кутоҳиё","name:tr":"Kütahya Merkez","name:tr:suffix":"İlçesi","name:tt":"Кютахья","name:uk":"Кютаг'я","name:ur":"کوتاہیا","name:zh":"屈塔希亞","network":"TR43-districts","old_name:uk":"Кютах'я","type":"boundary","wikidata":"Q188894","wikipedia":"tr:Kütahya"}}]},"id":"relation/14140298"},
{"type":"Feature","geometry":{"type":"Polygon","coordinates":[[[30.018197,39.4069759],[30.0241636,39.3985706],[30.0354579,39.3924374],[30.0197473,39.4106035],[30.018197,39.4069759]]]},"properties":{"@id":"relation/14140299","admin_level":"8","boundary":"administrative","name":"Yunusemre Mahallesi","type":"boundary","@relations":[{"role":"subarea","rel":1824951,"reltags":{"admin_level":"6","boundary":"administrative","name":"Kütahya Merkez","name:ar":"كوتاهية","name:bg":"Кютахия","name:ce":"КуьтахӀи","name:el":"Κιουτάχεια","name:fa":"کوتاهیه","name:grc":"Κοτυάειον","name:hu":"Kütahya","name:hy":"Քյութահյա","name:ja":"キュタヒヤ","name:ka":"ქუთაჰია","name:ko":"퀴타히아","name:la":"Cotyaeum","name:lt":"Kiutahija","name:lv":"Kitahja","name:mk":"Ќутахија","name:ml":"ക്യുട്ടാഹ്യ","name:ru":"Кютахья","name:sq":"Kytahia","name:sr":"Кутахја","name:tg":"Кутоҳиё","name:tr":"Kütahya Merkez","name:tr:suffix":"İlçesi","name:tt":"Кютахья","name:uk":"Кютаг'я","name:ur":"کوتاہیا","name:zh":"屈塔希亞","network":"TR43-districts","old_name:uk":"Кютах'я","type":"boundary","wikidata":"Q188894","wikipedia":"tr:Kütahya"}}]},"id":"relation/14140299"},
{"type":"Feature","geometry":{"type":"Polygon","coordinates":[[[30.0115209,39.4058088],[30.0241636,39.3985706],[30.018197,39.4069759],[30.0076371,39.4084214],[30.0115209,39.4058088]]]},"properties":{"@id":"relation/14140300","admin_level":"8","boundary":"administrative","name":"Yenidoğan Mahallesi","type":"boundary","@relations":[{"role":"subarea","rel":1824951,"reltags":{"admin_level":"6","boundary":"administrative","name":"Kütahya Merkez","name:ar":"كوتاهية","name:bg":"Кютахия","name:ce":"КуьтахӀи","name:el":"Κιουτάχεια","name:fa":"کوتاهیه","name:grc":"Κοτυάειον","name:hu":"Kütahya","name:hy":"Քյութահյա","name:ja":"キュタヒヤ","name:ka":"ქუთაჰია","name:ko":"퀴타히아","name:la":"Cotyaeum","name:lt":"Kiutahija","name:lv":"Kitahja","name:mk":"Ќутахија","name:ml":"ക്യുട്ടാഹ്യ","name:ru":"Кютахья","name:sq":"Kytahia","name:sr":"Кутахја","name:tg":"Кутоҳиё","name:tr":"Kütahya Merkez","name:tr:suffix":"İlçesi","name:tt":"Кютахья","name:uk":"Кютаг'я","name:ur":"کوتاہیا","name:zh":"屈塔希亞","network":"TR43-districts","old_name:uk":"Кютах'я","type":"boundary","wikidata":"Q188894","wikipedia":"tr:Kütahya"}}]},"id":"relation/14140300"},
{"type":"Feature","geometry":{"type":"Polygon","coordinates":[[[30.0004904,39.4116469],[30.0076371,39.4084214],[30.018197,39.4069759],[30.0197473,39.4106035],[30.0211474,39.4129981],[30.0056469,39.416096],[30.0045901,39.4152133],[30.0004904,39.4116469]]]},"properties":{"@id":"relation/14140301","admin_level":"8","boundary":"administrative","name":"Cumhuriyet Mahallesi","type":"boundary","@relations":[{"role":"subarea","rel":1824951,"reltags":{"admin_level":"6","boundary":"administrative","name":"Kütahya Merkez","name:ar":"كوتاهية","name:bg":"Кютахия","name:ce":"КуьтахӀи","name:el":"Κιουτάχεια","name:fa":"کوتاهیه","name:grc":"Κοτυάειον","name:hu":"Kütahya","name:hy":"Քյութահյա","name:ja":"キュタヒヤ","name:ka":"ქუთაჰია","name:ko":"퀴타히아","name:la":"Cotyaeum","name:lt":"Kiutahija","name:lv":"Kitahja","name:mk":"Ќутахија","name:ml":"ക്യുട്ടാഹ്യ","name:ru":"Кютахья","name:sq":"Kytahia","name:sr":"Кутахја","name:tg":"Кутоҳиё","name:tr":"Kütahya Merkez","name:tr:suffix":"İlçesi","name:tt":"Кютахья","name:uk":"Кютаг'я","name:ur":"کوتاہیا","name:zh":"屈塔希亞","network":"TR43-districts","old_name:uk":"Кютах'я","type":"boundary","wikidata":"Q188894","wikipedia":"tr:Kütahya"}}]},"id":"relation/14140301"},
{"type":"Feature","geometry":{"type":"Polygon","coordinates":[[[29.9758208,39.4204723],[29.9739003,39.421156],[29.9715517,39.4225341],[29.9728274,39.417014],[29.976325,39.4202568],[29.9758208,39.4204723]]]},"properties":{"@id":"relation/14338464","admin_level":"8","boundary":"administrative","name":"Maruf Mahallesi","type":"boundary","@relations":[{"role":"subarea","rel":1824951,"reltags":{"admin_level":"6","boundary":"administrative","name":"Kütahya Merkez","name:ar":"كوتاهية","name:bg":"Кютахия","name:ce":"КуьтахӀи","name:el":"Κιουτάχεια","name:fa":"کوتاهیه","name:grc":"Κοτυάειον","name:hu":"Kütahya","name:hy":"Քյութահյա","name:ja":"キュタヒヤ","name:ka":"ქუთაჰია","name:ko":"퀴타히아","name:la":"Cotyaeum","name:lt":"Kiutahija","name:lv":"Kitahja","name:mk":"Ќутахија","name:ml":"ക്യുട്ടാഹ്യ","name:ru":"Кютахья","name:sq":"Kytahia","name:sr":"Кутахја","name:tg":"Кутоҳиё","name:tr":"Kütahya Merkez","name:tr:suffix":"İlçesi","name:tt":"Кютахья","name:uk":"Кютаг'я","name:ur":"کوتاہیا","name:zh":"屈塔希亞","network":"TR43-districts","old_name:uk":"Кютах'я","type":"boundary","wikidata":"Q188894","wikipedia":"tr:Kütahya"}}]},"id":"relation/14338464"},
{"type":"Feature","geometry":{"type":"Polygon","coordinates":[[[29.976325,39.4202568],[29.9728274,39.417014],[29.9763132,39.418204],[29.976325,39.4202568]]]},"properties":{"@id":"relation/14338465","admin_level":"8","boundary":"administrative","name":"Paşam Sultan Mahallesi","type":"boundary","@relations":[{"role":"subarea","rel":1824951,"reltags":{"admin_level":"6","boundary":"administrative","name":"Kütahya Merkez","name:ar":"كوتاهية","name:bg":"Кютахия","name:ce":"КуьтахӀи","name:el":"Κιουτάχεια","name:fa":"کوتاهیه","name:grc":"Κοτυάειον","name:hu":"Kütahya","name:hy":"Քյութահյա","name:ja":"キュタヒヤ","name:ka":"ქუთაჰია","name:ko":"퀴타히아","name:la":"Cotyaeum","name:lt":"Kiutahija","name:lv":"Kitahja","name:mk":"Ќутахија","name:ml":"ക്യുട്ടാഹ്യ","name:ru":"Кютахья","name:sq":"Kytahia","name:sr":"Кутахја","name:tg":"Кутоҳиё","name:tr":"Kütahya Merkez","name:tr:suffix":"İlçesi","name:tt":"Кютахья","name:uk":"Кютаг'я","name:ur":"کوتاہیا","name:zh":"屈塔希亞","network":"TR43-districts","old_name:uk":"Кютах'я","type":"boundary","wikidata":"Q188894","wikipedia":"tr:Kütahya"}}]},"id":"relation/14338465"},
{"type":"Feature","geometry":{"type":"Polygon","coordinates":[[[29.9880087,39.4148568],[29.9924601,39.4167793],[29.9823788,39.4164752],[29.9836985,39.4121123],[29.9842161,39.4120842],[29.9880087,39.4148568]]]},"properties":{"@id":"relation/14346009","admin_level":"8","boundary":"administrative","name":"Saray Mahallesi","type":"boundary"},"id":"relation/14346009"},
{"type":"Feature","geometry":{"type":"Polygon","coordinates":[[[30.0056469,39.416096],[30.0211474,39.4129981],[30.0469959,39.3986732],[30.0063658,39.4382272],[30.0056469,39.416096]]]},"properties":{"@id":"relation/14346010","admin_level":"8","boundary":"administrative","name":"Zığra Mahallesi","type":"boundary"},"id":"relation/14346010"},
{"type":"Feature","geometry":{"type":"Polygon","coordinates":[[[30.0241636,39.3985706],[30.0115209,39.4058088],[30.0074816,39.4002712],[30.0241636,39.3985706]]]},"properties":{"@id":"relation/14347905","admin_level":"8","boundary":"administrative","name":"75. Yıl Mahallesi","type":"boundary"},"id":"relation/14347905"},
{"type":"Feature","geometry":{"type":"Polygon","coordinates":[[[29.9836985,39.4121123],[29.9879014,39.4093467],[29.9842161,39.4120842],[29.9836985,39.4121123]]]},"properties":{"@id":"relation/14347906","admin_level":"8","boundary":"administrative","name":"Müderris Mahallesi","type":"boundary"},"id":"relation/14347906"},
{"type":"Feature","geometry":{"type":"Polygon","coordinates":[[[29.9880087,39.4148568],[29.9842161,39.4120842],[29.9879014,39.4093467],[29.9880087,39.4148568]]]},"properties":{"@id":"relation/14347907","admin_level":"8","boundary":"administrative","name":"Maltepe Mahallesi","type":"boundary"},"id":"relation/14347907"},
{"type":"Feature","geometry":{"type":"Polygon","coordinates":[[[28.9635233,39.0929204],[28.9582737,39.0981078],[28.950144,39.089563],[28.9603081,39.0848918],[28.9635233,39.0929204]]]},"properties":{"@id":"relation/18991857","admin_level":"8","boundary":"administrative","name":"Çavdır Mahallesi","type":"boundary"},"id":"relation/18991857"},
{"type":"Feature","geometry":{"type":"Polygon","coordinates":[[[28.9603081,39.0848918],[28.9672529,39.0849863],[28.9635233,39.0929204],[28.9603081,39.0848918]]]},"properties":{"@id":"relation/19011498","admin_level":"8","boundary":"administrative","name":"Karakür Mahallesi","type":"boundary"},"id":"relation/19011498"}
]}