{"type":"FeatureCollection", "features": [
{"type":"Feature","geometry":{"type":"Polygon","coordinates":[[[29.1351486,39.0341986],[29.1546929,39.0554485],[29.2075703,39.0928845],[29.2183941,39.1273007],[29.2228025,39.138756],[29.2058366,39.1648975],[29.1838547,39.1602425],[29.1663752,39.1690097],[29.1271405,39.1633702],[29.1125928,39.1707186],[29.0702723,39.1737944],[29.0537408,39.1900258],[29.057488,39.2482571],[29.0533,39.2666898],[29.0641005,39.2892121],[29.0550633,39.3234934],[29.0391931,39.3555424],[29.0369889,39.3802509],[29.0510958,39.4013741],[29.0693906,39.4071648],[29.0810614,39.4432704],[29.045214,39.4569603],[29.0343572,39.4798273],[29.0176716,39.4861372],[28.9857903,39.5174937],[28.948499,39.5315787],[28.9280885,39.5206056],[28.9232171,39.4917366],[28.951413,39.4589221],[28.9453544,39.4444771],[28.9503045,39.4075591],[28.9121792,39.4085489],[28.891778,39.4006522],[28.8941906,39.3759824],[28.8719208,39.368092],[28.8531258,39.3417403],[28.8235351,39.3268245],[28.7969908,39.3025249],[28.7586232,39.2846221],[28.6246197,39.3225658],[28.6077116,39.2944542],[28.6190468,39.266982],[28.6186219,39.2463178],[28.6461189,39.2129892],[28.6539827,39.1943767],[28.6320531,39.1634928],[28.6261132,39.1322788],[28.608588,39.1100729],[28.6464365,39.0997859],[28.6657902,39.1018509],[28.7113268,39.0802927],[28.7570777,39.0736548],[28.7831451,39.0777021],[28.8484612,39.078542],[28.8746451,39.0875693],[28.9411949,39.0676164],[28.9434619,39.0203006],[28.9286525,38.983057],[28.9115072,38.9712171],[28.9376617,38.9543992],[28.9605188,38.9257632],[28.9833926,38.8789401],[29.0011167,38.8591595],[29.0323802,38.8594094],[29.0678872,38.8718589],[29.0267161,38.89062],[29.0453948,38.9398813],[29.0682066,38.9539602],[29.0744603,38.9691293],[29.0787373,39.0583126],[29.1207483,39.0343922],[29.1351486,39.0341986]]]},"properties":{"@id":"relation/1593755","admin_level":"6","boundary":"administrative","name":"Simav","name:ce":"Симав","name:fa":"سیماو","name:tr":"Simav","name:tr:suffix":"İlçesi","name:zh":"錫馬夫","network":"TR43-districts","type":"boundary","wikidata":"Q1948344","wikipedia":"tr:Simav"},"id":"relation/1593755"},
{"type":"Feature","geometry":{"type":"Polygon","coordinates":[[[29.1898735,38.567185],[29.2619852,38.5890727],[29.3001598,38.568543],[29.3406741,38.5332581],[29.400755,38.5276758],[29.4244409,38.5097281],[29.4371258,38.4642585],[29.4601453,38.4568682],[29.4859271,38.470747],[29.5133203,38.4691249],[29.5158525,38.5033604],[29.500674,38.5325041],[29.5021127,38.5484836],[29.5648408,38.6013483],[29.6393665,38.6290024],[29.6235406,38.6620385],[29.6192244,38.6937118],[29.6340361,38.7803852],[29.5867694,38.8115943],[29.5396857,38.8102633],[29.5229966,38.8288709],[29.5238598,38.8483701],[29.5445774,38.8884722],[29.519617,38.9046768],[29.504625,38.893406],[29.5058235,38.8679826],[29.4778983,38.8507698],[29.4445386,38.8526042],[29.3970641,38.8714766],[29.3751825,38.8624823],[29.3276438,38.8160793],[29.2814612,38.7929113],[29.247068,38.7928845],[29.2169952,38.8123081],[29.2026257,38.8371003],[29.1811761,38.8534803],[29.141395,38.8563557],[29.1186319,38.8444937],[29.0662192,38.7903525],[29.0383089,38.7284834],[29.0018222,38.7202547],[28.982191,38.7077499],[28.9362716,38.6933482],[28.9023685,38.6989083],[28.8450497,38.6932602],[28.8334009,38.675097],[28.8454626,38.6448973],[28.822334,38.5912519],[28.8268161,38.5792389],[28.8837919,38.5797423],[28.9070584,38.6151409],[28.9411439,38.6157019],[28.9422269,38.6281167],[28.9717223,38.6479741],[28.9951469,38.646018],[29.0174353,38.6273538],[29.022888,38.6006377],[29.0822204,38.5975825],[29.1121596,38.5830218],[29.1742202,38.5746719],[29.1898735,38.567185]]]},"properties":{"@id":"relation/1609669","admin_level":"6","boundary":"administrative","name":"Uşak Merkez","name:be":"Ушак","name:bg":"Ушак","name:ce":"Ушак","name:el":"Ουσάκ","name:fa":"عشاق","name:hy":"Ուշաք","name:ja":"ウシャク","name:ka":"უშაქი","name:ko":"우샤크","name:lt":"Ušakas","name:pa":"ਉਸ਼ਾਕ","name:ru":"Ушак","name:tg":"Ушоқ","name:tr":"Uşak","name:tr:suffix":"İlçesi","name:ur":"عشاق","name:zh":"烏沙克","network":"TR64-districts","type":"boundary","wikidata":"Q189134","wikipedia":"tr:Uşak"},"id":"relation/1609669"},
{"type":"Feature","geometry":{"type":"Polygon","coordinates":[[[28.787521,38.3377739],[28.8170334,38.3143515],[28.834444,38.3090161],[28.844554,38.2795442],[28.8695194,38.2325753],[28.9103625,38.2480927],[28.9415249,38.2313094],[28.9948492,38.2431847],[29.0231063,38.2342291],[29.0450495,38.2192873],[29.0636229,38.2399161],[29.100616,38.2410958],[29.1366263,38.2261646],[29.1604776,38.2379364],[29.1311277,38.2725073],[29.1230248,38.3491463],[29.1155662,38.3795745],[29.1209991,38.4003984],[29.1093973,38.4302667],[29.1082924,38.4533449],[29.1250506,38.4756948],[29.1600402,38.4787223],[29.1663015,38.4901104],[29.1386781,38.5104315],[29.1262363,38.5305679],[29.1344425,38.5414066],[29.1731153,38.5507685],[29.1898735,38.567185],[29.1742202,38.5746719],[29.1121596,38.5830218],[29.0822204,38.5975825],[29.022888,38.6006377],[29.0174353,38.6273538],[28.9951469,38.646018],[28.9717223,38.6479741],[28.9422269,38.6281167],[28.9411439,38.6157019],[28.9070584,38.6151409],[28.8837919,38.5797423],[28.8268161,38.5792389],[28.8139492,38.5572279],[28.8297557,38.5440035],[28.8271121,38.5308281],[28.8034056,38.525876],[28.8018606,38.4926974],[28.8259796,38.4694922],[28.8110315,38.4289767],[28.7820009,38.4098691],[28.7764824,38.3909434],[28.7486082,38.3711344],[28.7783432,38.3595946],[28.787521,38.3377739]]]},"properties":{"@id":"relation/1609670","admin_level":"6","boundary":"administrative","name":"Eşme","name:ce":"Эшме","name:fa":"اشمه","name:ru":"Эшме","name:tr":"Eşme","name:tr:suffix":"İlçesi","name:ur":"اشمے","name:zh":"埃什梅","network":"TR64-districts","type":"boundary","wikidata":"Q1004540","wikipedia":"tr:Eşme"},"id":"relation/1609670"},
{"type":"Feature","geometry":{"type":"Polygon","coordinates":[[[29.0678872,38.8718589],[29.1054837,38.863653],[29.1186319,38.8444937],[29.141395,38.8563557],[29.1811761,38.8534803],[29.2324486,38.914624],[29.217553,38.9365404],[29.2318673,38.951992],[29.3007624,38.9809885],[29.3029196,39.0178723],[29.3115487,39.0515724],[29.274875,39.0796745],[29.2312501,39.091582],[29.2398792,39.1081375],[29.2183941,39.1273007],[29.2075703,39.0928845],[29.1546929,39.0554485],[29.1351486,39.0341986],[29.1540463,39.0085809],[29.1594007,38.9695641],[29.194881,38.940794],[29.1925882,38.9087322],[29.1611329,38.9123101],[29.1273556,38.9009918],[29.1043986,38.8860549],[29.0678872,38.8718589]]]},"properties":{"@id":"relation/1669549","admin_level":"6","boundary":"administrative","name":"Şaphane","name:ce":"ШапхӀане","name:fa":"شبخانه","name:tr":"Şaphane","name:tr:suffix":"İlçesi","name:tt":"Шапхане","network":"TR43-districts","type":"boundary","wikidata":"Q953775","wikipedia":"tr:Şaphane, Kütahya"},"id":"relation/1669549"},
{"type":"Feature","geometry":{"type":"Polygon","coordinates":[[[27.8562515,39.3348467],[27.84134,39.3105323],[27.7927337,39.3120953],[27.7982463,39.297909],[27.7816771,39.2805037],[27.7910809,39.2403643],[27.8038214,39.2240088],[27.8010748,39.2077831],[27.7750903,39.1866013],[27.7399652,39.1699987],[27.7077065,39.172655],[27.6960008,39.1459747],[27.6755609,39.1594988],[27.6498596,39.139071],[27.6298033,39.1015211],[27.6029119,39.0770194],[27.603319,39.058541],[27.6216349,39.0466361],[27.6930972,39.0258906],[27.7792039,39.0585929],[27.814141,39.0655429],[27.8560078,39.0816822],[27.8874801,39.1054361],[27.9140438,39.1636665],[27.9617422,39.2342107],[27.9557435,39.2447828],[27.9345142,39.2676208],[27.9619938,39.2855713],[27.9689118,39.3059615],[27.9595823,39.320205],[27.95951,39.3445541],[27.9338524,39.3459172],[27.9112661,39.3617026],[27.8562515,39.3348467]]]},"properties":{"@id":"relation/1758898","admin_level":"6","alt_name":"克爾卡阿奇","boundary":"administrative","name":"Kırkağaç","name:ce":"КиркагӀач","name:de":"Kırkağaç","name:el":"Κιρκαγάτς","name:en":"Kırkağaç","name:fa":"کیرک‌آغاچ","name:tr":"Kırkağaç","name:tr:suffix":"İlçesi","name:tt":"Кыркагач","name:ur":"کیرک آغاچ","network":"TR45-districts","type":"boundary","wikidata":"Q1948452","wikipedia":"tr:Kırkağaç"},"id":"relation/1758898"},
{"type":"Feature","geometry":{"type":"Polygon","coordinates":[[[27.4850437,39.4037252],[27.4405057,39.4027963],[27.4164074,39.3896174],[27.4000021,39.3710163],[27.4129851,39.3282866],[27.4398887,39.3108175],[27.4630845,39.3070238],[27.4620759,39.2913487],[27.480433,39.2680786],[27.4698007,39.2221511],[27.4795747,39.1998766],[27.4485254,39.1855579],[27.4492121,39.151995],[27.4940521,39.1391647],[27.4953031,39.1171509],[27.5180337,39.0958763],[27.5239921,39.0701542],[27.5492585,39.039478],[27.5570583,39.0169081],[27.5700186,39.0145157],[27.5880184,39.0476711],[27.603319,39.058541],[27.6029119,39.0770194],[27.6298033,39.1015211],[27.6498596,39.139071],[27.6755609,39.1594988],[27.6960008,39.1459747],[27.7077065,39.172655],[27.7399652,39.1699987],[27.7750903,39.1866013],[27.8010748,39.2077831],[27.8038214,39.2240088],[27.7910809,39.2403643],[27.7816771,39.2805037],[27.7982463,39.297909],[27.7927337,39.3120953],[27.7988542,39.3226422],[27.7530957,39.353665],[27.721029,39.3619086],[27.6848119,39.3394557],[27.649019,39.3290389],[27.5893043,39.3484668],[27.5655593,39.3457591],[27.5307403,39.3748501],[27.4850437,39.4037252]]]},"properties":{"@id":"relation/1758899","admin_level":"6","boundary":"administrative","name":"Soma","name:ar":"سوما","name:ce":"Сома","name:de":"Soma","name:el":"Σόμα","name:en":"Soma","name:fa":"سوما","name:he":"סומה","name:hy":"Սոմա","name:ja":"ソマ","name:ko":"소마","name:ru":"Сома","name:tr":"Soma","name:tr:suffix":"İlçesi","name:tt":"Сома","name:ur":"سوما","name:zh":"索馬","network":"TR45-districts","type":"boundary","wikidata":"Q13124930","wikipedia":"tr:Soma, Manisa"},"id":"relation/1758899"},
{"type":"Feature","geometry":{"type":"Polygon","coordinates":[[[27.9224891,38.455147],[27.9278157,38.4558382],[27.9348771,38.4762491],[27.9240918,38.4953088],[27.9165973,38.5125333],[27.9090714,38.5223757],[27.9037611,38.5229976],[27.9010946,38.5230071],[27.9016355,38.5088159],[27.885066,38.4894565],[27.8870202,38.4694733],[27.9127913,38.4691864],[27.9224891,38.455147]]]},"properties":{"@id":"relation/1761472","admin_level":"8","boundary":"administrative","name":"Alahıdır Mahallesi","network":"TR45-Ahmetli","type":"boundary","@relations":[{"role":"subarea","rel":1761487,"reltags":{"admin_level":"6","boundary":"administrative","name":"Ahmetli","name:ce":"АхӀметли","name:fa":"احمدلی","name:tr":"Ahmetli","name:tr:suffix":"İlçesi","name:tt":"Ахметли","name:ur":"احمدلی","name:zh":"艾哈邁德利","network":"TR45-districts","type":"boundary","wikidata":"Q2248722","wikipedia":"tr:Ahmetli"}}]},"id":"relation/1761472"},
{"type":"Feature","geometry":{"type":"Polygon","coordinates":[[[27.955108,38.5552004],[27.9258525,38.5495126],[27.9124783,38.5596931],[27.9110917,38.5352458],[27.9364943,38.5343611],[27.9552921,38.5353003],[27.955108,38.5552004]]]},"properties":{"@id":"relation/1761473","admin_level":"8","boundary":"administrative","name":"Ataköy Mahallesi","network":"TR45-Ahmetli","type":"boundary","@relations":[{"role":"subarea","rel":1761487,"reltags":{"admin_level":"6","boundary":"administrative","name":"Ahmetli","name:ce":"АхӀметли","name:fa":"احمدلی","name:tr":"Ahmetli","name:tr:suffix":"İlçesi","name:tt":"Ахметли","name:ur":"احمدلی","name:zh":"艾哈邁德利","network":"TR45-districts","type":"boundary","wikidata":"Q2248722","wikipedia":"tr:Ahmetli"}}]},"id":"relation/1761473"},
{"type":"Feature","geometry":{"type":"Polygon","coordinates":[[[27.9224891,38.455147],[27.8708003,38.4548409],[27.8990386,38.4351734],[27.903302,38.4216115],[27.9098941,38.4200946],[27.9210737,38.4250723],[27.9278157,38.4558382],[27.9224891,38.455147]]]},"properties":{"@id":"relation/1761474","admin_level":"8","boundary":"administrative","name":"Bahçecik Mahallesi","network":"TR45-Ahmetli","type":"boundary","@relations":[{"role":"subarea","rel":1761487,"reltags":{"admin_level":"6","boundary":"administrative","name":"Ahmetli","name:ce":"АхӀметли","name:fa":"احمدلی","name:tr":"Ahmetli","name:tr:suffix":"İlçesi","name:tt":"Ахметли","name:ur":"احمدلی","name:zh":"艾哈邁德利","network":"TR45-districts","type":"boundary","wikidata":"Q2248722","wikipedia":"tr:Ahmetli"}}]},"id":"relation/1761474"},
{"type":"Feature","geometry":{"type":"Polygon","coordinates":[[[27.8594077,38.5583985],[27.8647091,38.5731601],[27.854134,38.5992092],[27.8275954,38.6059672],[27.8199036,38.5993697],[27.8257819,38.5605544],[27.8470085,38.560545],[27.8594077,38.5583985]]]},"properties":{"@id":"relation/1761475","admin_level":"8","alt_name":"Cambazlı Mahallesi","boundary":"administrative","name":"Canbazlı Mahallesi","network":"TR45-Ahmetli","type":"boundary","@relations":[{"role":"subarea","rel":1761487,"reltags":{"admin_level":"6","boundary":"administrative","name":"Ahmetli","name:ce":"АхӀметли","name:fa":"احمدلی","name:tr":"Ahmetli","name:tr:suffix":"İlçesi","name:tt":"Ахметли","name:ur":"احمدلی","name:zh":"艾哈邁德利","network":"TR45-districts","type":"boundary","wikidata":"Q2248722","wikipedia":"tr:Ahmetli"}}]},"id":"relation/1761475"},
{"type":"Feature","geometry":{"type":"Polygon","coordinates":[[[27.9522872,38.5157778],[27.9507638,38.5159018],[27.942186,38.5016944],[27.9240918,38.4953088],[27.9348771,38.4762491],[27.9773549,38.4842199],[27.9846414,38.50851],[27.9585957,38.5147663],[27.9522872,38.5157778]]]},"properties":{"@id":"relation/1761476","admin_level":"8","boundary":"administrative","name":"Dereköy Mahallesi","network":"TR45-Ahmetli","type":"boundary","@relations":[{"role":"subarea","rel":1761487,"reltags":{"admin_level":"6","boundary":"administrative","name":"Ahmetli","name:ce":"АхӀметли","name:fa":"احمدلی","name:tr":"Ahmetli","name:tr:suffix":"İlçesi","name:tt":"Ахметли","name:ur":"احمدلی","name:zh":"艾哈邁德利","network":"TR45-districts","type":"boundary","wikidata":"Q2248722","wikipedia":"tr:Ahmetli"}}]},"id":"relation/1761476"},
{"type":"Feature","geometry":{"type":"Polygon","coordinates":[[[27.854134,38.5992092],[27.8647091,38.5731601],[27.8929453,38.5737463],[27.8940979,38.5873499],[27.8888167,38.5927788],[27.854134,38.5992092]]]},"properties":{"@id":"relation/1761477","admin_level":"8","boundary":"administrative","name":"Derici Mahallesi","network":"TR45-Ahmetli","type":"boundary","@relations":[{"role":"subarea","rel":1761487,"reltags":{"admin_level":"6","boundary":"administrative","name":"Ahmetli","name:ce":"АхӀметли","name:fa":"احمدلی","name:tr":"Ahmetli","name:tr:suffix":"İlçesi","name:tt":"Ахметли","name:ur":"احمدلی","name:zh":"艾哈邁德利","network":"TR45-districts","type":"boundary","wikidata":"Q2248722","wikipedia":"tr:Ahmetli"}}]},"id":"relation/1761477"},
{"type":"Feature","geometry":{"type":"Polygon","coordinates":[[[27.9485999,38.5864662],[27.955108,38.5552004],[27.9670501,38.5514881],[27.9682358,38.5787914],[27.9642961,38.5893013],[27.9485999,38.5864662]]]},"properties":{"@id":"relation/1761478","admin_level":"8","boundary":"administrative","name":"Dibekdere Mahallesi","network":"TR45-Ahmetli","type":"boundary","@relations":[{"role":"subarea","rel":1761487,"reltags":{"admin_level":"6","boundary":"administrative","name":"Ahmetli","name:ce":"АхӀметли","name:fa":"احمدلی","name:tr":"Ahmetli","name:tr:suffix":"İlçesi","name:tt":"Ахметли","name:ur":"احمدلی","name:zh":"艾哈邁德利","network":"TR45-districts","type":"boundary","wikidata":"Q2248722","wikipedia":"tr:Ahmetli"}}]},"id":"relation/1761478"},
{"type":"Feature","geometry":{"type":"Polygon","coordinates":[[[27.885066,38.4894565],[27.9016355,38.5088159],[27.9010946,38.5230071],[27.8708008,38.5260124],[27.8633388,38.5518515],[27.8594077,38.5583985],[27.8470085,38.560545],[27.8656719,38.5330013],[27.8483772,38.5031859],[27.8519924,38.4887325],[27.885066,38.4894565]]]},"properties":{"@id":"relation/1761479","admin_level":"8","boundary":"administrative","name":"Gökkaya Mahallesi","network":"TR45-Ahmetli","type":"boundary","@relations":[{"role":"subarea","rel":1761487,"reltags":{"admin_level":"6","boundary":"administrative","name":"Ahmetli","name:ce":"АхӀметли","name:fa":"احمدلی","name:tr":"Ahmetli","name:tr:suffix":"İlçesi","name:tt":"Ахметли","name:ur":"احمدلی","name:zh":"艾哈邁德利","network":"TR45-districts","type":"boundary","wikidata":"Q2248722","wikipedia":"tr:Ahmetli"}}]},"id":"relation/1761479"},
{"type":"Feature","geometry":{"type":"Polygon","coordinates":[[[27.8708003,38.4548409],[27.8668919,38.4770274],[27.8452665,38.4785535],[27.8516993,38.4452017],[27.8641085,38.4339513],[27.903302,38.4216115],[27.8990386,38.4351734],[27.8708003,38.4548409]]]},"properties":{"@id":"relation/1761480","admin_level":"8","boundary":"administrative","name":"Hacıköseli Mahallesi","network":"TR45-Ahmetli","type":"boundary","@relations":[{"role":"subarea","rel":1761487,"reltags":{"admin_level":"6","boundary":"administrative","name":"Ahmetli","name:ce":"АхӀметли","name:fa":"احمدلی","name:tr":"Ahmetli","name:tr:suffix":"İlçesi","name:tt":"Ахметли","name:ur":"احمدلی","name:zh":"艾哈邁德利","network":"TR45-districts","type":"boundary","wikidata":"Q2248722","wikipedia":"tr:Ahmetli"}}]},"id":"relation/1761480"},
{"type":"Feature","geometry":{"type":"Polygon","coordinates":[[[27.9224891,38.455147],[27.9127913,38.4691864],[27.8870202,38.4694733],[27.885066,38.4894565],[27.8519924,38.4887325],[27.8452665,38.4785535],[27.8668919,38.4770274],[27.8708003,38.4548409],[27.9224891,38.455147]]]},"properties":{"@id":"relation/1761481","admin_level":"8","boundary":"administrative","name":"Halilkahya Mahallesi","network":"TR45-Ahmetli","type":"boundary","@relations":[{"role":"subarea","rel":1761487,"reltags":{"admin_level":"6","boundary":"administrative","name":"Ahmetli","name:ce":"АхӀметли","name:fa":"احمدلی","name:tr":"Ahmetli","name:tr:suffix":"İlçesi","name:tt":"Ахметли","name:ur":"احمدلی","name:zh":"艾哈邁德利","network":"TR45-districts","type":"boundary","wikidata":"Q2248722","wikipedia":"tr:Ahmetli"}}]},"id":"relation/1761481"},
{"type":"Feature","geometry":{"type":"Polygon","coordinates":[[[27.8796025,38.5530829],[27.8633388,38.5518515],[27.8708008,38.5260124],[27.9010946,38.5230071],[27.9037611,38.5229976],[27.8796025,38.5530829]]]},"properties":{"@id":"relation/1761482","admin_level":"8","boundary":"administrative","name":"Karaköy Mahallesi","network":"TR45-Ahmetli","type":"boundary","@relations":[{"role":"subarea","rel":1761487,"reltags":{"admin_level":"6","boundary":"administrative","name":"Ahmetli","name:ce":"АхӀметли","name:fa":"احمدلی","name:tr":"Ahmetli","name:tr:suffix":"İlçesi","name:tt":"Ахметли","name:ur":"احمدلی","name:zh":"艾哈邁德利","network":"TR45-districts","type":"boundary","wikidata":"Q2248722","wikipedia":"tr:Ahmetli"}}]},"id":"relation/1761482"},
{"type":"Feature","geometry":{"type":"Polygon","coordinates":[[[27.9062014,38.5828489],[27.8940979,38.5873499],[27.8929453,38.5737463],[27.8647091,38.5731601],[27.8594077,38.5583985],[27.8633388,38.5518515],[27.8796025,38.5530829],[27.9110656,38.5597545],[27.9062014,38.5828489]]]},"properties":{"@id":"relation/1761483","admin_level":"8","boundary":"administrative","name":"Kargın Mahallesi","network":"TR45-Ahmetli","type":"boundary","@relations":[{"role":"subarea","rel":1761487,"reltags":{"admin_level":"6","boundary":"administrative","name":"Ahmetli","name:ce":"АхӀметли","name:fa":"احمدلی","name:tr":"Ahmetli","name:tr:suffix":"İlçesi","name:tt":"Ахметли","name:ur":"احمدلی","name:zh":"艾哈邁德利","network":"TR45-districts","type":"boundary","wikidata":"Q2248722","wikipedia":"tr:Ahmetli"}}]},"id":"relation/1761483"},
{"type":"Feature","geometry":{"type":"Polygon","coordinates":[[[27.9124783,38.5596931],[27.9258525,38.5495126],[27.955108,38.5552004],[27.9485999,38.5864662],[27.9062014,38.5828489],[27.9110656,38.5597545],[27.9124783,38.5596931]]]},"properties":{"@id":"relation/1761484","admin_level":"8","boundary":"administrative","name":"Kestelli Mahallesi","network":"TR45-Ahmetli","type":"boundary","@relations":[{"role":"subarea","rel":1761487,"reltags":{"admin_level":"6","boundary":"administrative","name":"Ahmetli","name:ce":"АхӀметли","name:fa":"احمدلی","name:tr":"Ahmetli","name:tr:suffix":"İlçesi","name:tt":"Ахметли","name:ur":"احمدلی","name:zh":"艾哈邁德利","network":"TR45-districts","type":"boundary","wikidata":"Q2248722","wikipedia":"tr:Ahmetli"}}]},"id":"relation/1761484"},
{"type":"Feature","geometry":{"type":"Polygon","coordinates":[[[27.8826884,38.6021065],[27.8637404,38.6207727],[27.8409778,38.6185252],[27.8275954,38.6059672],[27.854134,38.5992092],[27.8888167,38.5927788],[27.8826884,38.6021065]]]},"properties":{"@id":"relation/1761485","admin_level":"8","boundary":"administrative","name":"Mandallı Mahallesi","network":"TR45-Ahmetli","type":"boundary","@relations":[{"role":"subarea","rel":1761487,"reltags":{"admin_level":"6","boundary":"administrative","name":"Ahmetli","name:ce":"АхӀметли","name:fa":"احمدلی","name:tr":"Ahmetli","name:tr:suffix":"İlçesi","name:tt":"Ахметли","name:ur":"احمدلی","name:zh":"艾哈邁德利","network":"TR45-districts","type":"boundary","wikidata":"Q2248722","wikipedia":"tr:Ahmetli"}}]},"id":"relation/1761485"},
{"type":"Feature","geometry":{"type":"Polygon","coordinates":[[[27.9110656,38.5597545],[27.8796025,38.5530829],[27.9037611,38.5229976],[27.9090714,38.5223757],[27.908876,38.5247864],[27.9110917,38.5352458],[27.9124783,38.5596931],[27.9110656,38.5597545]]]},"properties":{"@id":"relation/1761486","admin_level":"8","boundary":"administrative","name":"Seydiköy Mahallesi","network":"TR45-Ahmetli","type":"boundary","@relations":[{"role":"subarea","rel":1761487,"reltags":{"admin_level":"6","boundary":"administrative","name":"Ahmetli","name:ce":"АхӀметли","name:fa":"احمدلی","name:tr":"Ahmetli","name:tr:suffix":"İlçesi","name:tt":"Ахметли","name:ur":"احمدلی","name:zh":"艾哈邁德利","network":"TR45-districts","type":"boundary","wikidata":"Q2248722","wikipedia":"tr:Ahmetli"}}]},"id":"relation/1761486"},
{"type":"Feature","geometry":{"type":"Polygon","coordinates":[[[27.903302,38.4216115],[27.9098941,38.4200946],[27.9210737,38.4250723],[27.9278157,38.4558382],[27.9348771,38.4762491],[27.9773549,38.4842199],[27.9846414,38.50851],[28.0035717,38.5472475],[27.9935932,38.567898],[27.9682358,38.5787914],[27.9642961,38.5893013],[27.9485999,38.5864662],[27.9062014,38.5828489],[27.8940979,38.5873499],[27.8888167,38.5927788],[27.8826884,38.6021065],[27.8637404,38.6207727],[27.8409778,38.6185252],[27.8275954,38.6059672],[27.8199036,38.5993697],[27.8257819,38.5605544],[27.8470085,38.560545],[27.8656719,38.5330013],[27.8483772,38.5031859],[27.8519924,38.4887325],[27.8452665,38.4785535],[27.8516993,38.4452017],[27.8641085,38.4339513],[27.903302,38.4216115]]]},"properties":{"@id":"relation/1761487","admin_level":"6","boundary":"administrative","name":"Ahmetli","name:ce":"АхӀметли","name:fa":"احمدلی","name:tr":"Ahmetli","name:tr:suffix":"İlçesi","name:tt":"Ахметли","name:ur":"احمدلی","name:zh":"艾哈邁德利","network":"TR45-districts","type":"boundary","wikidata":"Q2248722","wikipedia":"tr:Ahmetli"},"id":"relation/1761487"},
{"type":"Feature","geometry":{"type":"Polygon","coordinates":[[[27.4850437,39.4037252],[27.5307403,39.3748501],[27.5655593,39.3457591],[27.5893043,39.3484668],[27.649019,39.3290389],[27.6848119,39.3394557],[27.721029,39.3619086],[27.7530957,39.353665],[27.7988542,39.3226422],[27.7927337,39.3120953],[27.84134,39.3105323],[27.8562515,39.3348467],[27.8326855,39.3572448],[27.8141119,39.3575274],[27.7904988,39.3987663],[27.7596903,39.4158413],[27.7427425,39.4476608],[27.7658743,39.4663758],[27.753078,39.4975247],[27.7137048,39.5323607],[27.6726091,39.5372952],[27.6561216,39.5317914],[27.636077,39.543824],[27.617907,39.5261088],[27.5980846,39.5203568],[27.5851589,39.5023746],[27.5497632,39.4881169],[27.5396451,39.464092],[27.5045377,39.4345905],[27.481633,39.4236093],[27.4850437,39.4037252]]]},"properties":{"@id":"relation/1819457","admin_level":"6","boundary":"administrative","name":"Savaştepe","name:ar":"ساواش تبه","name:ce":"Саваштепе","name:fa":"ساواش‌تپه","name:ru":"Саваштепе","name:tg":"Саваштепе","name:tr":"Savaştepe","name:tr:suffix":"İlçesi","name:tt":"Саваштепе","name:uk":"Саваштепе","name:ur":"ساوازتپے","network":"TR10-districts","type":"boundary","wikidata":"Q2384358","wikipedia":"tr:Savaştepe"},"id":"relation/1819457"},
{"type":"Feature","geometry":{"type":"Polygon","coordinates":[[[28.4942355,39.1370039],[28.436034,39.1388063],[28.4020417,39.1268413],[28.362142,39.1256556],[28.3443458,39.1055475],[28.3135768,39.085468],[28.2666988,39.076387],[28.2240929,39.0768949],[28.1938834,39.0719739],[28.1541643,39.0824464],[28.1558111,39.0459256],[28.1703314,39.0135708],[28.1707135,38.9666449],[28.1231116,38.9136097],[28.0872037,38.9001081],[28.0602835,38.8565529],[28.0695773,38.8454093],[28.0510138,38.8053366],[28.052746,38.7771206],[28.0614928,38.7604622],[28.1093998,38.7646669],[28.1431347,38.7478241],[28.1762022,38.75723],[28.1863494,38.7677404],[28.2122972,38.7626796],[28.2373461,38.7823558],[28.2677815,38.7912537],[28.2642141,38.8086995],[28.2838175,38.8133472],[28.3489251,38.8177923],[28.4061339,38.8489465],[28.4437125,38.8515262],[28.4455226,38.8797108],[28.4251094,38.8855061],[28.4283275,38.9213143],[28.415771,38.9468635],[28.4475601,38.9677054],[28.4553881,38.9867517],[28.4849081,38.9998196],[28.5082031,39.0477688],[28.5552736,39.1040723],[28.4986747,39.1159274],[28.4942355,39.1370039]]]},"properties":{"@id":"relation/1820450","admin_level":"6","boundary":"administrative","name":"Gördes","name:ce":"Гоьрдес","name:de":"Gördes","name:en":"Gördes","name:fa":"گوردس","name:tr":"Gördes","name:tr:suffix":"İlçesi","name:tt":"Гөрдес","name:uk":"Ґьордес","name:ur":"گوردس","name:zh":"格爾代斯","network":"TR45-districts","type":"boundary","wikidata":"Q1827015","wikipedia":"tr:Gördes"},"id":"relation/1820450"},
{"type":"Feature","geometry":{"type":"Polygon","coordinates":[[[27.9607384,39.3836659],[27.9862544,39.4369138],[27.9547583,39.4641144],[27.9664046,39.4906207],[27.9840188,39.4726651],[28.0094155,39.4825607],[27.9801037,39.5059015],[28.0133971,39.5484518],[28.0541471,39.5716221],[28.0722157,39.5593562],[28.0733843,39.5413346],[28.1139163,39.5325161],[28.1009269,39.5832255],[28.0676652,39.6157937],[28.0773952,39.6485951],[28.0520845,39.6634911],[28.0587429,39.6875354],[28.0768366,39.7095195],[28.0545329,39.7160343],[28.0521297,39.7429664],[28.0810546,39.7462661],[28.1098499,39.7577384],[28.1212713,39.7811583],[28.0542248,39.7915229],[28.0391429,39.7606028],[28.0208002,39.7496767],[28.0082353,39.728413],[27.9874052,39.7351001],[27.932847,39.7147014],[27.951292,39.6978048],[27.9441803,39.6743127],[27.8839881,39.6443357],[27.8276266,39.6493431],[27.8073412,39.6553014],[27.7823579,39.6390616],[27.724823,39.6382717],[27.7035745,39.6192507],[27.6616848,39.612159],[27.6308462,39.593684],[27.636077,39.543824],[27.6561216,39.5317914],[27.6726091,39.5372952],[27.7137048,39.5323607],[27.753078,39.4975247],[27.7658743,39.4663758],[27.7427425,39.4476608],[27.7596903,39.4158413],[27.7904988,39.3987663],[27.8141119,39.3575274],[27.8326855,39.3572448],[27.8562515,39.3348467],[27.9112661,39.3617026],[27.9350693,39.3676993],[27.9607384,39.3836659]]]},"properties":{"@id":"relation/1820740","admin_level":"6","boundary":"administrative","name":"Altıeylül","name:ce":"Алтиейлуьл","name:tr":"Altıeylül","name:tr:suffix":"İlçesi","name:tt":"Алтыэйлүл","network":"TR10-districts","type":"boundary","wikidata":"Q16028029","wikipedia":"tr:Altıeylül"},"id":"relation/1820740"},
{"type":"Feature","geometry":{"type":"Polygon","coordinates":[[[28.1762022,38.75723],[28.185122,38.7411503],[28.2377613,38.7211125],[28.2527445,38.7242815],[28.289286,38.713044],[28.3048871,38.6877385],[28.3380786,38.6548266],[28.3583052,38.670311],[28.3927529,38.6808375],[28.4101458,38.7000795],[28.4447193,38.6854093],[28.4851597,38.6962046],[28.4918164,38.6935895],[28.5468812,38.7137477],[28.5715836,38.7337166],[28.5989696,38.7396714],[28.5752497,38.7700444],[28.585088,38.789088],[28.5875579,38.8227867],[28.5702993,38.8320647],[28.5298259,38.8151433],[28.4885787,38.8410447],[28.4677219,38.8779378],[28.4455226,38.8797108],[28.4437125,38.8515262],[28.4061339,38.8489465],[28.3489251,38.8177923],[28.2838175,38.8133472],[28.2642141,38.8086995],[28.2677815,38.7912537],[28.2373461,38.7823558],[28.2122972,38.7626796],[28.1863494,38.7677404],[28.1762022,38.75723]]]},"properties":{"@id":"relation/1821042","admin_level":"6","boundary":"administrative","name":"Köprübaşı","name:fa":"کوپروباشی","name:tr":"Köprübaşı","name:tr:suffix":"İlçesi","name:tt":"Көпрүбашы","name:ur":"کوپروباشی","network":"TR45-districts","type":"boundary","wikidata":"Q3056055","wikipedia":"tr:Köprübaşı, Manisa"},"id":"relation/1821042"},
{"type":"Feature","geometry":{"type":"Polygon","coordinates":[[[28.6117642,38.7358384],[28.6333947,38.7542927],[28.668596,38.7641174],[28.7067142,38.782006],[28.7038481,38.8363239],[28.7273039,38.8386349],[28.7867989,38.8742177],[28.7844599,38.8874546],[28.8137376,38.8964303],[28.8293561,38.8916812],[28.861041,38.9037059],[28.9097789,38.8943054],[28.9222567,38.8997232],[28.9315675,38.9236694],[28.9605188,38.9257632],[28.9376617,38.9543992],[28.9115072,38.9712171],[28.9286525,38.983057],[28.9434619,39.0203006],[28.9411949,39.0676164],[28.8746451,39.0875693],[28.8484612,39.078542],[28.7831451,39.0777021],[28.7570777,39.0736548],[28.7113268,39.0802927],[28.6657902,39.1018509],[28.6464365,39.0997859],[28.608588,39.1100729],[28.6261132,39.1322788],[28.6320531,39.1634928],[28.5956117,39.167211],[28.5843324,39.1392857],[28.5351005,39.131462],[28.4942355,39.1370039],[28.4986747,39.1159274],[28.5552736,39.1040723],[28.5082031,39.0477688],[28.4849081,38.9998196],[28.4553881,38.9867517],[28.4475601,38.9677054],[28.415771,38.9468635],[28.4283275,38.9213143],[28.4251094,38.8855061],[28.4455226,38.8797108],[28.4677219,38.8779378],[28.4885787,38.8410447],[28.5298259,38.8151433],[28.5702993,38.8320647],[28.5875579,38.8227867],[28.585088,38.789088],[28.5752497,38.7700444],[28.5989696,38.7396714],[28.6117642,38.7358384]]]},"properties":{"@id":"relation/1821131","admin_level":"6","boundary":"administrative","name":"Demirci","name:ce":"Демирджи","name:fa":"دمیرجی","name:tr":"Demirci","name:tr:suffix":"İlçesi","name:tt":"Демирҗи","name:ur":"دیمیرجی","name:zh":"代米爾吉","network":"TR45-districts","type":"boundary","wikidata":"Q1011968","wikipedia":"tr:Demirci"},"id":"relation/1821131"},
{"type":"Feature","geometry":{"type":"Polygon","coordinates":[[[28.5989696,38.7396714],[28.5715836,38.7337166],[28.5468812,38.7137477],[28.4918164,38.6935895],[28.4851597,38.6962046],[28.4510373,38.6641317],[28.4425331,38.6468946],[28.4536143,38.5998344],[28.4199347,38.5742262],[28.4453539,38.541385],[28.4642483,38.5300761],[28.4747227,38.5070895],[28.4711461,38.4758958],[28.5048686,38.4666951],[28.5286276,38.4762958],[28.5551969,38.4692955],[28.5710362,38.456693],[28.6193207,38.4498908],[28.6425688,38.4334829],[28.6392476,38.4194731],[28.6619848,38.4076627],[28.6939189,38.4190728],[28.7174225,38.3864393],[28.7580428,38.3856383],[28.7486082,38.3711344],[28.7764824,38.3909434],[28.7820009,38.4098691],[28.8110315,38.4289767],[28.8259796,38.4694922],[28.8018606,38.4926974],[28.8034056,38.525876],[28.8271121,38.5308281],[28.8297557,38.5440035],[28.8139492,38.5572279],[28.8268161,38.5792389],[28.822334,38.5912519],[28.8454626,38.6448973],[28.8334009,38.675097],[28.8450497,38.6932602],[28.7767123,38.6941521],[28.746073,38.7099364],[28.7319709,38.685372],[28.7182775,38.6788308],[28.6814849,38.6789907],[28.6610514,38.6882436],[28.6397961,38.7129664],[28.6117642,38.7358384],[28.5989696,38.7396714]]]},"properties":{"@id":"relation/1821205","admin_level":"6","boundary":"administrative","name":"Kula","name:ce":"Кула","name:fa":"کولا","name:ru":"Кула","name:tr":"Kula","name:tr:suffix":"İlçesi","name:tt":"Кула","name:ur":"کولا","name:zh":"庫拉","network":"TR45-districts","type":"boundary","wikidata":"Q64831","wikipedia":"tr:Kula"},"id":"relation/1821205"},
{"type":"Feature","geometry":{"type":"Polygon","coordinates":[[[28.9605188,38.9257632],[28.9315675,38.9236694],[28.9222567,38.8997232],[28.9097789,38.8943054],[28.861041,38.9037059],[28.8293561,38.8916812],[28.8137376,38.8964303],[28.7844599,38.8874546],[28.7867989,38.8742177],[28.7273039,38.8386349],[28.7038481,38.8363239],[28.7067142,38.782006],[28.668596,38.7641174],[28.6333947,38.7542927],[28.6117642,38.7358384],[28.6397961,38.7129664],[28.6610514,38.6882436],[28.6814849,38.6789907],[28.7182775,38.6788308],[28.7319709,38.685372],[28.746073,38.7099364],[28.7767123,38.6941521],[28.8450497,38.6932602],[28.9023685,38.6989083],[28.9362716,38.6933482],[28.982191,38.7077499],[29.0018222,38.7202547],[29.0383089,38.7284834],[29.0662192,38.7903525],[29.1186319,38.8444937],[29.1054837,38.863653],[29.0678872,38.8718589],[29.0323802,38.8594094],[29.0011167,38.8591595],[28.9833926,38.8789401],[28.9605188,38.9257632]]]},"properties":{"@id":"relation/1821206","admin_level":"6","boundary":"administrative","name":"Selendi","name:ce":"Селенди","name:fa":"سلندی","name:tr":"Selendi","name:tr:suffix":"İlçesi","name:tt":"Селенди","name:ur":"سیلیندی","network":"TR45-districts","type":"boundary","wikidata":"Q2674090","wikipedia":"tr:Selendi"},"id":"relation/1821206"},
{"type":"Feature","geometry":{"type":"Polygon","coordinates":[[[27.9112661,39.3617026],[27.9338524,39.3459172],[27.95951,39.3445541],[27.9595823,39.320205],[27.9689118,39.3059615],[27.9619938,39.2855713],[27.9345142,39.2676208],[27.9557435,39.2447828],[27.9880485,39.2374873],[27.988587,39.205441],[28.005451,39.1940354],[28.0723698,39.1789617],[28.0920314,39.1271133],[28.1434402,39.1056479],[28.1541643,39.0824464],[28.1938834,39.0719739],[28.2240929,39.0768949],[28.2666988,39.076387],[28.3135768,39.085468],[28.3443458,39.1055475],[28.362142,39.1256556],[28.4020417,39.1268413],[28.436034,39.1388063],[28.4942355,39.1370039],[28.5351005,39.131462],[28.5843324,39.1392857],[28.5956117,39.167211],[28.6320531,39.1634928],[28.6539827,39.1943767],[28.6461189,39.2129892],[28.6186219,39.2463178],[28.6190468,39.266982],[28.6077116,39.2944542],[28.6246197,39.3225658],[28.6173736,39.3302828],[28.5675859,39.3240732],[28.5205263,39.3296986],[28.4738743,39.3293886],[28.4567963,39.3380876],[28.4298992,39.3250302],[28.3753125,39.3230063],[28.2845121,39.3507004],[28.2577784,39.3701867],[28.2011949,39.3704337],[28.1562935,39.3415002],[28.1279574,39.3315434],[28.1015573,39.3334123],[28.0549377,39.3587717],[28.0300655,39.3668871],[27.9733351,39.3673188],[27.9607384,39.3836659],[27.9350693,39.3676993],[27.9112661,39.3617026]]]},"properties":{"@id":"relation/1821207","admin_level":"6","boundary":"administrative","name":"Sındırgı","name:ar":"سينديرغي","name:ce":"Синдирги","name:de":"Sındırgı","name:en":"Sındırgı","name:fa":"سیندیرگی","name:ru":"Сындыргы","name:tr":"Sındırgı","name:tr:suffix":"İlçesi","name:tt":"Сындыргы","name:ur":"سیندیرگی","name:zh":"森德格","network":"TR10-districts","type":"boundary","wikidata":"Q2344927","wikipedia":"tr:Sındırgı"},"id":"relation/1821207"},
{"type":"Feature","geometry":{"type":"Polygon","coordinates":[[[27.9098941,38.4200946],[27.91009,38.4185728],[27.9600794,38.3785963],[28.001532,38.3780946],[28.0480025,38.3996221],[28.0830177,38.406907],[28.1034007,38.3942872],[28.1170485,38.3748817],[28.1573305,38.3586172],[28.1816306,38.3652766],[28.2114697,38.3347023],[28.2508871,38.3173063],[28.2923868,38.3117915],[28.2798382,38.3895719],[28.28491,38.4206274],[28.305687,38.432133],[28.3334419,38.4587613],[28.3684017,38.4650782],[28.4056932,38.4970405],[28.4239384,38.5247374],[28.4453539,38.541385],[28.4199347,38.5742262],[28.4536143,38.5998344],[28.4425331,38.6468946],[28.4510373,38.6641317],[28.4851597,38.6962046],[28.4447193,38.6854093],[28.4101458,38.7000795],[28.3927529,38.6808375],[28.3583052,38.670311],[28.3380786,38.6548266],[28.3048871,38.6877385],[28.289286,38.713044],[28.2527445,38.7242815],[28.2377613,38.7211125],[28.185122,38.7411503],[28.1762022,38.75723],[28.1431347,38.7478241],[28.1093998,38.7646669],[28.1106152,38.736246],[28.1023274,38.7177964],[28.0582722,38.6697135],[28.06189,38.6352798],[28.0395048,38.6215016],[27.9940961,38.6095671],[27.9642961,38.5893013],[27.9682358,38.5787914],[27.9935932,38.567898],[28.0035717,38.5472475],[27.9846414,38.50851],[27.9773549,38.4842199],[27.9348771,38.4762491],[27.9278157,38.4558382],[27.9210737,38.4250723],[27.9098941,38.4200946]]]},"properties":{"@id":"relation/1821255","admin_level":"6","boundary":"administrative","name":"Salihli","name:az":"Salehli","name:ce":"СалихӀли","name:el":"Σαλιχλή","name:fa":"صالحی","name:ru":"Салихли","name:sr":"Салихли","name:tr":"Salihli","name:tr:suffix":"İlçesi","name:tt":"Салиһли","name:uk":"Саліглі","name:ur":"سالیہلی","name:zh":"薩利赫利","network":"TR45-districts","type":"boundary","wikidata":"Q1012935","wikipedia":"tr:Salihli"},"id":"relation/1821255"},
{"type":"Feature","geometry":{"type":"Polygon","coordinates":[[[27.5570583,39.0169081],[27.5309443,39.0324944],[27.521239,39.021665],[27.4679191,38.9841428],[27.5019039,38.9661665],[27.5274338,38.9408958],[27.5439227,38.9056902],[27.6106625,38.8776888],[27.6708835,38.8747011],[27.715562,38.8645958],[27.7400229,38.8533228],[27.7540005,38.8377709],[27.7573871,38.8011226],[27.7838229,38.7857362],[27.8817508,38.7632144],[27.8903388,38.7545519],[27.9293059,38.7451136],[27.9390906,38.7704803],[27.9693031,38.7799152],[27.9920482,38.7646916],[28.0334615,38.7654947],[28.052746,38.7771206],[28.0510138,38.8053366],[28.0695773,38.8454093],[28.0602835,38.8565529],[28.0872037,38.9001081],[28.1231116,38.9136097],[28.1707135,38.9666449],[28.1703314,39.0135708],[28.1558111,39.0459256],[28.1541643,39.0824464],[28.1434402,39.1056479],[28.0920314,39.1271133],[28.0723698,39.1789617],[28.005451,39.1940354],[27.988587,39.205441],[27.9880485,39.2374873],[27.9557435,39.2447828],[27.9617422,39.2342107],[27.9140438,39.1636665],[27.8874801,39.1054361],[27.8560078,39.0816822],[27.814141,39.0655429],[27.7792039,39.0585929],[27.6930972,39.0258906],[27.6216349,39.0466361],[27.603319,39.058541],[27.5880184,39.0476711],[27.5700186,39.0145157],[27.5570583,39.0169081]]]},"properties":{"@id":"relation/1822655","admin_level":"6","boundary":"administrative","name":"Akhisar","name:ar":"آق حصار","name:ba":"Аҡхисар","name:be":"Акхісар","name:bg":"Акхисар","name:de":"Akhisar","name:el":"Ακχισάρ","name:en":"Akhisar","name:fa":"آق‌حصار","name:ja":"アクヒサル","name:ko":"악히사르","name:lt":"Akchisaras","name:ru":"Акхисар","name:sr":"Акхисар","name:tr":"Akhisar","name:tr:suffix":"İlçesi","name:tt":"Акһисар","name:uk":"Акхісар","name:ur":"اقحصار","name:zh":"阿克希薩爾","network":"TR45-districts","old_name":"Thyatira;Thyateira","old_name:el":"Πελοπία","type":"boundary","wikidata":"Q209905","wikipedia":"tr:Akhisar"},"id":"relation/1822655"},
{"type":"Feature","geometry":{"type":"Polygon","coordinates":[[[27.8817508,38.7632144],[27.8077123,38.7355876],[27.7858632,38.7205435],[27.7883935,38.7075433],[27.8552341,38.6913049],[27.8847107,38.657303],[27.8805912,38.6500302],[27.8826884,38.6021065],[27.8888167,38.5927788],[27.8940979,38.5873499],[27.9062014,38.5828489],[27.9485999,38.5864662],[27.9642961,38.5893013],[27.9940961,38.6095671],[28.0395048,38.6215016],[28.06189,38.6352798],[28.0582722,38.6697135],[28.1023274,38.7177964],[28.1106152,38.736246],[28.1093998,38.7646669],[28.0614928,38.7604622],[28.052746,38.7771206],[28.0334615,38.7654947],[27.9920482,38.7646916],[27.9693031,38.7799152],[27.9390906,38.7704803],[27.9293059,38.7451136],[27.8903388,38.7545519],[27.8817508,38.7632144]]]},"properties":{"@id":"relation/1822723","admin_level":"6","boundary":"administrative","name":"Gölmarmara","name:ar":"جولمارمارا","name:ce":"Гоьлмармара","name:de":"Gölmarmara","name:en":"Gölmarmara","name:fa":"گول‌مرمره","name:tr":"Gölmarmara","name:tr:suffix":"İlçesi","name:tt":"Гөлмармара","name:ur":"گل مرمرہ","name:zh":"格爾馬爾馬拉","network":"TR45-districts","type":"boundary","wikidata":"Q2551174","wikipedia":"tr:Gölmarmara"},"id":"relation/1822723"},
{"type":"Feature","geometry":{"type":"Polygon","coordinates":[[[27.4189138,38.8299797],[27.3959399,38.8083459],[27.3916084,38.7553887],[27.3791568,38.7332174],[27.3915103,38.6700754],[27.4085927,38.6577922],[27.4282479,38.6574236],[27.4303614,38.6454419],[27.4359941,38.642333],[27.4257365,38.6302003],[27.4245141,38.6212931],[27.4188558,38.6219227],[27.4194111,38.6181476],[27.4218627,38.6133655],[27.4218469,38.6123725],[27.4217562,38.6116698],[27.421463,38.6096757],[27.4215611,38.6093386],[27.4221106,38.6075816],[27.4222032,38.6073328],[27.4233019,38.6054521],[27.418659,38.6048757],[27.4162134,38.6047162],[27.4138552,38.6036244],[27.4130613,38.6014779],[27.4170899,38.5958852],[27.4270624,38.5829916],[27.4326,38.5553],[27.4811,38.5216],[27.5138,38.4817],[27.5297,38.4788],[27.5429177,38.4614524],[27.5725454,38.4581592],[27.6080129,38.4831768],[27.616485,38.5052182],[27.6130146,38.5436888],[27.6475239,38.5461768],[27.6530117,38.5745205],[27.6331667,38.5885285],[27.6376633,38.6121769],[27.6178989,38.6426766],[27.5927601,38.6416379],[27.5890302,38.612746],[27.5689886,38.6251859],[27.5733447,38.6394335],[27.5250433,38.6588395],[27.5403212,38.6806858],[27.5695036,38.6885918],[27.5226636,38.7175953],[27.5260733,38.734402],[27.5016974,38.7649259],[27.4841879,38.7649259],[27.4666572,38.8203006],[27.4532998,38.8525591],[27.4306512,38.8654918],[27.4116719,38.8543304],[27.4189138,38.8299797]]]},"properties":{"@id":"relation/1822900","admin_level":"6","boundary":"administrative","name":"Şehzadeler","name:az":"Şahzadələr","name:ce":"ШехӀзаделер","name:de":"Şehzadeler","name:en":"Şehzadeler","name:tr":"Şehzadeler","name:tr:suffix":"İlçesi","name:tt":"Шехзаделер","network":"TR45-districts","type":"boundary","wikidata":"Q16961654","wikipedia":"tr:Şehzadeler"},"id":"relation/1822900"},
{"type":"Feature","geometry":{"type":"Polygon","coordinates":[[[27.6331667,38.5885285],[27.6930526,38.6385106],[27.7624082,38.6389307],[27.7780723,38.624817],[27.8083906,38.6183387],[27.8199036,38.5993697],[27.8275954,38.6059672],[27.8409778,38.6185252],[27.8637404,38.6207727],[27.8826884,38.6021065],[27.8805912,38.6500302],[27.8847107,38.657303],[27.8552341,38.6913049],[27.7883935,38.7075433],[27.7858632,38.7205435],[27.8077123,38.7355876],[27.8817508,38.7632144],[27.7838229,38.7857362],[27.7573871,38.8011226],[27.7540005,38.8377709],[27.7400229,38.8533228],[27.715562,38.8645958],[27.6708835,38.8747011],[27.6106625,38.8776888],[27.5439227,38.9056902],[27.5274338,38.9408958],[27.5019039,38.9661665],[27.4679191,38.9841428],[27.4720358,38.9497267],[27.4410925,38.9269555],[27.4311236,38.9008429],[27.4306512,38.8654918],[27.4532998,38.8525591],[27.4666572,38.8203006],[27.4841879,38.7649259],[27.5016974,38.7649259],[27.5260733,38.734402],[27.5226636,38.7175953],[27.5695036,38.6885918],[27.5403212,38.6806858],[27.5250433,38.6588395],[27.5733447,38.6394335],[27.5689886,38.6251859],[27.5890302,38.612746],[27.5927601,38.6416379],[27.6178989,38.6426766],[27.6376633,38.6121769],[27.6331667,38.5885285]]]},"properties":{"@id":"relation/1822901","admin_level":"6","boundary":"administrative","name":"Saruhanlı","name:ce":"СарухӀанли","name:de":"Saruhanlı","name:en":"Saruhanlı","name:fa":"ساروهان‌لی","name:tr":"Saruhanlı","name:tr:suffix":"İlçesi","name:tt":"Саруханлы","name:ur":"ساروہانلی","name:zh":"薩魯漢勒","network":"TR45-districts","type":"boundary","wikidata":"Q2025884","wikipedia":"tr:Saruhanlı"},"id":"relation/1822901"},
{"type":"Feature","geometry":{"type":"Polygon","coordinates":[[[27.6331667,38.5885285],[27.6530117,38.5745205],[27.6475239,38.5461768],[27.6130146,38.5436888],[27.616485,38.5052182],[27.6396167,38.492945],[27.634249,38.488235],[27.6538601,38.4718446],[27.6989111,38.4464745],[27.7107861,38.4203931],[27.7065557,38.4075418],[27.7170171,38.3833393],[27.7091809,38.3654152],[27.7396042,38.3585902],[27.7399242,38.3454192],[27.7613216,38.3367015],[27.7880031,38.3414115],[27.8201333,38.306243],[27.8588808,38.3080215],[27.8608131,38.3210536],[27.8875612,38.3501201],[27.8737414,38.3573146],[27.8664565,38.3816328],[27.8788656,38.3869272],[27.91009,38.4185728],[27.9098941,38.4200946],[27.903302,38.4216115],[27.8641085,38.4339513],[27.8516993,38.4452017],[27.8452665,38.4785535],[27.8519924,38.4887325],[27.8483772,38.5031859],[27.8656719,38.5330013],[27.8470085,38.560545],[27.8257819,38.5605544],[27.8199036,38.5993697],[27.8083906,38.6183387],[27.7780723,38.624817],[27.7624082,38.6389307],[27.6930526,38.6385106],[27.6331667,38.5885285]]]},"properties":{"@id":"relation/1822902","admin_level":"6","boundary":"administrative","name":"Turgutlu","name:be":"Тургутлу","name:ce":"Тургутлу","name:de":"Turgutlu","name:en":"Turgutlu","name:fa":"تورقوتلو","name:ru":"Тургутлу","name:sr":"Тургутлу","name:tr":"Turgutlu","name:tr:suffix":"İlçesi","name:tt":"Тургутлу","name:ur":"ترگوتلو","name:zh":"圖爾古特盧","network":"TR45-districts","old_name":"Kasaba","type":"boundary","wikidata":"Q17396881","wikipedia":"tr:Turgutlu"},"id":"relation/1822902"},
{"type":"Feature","geometry":{"type":"Polygon","coordinates":[[[28.2923868,38.3117915],[28.3129178,38.3221936],[28.3335977,38.3139877],[28.3892553,38.2575192],[28.4052216,38.2672501],[28.4683442,38.258722],[28.4876346,38.2465897],[28.4930008,38.227471],[28.4863754,38.1973629],[28.4355644,38.1791421],[28.4636885,38.1559911],[28.4850677,38.1225949],[28.5027712,38.1219828],[28.5281671,38.1040957],[28.5534204,38.1272746],[28.5728683,38.1559268],[28.615325,38.1959779],[28.598262,38.220425],[28.6124744,38.2578485],[28.6405564,38.2734004],[28.656179,38.2995053],[28.6523719,38.3151931],[28.6644241,38.327872],[28.70962,38.3392597],[28.7561854,38.3325992],[28.787521,38.3377739],[28.7783432,38.3595946],[28.7486082,38.3711344],[28.7580428,38.3856383],[28.7174225,38.3864393],[28.6939189,38.4190728],[28.6619848,38.4076627],[28.6392476,38.4194731],[28.6425688,38.4334829],[28.6193207,38.4498908],[28.5710362,38.456693],[28.5551969,38.4692955],[28.5286276,38.4762958],[28.5048686,38.4666951],[28.4711461,38.4758958],[28.4747227,38.5070895],[28.4642483,38.5300761],[28.4453539,38.541385],[28.4239384,38.5247374],[28.4056932,38.4970405],[28.3684017,38.4650782],[28.3334419,38.4587613],[28.305687,38.432133],[28.28491,38.4206274],[28.2798382,38.3895719],[28.2923868,38.3117915]]]},"properties":{"@id":"relation/1822974","admin_level":"6","boundary":"administrative","name":"Alaşehir","name:tr":"Alaşehir","name:tr:suffix":"İlçesi","name:zh":"阿拉谢希尔","network":"TR45-districts","type":"boundary","wikidata":"Q138280","wikipedia":"tr:Alaşehir"},"id":"relation/1822974"},
{"type":"Feature","geometry":{"type":"Polygon","coordinates":[[[28.8695194,38.2325753],[28.844554,38.2795442],[28.834444,38.3090161],[28.8170334,38.3143515],[28.787521,38.3377739],[28.7561854,38.3325992],[28.70962,38.3392597],[28.6644241,38.327872],[28.6523719,38.3151931],[28.656179,38.2995053],[28.6405564,38.2734004],[28.6124744,38.2578485],[28.598262,38.220425],[28.615325,38.1959779],[28.5728683,38.1559268],[28.5534204,38.1272746],[28.5281671,38.1040957],[28.5632707,38.1060774],[28.5935094,38.0954143],[28.6522777,38.0918164],[28.6798664,38.094399],[28.7189051,38.1176765],[28.73011,38.1308589],[28.7305996,38.1743323],[28.7852675,38.1826358],[28.8069025,38.1722268],[28.8119696,38.1948168],[28.8460814,38.2134392],[28.8695194,38.2325753]]]},"properties":{"@id":"relation/1822975","admin_level":"6","alt_name":"薩勒格爾","boundary":"administrative","name":"Sarıgöl","name:ce":"Саригоьл","name:de":"Sarıgöl","name:en":"Sarıgöl","name:fa":"ساری‌گل","name:ru":"Сарыгёль","name:tr":"Sarıgöl","name:tr:suffix":"İlçesi","name:tt":"Сарыгөл","name:ur":"ساریگل","network":"TR45-districts","type":"boundary","wikidata":"Q1947487","wikipedia":"tr:Sarıgöl"},"id":"relation/1822975"},
{"type":"Feature","geometry":{"type":"Polygon","coordinates":[[[27.4085927,38.6577922],[27.3915103,38.6700754],[27.3791568,38.7332174],[27.3916084,38.7553887],[27.3959399,38.8083459],[27.4189138,38.8299797],[27.4116719,38.8543304],[27.4306512,38.8654918],[27.4311236,38.9008429],[27.4410925,38.9269555],[27.402247,38.9229339],[27.393894,38.9428385],[27.3462587,38.9512557],[27.3348377,38.9186054],[27.3126125,38.9270653],[27.2783911,38.9227517],[27.2682273,38.9075987],[27.2354898,38.9066609],[27.2178984,38.8532275],[27.1912908,38.878656],[27.1630847,38.8685492],[27.1845645,38.8211782],[27.1480881,38.8058943],[27.1325631,38.8111206],[27.1128598,38.7954467],[27.1365242,38.772352],[27.147882,38.7442684],[27.187643,38.7200349],[27.2043187,38.7249054],[27.2235417,38.7117683],[27.2230344,38.690348],[27.2382949,38.6491476],[27.2344049,38.5932753],[27.2429936,38.5757036],[27.3053654,38.5429294],[27.3339536,38.5424949],[27.3521268,38.5338492],[27.3733,38.5401],[27.3846,38.5551],[27.4091,38.5603],[27.4326,38.5553],[27.4270624,38.5829916],[27.4170899,38.5958852],[27.4130613,38.6014779],[27.4138552,38.6036244],[27.4162134,38.6047162],[27.418659,38.6048757],[27.4233019,38.6054521],[27.4222032,38.6073328],[27.4221106,38.6075816],[27.4215611,38.6093386],[27.421463,38.6096757],[27.4217562,38.6116698],[27.4218469,38.6123725],[27.4218627,38.6133655],[27.4194111,38.6181476],[27.4188558,38.6219227],[27.4245141,38.6212931],[27.4257365,38.6302003],[27.4359941,38.642333],[27.4303614,38.6454419],[27.4282479,38.6574236],[27.4085927,38.6577922]]]},"properties":{"@id":"relation/3668268","admin_level":"6","alt_name":"Yunus Emre","boundary":"administrative","name":"Yunusemre","name:de":"Yunus Emre","name:en":"Yunus Emre","name:tr":"Yunus Emre","name:tr:suffix":"İlçesi","network":"TR45-districts","type":"boundary","wikidata":"Q16968958","wikipedia":"tr:Yunusemre"},"id":"relation/3668268"},
{"type":"Feature","geometry":{"type":"Polygon","coordinates":[[[27.4293928,38.614088],[27.4296469,38.6140737],[27.4310187,38.6179702],[27.4283112,38.6212567],[27.4293928,38.614088]]]},"properties":{"@id":"relation/5906457","admin_level":"8","boundary":"administrative","name":"Peker Mahallesi","type":"boundary","wikidata":"Q21682463","wikipedia":"tr:Peker, Şehzadeler","@relations":[{"role":"subarea","rel":1822900,"reltags":{"admin_level":"6","boundary":"administrative","name":"Şehzadeler","name:az":"Şahzadələr","name:ce":"ШехӀзаделер","name:de":"Şehzadeler","name:en":"Şehzadeler","name:tr":"Şehzadeler","name:tr:suffix":"İlçesi","name:tt":"Шехзаделер","network":"TR45-districts","type":"boundary","wikidata":"Q16961654","wikipedia":"tr:Şehzadeler"}}]},"id":"relation/5906457"},
{"type":"Feature","geometry":{"type":"Polygon","coordinates":[[[27.4162134,38.6047162],[27.418659,38.6048757],[27.4185209,38.6078229],[27.4157222,38.6081303],[27.4162134,38.6047162]]]},"properties":{"@id":"relation/5906651","admin_level":"8","boundary":"administrative","name":"Lalapaşa Mahallesi","type":"boundary","wikidata":"Q109391606","wikipedia":"tr:Lalapaşa, Yunusemre","@relations":[{"role":"subarea","rel":3668268,"reltags":{"admin_level":"6","alt_name":"Yunus Emre","boundary":"administrative","name":"Yunusemre","name:de":"Yunus Emre","name:en":"Yunus Emre","name:tr":"Yunus Emre","name:tr:suffix":"İlçesi","network":"TR45-districts","type":"boundary","wikidata":"Q16968958","wikipedia":"tr:Yunusemre"}}]},"id":"relation/5906651"},
{"type":"Feature","geometry":{"type":"Polygon","coordinates":[[[27.4283112,38.6212567],[27.4263659,38.621294],[27.4245141,38.6212931],[27.4188558,38.6219227],[27.4194111,38.6181476],[27.4236164,38.6173191],[27.4257584,38.6141124],[27.4275582,38.6141188],[27.4293928,38.614088],[27.4283112,38.6212567]]]},"properties":{"@id":"relation/5911639","admin_level":"8","boundary":"administrative","name":"Yarhasanlar Mahallesi","type":"boundary","wikidata":"Q21682493","wikipedia":"tr:Yarhasanlar, Şehzadeler","@relations":[{"role":"subarea","rel":1822900,"reltags":{"admin_level":"6","boundary":"administrative","name":"Şehzadeler","name:az":"Şahzadələr","name:ce":"ШехӀзаделер","name:de":"Şehzadeler","name:en":"Şehzadeler","name:tr":"Şehzadeler","name:tr:suffix":"İlçesi","name:tt":"Шехзаделер","network":"TR45-districts","type":"boundary","wikidata":"Q16961654","wikipedia":"tr:Şehzadeler"}}]},"id":"relation/5911639"},
{"type":"Feature","geometry":{"type":"Polygon","coordinates":[[[27.4310187,38.6179702],[27.4348864,38.6167247],[27.4364443,38.620089],[27.4369168,38.6210618],[27.4430751,38.6423498],[27.442199,38.6429317],[27.4263659,38.621294],[27.4283112,38.6212567],[27.4310187,38.6179702]]]},"properties":{"@id":"relation/5942641","admin_level":"8","boundary":"administrative","name":"2.Anafartalar Mahallesi","type":"boundary","wikidata":"Q21523854","wikipedia":"tr:2. Anafartalar, Şehzadeler","@relations":[{"role":"subarea","rel":1822900,"reltags":{"admin_level":"6","boundary":"administrative","name":"Şehzadeler","name:az":"Şahzadələr","name:ce":"ШехӀзаделер","name:de":"Şehzadeler","name:en":"Şehzadeler","name:tr":"Şehzadeler","name:tr:suffix":"İlçesi","name:tt":"Шехзаделер","network":"TR45-districts","type":"boundary","wikidata":"Q16961654","wikipedia":"tr:Şehzadeler"}}]},"id":"relation/5942641"},
{"type":"Feature","geometry":{"type":"Polygon","coordinates":[[[27.4303614,38.6454419],[27.4257365,38.6302003],[27.4359941,38.642333],[27.4303614,38.6454419]]]},"properties":{"@id":"relation/6725956","admin_level":"8","boundary":"administrative","name":"Spil Mahallesi","type":"boundary","wikidata":"Q109391620","wikipedia":"tr:Spil, Yunusemre","@relations":[{"role":"subarea","rel":3668268,"reltags":{"admin_level":"6","alt_name":"Yunus Emre","boundary":"administrative","name":"Yunusemre","name:de":"Yunus Emre","name:en":"Yunus Emre","name:tr":"Yunus Emre","name:tr:suffix":"İlçesi","network":"TR45-districts","type":"boundary","wikidata":"Q16968958","wikipedia":"tr:Yunusemre"}}]},"id":"relation/6725956"},
{"type":"Feature","geometry":{"type":"Polygon","coordinates":[[[27.4218627,38.6133655],[27.4233556,38.6142214],[27.4236164,38.6173191],[27.4194111,38.6181476],[27.4218627,38.6133655]]]},"properties":{"@id":"relation/11991981","admin_level":"8","boundary":"administrative","name":"Arda Mahallesi","type":"boundary","wikidata":"Q21524036","wikipedia":"tr:Arda, Şehzadeler","@relations":[{"role":"subarea","rel":1822900,"reltags":{"admin_level":"6","boundary":"administrative","name":"Şehzadeler","name:az":"Şahzadələr","name:ce":"ШехӀзаделер","name:de":"Şehzadeler","name:en":"Şehzadeler","name:tr":"Şehzadeler","name:tr:suffix":"İlçesi","name:tt":"Шехзаделер","network":"TR45-districts","type":"boundary","wikidata":"Q16961654","wikipedia":"tr:Şehzadeler"}}]},"id":"relation/11991981"},
{"type":"Feature","geometry":{"type":"Polygon","coordinates":[[[27.4233556,38.6142214],[27.4249883,38.6141473],[27.4257584,38.6141124],[27.4236164,38.6173191],[27.4233556,38.6142214]]]},"properties":{"@id":"relation/11991982","admin_level":"8","boundary":"administrative","name":"Dinçer Mahallesi","type":"boundary","@relations":[{"role":"subarea","rel":1822900,"reltags":{"admin_level":"6","boundary":"administrative","name":"Şehzadeler","name:az":"Şahzadələr","name:ce":"ШехӀзаделер","name:de":"Şehzadeler","name:en":"Şehzadeler","name:tr":"Şehzadeler","name:tr:suffix":"İlçesi","name:tt":"Шехзаделер","network":"TR45-districts","type":"boundary","wikidata":"Q16961654","wikipedia":"tr:Şehzadeler"}}]},"id":"relation/11991982"},
{"type":"Feature","geometry":{"type":"Polygon","coordinates":[[[27.7067162,38.4975804],[27.7112961,38.4955439],[27.7123234,38.4972401],[27.712959,38.4988606],[27.7084469,38.5000876],[27.7067162,38.4975804]]]},"properties":{"@id":"relation/12012181","admin_level":"8","boundary":"administrative","name":"Altay Mahallesi","type":"boundary","@relations":[{"role":"subarea","rel":1822902,"reltags":{"admin_level":"6","boundary":"administrative","name":"Turgutlu","name:be":"Тургутлу","name:ce":"Тургутлу","name:de":"Turgutlu","name:en":"Turgutlu","name:fa":"تورقوتلو","name:ru":"Тургутлу","name:sr":"Тургутлу","name:tr":"Turgutlu","name:tr:suffix":"İlçesi","name:tt":"Тургутлу","name:ur":"ترگوتلو","name:zh":"圖爾古特盧","network":"TR45-districts","old_name":"Kasaba","type":"boundary","wikidata":"Q17396881","wikipedia":"tr:Turgutlu"}}]},"id":"relation/12012181"},
{"type":"Feature","geometry":{"type":"Polygon","coordinates":[[[27.7112961,38.4955439],[27.7067162,38.4975804],[27.7054596,38.4956699],[27.7098758,38.4930888],[27.7112961,38.4955439]]]},"properties":{"@id":"relation/12012182","admin_level":"8","boundary":"administrative","name":"Yılmazlar Mahallesi","type":"boundary","@relations":[{"role":"subarea","rel":1822902,"reltags":{"admin_level":"6","boundary":"administrative","name":"Turgutlu","name:be":"Тургутлу","name:ce":"Тургутлу","name:de":"Turgutlu","name:en":"Turgutlu","name:fa":"تورقوتلو","name:ru":"Тургутлу","name:sr":"Тургутлу","name:tr":"Turgutlu","name:tr:suffix":"İlçesi","name:tt":"Тургутлу","name:ur":"ترگوتلو","name:zh":"圖爾古特盧","network":"TR45-districts","old_name":"Kasaba","type":"boundary","wikidata":"Q17396881","wikipedia":"tr:Turgutlu"}}]},"id":"relation/12012182"},
{"type":"Feature","geometry":{"type":"Polygon","coordinates":[[[27.7014255,38.4897707],[27.7098758,38.4930888],[27.7054596,38.4956699],[27.7027693,38.4917945],[27.7014255,38.4897707]]]},"properties":{"@id":"relation/12012183","admin_level":"8","boundary":"administrative","name":"Acarlar Mahallesi","type":"boundary","@relations":[{"role":"subarea","rel":1822902,"reltags":{"admin_level":"6","boundary":"administrative","name":"Turgutlu","name:be":"Тургутлу","name:ce":"Тургутлу","name:de":"Turgutlu","name:en":"Turgutlu","name:fa":"تورقوتلو","name:ru":"Тургутлу","name:sr":"Тургутлу","name:tr":"Turgutlu","name:tr:suffix":"İlçesi","name:tt":"Тургутлу","name:ur":"ترگوتلو","name:zh":"圖爾古特盧","network":"TR45-districts","old_name":"Kasaba","type":"boundary","wikidata":"Q17396881","wikipedia":"tr:Turgutlu"}}]},"id":"relation/12012183"},
{"type":"Feature","geometry":{"type":"Polygon","coordinates":[[[27.6886408,38.496624],[27.6396167,38.492945],[27.634249,38.488235],[27.6706767,38.4927561],[27.7014255,38.4897707],[27.7027693,38.4917945],[27.6977402,38.4941206],[27.6940173,38.4986213],[27.6886408,38.496624]]]},"properties":{"@id":"relation/12012556","admin_level":"8","boundary":"administrative","name":"Subaşı Mahallesi","type":"boundary","@relations":[{"role":"subarea","rel":1822902,"reltags":{"admin_level":"6","boundary":"administrative","name":"Turgutlu","name:be":"Тургутлу","name:ce":"Тургутлу","name:de":"Turgutlu","name:en":"Turgutlu","name:fa":"تورقوتلو","name:ru":"Тургутлу","name:sr":"Тургутлу","name:tr":"Turgutlu","name:tr:suffix":"İlçesi","name:tt":"Тургутлу","name:ur":"ترگوتلو","name:zh":"圖爾古特盧","network":"TR45-districts","old_name":"Kasaba","type":"boundary","wikidata":"Q17396881","wikipedia":"tr:Turgutlu"}}]},"id":"relation/12012556"},
{"type":"Feature","geometry":{"type":"Polygon","coordinates":[[[27.6977402,38.4941206],[27.6971045,38.4985731],[27.6940173,38.4986213],[27.6977402,38.4941206]]]},"properties":{"@id":"relation/12012700","admin_level":"8","boundary":"administrative","name":"Yeni Mahallesi","type":"boundary","@relations":[{"role":"subarea","rel":1822902,"reltags":{"admin_level":"6","boundary":"administrative","name":"Turgutlu","name:be":"Тургутлу","name:ce":"Тургутлу","name:de":"Turgutlu","name:en":"Turgutlu","name:fa":"تورقوتلو","name:ru":"Тургутлу","name:sr":"Тургутлу","name:tr":"Turgutlu","name:tr:suffix":"İlçesi","name:tt":"Тургутлу","name:ur":"ترگوتلو","name:zh":"圖爾古特盧","network":"TR45-districts","old_name":"Kasaba","type":"boundary","wikidata":"Q17396881","wikipedia":"tr:Turgutlu"}}]},"id":"relation/12012700"},
{"type":"Feature","geometry":{"type":"Polygon","coordinates":[[[27.7054523,38.4999844],[27.7056499,38.5035786],[27.7022802,38.5064522],[27.6886408,38.496624],[27.6940173,38.4986213],[27.6971045,38.4985731],[27.7054523,38.4999844]]]},"properties":{"@id":"relation/12080025","admin_level":"8","boundary":"administrative","name":"Yedi Eylül Mahallesi","type":"boundary","@relations":[{"role":"subarea","rel":1822902,"reltags":{"admin_level":"6","boundary":"administrative","name":"Turgutlu","name:be":"Тургутлу","name:ce":"Тургутлу","name:de":"Turgutlu","name:en":"Turgutlu","name:fa":"تورقوتلو","name:ru":"Тургутлу","name:sr":"Тургутлу","name:tr":"Turgutlu","name:tr:suffix":"İlçesi","name:tt":"Тургутлу","name:ur":"ترگوتلو","name:zh":"圖爾古特盧","network":"TR45-districts","old_name":"Kasaba","type":"boundary","wikidata":"Q17396881","wikipedia":"tr:Turgutlu"}}]},"id":"relation/12080025"},
{"type":"Feature","geometry":{"type":"Polygon","coordinates":[[[27.6977402,38.4941206],[27.7027693,38.4917945],[27.7054596,38.4956699],[27.7067162,38.4975804],[27.7054523,38.4999844],[27.6971045,38.4985731],[27.6977402,38.4941206]]]},"properties":{"@id":"relation/12080026","admin_level":"8","boundary":"administrative","name":"Cumhuriyet Mahallesi","type":"boundary","@relations":[{"role":"subarea","rel":1822902,"reltags":{"admin_level":"6","boundary":"administrative","name":"Turgutlu","name:be":"Тургутлу","name:ce":"Тургутлу","name:de":"Turgutlu","name:en":"Turgutlu","name:fa":"تورقوتلو","name:ru":"Тургутлу","name:sr":"Тургутлу","name:tr":"Turgutlu","name:tr:suffix":"İlçesi","name:tt":"Тургутлу","name:ur":"ترگوتلو","name:zh":"圖爾古特盧","network":"TR45-districts","old_name":"Kasaba","type":"boundary","wikidata":"Q17396881","wikipedia":"tr:Turgutlu"}}]},"id":"relation/12080026"},
{"type":"Feature","geometry":{"type":"Polygon","coordinates":[[[27.7090241,38.5026279],[27.7084469,38.5000876],[27.712959,38.4988606],[27.7129975,38.5016231],[27.7129416,38.5021614],[27.7090241,38.5026279]]]},"properties":{"@id":"relation/12080103","admin_level":"8","boundary":"administrative","name":"İstiklal Mahallesi","type":"boundary","@relations":[{"role":"subarea","rel":1822902,"reltags":{"admin_level":"6","boundary":"administrative","name":"Turgutlu","name:be":"Тургутлу","name:ce":"Тургутлу","name:de":"Turgutlu","name:en":"Turgutlu","name:fa":"تورقوتلو","name:ru":"Тургутлу","name:sr":"Тургутлу","name:tr":"Turgutlu","name:tr:suffix":"İlçesi","name:tt":"Тургутлу","name:ur":"ترگوتلو","name:zh":"圖爾古特盧","network":"TR45-districts","old_name":"Kasaba","type":"boundary","wikidata":"Q17396881","wikipedia":"tr:Turgutlu"}}]},"id":"relation/12080103"},
{"type":"Feature","geometry":{"type":"Polygon","coordinates":[[[27.7084796,38.5053499],[27.7083229,38.50966],[27.7022802,38.5064522],[27.7056499,38.5035786],[27.7089591,38.5029579],[27.7084796,38.5053499]]]},"properties":{"@id":"relation/12080104","admin_level":"8","boundary":"administrative","name":"Yıldırım Mahallesi","type":"boundary","@relations":[{"role":"subarea","rel":1822902,"reltags":{"admin_level":"6","boundary":"administrative","name":"Turgutlu","name:be":"Тургутлу","name:ce":"Тургутлу","name:de":"Turgutlu","name:en":"Turgutlu","name:fa":"تورقوتلو","name:ru":"Тургутлу","name:sr":"Тургутлу","name:tr":"Turgutlu","name:tr:suffix":"İlçesi","name:tt":"Тургутлу","name:ur":"ترگوتلو","name:zh":"圖爾古特盧","network":"TR45-districts","old_name":"Kasaba","type":"boundary","wikidata":"Q17396881","wikipedia":"tr:Turgutlu"}}]},"id":"relation/12080104"},
{"type":"Feature","geometry":{"type":"Polygon","coordinates":[[[27.7117164,38.5049615],[27.7083229,38.50966],[27.7084796,38.5053499],[27.7117164,38.5049615]]]},"properties":{"@id":"relation/12080105","admin_level":"8","boundary":"administrative","name":"Yiğitler Mahallesi","type":"boundary","@relations":[{"role":"subarea","rel":1822902,"reltags":{"admin_level":"6","boundary":"administrative","name":"Turgutlu","name:be":"Тургутлу","name:ce":"Тургутлу","name:de":"Turgutlu","name:en":"Turgutlu","name:fa":"تورقوتلو","name:ru":"Тургутлу","name:sr":"Тургутлу","name:tr":"Turgutlu","name:tr:suffix":"İlçesi","name:tt":"Тургутлу","name:ur":"ترگوتلو","name:zh":"圖爾古特盧","network":"TR45-districts","old_name":"Kasaba","type":"boundary","wikidata":"Q17396881","wikipedia":"tr:Turgutlu"}}]},"id":"relation/12080105"},
{"type":"Feature","geometry":{"type":"Polygon","coordinates":[[[27.7117164,38.5049615],[27.7084796,38.5053499],[27.7089591,38.5029579],[27.7090241,38.5026279],[27.7129416,38.5021614],[27.7117164,38.5049615]]]},"properties":{"@id":"relation/12080106","admin_level":"8","boundary":"administrative","name":"Özyurt Mahallesi","type":"boundary","@relations":[{"role":"subarea","rel":1822902,"reltags":{"admin_level":"6","boundary":"administrative","name":"Turgutlu","name:be":"Тургутлу","name:ce":"Тургутлу","name:de":"Turgutlu","name:en":"Turgutlu","name:fa":"تورقوتلو","name:ru":"Тургутлу","name:sr":"Тургутлу","name:tr":"Turgutlu","name:tr:suffix":"İlçesi","name:tt":"Тургутлу","name:ur":"ترگوتلو","name:zh":"圖爾古特盧","network":"TR45-districts","old_name":"Kasaba","type":"boundary","wikidata":"Q17396881","wikipedia":"tr:Turgutlu"}}]},"id":"relation/12080106"},
{"type":"Feature","geometry":{"type":"Polygon","coordinates":[[[27.7054523,38.4999844],[27.7067162,38.4975804],[27.7084469,38.5000876],[27.7090241,38.5026279],[27.7089591,38.5029579],[27.7056499,38.5035786],[27.7054523,38.4999844]]]},"properties":{"@id":"relation/12080107","admin_level":"8","boundary":"administrative","name":"Turan Mahallesi","type":"boundary","@relations":[{"role":"subarea","rel":1822902,"reltags":{"admin_level":"6","boundary":"administrative","name":"Turgutlu","name:be":"Тургутлу","name:ce":"Тургутлу","name:de":"Turgutlu","name:en":"Turgutlu","name:fa":"تورقوتلو","name:ru":"Тургутлу","name:sr":"Тургутлу","name:tr":"Turgutlu","name:tr:suffix":"İlçesi","name:tt":"Тургутлу","name:ur":"ترگوتلو","name:zh":"圖爾古特盧","network":"TR45-districts","old_name":"Kasaba","type":"boundary","wikidata":"Q17396881","wikipedia":"tr:Turgutlu"}}]},"id":"relation/12080107"},
{"type":"Feature","geometry":{"type":"Polygon","coordinates":[[[27.4233019,38.6054521],[27.4222032,38.6073328],[27.4185209,38.6078229],[27.418659,38.6048757],[27.4233019,38.6054521]]]},"properties":{"@id":"relation/12288417","admin_level":"8","boundary":"administrative","name":"Mutlu Mahallesi","type":"boundary","wikidata":"Q109391616","wikipedia":"tr:Mutlu, Yunusemre","@relations":[{"role":"subarea","rel":3668268,"reltags":{"admin_level":"6","alt_name":"Yunus Emre","boundary":"administrative","name":"Yunusemre","name:de":"Yunus Emre","name:en":"Yunus Emre","name:tr":"Yunus Emre","name:tr:suffix":"İlçesi","network":"TR45-districts","type":"boundary","wikidata":"Q16968958","wikipedia":"tr:Yunusemre"}}]},"id":"relation/12288417"},
{"type":"Feature","geometry":{"type":"Polygon","coordinates":[[[27.4341057,38.6126448],[27.4344921,38.6126663],[27.4347332,38.6151475],[27.4348864,38.6167247],[27.4310187,38.6179702],[27.4296469,38.6140737],[27.4303079,38.6138149],[27.4341057,38.6126448]]]},"properties":{"@id":"relation/12288418","admin_level":"8","boundary":"administrative","name":"1.Anafartalar Mahallesi","type":"boundary","wikidata":"Q21523802","wikipedia":"tr:1. Anafartalar, Şehzadeler","@relations":[{"role":"subarea","rel":1822900,"reltags":{"admin_level":"6","boundary":"administrative","name":"Şehzadeler","name:az":"Şahzadələr","name:ce":"ШехӀзаделер","name:de":"Şehzadeler","name:en":"Şehzadeler","name:tr":"Şehzadeler","name:tr:suffix":"İlçesi","name:tt":"Шехзаделер","network":"TR45-districts","type":"boundary","wikidata":"Q16961654","wikipedia":"tr:Şehzadeler"}}]},"id":"relation/12288418"},
{"type":"Feature","geometry":{"type":"Polygon","coordinates":[[[27.4221106,38.6075816],[27.4245138,38.6069281],[27.4244124,38.6097615],[27.4215611,38.6093386],[27.4221106,38.6075816]]]},"properties":{"@id":"relation/12288423","admin_level":"8","boundary":"administrative","name":"Tunca Mahallesi","type":"boundary","wikidata":"Q21527175","wikipedia":"tr:Tunca, Şehzadeler","@relations":[{"role":"subarea","rel":1822900,"reltags":{"admin_level":"6","boundary":"administrative","name":"Şehzadeler","name:az":"Şahzadələr","name:ce":"ШехӀзаделер","name:de":"Şehzadeler","name:en":"Şehzadeler","name:tr":"Şehzadeler","name:tr:suffix":"İlçesi","name:tt":"Шехзаделер","network":"TR45-districts","type":"boundary","wikidata":"Q16961654","wikipedia":"tr:Şehzadeler"}}]},"id":"relation/12288423"},
{"type":"Feature","geometry":{"type":"Polygon","coordinates":[[[27.4222032,38.6073328],[27.4233019,38.6054521],[27.4239242,38.6054731],[27.4245138,38.6069281],[27.4221106,38.6075816],[27.4222032,38.6073328]]]},"properties":{"@id":"relation/12288424","admin_level":"8","boundary":"administrative","name":"Dere Mahallesi","type":"boundary","@relations":[{"role":"subarea","rel":1822900,"reltags":{"admin_level":"6","boundary":"administrative","name":"Şehzadeler","name:az":"Şahzadələr","name:ce":"ШехӀзаделер","name:de":"Şehzadeler","name:en":"Şehzadeler","name:tr":"Şehzadeler","name:tr:suffix":"İlçesi","name:tt":"Шехзаделер","network":"TR45-districts","type":"boundary","wikidata":"Q16961654","wikipedia":"tr:Şehzadeler"}}]},"id":"relation/12288424"},
{"type":"Feature","geometry":{"type":"Polygon","coordinates":[[[27.4244124,38.6097615],[27.4242884,38.6102418],[27.4238134,38.6120823],[27.4217562,38.6116698],[27.421463,38.6096757],[27.4215611,38.6093386],[27.4244124,38.6097615]]]},"properties":{"@id":"relation/12288425","admin_level":"8","boundary":"administrative","name":"İbrahim Çelebi Mahallesi","type":"boundary","wikidata":"Q21682499","wikipedia":"tr:İbrahimçelebi, Şehzadeler","@relations":[{"role":"subarea","rel":1822900,"reltags":{"admin_level":"6","boundary":"administrative","name":"Şehzadeler","name:az":"Şahzadələr","name:ce":"ШехӀзаделер","name:de":"Şehzadeler","name:en":"Şehzadeler","name:tr":"Şehzadeler","name:tr:suffix":"İlçesi","name:tt":"Шехзаделер","network":"TR45-districts","type":"boundary","wikidata":"Q16961654","wikipedia":"tr:Şehzadeler"}}]},"id":"relation/12288425"},
{"type":"Feature","geometry":{"type":"Polygon","coordinates":[[[27.4233556,38.6142214],[27.4218627,38.6133655],[27.4218469,38.6123725],[27.4217562,38.6116698],[27.4238134,38.6120823],[27.4249883,38.6141473],[27.4233556,38.6142214]]]},"properties":{"@id":"relation/12288426","admin_level":"8","boundary":"administrative","name":"Akıncılar Mahallesi","type":"boundary","wikidata":"Q21523957","wikipedia":"tr:Akıncılar, Şehzadeler","@relations":[{"role":"subarea","rel":1822900,"reltags":{"admin_level":"6","boundary":"administrative","name":"Şehzadeler","name:az":"Şahzadələr","name:ce":"ШехӀзаделер","name:de":"Şehzadeler","name:en":"Şehzadeler","name:tr":"Şehzadeler","name:tr:suffix":"İlçesi","name:tt":"Шехзаделер","network":"TR45-districts","type":"boundary","wikidata":"Q16961654","wikipedia":"tr:Şehzadeler"}}]},"id":"relation/12288426"},
{"type":"Feature","geometry":{"type":"Polygon","coordinates":[[[27.4359941,38.642333],[27.4257365,38.6302003],[27.4245141,38.6212931],[27.4263659,38.621294],[27.442199,38.6429317],[27.4359941,38.642333]]]},"properties":{"@id":"relation/12288427","admin_level":"8","boundary":"administrative","name":"Kuşlubahçe Mahallesi","type":"boundary","wikidata":"Q21682376","wikipedia":"tr:Kuşlubahçe, Şehzadeler","@relations":[{"role":"subarea","rel":1822900,"reltags":{"admin_level":"6","boundary":"administrative","name":"Şehzadeler","name:az":"Şahzadələr","name:ce":"ШехӀзаделер","name:de":"Şehzadeler","name:en":"Şehzadeler","name:tr":"Şehzadeler","name:tr:suffix":"İlçesi","name:tt":"Шехзаделер","network":"TR45-districts","type":"boundary","wikidata":"Q16961654","wikipedia":"tr:Şehzadeler"}}]},"id":"relation/12288427"},
{"type":"Feature","geometry":{"type":"Polygon","coordinates":[[[27.414118,38.6099459],[27.4126997,38.6103393],[27.4138552,38.6036244],[27.4162134,38.6047162],[27.4157222,38.6081303],[27.414118,38.6099459]]]},"properties":{"@id":"relation/12321808","admin_level":"8","boundary":"administrative","name":"Kaynak Mahallesi","type":"boundary","wikidata":"Q109962471","wikipedia":"tr:Kaynak, Yunusemre","@relations":[{"role":"subarea","rel":3668268,"reltags":{"admin_level":"6","alt_name":"Yunus Emre","boundary":"administrative","name":"Yunusemre","name:de":"Yunus Emre","name:en":"Yunus Emre","name:tr":"Yunus Emre","name:tr:suffix":"İlçesi","network":"TR45-districts","type":"boundary","wikidata":"Q16968958","wikipedia":"tr:Yunusemre"}}]},"id":"relation/12321808"},
{"type":"Feature","geometry":{"type":"Polygon","coordinates":[[[27.4033409,38.6158436],[27.4126997,38.6103393],[27.414118,38.6099459],[27.4143847,38.6101516],[27.4125838,38.6168663],[27.4117841,38.6168105],[27.4033409,38.6158436]]]},"properties":{"@id":"relation/12321809","admin_level":"8","boundary":"administrative","name":"Merkez Efendi Mahallesi","type":"boundary","wikidata":"Q109391611","wikipedia":"tr:Merkez Efendi, Yunusemre","@relations":[{"role":"subarea","rel":3668268,"reltags":{"admin_level":"6","alt_name":"Yunus Emre","boundary":"administrative","name":"Yunusemre","name:de":"Yunus Emre","name:en":"Yunus Emre","name:tr":"Yunus Emre","name:tr:suffix":"İlçesi","network":"TR45-districts","type":"boundary","wikidata":"Q16968958","wikipedia":"tr:Yunusemre"}}]},"id":"relation/12321809"},
{"type":"Feature","geometry":{"type":"Polygon","coordinates":[[[27.4218469,38.6123725],[27.4218627,38.6133655],[27.4194111,38.6181476],[27.4159312,38.617277],[27.4184454,38.6124381],[27.4218469,38.6123725]]]},"properties":{"@id":"relation/12321810","admin_level":"8","boundary":"administrative","name":"Ayni Ali Mahallesi","type":"boundary","wikidata":"Q109962461","wikipedia":"tr:Ayni Ali, Yunusemre","@relations":[{"role":"subarea","rel":3668268,"reltags":{"admin_level":"6","alt_name":"Yunus Emre","boundary":"administrative","name":"Yunusemre","name:de":"Yunus Emre","name:en":"Yunus Emre","name:tr":"Yunus Emre","name:tr:suffix":"İlçesi","network":"TR45-districts","type":"boundary","wikidata":"Q16968958","wikipedia":"tr:Yunusemre"}}]},"id":"relation/12321810"},
{"type":"Feature","geometry":{"type":"Polygon","coordinates":[[[27.4217562,38.6116698],[27.4218469,38.6123725],[27.4184454,38.6124381],[27.4187583,38.6105411],[27.421463,38.6096757],[27.4217562,38.6116698]]]},"properties":{"@id":"relation/12321811","admin_level":"8","boundary":"administrative","name":"Kuyualan Mahallesi","type":"boundary","wikidata":"Q109391607","wikipedia":"tr:Kuyualan, Yunusemre","@relations":[{"role":"subarea","rel":3668268,"reltags":{"admin_level":"6","alt_name":"Yunus Emre","boundary":"administrative","name":"Yunusemre","name:de":"Yunus Emre","name:en":"Yunus Emre","name:tr":"Yunus Emre","name:tr:suffix":"İlçesi","network":"TR45-districts","type":"boundary","wikidata":"Q16968958","wikipedia":"tr:Yunusemre"}}]},"id":"relation/12321811"},
{"type":"Feature","geometry":{"type":"Polygon","coordinates":[[[27.4143847,38.6101516],[27.4187583,38.6105411],[27.4184454,38.6124381],[27.4159312,38.617277],[27.4125838,38.6168663],[27.4143847,38.6101516]]]},"properties":{"@id":"relation/12321812","admin_level":"8","boundary":"administrative","name":"Tevfikiye Mahallesi","type":"boundary","wikidata":"Q109391618","wikipedia":"tr:Tevfikiye, Yunusemre","@relations":[{"role":"subarea","rel":3668268,"reltags":{"admin_level":"6","alt_name":"Yunus Emre","boundary":"administrative","name":"Yunusemre","name:de":"Yunus Emre","name:en":"Yunus Emre","name:tr":"Yunus Emre","name:tr:suffix":"İlçesi","network":"TR45-districts","type":"boundary","wikidata":"Q16968958","wikipedia":"tr:Yunusemre"}}]},"id":"relation/12321812"},
{"type":"Feature","geometry":{"type":"Polygon","coordinates":[[[27.4221106,38.6075816],[27.4215611,38.6093386],[27.421463,38.6096757],[27.4187583,38.6105411],[27.4143847,38.6101516],[27.414118,38.6099459],[27.4157222,38.6081303],[27.4185209,38.6078229],[27.4222032,38.6073328],[27.4221106,38.6075816]]]},"properties":{"@id":"relation/12321813","admin_level":"8","boundary":"administrative","name":"Topçuasım Mahallesi","type":"boundary","wikidata":"Q109391619","wikipedia":"tr:Topçuasım, Yunusemre","@relations":[{"role":"subarea","rel":3668268,"reltags":{"admin_level":"6","alt_name":"Yunus Emre","boundary":"administrative","name":"Yunusemre","name:de":"Yunus Emre","name:en":"Yunus Emre","name:tr":"Yunus Emre","name:tr:suffix":"İlçesi","network":"TR45-districts","type":"boundary","wikidata":"Q16968958","wikipedia":"tr:Yunusemre"}}]},"id":"relation/12321813"},
{"type":"Feature","geometry":{"type":"Polygon","coordinates":[[[27.4138552,38.6036244],[27.4126997,38.6103393],[27.4033409,38.6158436],[27.3941517,38.614825],[27.4130613,38.6014779],[27.4138552,38.6036244]]]},"properties":{"@id":"relation/12321817","admin_level":"8","boundary":"administrative","name":"Akmescit Mahallesi","type":"boundary","wikidata":"Q109386961","wikipedia":"tr:Akmescit, Yunusemre","@relations":[{"role":"subarea","rel":3668268,"reltags":{"admin_level":"6","alt_name":"Yunus Emre","boundary":"administrative","name":"Yunusemre","name:de":"Yunus Emre","name:en":"Yunus Emre","name:tr":"Yunus Emre","name:tr:suffix":"İlçesi","network":"TR45-districts","type":"boundary","wikidata":"Q16968958","wikipedia":"tr:Yunusemre"}}]},"id":"relation/12321817"},
{"type":"Feature","geometry":{"type":"Polygon","coordinates":[[[27.4170899,38.5958852],[27.4130613,38.6014779],[27.3941517,38.614825],[27.388283,38.6141376],[27.3711491,38.6120921],[27.3532963,38.5877426],[27.4170899,38.5958852]]]},"properties":{"@id":"relation/12321819","admin_level":"8","boundary":"administrative","name":"Uncubozköy Mahallesi","type":"boundary","wikidata":"Q109391623","wikipedia":"tr:Uncubozköy, Yunusemre","@relations":[{"role":"subarea","rel":3668268,"reltags":{"admin_level":"6","alt_name":"Yunus Emre","boundary":"administrative","name":"Yunusemre","name:de":"Yunus Emre","name:en":"Yunus Emre","name:tr":"Yunus Emre","name:tr:suffix":"İlçesi","network":"TR45-districts","type":"boundary","wikidata":"Q16968958","wikipedia":"tr:Yunusemre"}}]},"id":"relation/12321819"},
{"type":"Feature","geometry":{"type":"Polygon","coordinates":[[[27.4194111,38.6181476],[27.4188558,38.6219227],[27.412276,38.6233736],[27.4080026,38.6246074],[27.4097789,38.6210647],[27.4117841,38.6168105],[27.4125838,38.6168663],[27.4159312,38.617277],[27.4194111,38.6181476]]]},"properties":{"@id":"relation/12321840","admin_level":"8","alt_name":"Yeni Mahalle","boundary":"administrative","name":"Yenimahalle Mahallesi","type":"boundary","wikidata":"Q109391626","wikipedia":"tr:Yenimahalle, Yunusemre","@relations":[{"role":"subarea","rel":3668268,"reltags":{"admin_level":"6","alt_name":"Yunus Emre","boundary":"administrative","name":"Yunusemre","name:de":"Yunus Emre","name:en":"Yunus Emre","name:tr":"Yunus Emre","name:tr:suffix":"İlçesi","network":"TR45-districts","type":"boundary","wikidata":"Q16968958","wikipedia":"tr:Yunusemre"}}]},"id":"relation/12321840"},
{"type":"Feature","geometry":{"type":"Polygon","coordinates":[[[27.4282479,38.6574236],[27.412276,38.6233736],[27.4188558,38.6219227],[27.4245141,38.6212931],[27.4257365,38.6302003],[27.4303614,38.6454419],[27.4282479,38.6574236]]]},"properties":{"@id":"relation/13092521","admin_level":"8","boundary":"administrative","name":"Barbaros Mahallesi","type":"boundary","wikidata":"Q109962463","wikipedia":"tr:Barbaros, Yunusemre","@relations":[{"role":"subarea","rel":3668268,"reltags":{"admin_level":"6","alt_name":"Yunus Emre","boundary":"administrative","name":"Yunusemre","name:de":"Yunus Emre","name:en":"Yunus Emre","name:tr":"Yunus Emre","name:tr:suffix":"İlçesi","network":"TR45-districts","type":"boundary","wikidata":"Q16968958","wikipedia":"tr:Yunusemre"}}]},"id":"relation/13092521"},
{"type":"Feature","geometry":{"type":"Polygon","coordinates":[[[27.427753,38.6107423],[27.4273643,38.6102877],[27.427631,38.6079129],[27.4315564,38.6087739],[27.4302113,38.6105789],[27.4302435,38.6115346],[27.427753,38.6107423]]]},"properties":{"@id":"relation/13092522","admin_level":"8","alt_name":"Saruhan Mahallesi","boundary":"administrative","name":"Saruhan","type":"boundary","wikidata":"Q21682472","wikipedia":"tr:Saruhan, Şehzadeler","@relations":[{"role":"subarea","rel":1822900,"reltags":{"admin_level":"6","boundary":"administrative","name":"Şehzadeler","name:az":"Şahzadələr","name:ce":"ШехӀзаделер","name:de":"Şehzadeler","name:en":"Şehzadeler","name:tr":"Şehzadeler","name:tr:suffix":"İlçesi","name:tt":"Шехзаделер","network":"TR45-districts","type":"boundary","wikidata":"Q16961654","wikipedia":"tr:Şehzadeler"}}]},"id":"relation/13092522"},
{"type":"Feature","geometry":{"type":"Polygon","coordinates":[[[27.4315564,38.6087739],[27.4348837,38.6098202],[27.4349964,38.6098956],[27.4340898,38.6108807],[27.4302113,38.6105789],[27.4315564,38.6087739]]]},"properties":{"@id":"relation/13092523","admin_level":"8","alt_name":"Göktaşlı","boundary":"administrative","name":"Göktaşlı Mahallesi","type":"boundary","wikidata":"Q21682171","wikipedia":"tr:Göktaşlı, Şehzadeler","@relations":[{"role":"subarea","rel":1822900,"reltags":{"admin_level":"6","boundary":"administrative","name":"Şehzadeler","name:az":"Şahzadələr","name:ce":"ШехӀзаделер","name:de":"Şehzadeler","name:en":"Şehzadeler","name:tr":"Şehzadeler","name:tr:suffix":"İlçesi","name:tt":"Шехзаделер","network":"TR45-districts","type":"boundary","wikidata":"Q16961654","wikipedia":"tr:Şehzadeler"}}]},"id":"relation/13092523"},
{"type":"Feature","geometry":{"type":"Polygon","coordinates":[[[27.4341057,38.6126448],[27.4303079,38.6138149],[27.4302435,38.6115346],[27.4302113,38.6105789],[27.4340898,38.6108807],[27.4341057,38.6126448]]]},"properties":{"@id":"relation/13092524","admin_level":"8","boundary":"administrative","name":"Çarşı Mahallesi","type":"boundary","wikidata":"Q21682498","wikipedia":"tr:Çarşı, Şehzadeler","@relations":[{"role":"subarea","rel":1822900,"reltags":{"admin_level":"6","boundary":"administrative","name":"Şehzadeler","name:az":"Şahzadələr","name:ce":"ШехӀзаделер","name:de":"Şehzadeler","name:en":"Şehzadeler","name:tr":"Şehzadeler","name:tr:suffix":"İlçesi","name:tt":"Шехзаделер","network":"TR45-districts","type":"boundary","wikidata":"Q16961654","wikipedia":"tr:Şehzadeler"}}]},"id":"relation/13092524"},
{"type":"Feature","geometry":{"type":"Polygon","coordinates":[[[27.4315564,38.6087739],[27.427631,38.6079129],[27.4277758,38.6070116],[27.4353477,38.6071059],[27.4356132,38.6073931],[27.4348837,38.6098202],[27.4315564,38.6087739]]]},"properties":{"@id":"relation/13092525","admin_level":"8","alt_name":"İshakçelebi","boundary":"administrative","name":"İshakçelebi Mahallesi","type":"boundary","wikidata":"Q21682504","wikipedia":"tr:İshakçelebi, Şehzadeler","@relations":[{"role":"subarea","rel":1822900,"reltags":{"admin_level":"6","boundary":"administrative","name":"Şehzadeler","name:az":"Şahzadələr","name:ce":"ШехӀзаделер","name:de":"Şehzadeler","name:en":"Şehzadeler","name:tr":"Şehzadeler","name:tr:suffix":"İlçesi","name:tt":"Шехзаделер","network":"TR45-districts","type":"boundary","wikidata":"Q16961654","wikipedia":"tr:Şehzadeler"}}]},"id":"relation/13092525"},
{"type":"Feature","geometry":{"type":"Polygon","coordinates":[[[27.4244124,38.6097615],[27.4245138,38.6069281],[27.4239242,38.6054731],[27.4277758,38.6070116],[27.427631,38.6079129],[27.4273643,38.6102877],[27.4242884,38.6102418],[27.4244124,38.6097615]]]},"properties":{"@id":"relation/13092526","admin_level":"8","boundary":"administrative","name":"Adakale Mahallesi","type":"boundary","wikidata":"Q21523880","wikipedia":"tr:Adakale, Şehzadeler","@relations":[{"role":"subarea","rel":1822900,"reltags":{"admin_level":"6","boundary":"administrative","name":"Şehzadeler","name:az":"Şahzadələr","name:ce":"ШехӀзаделер","name:de":"Şehzadeler","name:en":"Şehzadeler","name:tr":"Şehzadeler","name:tr:suffix":"İlçesi","name:tt":"Шехзаделер","network":"TR45-districts","type":"boundary","wikidata":"Q16961654","wikipedia":"tr:Şehzadeler"}}]},"id":"relation/13092526"},
{"type":"Feature","geometry":{"type":"Polygon","coordinates":[[[27.4296469,38.6140737],[27.4293928,38.614088],[27.4275582,38.6141188],[27.427753,38.6107423],[27.4302435,38.6115346],[27.4303079,38.6138149],[27.4296469,38.6140737]]]},"properties":{"@id":"relation/13092527","admin_level":"8","boundary":"administrative","name":"Utku Mahallesi","type":"boundary","wikidata":"Q21527254","wikipedia":"tr:Utku, Şehzadeler","@relations":[{"role":"subarea","rel":1822900,"reltags":{"admin_level":"6","boundary":"administrative","name":"Şehzadeler","name:az":"Şahzadələr","name:ce":"ШехӀзаделер","name:de":"Şehzadeler","name:en":"Şehzadeler","name:tr":"Şehzadeler","name:tr:suffix":"İlçesi","name:tt":"Шехзаделер","network":"TR45-districts","type":"boundary","wikidata":"Q16961654","wikipedia":"tr:Şehzadeler"}}]},"id":"relation/13092527"},
{"type":"Feature","geometry":{"type":"Polygon","coordinates":[[[27.4238134,38.6120823],[27.4242884,38.6102418],[27.4273643,38.6102877],[27.427753,38.6107423],[27.4275582,38.6141188],[27.4257584,38.6141124],[27.4249883,38.6141473],[27.4238134,38.6120823]]]},"properties":{"@id":"relation/13092528","admin_level":"8","boundary":"administrative","name":"Mimarsinan Mahallesi","type":"boundary","wikidata":"Q21682448","wikipedia":"tr:Mimarsinan, Şehzadeler","@relations":[{"role":"subarea","rel":1822900,"reltags":{"admin_level":"6","boundary":"administrative","name":"Şehzadeler","name:az":"Şahzadələr","name:ce":"ШехӀзаделер","name:de":"Şehzadeler","name:en":"Şehzadeler","name:tr":"Şehzadeler","name:tr:suffix":"İlçesi","name:tt":"Шехзаделер","network":"TR45-districts","type":"boundary","wikidata":"Q16961654","wikipedia":"tr:Şehzadeler"}}]},"id":"relation/13092528"},
{"type":"Feature","geometry":{"type":"Polygon","coordinates":[[[27.9165973,38.5125333],[27.9240918,38.4953088],[27.942186,38.5016944],[27.9404962,38.5143507],[27.9381841,38.5138218],[27.9165973,38.5125333]]]},"properties":{"@id":"relation/13092646","admin_level":"8","boundary":"administrative","name":"Barbaros Mahallesi","type":"boundary","@relations":[{"role":"subarea","rel":1761487,"reltags":{"admin_level":"6","boundary":"administrative","name":"Ahmetli","name:ce":"АхӀметли","name:fa":"احمدلی","name:tr":"Ahmetli","name:tr:suffix":"İlçesi","name:tt":"Ахметли","name:ur":"احمدلی","name:zh":"艾哈邁德利","network":"TR45-districts","type":"boundary","wikidata":"Q2248722","wikipedia":"tr:Ahmetli"}}]},"id":"relation/13092646"},
{"type":"Feature","geometry":{"type":"Polygon","coordinates":[[[27.9380393,38.5197148],[27.908876,38.5247864],[27.9090714,38.5223757],[27.9165973,38.5125333],[27.9381841,38.5138218],[27.9380393,38.5197148]]]},"properties":{"@id":"relation/13092647","admin_level":"8","boundary":"administrative","name":"Ulucami Mahallesi","type":"boundary","@relations":[{"role":"subarea","rel":1761487,"reltags":{"admin_level":"6","boundary":"administrative","name":"Ahmetli","name:ce":"АхӀметли","name:fa":"احمدلی","name:tr":"Ahmetli","name:tr:suffix":"İlçesi","name:tt":"Ахметли","name:ur":"احمدلی","name:zh":"艾哈邁德利","network":"TR45-districts","type":"boundary","wikidata":"Q2248722","wikipedia":"tr:Ahmetli"}}]},"id":"relation/13092647"},
{"type":"Feature","geometry":{"type":"Polygon","coordinates":[[[27.942186,38.5016944],[27.9507638,38.5159018],[27.9404962,38.5143507],[27.942186,38.5016944]]]},"properties":{"@id":"relation/13092648","admin_level":"8","boundary":"administrative","name":"Güldede Mahallesi","type":"boundary","@relations":[{"role":"subarea","rel":1761487,"reltags":{"admin_level":"6","boundary":"administrative","name":"Ahmetli","name:ce":"АхӀметли","name:fa":"احمدلی","name:tr":"Ahmetli","name:tr:suffix":"İlçesi","name:tt":"Ахметли","name:ur":"احمدلی","name:zh":"艾哈邁德利","network":"TR45-districts","type":"boundary","wikidata":"Q2248722","wikipedia":"tr:Ahmetli"}}]},"id":"relation/13092648"},
{"type":"Feature","geometry":{"type":"Polygon","coordinates":[[[27.9507638,38.5159018],[27.9522872,38.5157778],[27.9380393,38.5197148],[27.9381841,38.5138218],[27.9404962,38.5143507],[27.9507638,38.5159018]]]},"properties":{"@id":"relation/13092649","admin_level":"8","boundary":"administrative","name":"Altıeylül Mahallesi","type":"boundary","@relations":[{"role":"subarea","rel":1761487,"reltags":{"admin_level":"6","boundary":"administrative","name":"Ahmetli","name:ce":"АхӀметли","name:fa":"احمدلی","name:tr":"Ahmetli","name:tr:suffix":"İlçesi","name:tt":"Ахметли","name:ur":"احمدلی","name:zh":"艾哈邁德利","network":"TR45-districts","type":"boundary","wikidata":"Q2248722","wikipedia":"tr:Ahmetli"}}]},"id":"relation/13092649"},
{"type":"Feature","geometry":{"type":"Polygon","coordinates":[[[27.9364943,38.5343611],[27.9380393,38.5197148],[27.9522872,38.5157778],[27.9585957,38.5147663],[27.9552921,38.5353003],[27.9364943,38.5343611]]]},"properties":{"@id":"relation/13092650","admin_level":"8","boundary":"administrative","name":"Kurtuluş Mahallesi","type":"boundary","@relations":[{"role":"subarea","rel":1761487,"reltags":{"admin_level":"6","boundary":"administrative","name":"Ahmetli","name:ce":"АхӀметли","name:fa":"احمدلی","name:tr":"Ahmetli","name:tr:suffix":"İlçesi","name:tt":"Ахметли","name:ur":"احمدلی","name:zh":"艾哈邁德利","network":"TR45-districts","type":"boundary","wikidata":"Q2248722","wikipedia":"tr:Ahmetli"}}]},"id":"relation/13092650"},
{"type":"Feature","geometry":{"type":"Polygon","coordinates":[[[27.9364943,38.5343611],[27.9110917,38.5352458],[27.908876,38.5247864],[27.9380393,38.5197148],[27.9364943,38.5343611]]]},"properties":{"@id":"relation/13092651","admin_level":"8","boundary":"administrative","name":"Zafer Mahallesi","type":"boundary","@relations":[{"role":"subarea","rel":1761487,"reltags":{"admin_level":"6","boundary":"administrative","name":"Ahmetli","name:ce":"АхӀметли","name:fa":"احمدلی","name:tr":"Ahmetli","name:tr:suffix":"İlçesi","name:tt":"Ахметли","name:ur":"احمدلی","name:zh":"艾哈邁德利","network":"TR45-districts","type":"boundary","wikidata":"Q2248722","wikipedia":"tr:Ahmetli"}}]},"id":"relation/13092651"},
{"type":"Feature","geometry":{"type":"Polygon","coordinates":[[[27.8369522,38.9099321],[27.8366357,38.9175914],[27.830354,38.9152749],[27.7998412,38.9021801],[27.820977,38.88269],[27.8467128,38.8702721],[27.8369522,38.9099321]]]},"properties":{"@id":"relation/13353355","admin_level":"8","boundary":"administrative","name":"Hürriyet Mahallesi","type":"boundary","wikidata":"Q97205135","wikipedia":"tr:Hürriyet, Akhisar","@relations":[{"role":"subarea","rel":1822655,"reltags":{"admin_level":"6","boundary":"administrative","name":"Akhisar","name:ar":"آق حصار","name:ba":"Аҡхисар","name:be":"Акхісар","name:bg":"Акхисар","name:de":"Akhisar","name:el":"Ακχισάρ","name:en":"Akhisar","name:fa":"آق‌حصار","name:ja":"アクヒサル","name:ko":"악히사르","name:lt":"Akchisaras","name:ru":"Акхисар","name:sr":"Акхисар","name:tr":"Akhisar","name:tr:suffix":"İlçesi","name:tt":"Акһисар","name:uk":"Акхісар","name:ur":"اقحصار","name:zh":"阿克希薩爾","network":"TR45-districts","old_name":"Thyatira;Thyateira","old_name:el":"Πελοπία","type":"boundary","wikidata":"Q209905","wikipedia":"tr:Akhisar"}}]},"id":"relation/13353355"},
{"type":"Feature","geometry":{"type":"Polygon","coordinates":[[[27.8366357,38.9175914],[27.8367376,38.9196324],[27.8368235,38.9225497],[27.8340232,38.9229671],[27.830354,38.9152749],[27.8366357,38.9175914]]]},"properties":{"@id":"relation/13353357","admin_level":"8","boundary":"administrative","name":"Ragıpbey Mahallesi","type":"boundary","@relations":[{"role":"subarea","rel":1822655,"reltags":{"admin_level":"6","boundary":"administrative","name":"Akhisar","name:ar":"آق حصار","name:ba":"Аҡхисар","name:be":"Акхісар","name:bg":"Акхисар","name:de":"Akhisar","name:el":"Ακχισάρ","name:en":"Akhisar","name:fa":"آق‌حصار","name:ja":"アクヒサル","name:ko":"악히사르","name:lt":"Akchisaras","name:ru":"Акхисар","name:sr":"Акхисар","name:tr":"Akhisar","name:tr:suffix":"İlçesi","name:tt":"Акһисар","name:uk":"Акхісар","name:ur":"اقحصار","name:zh":"阿克希薩爾","network":"TR45-districts","old_name":"Thyatira;Thyateira","old_name:el":"Πελοπία","type":"boundary","wikidata":"Q209905","wikipedia":"tr:Akhisar"}}]},"id":"relation/13353357"},
{"type":"Feature","geometry":{"type":"Polygon","coordinates":[[[27.8386125,38.9229859],[27.8368235,38.9225497],[27.8367376,38.9196324],[27.8410399,38.919695],[27.8411978,38.9217232],[27.840836,38.9228919],[27.8386125,38.9229859]]]},"properties":{"@id":"relation/13353358","admin_level":"8","boundary":"administrative","name":"Paşa Mahallesi","type":"boundary","wikidata":"Q97205898","wikipedia":"tr:Paşa, Akhisar","@relations":[{"role":"subarea","rel":1822655,"reltags":{"admin_level":"6","boundary":"administrative","name":"Akhisar","name:ar":"آق حصار","name:ba":"Аҡхисар","name:be":"Акхісар","name:bg":"Акхисар","name:de":"Akhisar","name:el":"Ακχισάρ","name:en":"Akhisar","name:fa":"آق‌حصار","name:ja":"アクヒサル","name:ko":"악히사르","name:lt":"Akchisaras","name:ru":"Акхисар","name:sr":"Акхисар","name:tr":"Akhisar","name:tr:suffix":"İlçesi","name:tt":"Акһисар","name:uk":"Акхісар","name:ur":"اقحصار","name:zh":"阿克希薩爾","network":"TR45-districts","old_name":"Thyatira;Thyateira","old_name:el":"Πελοπία","type":"boundary","wikidata":"Q209905","wikipedia":"tr:Akhisar"}}]},"id":"relation/13353358"},
{"type":"Feature","geometry":{"type":"Polygon","coordinates":[[[27.4026864,38.6173274],[27.4033409,38.6158436],[27.4117841,38.6168105],[27.4097789,38.6210647],[27.402724,38.6227382],[27.4014097,38.6229142],[27.4026864,38.6173274]]]},"properties":{"@id":"relation/14026358","admin_level":"8","boundary":"administrative","name":"Hafsa Sultan Mahallesi","type":"boundary","@relations":[{"role":"subarea","rel":3668268,"reltags":{"admin_level":"6","alt_name":"Yunus Emre","boundary":"administrative","name":"Yunusemre","name:de":"Yunus Emre","name:en":"Yunus Emre","name:tr":"Yunus Emre","name:tr:suffix":"İlçesi","network":"TR45-districts","type":"boundary","wikidata":"Q16968958","wikipedia":"tr:Yunusemre"}}]},"id":"relation/14026358"},
{"type":"Feature","geometry":{"type":"Polygon","coordinates":[[[28.652097,38.5448824],[28.6492699,38.5435104],[28.6521667,38.5412217],[28.6542535,38.5431727],[28.652097,38.5448824]]]},"properties":{"@id":"relation/14934306","admin_level":"8","alt_name":"Kızılkaya Mahallesi","boundary":"administrative","name":"Kızılkaya","type":"boundary","wikidata":"Q109394436","wikipedia":"tr:Kızılkaya, Kula","@relations":[{"role":"subarea","rel":1821205,"reltags":{"admin_level":"6","boundary":"administrative","name":"Kula","name:ce":"Кула","name:fa":"کولا","name:ru":"Кула","name:tr":"Kula","name:tr:suffix":"İlçesi","name:tt":"Кула","name:ur":"کولا","name:zh":"庫拉","network":"TR45-districts","type":"boundary","wikidata":"Q64831","wikipedia":"tr:Kula"}}]},"id":"relation/14934306"},
{"type":"Feature","geometry":{"type":"Polygon","coordinates":[[[28.652097,38.5448824],[28.6465609,38.5464117],[28.6448765,38.5450607],[28.6492699,38.5435104],[28.652097,38.5448824]]]},"properties":{"@id":"relation/14934307","admin_level":"8","alt_name":"Camii Cedit Mahallesi;Cami Cedit Mahallesi;Camicedit Mahallesi","boundary":"administrative","name":"Camii Cedit","type":"boundary","wikidata":"Q109394435","wikipedia":"tr:Camii Cedit, Kula","@relations":[{"role":"subarea","rel":1821205,"reltags":{"admin_level":"6","boundary":"administrative","name":"Kula","name:ce":"Кула","name:fa":"کولا","name:ru":"Кула","name:tr":"Kula","name:tr:suffix":"İlçesi","name:tt":"Кула","name:ur":"کولا","name:zh":"庫拉","network":"TR45-districts","type":"boundary","wikidata":"Q64831","wikipedia":"tr:Kula"}}]},"id":"relation/14934307"},
{"type":"Feature","geometry":{"type":"Polygon","coordinates":[[[28.5175426,38.3557066],[28.509382,38.3537222],[28.5144138,38.3513832],[28.5175426,38.3557066]]]},"properties":{"@id":"relation/14937770","admin_level":"8","alt_name":"Yenice","boundary":"administrative","name":"Yenice Mahallesi","type":"boundary","wikidata":"Q100803838","wikipedia":"tr:Yenice, Alaşehir","@relations":[{"role":"subarea","rel":1822974,"reltags":{"admin_level":"6","boundary":"administrative","name":"Alaşehir","name:tr":"Alaşehir","name:tr:suffix":"İlçesi","name:zh":"阿拉谢希尔","network":"TR45-districts","type":"boundary","wikidata":"Q138280","wikipedia":"tr:Alaşehir"}}]},"id":"relation/14937770"},
{"type":"Feature","geometry":{"type":"Polygon","coordinates":[[[28.5251212,38.347538],[28.5175426,38.3557066],[28.5144138,38.3513832],[28.5200572,38.3487664],[28.5244453,38.3466545],[28.5251212,38.347538]]]},"properties":{"@id":"relation/14937771","admin_level":"8","alt_name":"Beşeylül;5 Eylül","boundary":"administrative","name":"Beşeylül Mahallesi","type":"boundary","wikidata":"Q100803975","wikipedia":"tr:Beşeylül, Alaşehir","@relations":[{"role":"subarea","rel":1822974,"reltags":{"admin_level":"6","boundary":"administrative","name":"Alaşehir","name:tr":"Alaşehir","name:tr:suffix":"İlçesi","name:zh":"阿拉谢希尔","network":"TR45-districts","type":"boundary","wikidata":"Q138280","wikipedia":"tr:Alaşehir"}}]},"id":"relation/14937771"},
{"type":"Feature","geometry":{"type":"Polygon","coordinates":[[[28.5244453,38.3466545],[28.5223102,38.3431709],[28.5251212,38.347538],[28.5244453,38.3466545]]]},"properties":{"@id":"relation/14937772","admin_level":"8","alt_name":"Menderes","boundary":"administrative","name":"Menderes Mahallesi","type":"boundary","wikidata":"Q100803436","wikipedia":"tr:Menderes, Alaşehir","@relations":[{"role":"subarea","rel":1822974,"reltags":{"admin_level":"6","boundary":"administrative","name":"Alaşehir","name:tr":"Alaşehir","name:tr:suffix":"İlçesi","name:zh":"阿拉谢希尔","network":"TR45-districts","type":"boundary","wikidata":"Q138280","wikipedia":"tr:Alaşehir"}}]},"id":"relation/14937772"},
{"type":"Feature","geometry":{"type":"Polygon","coordinates":[[[28.5244453,38.3466545],[28.5200572,38.3487664],[28.5176754,38.3455522],[28.5223102,38.3431709],[28.5244453,38.3466545]]]},"properties":{"@id":"relation/14937773","admin_level":"8","alt_name":"Sarısu","boundary":"administrative","name":"Sarısu Mahallesi","type":"boundary","wikidata":"Q100803533","wikipedia":"tr:Sarısu, Alaşehir","@relations":[{"role":"subarea","rel":1822974,"reltags":{"admin_level":"6","boundary":"administrative","name":"Alaşehir","name:tr":"Alaşehir","name:tr:suffix":"İlçesi","name:zh":"阿拉谢希尔","network":"TR45-districts","type":"boundary","wikidata":"Q138280","wikipedia":"tr:Alaşehir"}}]},"id":"relation/14937773"},
{"type":"Feature","geometry":{"type":"Polygon","coordinates":[[[28.5200572,38.3487664],[28.5144138,38.3513832],[28.5119891,38.3479923],[28.5176754,38.3455522],[28.5200572,38.3487664]]]},"properties":{"@id":"relation/14937774","admin_level":"8","alt_name":"Soğuksu","boundary":"administrative","name":"Soğuksu Mahallesi","type":"boundary","wikidata":"Q100803596","wikipedia":"tr:Soğuksu, Alaşehir","@relations":[{"role":"subarea","rel":1822974,"reltags":{"admin_level":"6","boundary":"administrative","name":"Alaşehir","name:tr":"Alaşehir","name:tr:suffix":"İlçesi","name:zh":"阿拉谢希尔","network":"TR45-districts","type":"boundary","wikidata":"Q138280","wikipedia":"tr:Alaşehir"}}]},"id":"relation/14937774"},
{"type":"Feature","geometry":{"type":"Polygon","coordinates":[[[28.509382,38.3537222],[28.5119891,38.3479923],[28.5144138,38.3513832],[28.509382,38.3537222]]]},"properties":{"@id":"relation/14937775","admin_level":"8","alt_name":"Sakarya","boundary":"administrative","name":"Sakarya Mahallesi","type":"boundary","wikidata":"Q100803488","wikipedia":"tr:Sakarya, Alaşehir","@relations":[{"role":"subarea","rel":1822974,"reltags":{"admin_level":"6","boundary":"administrative","name":"Alaşehir","name:tr":"Alaşehir","name:tr:suffix":"İlçesi","name:zh":"阿拉谢希尔","network":"TR45-districts","type":"boundary","wikidata":"Q138280","wikipedia":"tr:Alaşehir"}}]},"id":"relation/14937775"},
{"type":"Feature","geometry":{"type":"Polygon","coordinates":[[[27.9670501,38.5514881],[27.955108,38.5552004],[27.9552921,38.5353003],[27.9585957,38.5147663],[27.9846414,38.50851],[28.0035717,38.5472475],[27.9794526,38.5429294],[27.9670501,38.5514881]]]},"properties":{"@id":"relation/14942115","admin_level":"8","boundary":"administrative","name":"Yaraşlı Mahallesi","type":"boundary","wikidata":"Q6084678","wikipedia":"tr:Yaraşlı, Ahmetli","@relations":[{"role":"subarea","rel":1761487,"reltags":{"admin_level":"6","boundary":"administrative","name":"Ahmetli","name:ce":"АхӀметли","name:fa":"احمدلی","name:tr":"Ahmetli","name:tr:suffix":"İlçesi","name:tt":"Ахметли","name:ur":"احمدلی","name:zh":"艾哈邁德利","network":"TR45-districts","type":"boundary","wikidata":"Q2248722","wikipedia":"tr:Ahmetli"}}]},"id":"relation/14942115"},
{"type":"Feature","geometry":{"type":"Polygon","coordinates":[[[27.9682358,38.5787914],[27.9670501,38.5514881],[27.9794526,38.5429294],[28.0035717,38.5472475],[27.9935932,38.567898],[27.9682358,38.5787914]]]},"properties":{"@id":"relation/14942116","admin_level":"8","boundary":"administrative","name":"Kendirlik Mahallesi","type":"boundary","wikidata":"Q10778822","wikipedia":"tr:Kendirlik, Ahmetli","@relations":[{"role":"subarea","rel":1761487,"reltags":{"admin_level":"6","boundary":"administrative","name":"Ahmetli","name:ce":"АхӀметли","name:fa":"احمدلی","name:tr":"Ahmetli","name:tr:suffix":"İlçesi","name:tt":"Ахметли","name:ur":"احمدلی","name:zh":"艾哈邁德利","network":"TR45-districts","type":"boundary","wikidata":"Q2248722","wikipedia":"tr:Ahmetli"}}]},"id":"relation/14942116"},
{"type":"Feature","geometry":{"type":"Polygon","coordinates":[[[28.1676257,38.4820823],[28.1681406,38.4877427],[28.1632161,38.4895062],[28.1610274,38.4842491],[28.1676257,38.4820823]]]},"properties":{"@id":"relation/14944169","admin_level":"8","alt_name":"Güneş Mahallesi","boundary":"administrative","name":"Güneş","type":"boundary","wikidata":"Q109384762","wikipedia":"tr:Güneş, Salihli","@relations":[{"role":"subarea","rel":1821255,"reltags":{"admin_level":"6","boundary":"administrative","name":"Salihli","name:az":"Salehli","name:ce":"СалихӀли","name:el":"Σαλιχλή","name:fa":"صالحی","name:ru":"Салихли","name:sr":"Салихли","name:tr":"Salihli","name:tr:suffix":"İlçesi","name:tt":"Салиһли","name:uk":"Саліглі","name:ur":"سالیہلی","name:zh":"薩利赫利","network":"TR45-districts","type":"boundary","wikidata":"Q1012935","wikipedia":"tr:Salihli"}}]},"id":"relation/14944169"},
{"type":"Feature","geometry":{"type":"Polygon","coordinates":[[[28.1610274,38.4842491],[28.1550836,38.4856852],[28.1547081,38.4788739],[28.1551517,38.4788362],[28.1676257,38.4820823],[28.1610274,38.4842491]]]},"properties":{"@id":"relation/14944170","admin_level":"8","alt_name":"Yörük Mahallesi;Yürük","boundary":"administrative","name":"Yörük","type":"boundary","wikidata":"Q109384777","wikipedia":"tr:Yörük, Salihli","@relations":[{"role":"subarea","rel":1821255,"reltags":{"admin_level":"6","boundary":"administrative","name":"Salihli","name:az":"Salehli","name:ce":"СалихӀли","name:el":"Σαλιχλή","name:fa":"صالحی","name:ru":"Салихли","name:sr":"Салихли","name:tr":"Salihli","name:tr:suffix":"İlçesi","name:tt":"Салиһли","name:uk":"Саліглі","name:ur":"سالیہلی","name:zh":"薩利赫利","network":"TR45-districts","type":"boundary","wikidata":"Q1012935","wikipedia":"tr:Salihli"}}]},"id":"relation/14944170"},
{"type":"Feature","geometry":{"type":"Polygon","coordinates":[[[28.1108261,38.4816442],[28.1158805,38.4860127],[28.101933,38.4874068],[28.1022763,38.4816539],[28.1108261,38.4816442]]]},"properties":{"@id":"relation/14944171","admin_level":"8","alt_name":"Gaffar Okkan Mahallesi","boundary":"administrative","name":"Gaffar Okkan","type":"boundary","wikidata":"Q109384757","wikipedia":"tr:Gaffar Okkan, Salihli","@relations":[{"role":"subarea","rel":1821255,"reltags":{"admin_level":"6","boundary":"administrative","name":"Salihli","name:az":"Salehli","name:ce":"СалихӀли","name:el":"Σαλιχλή","name:fa":"صالحی","name:ru":"Салихли","name:sr":"Салихли","name:tr":"Salihli","name:tr:suffix":"İlçesi","name:tt":"Салиһли","name:uk":"Саліглі","name:ur":"سالیہلی","name:zh":"薩利赫利","network":"TR45-districts","type":"boundary","wikidata":"Q1012935","wikipedia":"tr:Salihli"}}]},"id":"relation/14944171"},
{"type":"Feature","geometry":{"type":"Polygon","coordinates":[[[28.1203007,38.4851393],[28.1158805,38.4860127],[28.1108261,38.4816442],[28.1223607,38.4742712],[28.1261727,38.4791724],[28.1203007,38.4851393]]]},"properties":{"@id":"relation/14944172","admin_level":"8","alt_name":"Yeşilyurt Mahallesi","boundary":"administrative","name":"Yeşilyurt","type":"boundary","wikidata":"Q109384776","wikipedia":"tr:Yeşilyurt, Salihli","@relations":[{"role":"subarea","rel":1821255,"reltags":{"admin_level":"6","boundary":"administrative","name":"Salihli","name:az":"Salehli","name:ce":"СалихӀли","name:el":"Σαλιχλή","name:fa":"صالحی","name:ru":"Салихли","name:sr":"Салихли","name:tr":"Salihli","name:tr:suffix":"İlçesi","name:tt":"Салиһли","name:uk":"Саліглі","name:ur":"سالیہلی","name:zh":"薩利赫利","network":"TR45-districts","type":"boundary","wikidata":"Q1012935","wikipedia":"tr:Salihli"}}]},"id":"relation/14944172"},
{"type":"Feature","geometry":{"type":"Polygon","coordinates":[[[28.1374133,38.4816287],[28.1393236,38.4812357],[28.1388295,38.4863738],[28.1326926,38.4826198],[28.1374133,38.4816287]]]},"properties":{"@id":"relation/14944173","admin_level":"8","alt_name":"Mitatpaşa Mahallesi;Mithatpaşa","boundary":"administrative","name":"Mitatpaşa","type":"boundary","wikidata":"Q109384767","wikipedia":"tr:Mitatpaşa, Salihli","@relations":[{"role":"subarea","rel":1821255,"reltags":{"admin_level":"6","boundary":"administrative","name":"Salihli","name:az":"Salehli","name:ce":"СалихӀли","name:el":"Σαλιχλή","name:fa":"صالحی","name:ru":"Салихли","name:sr":"Салихли","name:tr":"Salihli","name:tr:suffix":"İlçesi","name:tt":"Салиһли","name:uk":"Саліглі","name:ur":"سالیہلی","name:zh":"薩利赫利","network":"TR45-districts","type":"boundary","wikidata":"Q1012935","wikipedia":"tr:Salihli"}}]},"id":"relation/14944173"},
{"type":"Feature","geometry":{"type":"Polygon","coordinates":[[[28.1421951,38.4806449],[28.1424665,38.4876083],[28.1388295,38.4863738],[28.1393236,38.4812357],[28.1421951,38.4806449]]]},"properties":{"@id":"relation/14944174","admin_level":"8","alt_name":"Eski Cami Mahallesi;Eskicami","boundary":"administrative","name":"Eski Cami","type":"boundary","wikidata":"Q109384756","wikipedia":"tr:Eski Cami, Salihli","@relations":[{"role":"subarea","rel":1821255,"reltags":{"admin_level":"6","boundary":"administrative","name":"Salihli","name:az":"Salehli","name:ce":"СалихӀли","name:el":"Σαλιχλή","name:fa":"صالحی","name:ru":"Салихли","name:sr":"Салихли","name:tr":"Salihli","name:tr:suffix":"İlçesi","name:tt":"Салиһли","name:uk":"Саліглі","name:ur":"سالیہلی","name:zh":"薩利赫利","network":"TR45-districts","type":"boundary","wikidata":"Q1012935","wikipedia":"tr:Salihli"}}]},"id":"relation/14944174"},
{"type":"Feature","geometry":{"type":"Polygon","coordinates":[[[28.1443119,38.4802094],[28.145727,38.4799537],[28.1456423,38.4878099],[28.1424665,38.4876083],[28.1421951,38.4806449],[28.1443119,38.4802094]]]},"properties":{"@id":"relation/14944175","admin_level":"8","alt_name":"Kocaçeşme Mahallesi","boundary":"administrative","name":"Kocaçeşme","type":"boundary","wikidata":"Q109384765","wikipedia":"tr:Kocaçeşme, Salihli","@relations":[{"role":"subarea","rel":1821255,"reltags":{"admin_level":"6","boundary":"administrative","name":"Salihli","name:az":"Salehli","name:ce":"СалихӀли","name:el":"Σαλιχλή","name:fa":"صالحی","name:ru":"Салихли","name:sr":"Салихли","name:tr":"Salihli","name:tr:suffix":"İlçesi","name:tt":"Салиһли","name:uk":"Саліглі","name:ur":"سالیہلی","name:zh":"薩利赫利","network":"TR45-districts","type":"boundary","wikidata":"Q1012935","wikipedia":"tr:Salihli"}}]},"id":"relation/14944175"},
{"type":"Feature","geometry":{"type":"Polygon","coordinates":[[[28.1550836,38.4856852],[28.1456423,38.4878099],[28.145727,38.4799537],[28.1547081,38.4788739],[28.1550836,38.4856852]]]},"properties":{"@id":"relation/14944176","admin_level":"8","alt_name":"Cumhuriyet Mahallesi","boundary":"administrative","name":"Cumhuriyet","type":"boundary","wikidata":"Q109384754","wikipedia":"tr:Cumhuriyet, Salihli","@relations":[{"role":"subarea","rel":1821255,"reltags":{"admin_level":"6","boundary":"administrative","name":"Salihli","name:az":"Salehli","name:ce":"СалихӀли","name:el":"Σαλιχλή","name:fa":"صالحی","name:ru":"Салихли","name:sr":"Салихли","name:tr":"Salihli","name:tr:suffix":"İlçesi","name:tt":"Салиһли","name:uk":"Саліглі","name:ur":"سالیہلی","name:zh":"薩利赫利","network":"TR45-districts","type":"boundary","wikidata":"Q1012935","wikipedia":"tr:Salihli"}}]},"id":"relation/14944176"},
{"type":"Feature","geometry":{"type":"Polygon","coordinates":[[[28.1547081,38.4788739],[28.145727,38.4799537],[28.1443119,38.4802094],[28.1463933,38.4738848],[28.1551517,38.4788362],[28.1547081,38.4788739]]]},"properties":{"@id":"relation/14944177","admin_level":"8","alt_name":"Aksoy Mahallesi","boundary":"administrative","name":"Aksoy","type":"boundary","wikidata":"Q109384748","wikipedia":"tr:Aksoy, Salihli","@relations":[{"role":"subarea","rel":1821255,"reltags":{"admin_level":"6","boundary":"administrative","name":"Salihli","name:az":"Salehli","name:ce":"СалихӀли","name:el":"Σαλιχλή","name:fa":"صالحی","name:ru":"Салихли","name:sr":"Салихли","name:tr":"Salihli","name:tr:suffix":"İlçesi","name:tt":"Салиһли","name:uk":"Саліглі","name:ur":"سالیہلی","name:zh":"薩利赫利","network":"TR45-districts","type":"boundary","wikidata":"Q1012935","wikipedia":"tr:Salihli"}}]},"id":"relation/14944177"},
{"type":"Feature","geometry":{"type":"Polygon","coordinates":[[[28.1463933,38.4738848],[28.1443119,38.4802094],[28.1421951,38.4806449],[28.1393236,38.4812357],[28.1374133,38.4816287],[28.137145,38.4776981],[28.1380248,38.473784],[28.1463933,38.4738848]]]},"properties":{"@id":"relation/14944178","admin_level":"8","alt_name":"Sağlık Mahallesi","boundary":"administrative","name":"Sağlık","type":"boundary","wikidata":"Q109384770","wikipedia":"tr:Sağlık, Salihli","@relations":[{"role":"subarea","rel":1821255,"reltags":{"admin_level":"6","boundary":"administrative","name":"Salihli","name:az":"Salehli","name:ce":"СалихӀли","name:el":"Σαλιχλή","name:fa":"صالحی","name:ru":"Салихли","name:sr":"Салихли","name:tr":"Salihli","name:tr:suffix":"İlçesi","name:tt":"Салиһли","name:uk":"Саліглі","name:ur":"سالیہلی","name:zh":"薩利赫利","network":"TR45-districts","type":"boundary","wikidata":"Q1012935","wikipedia":"tr:Salihli"}}]},"id":"relation/14944178"},
{"type":"Feature","geometry":{"type":"Polygon","coordinates":[[[28.137145,38.4776981],[28.1374133,38.4816287],[28.1326926,38.4826198],[28.1308445,38.4782727],[28.137145,38.4776981]]]},"properties":{"@id":"relation/14944179","admin_level":"8","alt_name":"Namık Kemal Mahallesi","boundary":"administrative","name":"Namık Kemal","type":"boundary","wikidata":"Q109384768","wikipedia":"tr:Namık Kemal, Salihli","@relations":[{"role":"subarea","rel":1821255,"reltags":{"admin_level":"6","boundary":"administrative","name":"Salihli","name:az":"Salehli","name:ce":"СалихӀли","name:el":"Σαλιχλή","name:fa":"صالحی","name:ru":"Салихли","name:sr":"Салихли","name:tr":"Salihli","name:tr:suffix":"İlçesi","name:tt":"Салиһли","name:uk":"Саліглі","name:ur":"سالیہلی","name:zh":"薩利赫利","network":"TR45-districts","type":"boundary","wikidata":"Q1012935","wikipedia":"tr:Salihli"}}]},"id":"relation/14944179"},
{"type":"Feature","geometry":{"type":"Polygon","coordinates":[[[28.1308445,38.4782727],[28.1288409,38.4762618],[28.1287658,38.4737084],[28.1380248,38.473784],[28.137145,38.4776981],[28.1308445,38.4782727]]]},"properties":{"@id":"relation/14944180","admin_level":"8","alt_name":"Seyrantepe Mahallesi","boundary":"administrative","name":"Seyrantepe","type":"boundary","wikidata":"Q109384775","wikipedia":"tr:Seyrantepe, Salihli","@relations":[{"role":"subarea","rel":1821255,"reltags":{"admin_level":"6","boundary":"administrative","name":"Salihli","name:az":"Salehli","name:ce":"СалихӀли","name:el":"Σαλιχλή","name:fa":"صالحی","name:ru":"Салихли","name:sr":"Салихли","name:tr":"Salihli","name:tr:suffix":"İlçesi","name:tt":"Салиһли","name:uk":"Саліглі","name:ur":"سالیہلی","name:zh":"薩利赫利","network":"TR45-districts","type":"boundary","wikidata":"Q1012935","wikipedia":"tr:Salihli"}}]},"id":"relation/14944180"},
{"type":"Feature","geometry":{"type":"Polygon","coordinates":[[[28.1223607,38.4742712],[28.1287658,38.4737084],[28.1288409,38.4762618],[28.1261727,38.4791724],[28.1223607,38.4742712]]]},"properties":{"@id":"relation/14944181","admin_level":"8","alt_name":"Özyurt Mahallesi","boundary":"administrative","name":"Özyurt","type":"boundary","wikidata":"Q109384769","wikipedia":"tr:Özyurt, Salihli","@relations":[{"role":"subarea","rel":1821255,"reltags":{"admin_level":"6","boundary":"administrative","name":"Salihli","name:az":"Salehli","name:ce":"СалихӀли","name:el":"Σαλιχλή","name:fa":"صالحی","name:ru":"Салихли","name:sr":"Салихли","name:tr":"Salihli","name:tr:suffix":"İlçesi","name:tt":"Салиһли","name:uk":"Саліглі","name:ur":"سالیہلی","name:zh":"薩利赫利","network":"TR45-districts","type":"boundary","wikidata":"Q1012935","wikipedia":"tr:Salihli"}}]},"id":"relation/14944181"},
{"type":"Feature","geometry":{"type":"Polygon","coordinates":[[[28.1261727,38.4791724],[28.1288409,38.4762618],[28.1308445,38.4782727],[28.1326926,38.4826198],[28.1203007,38.4851393],[28.1261727,38.4791724]]]},"properties":{"@id":"relation/14944182","admin_level":"8","boundary":"administrative","name":"Şehitler","type":"boundary","wikidata":"Q109384773","wikipedia":"tr:Şehitler, Salihli","@relations":[{"role":"subarea","rel":1821255,"reltags":{"admin_level":"6","boundary":"administrative","name":"Salihli","name:az":"Salehli","name:ce":"СалихӀли","name:el":"Σαλιχλή","name:fa":"صالحی","name:ru":"Салихли","name:sr":"Салихли","name:tr":"Salihli","name:tr:suffix":"İlçesi","name:tt":"Салиһли","name:uk":"Саліглі","name:ur":"سالیہلی","name:zh":"薩利赫利","network":"TR45-districts","type":"boundary","wikidata":"Q1012935","wikipedia":"tr:Salihli"}}]},"id":"relation/14944182"},
{"type":"Feature","geometry":{"type":"Polygon","coordinates":[[[27.7129416,38.5021614],[27.7129975,38.5016231],[27.7198148,38.5021017],[27.7117164,38.5049615],[27.7129416,38.5021614]]]},"properties":{"@id":"relation/14949249","admin_level":"8","alt_name":"Bozkurt","boundary":"administrative","name":"Bozkurt Mahallesi","type":"boundary","wikidata":"Q109386938","wikipedia":"tr:Bozkurt, Turgutlu","@relations":[{"role":"subarea","rel":1822902,"reltags":{"admin_level":"6","boundary":"administrative","name":"Turgutlu","name:be":"Тургутлу","name:ce":"Тургутлу","name:de":"Turgutlu","name:en":"Turgutlu","name:fa":"تورقوتلو","name:ru":"Тургутлу","name:sr":"Тургутлу","name:tr":"Turgutlu","name:tr:suffix":"İlçesi","name:tt":"Тургутлу","name:ur":"ترگوتلو","name:zh":"圖爾古特盧","network":"TR45-districts","old_name":"Kasaba","type":"boundary","wikidata":"Q17396881","wikipedia":"tr:Turgutlu"}}]},"id":"relation/14949249"},
{"type":"Feature","geometry":{"type":"Polygon","coordinates":[[[27.7198148,38.5021017],[27.7129975,38.5016231],[27.712959,38.4988606],[27.7209091,38.4990538],[27.7198148,38.5021017]]]},"properties":{"@id":"relation/14949250","admin_level":"8","alt_name":"Turgutlar","boundary":"administrative","name":"Turgutlar Mahallesi","type":"boundary","wikidata":"Q109386952","wikipedia":"tr:Turgutlar, Turgutlu","@relations":[{"role":"subarea","rel":1822902,"reltags":{"admin_level":"6","boundary":"administrative","name":"Turgutlu","name:be":"Тургутлу","name:ce":"Тургутлу","name:de":"Turgutlu","name:en":"Turgutlu","name:fa":"تورقوتلو","name:ru":"Тургутлу","name:sr":"Тургутлу","name:tr":"Turgutlu","name:tr:suffix":"İlçesi","name:tt":"Тургутлу","name:ur":"ترگوتلو","name:zh":"圖爾古特盧","network":"TR45-districts","old_name":"Kasaba","type":"boundary","wikidata":"Q17396881","wikipedia":"tr:Turgutlu"}}]},"id":"relation/14949250"},
{"type":"Feature","geometry":{"type":"Polygon","coordinates":[[[27.7209091,38.4990538],[27.712959,38.4988606],[27.7123234,38.4972401],[27.7209091,38.4990538]]]},"properties":{"@id":"relation/14949251","admin_level":"8","alt_name":"Kurtuluş","boundary":"administrative","name":"Kurtuluş Mahallesi","type":"boundary","wikidata":"Q109386944","wikipedia":"tr:Kurtuluş, Turgutlu","@relations":[{"role":"subarea","rel":1822902,"reltags":{"admin_level":"6","boundary":"administrative","name":"Turgutlu","name:be":"Тургутлу","name:ce":"Тургутлу","name:de":"Turgutlu","name:en":"Turgutlu","name:fa":"تورقوتلو","name:ru":"Тургутлу","name:sr":"Тургутлу","name:tr":"Turgutlu","name:tr:suffix":"İlçesi","name:tt":"Тургутлу","name:ur":"ترگوتلو","name:zh":"圖爾古特盧","network":"TR45-districts","old_name":"Kasaba","type":"boundary","wikidata":"Q17396881","wikipedia":"tr:Turgutlu"}}]},"id":"relation/14949251"},
{"type":"Feature","geometry":{"type":"Polygon","coordinates":[[[27.4434614,38.619335],[27.4505156,38.6164304],[27.4536538,38.6169627],[27.4555474,38.6182998],[27.4563307,38.6209486],[27.4503493,38.6191715],[27.4434614,38.619335]]]},"properties":{"@id":"relation/14958080","admin_level":"8","alt_name":"Nurlupınar","boundary":"administrative","name":"Nurlupınar Mahallesi","type":"boundary","wikidata":"Q21682457","wikipedia":"tr:Nurlupınar, Şehzadeler","@relations":[{"role":"subarea","rel":1822900,"reltags":{"admin_level":"6","boundary":"administrative","name":"Şehzadeler","name:az":"Şahzadələr","name:ce":"ШехӀзаделер","name:de":"Şehzadeler","name:en":"Şehzadeler","name:tr":"Şehzadeler","name:tr:suffix":"İlçesi","name:tt":"Шехзаделер","network":"TR45-districts","type":"boundary","wikidata":"Q16961654","wikipedia":"tr:Şehzadeler"}}]},"id":"relation/14958080"},
{"type":"Feature","geometry":{"type":"Polygon","coordinates":[[[27.438274,38.614758],[27.4381453,38.6138526],[27.4462777,38.6148753],[27.4375498,38.6178513],[27.438274,38.614758]]]},"properties":{"@id":"relation/14958081","admin_level":"8","alt_name":"Alaybey","boundary":"administrative","name":"Alaybey Mahallesi","type":"boundary","wikidata":"Q21523978","wikipedia":"tr:Alaybey, Şehzadeler","@relations":[{"role":"subarea","rel":1822900,"reltags":{"admin_level":"6","boundary":"administrative","name":"Şehzadeler","name:az":"Şahzadələr","name:ce":"ШехӀзаделер","name:de":"Şehzadeler","name:en":"Şehzadeler","name:tr":"Şehzadeler","name:tr:suffix":"İlçesi","name:tt":"Шехзаделер","network":"TR45-districts","type":"boundary","wikidata":"Q16961654","wikipedia":"tr:Şehzadeler"}}]},"id":"relation/14958081"},
{"type":"Feature","geometry":{"type":"Polygon","coordinates":[[[27.4536538,38.6169627],[27.4505156,38.6164304],[27.4462777,38.6148753],[27.4381453,38.6138526],[27.4381936,38.6128256],[27.437641,38.6113041],[27.4556708,38.6115807],[27.4536538,38.6169627]]]},"properties":{"@id":"relation/14958082","admin_level":"8","alt_name":"Dilşikar;Dilşeker Mahallesi","boundary":"administrative","name":"Dilşikar Mahallesi","type":"boundary","wikidata":"Q21682059","wikipedia":"tr:Dilşeker, Şehzadeler","@relations":[{"role":"subarea","rel":1822900,"reltags":{"admin_level":"6","boundary":"administrative","name":"Şehzadeler","name:az":"Şahzadələr","name:ce":"ШехӀзаделер","name:de":"Şehzadeler","name:en":"Şehzadeler","name:tr":"Şehzadeler","name:tr:suffix":"İlçesi","name:tt":"Шехзаделер","network":"TR45-districts","type":"boundary","wikidata":"Q16961654","wikipedia":"tr:Şehzadeler"}}]},"id":"relation/14958082"},
{"type":"Feature","geometry":{"type":"Polygon","coordinates":[[[27.4348864,38.6167247],[27.4347332,38.6151475],[27.438274,38.614758],[27.4375498,38.6178513],[27.4364443,38.620089],[27.4348864,38.6167247]]]},"properties":{"@id":"relation/14958083","admin_level":"8","alt_name":"Sakarya","boundary":"administrative","name":"Sakarya Mahallesi","type":"boundary","wikidata":"Q21682467","wikipedia":"tr:Sakarya, Şehzadeler","@relations":[{"role":"subarea","rel":1822900,"reltags":{"admin_level":"6","boundary":"administrative","name":"Şehzadeler","name:az":"Şahzadələr","name:ce":"ШехӀзаделер","name:de":"Şehzadeler","name:en":"Şehzadeler","name:tr":"Şehzadeler","name:tr:suffix":"İlçesi","name:tt":"Шехзаделер","network":"TR45-districts","type":"boundary","wikidata":"Q16961654","wikipedia":"tr:Şehzadeler"}}]},"id":"relation/14958083"},
{"type":"Feature","geometry":{"type":"Polygon","coordinates":[[[27.438274,38.614758],[27.4347332,38.6151475],[27.4344921,38.6126663],[27.4381936,38.6128256],[27.4381453,38.6138526],[27.438274,38.614758]]]},"properties":{"@id":"relation/14958084","admin_level":"8","alt_name":"Nişancıpaşa","boundary":"administrative","name":"Nişancıpaşa Mahallesi","type":"boundary","wikidata":"Q21682456","wikipedia":"tr:Nişancıpaşa, Şehzadeler","@relations":[{"role":"subarea","rel":1822900,"reltags":{"admin_level":"6","boundary":"administrative","name":"Şehzadeler","name:az":"Şahzadələr","name:ce":"ШехӀзаделер","name:de":"Şehzadeler","name:en":"Şehzadeler","name:tr":"Şehzadeler","name:tr:suffix":"İlçesi","name:tt":"Шехзаделер","network":"TR45-districts","type":"boundary","wikidata":"Q16961654","wikipedia":"tr:Şehzadeler"}}]},"id":"relation/14958084"},
{"type":"Feature","geometry":{"type":"Polygon","coordinates":[[[27.4341057,38.6126448],[27.4340898,38.6108807],[27.4349964,38.6098956],[27.4373728,38.6111951],[27.437641,38.6113041],[27.4381936,38.6128256],[27.4344921,38.6126663],[27.4341057,38.6126448]]]},"properties":{"@id":"relation/14958085","admin_level":"8","alt_name":"Ege","boundary":"administrative","name":"Ege Mahallesi","type":"boundary","wikidata":"Q21525058","wikipedia":"tr:Ege, Şehzadeler","@relations":[{"role":"subarea","rel":1822900,"reltags":{"admin_level":"6","boundary":"administrative","name":"Şehzadeler","name:az":"Şahzadələr","name:ce":"ШехӀзаделер","name:de":"Şehzadeler","name:en":"Şehzadeler","name:tr":"Şehzadeler","name:tr:suffix":"İlçesi","name:tt":"Шехзаделер","network":"TR45-districts","type":"boundary","wikidata":"Q16961654","wikipedia":"tr:Şehzadeler"}}]},"id":"relation/14958085"},
{"type":"Feature","geometry":{"type":"Polygon","coordinates":[[[27.4356132,38.6073931],[27.4353477,38.6071059],[27.4377205,38.6081404],[27.4356132,38.6073931]]]},"properties":{"@id":"relation/14958086","admin_level":"8","alt_name":"Gediz","boundary":"administrative","name":"Gediz Mahallesi","type":"boundary","wikidata":"Q21682147","wikipedia":"tr:Gediz, Şehzadeler","@relations":[{"role":"subarea","rel":1822900,"reltags":{"admin_level":"6","boundary":"administrative","name":"Şehzadeler","name:az":"Şahzadələr","name:ce":"ШехӀзаделер","name:de":"Şehzadeler","name:en":"Şehzadeler","name:tr":"Şehzadeler","name:tr:suffix":"İlçesi","name:tt":"Шехзаделер","network":"TR45-districts","type":"boundary","wikidata":"Q16961654","wikipedia":"tr:Şehzadeler"}}]},"id":"relation/14958086"},
{"type":"Feature","geometry":{"type":"Polygon","coordinates":[[[27.4356132,38.6073931],[27.4377205,38.6081404],[27.4373728,38.6111951],[27.4349964,38.6098956],[27.4348837,38.6098202],[27.4356132,38.6073931]]]},"properties":{"@id":"relation/14958087","admin_level":"8","alt_name":"Kocatepe","boundary":"administrative","name":"Kocatepe Mahallesi","type":"boundary","wikidata":"Q21682357","wikipedia":"tr:Kocatepe, Şehzadeler","@relations":[{"role":"subarea","rel":1822900,"reltags":{"admin_level":"6","boundary":"administrative","name":"Şehzadeler","name:az":"Şahzadələr","name:ce":"ШехӀзаделер","name:de":"Şehzadeler","name:en":"Şehzadeler","name:tr":"Şehzadeler","name:tr:suffix":"İlçesi","name:tt":"Шехзаделер","network":"TR45-districts","type":"boundary","wikidata":"Q16961654","wikipedia":"tr:Şehzadeler"}}]},"id":"relation/14958087"},
{"type":"Feature","geometry":{"type":"Polygon","coordinates":[[[27.412276,38.6233736],[27.4282479,38.6574236],[27.4085927,38.6577922],[27.3965764,38.6314886],[27.404269,38.6262],[27.4080026,38.6246074],[27.412276,38.6233736]]]},"properties":{"@id":"relation/14964279","admin_level":"8","alt_name":"Atatürk","boundary":"administrative","name":"Atatürk Mahallesi","type":"boundary","wikidata":"Q109386962","wikipedia":"tr:Atatürk, Yunusemre","@relations":[{"role":"subarea","rel":3668268,"reltags":{"admin_level":"6","alt_name":"Yunus Emre","boundary":"administrative","name":"Yunusemre","name:de":"Yunus Emre","name:en":"Yunus Emre","name:tr":"Yunus Emre","name:tr:suffix":"İlçesi","network":"TR45-districts","type":"boundary","wikidata":"Q16968958","wikipedia":"tr:Yunusemre"}}]},"id":"relation/14964279"},
{"type":"Feature","geometry":{"type":"Polygon","coordinates":[[[27.3879451,38.6336174],[27.3952782,38.6302734],[27.404269,38.6262],[27.3965764,38.6314886],[27.3879451,38.6336174]]]},"properties":{"@id":"relation/14964280","admin_level":"8","alt_name":"50.Yıl;50. Yıl","boundary":"administrative","name":"50.Yıl Mahallesi","type":"boundary","wikidata":"Q109386959","wikipedia":"tr:50. Yıl, Yunusemre","@relations":[{"role":"subarea","rel":3668268,"reltags":{"admin_level":"6","alt_name":"Yunus Emre","boundary":"administrative","name":"Yunusemre","name:de":"Yunus Emre","name:en":"Yunus Emre","name:tr":"Yunus Emre","name:tr:suffix":"İlçesi","network":"TR45-districts","type":"boundary","wikidata":"Q16968958","wikipedia":"tr:Yunusemre"}}]},"id":"relation/14964280"},
{"type":"Feature","geometry":{"type":"Polygon","coordinates":[[[27.402724,38.6227382],[27.404269,38.6262],[27.3952782,38.6302734],[27.3945153,38.6242637],[27.4014097,38.6229142],[27.402724,38.6227382]]]},"properties":{"@id":"relation/14964281","admin_level":"8","alt_name":"Cumhuriyet","boundary":"administrative","name":"Cumhuriyet Mahallesi","type":"boundary","wikidata":"Q109962464","wikipedia":"tr:Cumhuriyet, Yunusemre","@relations":[{"role":"subarea","rel":3668268,"reltags":{"admin_level":"6","alt_name":"Yunus Emre","boundary":"administrative","name":"Yunusemre","name:de":"Yunus Emre","name:en":"Yunus Emre","name:tr":"Yunus Emre","name:tr:suffix":"İlçesi","network":"TR45-districts","type":"boundary","wikidata":"Q16968958","wikipedia":"tr:Yunusemre"}}]},"id":"relation/14964281"},
{"type":"Feature","geometry":{"type":"Polygon","coordinates":[[[27.4097789,38.6210647],[27.4080026,38.6246074],[27.404269,38.6262],[27.402724,38.6227382],[27.4097789,38.6210647]]]},"properties":{"@id":"relation/14964282","admin_level":"8","alt_name":"Fatih","boundary":"administrative","name":"Fatih Mahallesi","type":"boundary","wikidata":"Q109962465","wikipedia":"tr:Fatih, Yunusemre","@relations":[{"role":"subarea","rel":3668268,"reltags":{"admin_level":"6","alt_name":"Yunus Emre","boundary":"administrative","name":"Yunusemre","name:de":"Yunus Emre","name:en":"Yunus Emre","name:tr":"Yunus Emre","name:tr:suffix":"İlçesi","network":"TR45-districts","type":"boundary","wikidata":"Q16968958","wikipedia":"tr:Yunusemre"}}]},"id":"relation/14964282"},
{"type":"Feature","geometry":{"type":"Polygon","coordinates":[[[27.3945153,38.6242637],[27.3952782,38.6302734],[27.3879451,38.6336174],[27.377876,38.6236854],[27.3922741,38.6211288],[27.3945153,38.6242637]]]},"properties":{"@id":"relation/14964283","admin_level":"8","alt_name":"Güzelyurt Mahallesi","boundary":"administrative","name":"Güzelyurt Mah.","type":"boundary","wikidata":"Q109962467","wikipedia":"tr:Güzelyurt, Yunusemre","@relations":[{"role":"subarea","rel":3668268,"reltags":{"admin_level":"6","alt_name":"Yunus Emre","boundary":"administrative","name":"Yunusemre","name:de":"Yunus Emre","name:en":"Yunus Emre","name:tr":"Yunus Emre","name:tr:suffix":"İlçesi","network":"TR45-districts","type":"boundary","wikidata":"Q16968958","wikipedia":"tr:Yunusemre"}}]},"id":"relation/14964283"},
{"type":"Feature","geometry":{"type":"Polygon","coordinates":[[[27.3945153,38.6242637],[27.3922741,38.6211288],[27.4026864,38.6173274],[27.4014097,38.6229142],[27.3945153,38.6242637]]]},"properties":{"@id":"relation/14964284","admin_level":"8","alt_name":"Mesir","boundary":"administrative","name":"Mesir Mahallesi","type":"boundary","wikidata":"Q109391614","wikipedia":"tr:Mesir, Yunusemre","@relations":[{"role":"subarea","rel":3668268,"reltags":{"admin_level":"6","alt_name":"Yunus Emre","boundary":"administrative","name":"Yunusemre","name:de":"Yunus Emre","name:en":"Yunus Emre","name:tr":"Yunus Emre","name:tr:suffix":"İlçesi","network":"TR45-districts","type":"boundary","wikidata":"Q16968958","wikipedia":"tr:Yunusemre"}}]},"id":"relation/14964284"},
{"type":"Feature","geometry":{"type":"Polygon","coordinates":[[[27.377876,38.6236854],[27.3711491,38.6120921],[27.388283,38.6141376],[27.3922741,38.6211288],[27.377876,38.6236854]]]},"properties":{"@id":"relation/14964285","admin_level":"8","alt_name":"75. Yıl","boundary":"administrative","name":"75. Yıl Mahallesi","type":"boundary","wikidata":"Q109386960","wikipedia":"tr:75. Yıl, Yunusemre","@relations":[{"role":"subarea","rel":3668268,"reltags":{"admin_level":"6","alt_name":"Yunus Emre","boundary":"administrative","name":"Yunusemre","name:de":"Yunus Emre","name:en":"Yunus Emre","name:tr":"Yunus Emre","name:tr:suffix":"İlçesi","network":"TR45-districts","type":"boundary","wikidata":"Q16968958","wikipedia":"tr:Yunusemre"}}]},"id":"relation/14964285"},
{"type":"Feature","geometry":{"type":"Polygon","coordinates":[[[27.4033409,38.6158436],[27.4026864,38.6173274],[27.3922741,38.6211288],[27.388283,38.6141376],[27.3941517,38.614825],[27.4033409,38.6158436]]]},"properties":{"@id":"relation/14964286","admin_level":"8","alt_name":"Laleli","boundary":"administrative","name":"Laleli Mahallesi","type":"boundary","wikidata":"Q109391609","wikipedia":"tr:Laleli, Yunusemre","@relations":[{"role":"subarea","rel":3668268,"reltags":{"admin_level":"6","alt_name":"Yunus Emre","boundary":"administrative","name":"Yunusemre","name:de":"Yunus Emre","name:en":"Yunus Emre","name:tr":"Yunus Emre","name:tr:suffix":"İlçesi","network":"TR45-districts","type":"boundary","wikidata":"Q16968958","wikipedia":"tr:Yunusemre"}}]},"id":"relation/14964286"},
{"type":"Feature","geometry":{"type":"Polygon","coordinates":[[[27.4664533,38.6383022],[27.4503493,38.6191715],[27.4563307,38.6209486],[27.4664533,38.6383022]]]},"properties":{"@id":"relation/16131589","admin_level":"8","boundary":"administrative","name":"Kazım Karabekir Mahallesi","type":"boundary","@relations":[{"role":"subarea","rel":1822900,"reltags":{"admin_level":"6","boundary":"administrative","name":"Şehzadeler","name:az":"Şahzadələr","name:ce":"ШехӀзаделер","name:de":"Şehzadeler","name:en":"Şehzadeler","name:tr":"Şehzadeler","name:tr:suffix":"İlçesi","name:tt":"Шехзаделер","network":"TR45-districts","type":"boundary","wikidata":"Q16961654","wikipedia":"tr:Şehzadeler"}}]},"id":"relation/16131589"},
{"type":"Feature","geometry":{"type":"Polygon","coordinates":[[[27.4556708,38.6115807],[27.4486541,38.5839352],[27.4638462,38.6089902],[27.4555474,38.6182998],[27.4536538,38.6169627],[27.4556708,38.6115807]]]},"properties":{"@id":"relation/16131590","admin_level":"8","boundary":"administrative","name":"Adnan Menderes Mahallesi","type":"boundary","@relations":[{"role":"subarea","rel":1822900,"reltags":{"admin_level":"6","boundary":"administrative","name":"Şehzadeler","name:az":"Şahzadələr","name:ce":"ШехӀзаделер","name:de":"Şehzadeler","name:en":"Şehzadeler","name:tr":"Şehzadeler","name:tr:suffix":"İlçesi","name:tt":"Шехзаделер","network":"TR45-districts","type":"boundary","wikidata":"Q16961654","wikipedia":"tr:Şehzadeler"}}]},"id":"relation/16131590"},
{"type":"Feature","geometry":{"type":"Polygon","coordinates":[[[27.4162134,38.6047162],[27.4138552,38.6036244],[27.4130613,38.6014779],[27.4170899,38.5958852],[27.4270624,38.5829916],[27.4486541,38.5839352],[27.4556708,38.6115807],[27.437641,38.6113041],[27.4373728,38.6111951],[27.4377205,38.6081404],[27.4353477,38.6071059],[27.4277758,38.6070116],[27.4239242,38.6054731],[27.4233019,38.6054521],[27.418659,38.6048757],[27.4162134,38.6047162]]]},"properties":{"@id":"relation/16131591","admin_level":"8","boundary":"administrative","name":"Bayındırlık Mahallesi","type":"boundary","@relations":[{"role":"subarea","rel":1822900,"reltags":{"admin_level":"6","boundary":"administrative","name":"Şehzadeler","name:az":"Şahzadələr","name:ce":"ШехӀзаделер","name:de":"Şehzadeler","name:en":"Şehzadeler","name:tr":"Şehzadeler","name:tr:suffix":"İlçesi","name:tt":"Шехзаделер","network":"TR45-districts","type":"boundary","wikidata":"Q16961654","wikipedia":"tr:Şehzadeler"}}]},"id":"relation/16131591"},
{"type":"Feature","geometry":{"type":"Polygon","coordinates":[[[27.4503493,38.6191715],[27.4664533,38.6383022],[27.4430751,38.6423498],[27.4369168,38.6210618],[27.4434614,38.619335],[27.4503493,38.6191715]]]},"properties":{"@id":"relation/16131592","admin_level":"8","boundary":"administrative","name":"Ahmet Bedevi Mahallesi","type":"boundary","@relations":[{"role":"subarea","rel":1822900,"reltags":{"admin_level":"6","boundary":"administrative","name":"Şehzadeler","name:az":"Şahzadələr","name:ce":"ШехӀзаделер","name:de":"Şehzadeler","name:en":"Şehzadeler","name:tr":"Şehzadeler","name:tr:suffix":"İlçesi","name:tt":"Шехзаделер","network":"TR45-districts","type":"boundary","wikidata":"Q16961654","wikipedia":"tr:Şehzadeler"}}]},"id":"relation/16131592"},
{"type":"Feature","geometry":{"type":"Polygon","coordinates":[[[27.4364443,38.620089],[27.4375498,38.6178513],[27.4462777,38.6148753],[27.4505156,38.6164304],[27.4434614,38.619335],[27.4369168,38.6210618],[27.4364443,38.620089]]]},"properties":{"@id":"relation/16131593","admin_level":"8","boundary":"administrative","name":"Şehitler Mahallesi","type":"boundary","@relations":[{"role":"subarea","rel":1822900,"reltags":{"admin_level":"6","boundary":"administrative","name":"Şehzadeler","name:az":"Şahzadələr","name:ce":"ШехӀзаделер","name:de":"Şehzadeler","name:en":"Şehzadeler","name:tr":"Şehzadeler","name:tr:suffix":"İlçesi","name:tt":"Шехзаделер","network":"TR45-districts","type":"boundary","wikidata":"Q16961654","wikipedia":"tr:Şehzadeler"}}]},"id":"relation/16131593"},
{"type":"Feature","geometry":{"type":"Polygon","coordinates":[[[27.4666572,38.8203006],[27.4532998,38.8525591],[27.4306512,38.8654918],[27.4116719,38.8543304],[27.4189138,38.8299797],[27.4666572,38.8203006]]]},"properties":{"@id":"relation/17234224","admin_level":"8","boundary":"administrative","name":"Gökbel Mahallesi","type":"boundary","@relations":[{"role":"subarea","rel":1822900,"reltags":{"admin_level":"6","boundary":"administrative","name":"Şehzadeler","name:az":"Şahzadələr","name:ce":"ШехӀзаделер","name:de":"Şehzadeler","name:en":"Şehzadeler","name:tr":"Şehzadeler","name:tr:suffix":"İlçesi","name:tt":"Шехзаделер","network":"TR45-districts","type":"boundary","wikidata":"Q16961654","wikipedia":"tr:Şehzadeler"}}]},"id":"relation/17234224"},
{"type":"Feature","geometry":{"type":"Polygon","coordinates":[[[27.4450278,38.7221485],[27.4373567,38.7389127],[27.4251473,38.7344019],[27.4510574,38.7062093],[27.4661958,38.6953579],[27.4714529,38.7135348],[27.4450278,38.7221485]]]},"properties":{"@id":"relation/17234225","admin_level":"8","boundary":"administrative","name":"Tekeliler Mahallesi","type":"boundary","@relations":[{"role":"subarea","rel":1822900,"reltags":{"admin_level":"6","boundary":"administrative","name":"Şehzadeler","name:az":"Şahzadələr","name:ce":"ШехӀзаделер","name:de":"Şehzadeler","name:en":"Şehzadeler","name:tr":"Şehzadeler","name:tr:suffix":"İlçesi","name:tt":"Шехзаделер","network":"TR45-districts","type":"boundary","wikidata":"Q16961654","wikipedia":"tr:Şehzadeler"}}]},"id":"relation/17234225"},
{"type":"Feature","geometry":{"type":"Polygon","coordinates":[[[27.8417855,38.9196282],[27.8369522,38.9099321],[27.8467128,38.8702721],[27.8642356,38.8904566],[27.858721,38.9016541],[27.8460395,38.9170781],[27.8417855,38.9196282]]]},"properties":{"@id":"relation/18526708","admin_level":"8","boundary":"administrative","name":"Hacıishak Mahallesi","type":"boundary","@relations":[{"role":"subarea","rel":1822655,"reltags":{"admin_level":"6","boundary":"administrative","name":"Akhisar","name:ar":"آق حصار","name:ba":"Аҡхисар","name:be":"Акхісар","name:bg":"Акхисар","name:de":"Akhisar","name:el":"Ακχισάρ","name:en":"Akhisar","name:fa":"آق‌حصار","name:ja":"アクヒサル","name:ko":"악히사르","name:lt":"Akchisaras","name:ru":"Акхисар","name:sr":"Акхисар","name:tr":"Akhisar","name:tr:suffix":"İlçesi","name:tt":"Акһисар","name:uk":"Акхісар","name:ur":"اقحصار","name:zh":"阿克希薩爾","network":"TR45-districts","old_name":"Thyatira;Thyateira","old_name:el":"Πελοπία","type":"boundary","wikidata":"Q209905","wikipedia":"tr:Akhisar"}}]},"id":"relation/18526708"},
{"type":"Feature","geometry":{"type":"Polygon","coordinates":[[[27.8494546,38.9218787],[27.8492903,38.9215147],[27.8460395,38.9170781],[27.858721,38.9016541],[27.8845775,38.9186098],[27.8494546,38.9218787]]]},"properties":{"@id":"relation/18526709","admin_level":"8","boundary":"administrative","name":"Cumhuriyet Mahallesi","type":"boundary","@relations":[{"role":"subarea","rel":1822655,"reltags":{"admin_level":"6","boundary":"administrative","name":"Akhisar","name:ar":"آق حصار","name:ba":"Аҡхисар","name:be":"Акхісар","name:bg":"Акхисар","name:de":"Akhisar","name:el":"Ακχισάρ","name:en":"Akhisar","name:fa":"آق‌حصار","name:ja":"アクヒサル","name:ko":"악히사르","name:lt":"Akchisaras","name:ru":"Акхисар","name:sr":"Акхисар","name:tr":"Akhisar","name:tr:suffix":"İlçesi","name:tt":"Акһисар","name:uk":"Акхісар","name:ur":"اقحصار","name:zh":"阿克希薩爾","network":"TR45-districts","old_name":"Thyatira;Thyateira","old_name:el":"Πελοπία","type":"boundary","wikidata":"Q209905","wikipedia":"tr:Akhisar"}}]},"id":"relation/18526709"},
{"type":"Feature","geometry":{"type":"Polygon","coordinates":[[[27.8410399,38.919695],[27.8367376,38.9196324],[27.8366357,38.9175914],[27.8369522,38.9099321],[27.8417855,38.9196282],[27.8410399,38.919695]]]},"properties":{"@id":"relation/18526710","admin_level":"8","boundary":"administrative","name":"İnönü Mahallesi","type":"boundary","@relations":[{"role":"subarea","rel":1822655,"reltags":{"admin_level":"6","boundary":"administrative","name":"Akhisar","name:ar":"آق حصار","name:ba":"Аҡхисар","name:be":"Акхісар","name:bg":"Акхисар","name:de":"Akhisar","name:el":"Ακχισάρ","name:en":"Akhisar","name:fa":"آق‌حصار","name:ja":"アクヒサル","name:ko":"악히사르","name:lt":"Akchisaras","name:ru":"Акхисар","name:sr":"Акхисар","name:tr":"Akhisar","name:tr:suffix":"İlçesi","name:tt":"Акһисар","name:uk":"Акхісар","name:ur":"اقحصار","name:zh":"阿克希薩爾","network":"TR45-districts","old_name":"Thyatira;Thyateira","old_name:el":"Πελοπία","type":"boundary","wikidata":"Q209905","wikipedia":"tr:Akhisar"}}]},"id":"relation/18526710"},
{"type":"Feature","geometry":{"type":"Polygon","coordinates":[[[27.7998412,38.9021801],[27.830354,38.9152749],[27.8340232,38.9229671],[27.8328216,38.9230046],[27.7954638,38.9117062],[27.7998412,38.9021801]]]},"properties":{"@id":"relation/18526711","admin_level":"8","boundary":"administrative","name":"Atatürk Mahallesi","type":"boundary","@relations":[{"role":"subarea","rel":1822655,"reltags":{"admin_level":"6","boundary":"administrative","name":"Akhisar","name:ar":"آق حصار","name:ba":"Аҡхисар","name:be":"Акхісар","name:bg":"Акхисар","name:de":"Akhisar","name:el":"Ακχισάρ","name:en":"Akhisar","name:fa":"آق‌حصار","name:ja":"アクヒサル","name:ko":"악히사르","name:lt":"Akchisaras","name:ru":"Акхисар","name:sr":"Акхисар","name:tr":"Akhisar","name:tr:suffix":"İlçesi","name:tt":"Акһисар","name:uk":"Акхісар","name:ur":"اقحصار","name:zh":"阿克希薩爾","network":"TR45-districts","old_name":"Thyatira;Thyateira","old_name:el":"Πελοπία","type":"boundary","wikidata":"Q209905","wikipedia":"tr:Akhisar"}}]},"id":"relation/18526711"},
{"type":"Feature","geometry":{"type":"Polygon","coordinates":[[[27.8346129,38.9338594],[27.8466833,38.9617781],[27.8546172,38.9665956],[27.8337496,38.9718049],[27.8266954,38.9448744],[27.8071689,38.9488295],[27.7967405,38.9300032],[27.8346129,38.9338594]]]},"properties":{"@id":"relation/18531634","admin_level":"8","boundary":"administrative","name":"Seyitahmet Mahallesi","type":"boundary","@relations":[{"role":"subarea","rel":1822655,"reltags":{"admin_level":"6","boundary":"administrative","name":"Akhisar","name:ar":"آق حصار","name:ba":"Аҡхисар","name:be":"Акхісар","name:bg":"Акхисар","name:de":"Akhisar","name:el":"Ακχισάρ","name:en":"Akhisar","name:fa":"آق‌حصار","name:ja":"アクヒサル","name:ko":"악히사르","name:lt":"Akchisaras","name:ru":"Акхисар","name:sr":"Акхисар","name:tr":"Akhisar","name:tr:suffix":"İlçesi","name:tt":"Акһисар","name:uk":"Акхісар","name:ur":"اقحصار","name:zh":"阿克希薩爾","network":"TR45-districts","old_name":"Thyatira;Thyateira","old_name:el":"Πελοπία","type":"boundary","wikidata":"Q209905","wikipedia":"tr:Akhisar"}}]},"id":"relation/18531634"},
{"type":"Feature","geometry":{"type":"Polygon","coordinates":[[[27.8346129,38.9338594],[27.7967405,38.9300032],[27.7954638,38.9117062],[27.8328216,38.9230046],[27.8345543,38.9333457],[27.8346129,38.9338594]]]},"properties":{"@id":"relation/18531635","admin_level":"8","boundary":"administrative","name":"Reşatbey Mahallesi","type":"boundary","@relations":[{"role":"subarea","rel":1822655,"reltags":{"admin_level":"6","boundary":"administrative","name":"Akhisar","name:ar":"آق حصار","name:ba":"Аҡхисар","name:be":"Акхісар","name:bg":"Акхисар","name:de":"Akhisar","name:el":"Ακχισάρ","name:en":"Akhisar","name:fa":"آق‌حصار","name:ja":"アクヒサル","name:ko":"악히사르","name:lt":"Akchisaras","name:ru":"Акхисар","name:sr":"Акхисар","name:tr":"Akhisar","name:tr:suffix":"İlçesi","name:tt":"Акһисар","name:uk":"Акхісар","name:ur":"اقحصار","name:zh":"阿克希薩爾","network":"TR45-districts","old_name":"Thyatira;Thyateira","old_name:el":"Πελοπία","type":"boundary","wikidata":"Q209905","wikipedia":"tr:Akhisar"}}]},"id":"relation/18531635"},
{"type":"Feature","geometry":{"type":"Polygon","coordinates":[[[27.840836,38.9228919],[27.8411499,38.9230568],[27.8466833,38.9617781],[27.8346129,38.9338594],[27.8345543,38.9333457],[27.8386125,38.9229859],[27.840836,38.9228919]]]},"properties":{"@id":"relation/18531636","admin_level":"8","boundary":"administrative","name":"Ulucami Mahallesi","type":"boundary","@relations":[{"role":"subarea","rel":1822655,"reltags":{"admin_level":"6","boundary":"administrative","name":"Akhisar","name:ar":"آق حصار","name:ba":"Аҡхисар","name:be":"Акхісар","name:bg":"Акхисар","name:de":"Akhisar","name:el":"Ακχισάρ","name:en":"Akhisar","name:fa":"آق‌حصار","name:ja":"アクヒサル","name:ko":"악히사르","name:lt":"Akchisaras","name:ru":"Акхисар","name:sr":"Акхисар","name:tr":"Akhisar","name:tr:suffix":"İlçesi","name:tt":"Акһисар","name:uk":"Акхісар","name:ur":"اقحصار","name:zh":"阿克希薩爾","network":"TR45-districts","old_name":"Thyatira;Thyateira","old_name:el":"Πελοπία","type":"boundary","wikidata":"Q209905","wikipedia":"tr:Akhisar"}}]},"id":"relation/18531636"},
{"type":"Feature","geometry":{"type":"Polygon","coordinates":[[[27.8328216,38.9230046],[27.8340232,38.9229671],[27.8368235,38.9225497],[27.8386125,38.9229859],[27.8345543,38.9333457],[27.8328216,38.9230046]]]},"properties":{"@id":"relation/18531637","admin_level":"8","boundary":"administrative","name":"Kethüda Mahallesi","type":"boundary","@relations":[{"role":"subarea","rel":1822655,"reltags":{"admin_level":"6","boundary":"administrative","name":"Akhisar","name:ar":"آق حصار","name:ba":"Аҡхисар","name:be":"Акхісар","name:bg":"Акхисар","name:de":"Akhisar","name:el":"Ακχισάρ","name:en":"Akhisar","name:fa":"آق‌حصار","name:ja":"アクヒサル","name:ko":"악히사르","name:lt":"Akchisaras","name:ru":"Акхисар","name:sr":"Акхисар","name:tr":"Akhisar","name:tr:suffix":"İlçesi","name:tt":"Акһисар","name:uk":"Акхісар","name:ur":"اقحصار","name:zh":"阿克希薩爾","network":"TR45-districts","old_name":"Thyatira;Thyateira","old_name:el":"Πελοπία","type":"boundary","wikidata":"Q209905","wikipedia":"tr:Akhisar"}}]},"id":"relation/18531637"},
{"type":"Feature","geometry":{"type":"Polygon","coordinates":[[[27.8466833,38.9617781],[27.8411499,38.9230568],[27.8494546,38.9218787],[27.8845775,38.9186098],[27.8877693,38.9325278],[27.8546172,38.9665956],[27.8466833,38.9617781]]]},"properties":{"@id":"relation/18531638","admin_level":"8","boundary":"administrative","name":"Efendi Mahallesi","type":"boundary","@relations":[{"role":"subarea","rel":1822655,"reltags":{"admin_level":"6","boundary":"administrative","name":"Akhisar","name:ar":"آق حصار","name:ba":"Аҡхисар","name:be":"Акхісар","name:bg":"Акхисар","name:de":"Akhisar","name:el":"Ακχισάρ","name:en":"Akhisar","name:fa":"آق‌حصار","name:ja":"アクヒサル","name:ko":"악히사르","name:lt":"Akchisaras","name:ru":"Акхисар","name:sr":"Акхисар","name:tr":"Akhisar","name:tr:suffix":"İlçesi","name:tt":"Акһисар","name:uk":"Акхісар","name:ur":"اقحصار","name:zh":"阿克希薩爾","network":"TR45-districts","old_name":"Thyatira;Thyateira","old_name:el":"Πελοπία","type":"boundary","wikidata":"Q209905","wikipedia":"tr:Akhisar"}}]},"id":"relation/18531638"},
{"type":"Feature","geometry":{"type":"Polygon","coordinates":[[[27.8492903,38.9215147],[27.8494546,38.9218787],[27.8411499,38.9230568],[27.840836,38.9228919],[27.8411978,38.9217232],[27.8492903,38.9215147]]]},"properties":{"@id":"relation/18531639","admin_level":"8","boundary":"administrative","name":"Şeyhisa Mahallesi","type":"boundary","@relations":[{"role":"subarea","rel":1822655,"reltags":{"admin_level":"6","boundary":"administrative","name":"Akhisar","name:ar":"آق حصار","name:ba":"Аҡхисар","name:be":"Акхісар","name:bg":"Акхисар","name:de":"Akhisar","name:el":"Ακχισάρ","name:en":"Akhisar","name:fa":"آق‌حصار","name:ja":"アクヒサル","name:ko":"악히사르","name:lt":"Akchisaras","name:ru":"Акхисар","name:sr":"Акхисар","name:tr":"Akhisar","name:tr:suffix":"İlçesi","name:tt":"Акһисар","name:uk":"Акхісар","name:ur":"اقحصار","name:zh":"阿克希薩爾","network":"TR45-districts","old_name":"Thyatira;Thyateira","old_name:el":"Πελοπία","type":"boundary","wikidata":"Q209905","wikipedia":"tr:Akhisar"}}]},"id":"relation/18531639"},
{"type":"Feature","geometry":{"type":"Polygon","coordinates":[[[27.8417855,38.9196282],[27.8460395,38.9170781],[27.8492903,38.9215147],[27.8411978,38.9217232],[27.8410399,38.919695],[27.8417855,38.9196282]]]},"properties":{"@id":"relation/18531640","admin_level":"8","boundary":"administrative","name":"Hashoca Mahallesi","type":"boundary","@relations":[{"role":"subarea","rel":1822655,"reltags":{"admin_level":"6","boundary":"administrative","name":"Akhisar","name:ar":"آق حصار","name:ba":"Аҡхисар","name:be":"Акхісар","name:bg":"Акхисар","name:de":"Akhisar","name:el":"Ακχισάρ","name:en":"Akhisar","name:fa":"آق‌حصار","name:ja":"アクヒサル","name:ko":"악히사르","name:lt":"Akchisaras","name:ru":"Акхисар","name:sr":"Акхисар","name:tr":"Akhisar","name:tr:suffix":"İlçesi","name:tt":"Акһисар","name:uk":"Акхісар","name:ur":"اقحصار","name:zh":"阿克希薩爾","network":"TR45-districts","old_name":"Thyatira;Thyateira","old_name:el":"Πελοπία","type":"boundary","wikidata":"Q209905","wikipedia":"tr:Akhisar"}}]},"id":"relation/18531640"}
]}