{"type":"FeatureCollection", "features": [
{"type":"Feature","geometry":{"type":"Polygon","coordinates":[[[42.5055865,39.0741638],[42.4994516,39.0780253],[42.462386,39.0684974],[42.4401561,39.0546731],[42.4168198,39.0613122],[42.3958976,39.0801327],[42.3964005,39.0990261],[42.3675318,39.0985578],[42.3524437,39.1298538],[42.3557506,39.1559881],[42.3842951,39.1829338],[42.3264694,39.194676],[42.3169385,39.2336372],[42.2956718,39.261123],[42.2798106,39.2642069],[42.2499376,39.2533575],[42.2278885,39.2378792],[42.208634,39.2537512],[42.231576,39.2833037],[42.261438,39.2921399],[42.2325219,39.3454444],[42.2203557,39.3403741],[42.2106825,39.3164963],[42.1984488,39.3092323],[42.1596515,39.3057665],[42.154354,39.2898533],[42.0647445,39.2728175],[42.0504123,39.2491051],[42.0213776,39.2476725],[41.9851111,39.2337159],[41.9612466,39.2110202],[41.9210814,39.2168274],[41.8573258,39.2023033],[41.8186218,39.2089206],[41.7922315,39.1680127],[41.8227238,39.1325562],[41.8736863,39.0954728],[41.8794713,39.0620061],[41.868699,39.0433813],[41.8819261,38.9841434],[41.869714,38.9507702],[41.8582274,38.9377927],[41.8548419,38.9128656],[41.8715001,38.9047168],[41.8990857,38.9027491],[41.953169,38.8773161],[41.998364,38.8674705],[42.0531368,38.8820895],[42.071689,38.8806719],[42.0801115,38.8559477],[42.131873,38.846065],[42.1657248,38.8442569],[42.1808178,38.8760258],[42.239565,38.8914751],[42.2621906,38.8862227],[42.2735034,38.9050678],[42.2953352,38.9129441],[42.2917627,38.9294662],[42.3331438,38.9482998],[42.3777996,38.9263783],[42.4005244,38.9364136],[42.4219592,38.957406],[42.4737567,38.9505481],[42.5058399,38.9987236],[42.4882371,39.0353771],[42.4987988,39.0455335],[42.5055865,39.0741638]]]},"properties":{"@id":"relation/1831009","admin_level":"6","boundary":"administrative","name":"Bulanık","name:ar":"بولانك","name:az":"Bulanıq","name:ce":"Буланик","name:de":"Bulanık","name:en":"Bulanık","name:fa":"بولانک","name:hy":"Բուլանըք","name:ku":"Kop","name:ru":"Буланык","name:tr":"Bulanık","name:tr:suffix":"İlçesi","name:tt":"Буланык","name:ur":"بولانک","name:zh":"布拉訥克","name:zza":"Kop","network":"TR49-districts","type":"boundary","wikidata":"Q988147","wikipedia":"tr:Bulanık"},"id":"relation/1831009"},
{"type":"Feature","geometry":{"type":"Polygon","coordinates":[[[41.60576,38.61276],[41.63275,38.60417],[41.65342,38.6084],[41.66724,38.59873],[41.69267,38.61331],[41.71636,38.61642],[41.77497,38.59613],[41.79459,38.60324],[41.8418,38.59713],[41.8796,38.58018],[41.89117,38.56046],[41.91568,38.55827],[41.94642,38.57622],[41.94946,38.59336],[41.93545,38.60775],[41.93833,38.63516],[41.9341875,38.6515359],[41.8890376,38.65361],[41.8815119,38.6437867],[41.8540958,38.6736046],[41.8104732,38.6820094],[41.7930088,38.6909301],[41.7524463,38.6888571],[41.7594482,38.7078261],[41.7374969,38.713689],[41.7113604,38.7416969],[41.687161,38.7256111],[41.6630336,38.7280559],[41.6590833,38.6877877],[41.6281378,38.6686507],[41.6096448,38.6403721],[41.60576,38.61276]]]},"properties":{"@id":"relation/1831010","admin_level":"6","boundary":"administrative","name":"Hasköy","name:ar":"هاسكوي","name:ce":"ХӀаскоьй","name:de":"Hasköy","name:en":"Hasköy","name:fa":"هاس‌کوی","name:hy":"Խասգյուղ","name:ku":"Dêrxas","name:pt":"Dêrxas","name:ru":"Хаскёй","name:tr":"Hasköy","name:tr:suffix":"İlçesi","name:tt":"Хаскөй","name:ur":"ہاسکوئے","name:zh":"哈斯柯伊","network":"TR49-districts","type":"boundary","wikidata":"Q1011290","wikipedia":"tr:Hasköy, Muş"},"id":"relation/1831010"},
{"type":"Feature","geometry":{"type":"Polygon","coordinates":[[[41.93833,38.63516],[41.9889033,38.6526141],[41.9985092,38.6499198],[42.0409865,38.6638184],[42.0305642,38.6926883],[42.0434009,38.702173],[42.0788529,38.7100235],[42.115834,38.7369915],[42.1167727,38.7631524],[42.0854365,38.7717496],[42.113472,38.7953608],[42.1190491,38.8361548],[42.131873,38.846065],[42.0801115,38.8559477],[42.071689,38.8806719],[42.0531368,38.8820895],[41.998364,38.8674705],[41.953169,38.8773161],[41.8990857,38.9027491],[41.8715001,38.9047168],[41.8706324,38.8852377],[41.8526079,38.875278],[41.8368365,38.8527225],[41.8145474,38.856357],[41.7965229,38.8434477],[41.7686816,38.8452025],[41.7423056,38.8800522],[41.7164759,38.8575242],[41.7367516,38.8461012],[41.7081657,38.8188627],[41.706476,38.7982335],[41.7412776,38.7930909],[41.7498875,38.7793233],[41.7337743,38.7698545],[41.726841,38.7499938],[41.7113604,38.7416969],[41.7374969,38.713689],[41.7594482,38.7078261],[41.7524463,38.6888571],[41.7930088,38.6909301],[41.8104732,38.6820094],[41.8540958,38.6736046],[41.8815119,38.6437867],[41.8890376,38.65361],[41.9341875,38.6515359],[41.93833,38.63516]]]},"properties":{"@id":"relation/1831011","admin_level":"6","alt_name:ku":"Têlî","boundary":"administrative","name":"Korkut","name:az":"Qorqud","name:ce":"Коркут","name:de":"Korkut","name:en":"Korkut","name:hy":"Թիլ","name:ku":"Tîl","name:ru":"Коркут","name:tr":"Korkut","name:tr:suffix":"İlçesi","name:tt":"Коркут","name:ur":"کورکوت","name:zza":"Têli","network":"TR49-districts","old_name":"Til","type":"boundary","wikidata":"Q3010236","wikipedia":"tr:Korkut"},"id":"relation/1831011"},
{"type":"Feature","geometry":{"type":"Polygon","coordinates":[[[42.4737567,38.9505481],[42.5033451,38.9230347],[42.5585758,38.9323598],[42.5707144,38.9138265],[42.5929765,38.9243015],[42.6141128,38.9202948],[42.6470512,38.9387404],[42.712177,38.9654403],[42.6986583,38.9942149],[42.6944739,39.0236447],[42.6994093,39.0558116],[42.7099239,39.0776368],[42.6907188,39.0839665],[42.699302,39.1016201],[42.6929719,39.1250125],[42.7126062,39.1506438],[42.6796947,39.1803725],[42.6861102,39.2203478],[42.6638696,39.2395471],[42.6553496,39.2649095],[42.6016843,39.2765594],[42.5967051,39.2869227],[42.6255714,39.3030451],[42.6059997,39.3256219],[42.5815739,39.3365076],[42.5876008,39.3536641],[42.5563396,39.3718236],[42.5411252,39.3581791],[42.5245229,39.3601697],[42.5156683,39.3965808],[42.5005922,39.4218863],[42.5125977,39.4352193],[42.5185728,39.4761174],[42.5112699,39.4858534],[42.4661248,39.4780818],[42.4195897,39.5346642],[42.3839604,39.537907],[42.3730061,39.5060703],[42.3258692,39.4751585],[42.2784004,39.4555967],[42.2436751,39.4494294],[42.2394944,39.4344087],[42.2124686,39.4276919],[42.2039733,39.4069428],[42.1793158,39.3943622],[42.1988715,39.35807],[42.2325219,39.3454444],[42.261438,39.2921399],[42.231576,39.2833037],[42.208634,39.2537512],[42.2278885,39.2378792],[42.2499376,39.2533575],[42.2798106,39.2642069],[42.2956718,39.261123],[42.3169385,39.2336372],[42.3264694,39.194676],[42.3842951,39.1829338],[42.3557506,39.1559881],[42.3524437,39.1298538],[42.3675318,39.0985578],[42.3964005,39.0990261],[42.3958976,39.0801327],[42.4168198,39.0613122],[42.4401561,39.0546731],[42.462386,39.0684974],[42.4994516,39.0780253],[42.5055865,39.0741638],[42.4987988,39.0455335],[42.4882371,39.0353771],[42.5058399,38.9987236],[42.4737567,38.9505481]]]},"properties":{"@id":"relation/1831012","admin_level":"6","boundary":"administrative","name":"Malazgirt","name:ar":"ملاذكرد","name:az":"Malazgird","name:bg":"Малазгирт","name:de":"Malazgirt","name:el":"Μαλαζγκίρτ","name:en":"Malazgirt","name:es":"Mancicerta","name:fa":"ملازگرد","name:hy":"Մանազկերտ","name:ku":"Milazgir","name:pt":"Manziquerta","name:ru":"Малазгирт","name:tr":"Malazgirt","name:tr:suffix":"İlçesi","name:tt":"Малазгирт","name:ur":"مالازگیرت","name:zh":"马拉兹吉尔特","network":"TR49-districts","old_name":"Manzikert","type":"boundary","wikidata":"Q746811","wikipedia":"tr:Malazgirt"},"id":"relation/1831012"},
{"type":"Feature","geometry":{"type":"Polygon","coordinates":[[[41.7113604,38.7416969],[41.726841,38.7499938],[41.7337743,38.7698545],[41.7498875,38.7793233],[41.7412776,38.7930909],[41.706476,38.7982335],[41.7081657,38.8188627],[41.7367516,38.8461012],[41.7164759,38.8575242],[41.7423056,38.8800522],[41.7686816,38.8452025],[41.7965229,38.8434477],[41.8145474,38.856357],[41.8368365,38.8527225],[41.8526079,38.875278],[41.8706324,38.8852377],[41.8715001,38.9047168],[41.8548419,38.9128656],[41.8582274,38.9377927],[41.869714,38.9507702],[41.8819261,38.9841434],[41.868699,39.0433813],[41.8463196,39.0531066],[41.8226548,39.0480691],[41.7776377,39.0484815],[41.7369659,39.026414],[41.690466,39.037603],[41.655703,39.0344157],[41.6236775,39.0488573],[41.5624689,39.061915],[41.4973534,39.066893],[41.4743773,39.0536966],[41.4254709,39.0612852],[41.3869472,39.0545355],[41.3600936,39.0409992],[41.3405822,39.044285],[41.309218,39.0311127],[41.2641215,39.0352805],[41.2275035,39.030111],[41.1888024,39.0038379],[41.1767518,38.9860745],[41.1774931,38.9694068],[41.1332332,38.9446391],[41.1200986,38.9284524],[41.1094168,38.888493],[41.1182787,38.8635455],[41.1155093,38.8113431],[41.138851,38.7821127],[41.1769177,38.7659946],[41.1588377,38.7531611],[41.1578971,38.7279305],[41.1293166,38.7033091],[41.1118309,38.7014153],[41.1044966,38.6824864],[41.1192728,38.6632384],[41.1930892,38.653269],[41.2254979,38.656965],[41.2616286,38.6503206],[41.2740663,38.6298945],[41.2734965,38.5958002],[41.2928507,38.5396496],[41.3073038,38.5184057],[41.3361601,38.4958248],[41.3703176,38.4836117],[41.3850708,38.4923803],[41.4155054,38.488567],[41.4637437,38.5083208],[41.50927,38.57123],[41.55858,38.60035],[41.59918,38.6023],[41.60576,38.61276],[41.6096448,38.6403721],[41.6281378,38.6686507],[41.6590833,38.6877877],[41.6630336,38.7280559],[41.687161,38.7256111],[41.7113604,38.7416969]]]},"properties":{"@id":"relation/1831013","admin_level":"6","boundary":"administrative","name":"Muş Merkez","name:ar":"موش","name:bg":"Муш","name:ce":"Муш","name:de":"Muş","name:el":"Μους","name:en":"Muş","name:fa":"موش","name:he":"מוש","name:hy":"Մուշ","name:ja":"ムシュ","name:ka":"მუში","name:ko":"무슈","name:ku":"Mûş","name:ru":"Муш","name:th":"มุช","name:tr":"Muş Merkez","name:tr:suffix":"İlçesi","name:ur":"موش","name:zh":"穆什","network":"TR49-districts","type":"boundary","wikidata":"Q118995","wikipedia":"tr:Muş"},"id":"relation/1831013"},
{"type":"Feature","geometry":{"type":"Polygon","coordinates":[[[41.2641215,39.0352805],[41.309218,39.0311127],[41.3405822,39.044285],[41.3600936,39.0409992],[41.3869472,39.0545355],[41.4254709,39.0612852],[41.4743773,39.0536966],[41.4973534,39.066893],[41.5624689,39.061915],[41.6236775,39.0488573],[41.655703,39.0344157],[41.690466,39.037603],[41.7369659,39.026414],[41.7776377,39.0484815],[41.8226548,39.0480691],[41.8463196,39.0531066],[41.868699,39.0433813],[41.8794713,39.0620061],[41.8736863,39.0954728],[41.8227238,39.1325562],[41.7922315,39.1680127],[41.7488095,39.1613197],[41.7324574,39.1521025],[41.701481,39.1677706],[41.688256,39.1603261],[41.618225,39.1565667],[41.618225,39.1740044],[41.6040842,39.1834001],[41.6187637,39.2140842],[41.6102792,39.2242049],[41.6183597,39.2445462],[41.6104137,39.2577755],[41.5609235,39.2696871],[41.5308685,39.2837893],[41.4954713,39.3103475],[41.4598398,39.3207405],[41.4150111,39.3534035],[41.3693164,39.352659],[41.2909075,39.3647952],[41.2323713,39.3600854],[41.2001023,39.3615909],[41.1675568,39.3724904],[41.14805,39.3623625],[41.1412984,39.3066975],[41.1348342,39.2919127],[41.1433096,39.2662264],[41.1326794,39.2368592],[41.1772111,39.224174],[41.1901397,39.1707378],[41.2185826,39.1509116],[41.2264834,39.124505],[41.2555008,39.113583],[41.2503294,39.0537045],[41.2641215,39.0352805]]]},"properties":{"@id":"relation/1831014","admin_level":"6","alt_name:ku":"Varto","boundary":"administrative","name":"Varto","name:ar":"وارتو","name:ce":"Варто","name:de":"Varto","name:en":"Varto","name:fa":"واراتو","name:hy":"Վարդո","name:ku":"Gimgim","name:ru":"Варто","name:tr":"Varto","name:tr:suffix":"İlçesi","name:ur":"وارتو","name:zh":"瓦爾托","name:zza":"Varto","network":"TR49-districts","type":"boundary","wikidata":"Q1004578","wikipedia":"tr:Varto"},"id":"relation/1831014"},
{"type":"Feature","geometry":{"type":"Polygon","coordinates":[[[41.487937,38.7310416],[41.4918852,38.7323598],[41.4906084,38.7341174],[41.4884412,38.7342931],[41.487937,38.7310416]]]},"properties":{"@id":"relation/12314070","admin_level":"8","boundary":"administrative","name":"Minare Mahallesi","type":"boundary","@relations":[{"role":"subarea","rel":1831013,"reltags":{"admin_level":"6","boundary":"administrative","name":"Muş Merkez","name:ar":"موش","name:bg":"Муш","name:ce":"Муш","name:de":"Muş","name:el":"Μους","name:en":"Muş","name:fa":"موش","name:he":"מוש","name:hy":"Մուշ","name:ja":"ムシュ","name:ka":"მუში","name:ko":"무슈","name:ku":"Mûş","name:ru":"Муш","name:th":"มุช","name:tr":"Muş Merkez","name:tr:suffix":"İlçesi","name:ur":"موش","name:zh":"穆什","network":"TR49-districts","type":"boundary","wikidata":"Q118995","wikipedia":"tr:Muş"}}]},"id":"relation/12314070"},
{"type":"Feature","geometry":{"type":"Polygon","coordinates":[[[41.5029481,38.7380514],[41.5011978,38.7407036],[41.4987087,38.7436157],[41.4906084,38.7341174],[41.4918852,38.7323598],[41.5029481,38.7380514]]]},"properties":{"@id":"relation/12314071","admin_level":"8","boundary":"administrative","name":"Kültür Mahallesi","type":"boundary","@relations":[{"role":"subarea","rel":1831013,"reltags":{"admin_level":"6","boundary":"administrative","name":"Muş Merkez","name:ar":"موش","name:bg":"Муш","name:ce":"Муш","name:de":"Muş","name:el":"Μους","name:en":"Muş","name:fa":"موش","name:he":"מוש","name:hy":"Մուշ","name:ja":"ムシュ","name:ka":"მუში","name:ko":"무슈","name:ku":"Mûş","name:ru":"Муш","name:th":"มุช","name:tr":"Muş Merkez","name:tr:suffix":"İlçesi","name:ur":"موش","name:zh":"穆什","network":"TR49-districts","type":"boundary","wikidata":"Q118995","wikipedia":"tr:Muş"}}]},"id":"relation/12314071"},
{"type":"Feature","geometry":{"type":"Polygon","coordinates":[[[41.4960802,38.7452474],[41.4941704,38.745624],[41.4850831,38.7438332],[41.4884412,38.7342931],[41.4906084,38.7341174],[41.4987087,38.7436157],[41.4960802,38.7452474]]]},"properties":{"@id":"relation/12314072","admin_level":"8","boundary":"administrative","name":"Hürriyet Mahallesi","type":"boundary","@relations":[{"role":"subarea","rel":1831013,"reltags":{"admin_level":"6","boundary":"administrative","name":"Muş Merkez","name:ar":"موش","name:bg":"Муш","name:ce":"Муш","name:de":"Muş","name:el":"Μους","name:en":"Muş","name:fa":"موش","name:he":"מוש","name:hy":"Մուշ","name:ja":"ムシュ","name:ka":"მუში","name:ko":"무슈","name:ku":"Mûş","name:ru":"Муш","name:th":"มุช","name:tr":"Muş Merkez","name:tr:suffix":"İlçesi","name:ur":"موش","name:zh":"穆什","network":"TR49-districts","type":"boundary","wikidata":"Q118995","wikipedia":"tr:Muş"}}]},"id":"relation/12314072"},
{"type":"Feature","geometry":{"type":"Polygon","coordinates":[[[41.4941704,38.745624],[41.4960802,38.7452474],[41.499803,38.7576139],[41.4941704,38.745624]]]},"properties":{"@id":"relation/12314073","admin_level":"8","boundary":"administrative","name":"Karşıyaka Mahallesi","type":"boundary","@relations":[{"role":"subarea","rel":1831013,"reltags":{"admin_level":"6","boundary":"administrative","name":"Muş Merkez","name:ar":"موش","name:bg":"Муш","name:ce":"Муш","name:de":"Muş","name:el":"Μους","name:en":"Muş","name:fa":"موش","name:he":"מוש","name:hy":"Մուշ","name:ja":"ムシュ","name:ka":"მუში","name:ko":"무슈","name:ku":"Mûş","name:ru":"Муш","name:th":"มุช","name:tr":"Muş Merkez","name:tr:suffix":"İlçesi","name:ur":"موش","name:zh":"穆什","network":"TR49-districts","type":"boundary","wikidata":"Q118995","wikipedia":"tr:Muş"}}]},"id":"relation/12314073"},
{"type":"Feature","geometry":{"type":"Polygon","coordinates":[[[41.5036762,38.7493392],[41.499803,38.7576139],[41.4960802,38.7452474],[41.4987087,38.7436157],[41.5011978,38.7407036],[41.5083325,38.7480506],[41.5036762,38.7493392]]]},"properties":{"@id":"relation/12314074","admin_level":"8","boundary":"administrative","name":"Sunay Mahallesi","type":"boundary","@relations":[{"role":"subarea","rel":1831013,"reltags":{"admin_level":"6","boundary":"administrative","name":"Muş Merkez","name:ar":"موش","name:bg":"Муш","name:ce":"Муш","name:de":"Muş","name:el":"Μους","name:en":"Muş","name:fa":"موش","name:he":"מוש","name:hy":"Մուշ","name:ja":"ムシュ","name:ka":"მუში","name:ko":"무슈","name:ku":"Mûş","name:ru":"Муш","name:th":"มุช","name:tr":"Muş Merkez","name:tr:suffix":"İlçesi","name:ur":"موش","name:zh":"穆什","network":"TR49-districts","type":"boundary","wikidata":"Q118995","wikipedia":"tr:Muş"}}]},"id":"relation/12314074"},
{"type":"Feature","geometry":{"type":"Polygon","coordinates":[[[41.5090513,38.759304],[41.5083325,38.7480506],[41.5163898,38.7459671],[41.5189004,38.7452725],[41.5131712,38.7594295],[41.5090513,38.759304]]]},"properties":{"@id":"relation/12314075","admin_level":"8","boundary":"administrative","name":"15 Temmuz Millî İrade Mahallesi","type":"boundary","@relations":[{"role":"subarea","rel":1831013,"reltags":{"admin_level":"6","boundary":"administrative","name":"Muş Merkez","name:ar":"موش","name:bg":"Муш","name:ce":"Муш","name:de":"Muş","name:el":"Μους","name:en":"Muş","name:fa":"موش","name:he":"מוש","name:hy":"Մուշ","name:ja":"ムシュ","name:ka":"მუში","name:ko":"무슈","name:ku":"Mûş","name:ru":"Муш","name:th":"มุช","name:tr":"Muş Merkez","name:tr:suffix":"İlçesi","name:ur":"موش","name:zh":"穆什","network":"TR49-districts","type":"boundary","wikidata":"Q118995","wikipedia":"tr:Muş"}}]},"id":"relation/12314075"},
{"type":"Feature","geometry":{"type":"Polygon","coordinates":[[[41.499803,38.7576139],[41.5036762,38.7493392],[41.5090513,38.759304],[41.5131712,38.7594295],[41.5040302,38.7666407],[41.499803,38.7576139]]]},"properties":{"@id":"relation/12314076","admin_level":"8","boundary":"administrative","name":"Zafer Mahallesi","type":"boundary","@relations":[{"role":"subarea","rel":1831013,"reltags":{"admin_level":"6","boundary":"administrative","name":"Muş Merkez","name:ar":"موش","name:bg":"Муш","name:ce":"Муш","name:de":"Muş","name:el":"Μους","name:en":"Muş","name:fa":"موش","name:he":"מוש","name:hy":"Մուշ","name:ja":"ムシュ","name:ka":"მუში","name:ko":"무슈","name:ku":"Mûş","name:ru":"Муш","name:th":"มุช","name:tr":"Muş Merkez","name:tr:suffix":"İlçesi","name:ur":"موش","name:zh":"穆什","network":"TR49-districts","type":"boundary","wikidata":"Q118995","wikipedia":"tr:Muş"}}]},"id":"relation/12314076"},
{"type":"Feature","geometry":{"type":"Polygon","coordinates":[[[41.5036762,38.7493392],[41.5083325,38.7480506],[41.5090513,38.759304],[41.5036762,38.7493392]]]},"properties":{"@id":"relation/12314077","admin_level":"8","boundary":"administrative","name":"Yeşilyurt Mahallesi","type":"boundary","@relations":[{"role":"subarea","rel":1831013,"reltags":{"admin_level":"6","boundary":"administrative","name":"Muş Merkez","name:ar":"موش","name:bg":"Муш","name:ce":"Муш","name:de":"Muş","name:el":"Μους","name:en":"Muş","name:fa":"موش","name:he":"מוש","name:hy":"Մուշ","name:ja":"ムシュ","name:ka":"მუში","name:ko":"무슈","name:ku":"Mûş","name:ru":"Муш","name:th":"มุช","name:tr":"Muş Merkez","name:tr:suffix":"İlçesi","name:ur":"موش","name:zh":"穆什","network":"TR49-districts","type":"boundary","wikidata":"Q118995","wikipedia":"tr:Muş"}}]},"id":"relation/12314077"},
{"type":"Feature","geometry":{"type":"Polygon","coordinates":[[[41.5011978,38.7407036],[41.5029481,38.7380514],[41.5030167,38.7380479],[41.5163898,38.7459671],[41.5083325,38.7480506],[41.5011978,38.7407036]]]},"properties":{"@id":"relation/12314078","admin_level":"8","boundary":"administrative","name":"Saray Mahallesi","type":"boundary","@relations":[{"role":"subarea","rel":1831013,"reltags":{"admin_level":"6","boundary":"administrative","name":"Muş Merkez","name:ar":"موش","name:bg":"Муш","name:ce":"Муш","name:de":"Muş","name:el":"Μους","name:en":"Muş","name:fa":"موش","name:he":"מוש","name:hy":"Մուշ","name:ja":"ムシュ","name:ka":"მუში","name:ko":"무슈","name:ku":"Mûş","name:ru":"Муш","name:th":"มุช","name:tr":"Muş Merkez","name:tr:suffix":"İlçesi","name:ur":"موش","name:zh":"穆什","network":"TR49-districts","type":"boundary","wikidata":"Q118995","wikipedia":"tr:Muş"}}]},"id":"relation/12314078"},
{"type":"Feature","geometry":{"type":"Polygon","coordinates":[[[42.5351357,39.1401631],[42.5324643,39.1330979],[42.5237954,39.1113321],[42.5392573,39.090447],[42.5520658,39.0940145],[42.5585789,39.1196822],[42.5401461,39.1294527],[42.5351357,39.1401631]]]},"properties":{"@id":"relation/13015014","admin_level":"8","boundary":"administrative","name":"Alişan Mahallesi","type":"boundary","@relations":[{"role":"subarea","rel":1831012,"reltags":{"admin_level":"6","boundary":"administrative","name":"Malazgirt","name:ar":"ملاذكرد","name:az":"Malazgird","name:bg":"Малазгирт","name:de":"Malazgirt","name:el":"Μαλαζγκίρτ","name:en":"Malazgirt","name:es":"Mancicerta","name:fa":"ملازگرد","name:hy":"Մանազկերտ","name:ku":"Milazgir","name:pt":"Manziquerta","name:ru":"Малазгирт","name:tr":"Malazgirt","name:tr:suffix":"İlçesi","name:tt":"Малазгирт","name:ur":"مالازگیرت","name:zh":"马拉兹吉尔特","network":"TR49-districts","old_name":"Manzikert","type":"boundary","wikidata":"Q746811","wikipedia":"tr:Malazgirt"}}]},"id":"relation/13015014"},
{"type":"Feature","geometry":{"type":"Polygon","coordinates":[[[42.5214833,39.0802157],[42.5392573,39.090447],[42.5237954,39.1113321],[42.5324643,39.1330979],[42.5243425,39.1376001],[42.5125194,39.1274428],[42.5214833,39.0802157]]]},"properties":{"@id":"relation/13015015","admin_level":"8","boundary":"administrative","name":"Adalar Mahallesi","type":"boundary","@relations":[{"role":"subarea","rel":1831012,"reltags":{"admin_level":"6","boundary":"administrative","name":"Malazgirt","name:ar":"ملاذكرد","name:az":"Malazgird","name:bg":"Малазгирт","name:de":"Malazgirt","name:el":"Μαλαζγκίρτ","name:en":"Malazgirt","name:es":"Mancicerta","name:fa":"ملازگرد","name:hy":"Մանազկերտ","name:ku":"Milazgir","name:pt":"Manziquerta","name:ru":"Малазгирт","name:tr":"Malazgirt","name:tr:suffix":"İlçesi","name:tt":"Малазгирт","name:ur":"مالازگیرت","name:zh":"马拉兹吉尔特","network":"TR49-districts","old_name":"Manzikert","type":"boundary","wikidata":"Q746811","wikipedia":"tr:Malazgirt"}}]},"id":"relation/13015015"},
{"type":"Feature","geometry":{"type":"Polygon","coordinates":[[[42.5969553,39.1082102],[42.5585789,39.1196822],[42.5520658,39.0940145],[42.5953674,39.0676803],[42.6102805,39.0726781],[42.6113641,39.1054379],[42.5969553,39.1082102]]]},"properties":{"@id":"relation/13015016","admin_level":"8","boundary":"administrative","name":"Afşin Mahallesi","type":"boundary","@relations":[{"role":"subarea","rel":1831012,"reltags":{"admin_level":"6","boundary":"administrative","name":"Malazgirt","name:ar":"ملاذكرد","name:az":"Malazgird","name:bg":"Малазгирт","name:de":"Malazgirt","name:el":"Μαλαζγκίρτ","name:en":"Malazgirt","name:es":"Mancicerta","name:fa":"ملازگرد","name:hy":"Մանազկերտ","name:ku":"Milazgir","name:pt":"Manziquerta","name:ru":"Малазгирт","name:tr":"Malazgirt","name:tr:suffix":"İlçesi","name:tt":"Малазгирт","name:ur":"مالازگیرت","name:zh":"马拉兹吉尔特","network":"TR49-districts","old_name":"Manzikert","type":"boundary","wikidata":"Q746811","wikipedia":"tr:Malazgirt"}}]},"id":"relation/13015016"},
{"type":"Feature","geometry":{"type":"Polygon","coordinates":[[[42.5231838,39.139747],[42.4794531,39.1166347],[42.4967801,39.0993018],[42.4994516,39.0780253],[42.5055865,39.0741638],[42.5214833,39.0802157],[42.5125194,39.1274428],[42.5243425,39.1376001],[42.5231838,39.139747]]]},"properties":{"@id":"relation/13015032","admin_level":"8","boundary":"administrative","name":"Altuntaş Mahallesi","type":"boundary","@relations":[{"role":"subarea","rel":1831012,"reltags":{"admin_level":"6","boundary":"administrative","name":"Malazgirt","name:ar":"ملاذكرد","name:az":"Malazgird","name:bg":"Малазгирт","name:de":"Malazgirt","name:el":"Μαλαζγκίρτ","name:en":"Malazgirt","name:es":"Mancicerta","name:fa":"ملازگرد","name:hy":"Մանազկերտ","name:ku":"Milazgir","name:pt":"Manziquerta","name:ru":"Малазгирт","name:tr":"Malazgirt","name:tr:suffix":"İlçesi","name:tt":"Малазгирт","name:ur":"مالازگیرت","name:zh":"马拉兹吉尔特","network":"TR49-districts","old_name":"Manzikert","type":"boundary","wikidata":"Q746811","wikipedia":"tr:Malazgirt"}}]},"id":"relation/13015032"},
{"type":"Feature","geometry":{"type":"Polygon","coordinates":[[[42.5243425,39.1376001],[42.5324643,39.1330979],[42.5351357,39.1401631],[42.5357795,39.1426927],[42.5231838,39.139747],[42.5243425,39.1376001]]]},"properties":{"@id":"relation/13015033","admin_level":"8","boundary":"administrative","name":"Şekerbulak Mahallesi","type":"boundary","@relations":[{"role":"subarea","rel":1831012,"reltags":{"admin_level":"6","boundary":"administrative","name":"Malazgirt","name:ar":"ملاذكرد","name:az":"Malazgird","name:bg":"Малазгирт","name:de":"Malazgirt","name:el":"Μαλαζγκίρτ","name:en":"Malazgirt","name:es":"Mancicerta","name:fa":"ملازگرد","name:hy":"Մանազկերտ","name:ku":"Milazgir","name:pt":"Manziquerta","name:ru":"Малазгирт","name:tr":"Malazgirt","name:tr:suffix":"İlçesi","name:tt":"Малазгирт","name:ur":"مالازگیرت","name:zh":"马拉兹吉尔特","network":"TR49-districts","old_name":"Manzikert","type":"boundary","wikidata":"Q746811","wikipedia":"tr:Malazgirt"}}]},"id":"relation/13015033"},
{"type":"Feature","geometry":{"type":"Polygon","coordinates":[[[42.5339448,39.1448312],[42.528112,39.1467504],[42.4938512,39.1485838],[42.47087,39.128995],[42.4794531,39.1166347],[42.5231838,39.139747],[42.5357795,39.1426927],[42.5368094,39.1430006],[42.5339448,39.1448312]]]},"properties":{"@id":"relation/13015034","admin_level":"8","boundary":"administrative","name":"Danışmentgazi Mahallesi","type":"boundary","@relations":[{"role":"subarea","rel":1831012,"reltags":{"admin_level":"6","boundary":"administrative","name":"Malazgirt","name:ar":"ملاذكرد","name:az":"Malazgird","name:bg":"Малазгирт","name:de":"Malazgirt","name:el":"Μαλαζγκίρτ","name:en":"Malazgirt","name:es":"Mancicerta","name:fa":"ملازگرد","name:hy":"Մանազկերտ","name:ku":"Milazgir","name:pt":"Manziquerta","name:ru":"Малазгирт","name:tr":"Malazgirt","name:tr:suffix":"İlçesi","name:tt":"Малазгирт","name:ur":"مالازگیرت","name:zh":"马拉兹吉尔特","network":"TR49-districts","old_name":"Manzikert","type":"boundary","wikidata":"Q746811","wikipedia":"tr:Malazgirt"}}]},"id":"relation/13015034"},
{"type":"Feature","geometry":{"type":"Polygon","coordinates":[[[42.5409454,39.1461916],[42.5408006,39.1715025],[42.528112,39.1467504],[42.5339448,39.1448312],[42.5409454,39.1461916]]]},"properties":{"@id":"relation/13015038","admin_level":"8","boundary":"administrative","name":"Aksungur Mahallesi","type":"boundary","@relations":[{"role":"subarea","rel":1831012,"reltags":{"admin_level":"6","boundary":"administrative","name":"Malazgirt","name:ar":"ملاذكرد","name:az":"Malazgird","name:bg":"Малазгирт","name:de":"Malazgirt","name:el":"Μαλαζγκίρτ","name:en":"Malazgirt","name:es":"Mancicerta","name:fa":"ملازگرد","name:hy":"Մանազկերտ","name:ku":"Milazgir","name:pt":"Manziquerta","name:ru":"Малазгирт","name:tr":"Malazgirt","name:tr:suffix":"İlçesi","name:tt":"Малазгирт","name:ur":"مالازگیرت","name:zh":"马拉兹吉尔特","network":"TR49-districts","old_name":"Manzikert","type":"boundary","wikidata":"Q746811","wikipedia":"tr:Malazgirt"}}]},"id":"relation/13015038"},
{"type":"Feature","geometry":{"type":"Polygon","coordinates":[[[42.5409454,39.1461916],[42.5339448,39.1448312],[42.5368094,39.1430006],[42.5401461,39.1294527],[42.5585789,39.1196822],[42.5969553,39.1082102],[42.5598711,39.1314418],[42.5484663,39.151579],[42.5409454,39.1461916]]]},"properties":{"@id":"relation/13015048","admin_level":"8","boundary":"administrative","name":"Mengüçgazi Mahallesi","type":"boundary","@relations":[{"role":"subarea","rel":1831012,"reltags":{"admin_level":"6","boundary":"administrative","name":"Malazgirt","name:ar":"ملاذكرد","name:az":"Malazgird","name:bg":"Малазгирт","name:de":"Malazgirt","name:el":"Μαλαζγκίρτ","name:en":"Malazgirt","name:es":"Mancicerta","name:fa":"ملازگرد","name:hy":"Մանազկերտ","name:ku":"Milazgir","name:pt":"Manziquerta","name:ru":"Малазгирт","name:tr":"Malazgirt","name:tr:suffix":"İlçesi","name:tt":"Малазгирт","name:ur":"مالازگیرت","name:zh":"马拉兹吉尔特","network":"TR49-districts","old_name":"Manzikert","type":"boundary","wikidata":"Q746811","wikipedia":"tr:Malazgirt"}}]},"id":"relation/13015048"},
{"type":"Feature","geometry":{"type":"Polygon","coordinates":[[[42.5351357,39.1401631],[42.5401461,39.1294527],[42.5368094,39.1430006],[42.5357795,39.1426927],[42.5351357,39.1401631]]]},"properties":{"@id":"relation/13015049","admin_level":"8","boundary":"administrative","name":"Saftekingazi Mahallesi","type":"boundary","@relations":[{"role":"subarea","rel":1831012,"reltags":{"admin_level":"6","boundary":"administrative","name":"Malazgirt","name:ar":"ملاذكرد","name:az":"Malazgird","name:bg":"Малазгирт","name:de":"Malazgirt","name:el":"Μαλαζγκίρτ","name:en":"Malazgirt","name:es":"Mancicerta","name:fa":"ملازگرد","name:hy":"Մանազկերտ","name:ku":"Milazgir","name:pt":"Manziquerta","name:ru":"Малазгирт","name:tr":"Malazgirt","name:tr:suffix":"İlçesi","name:tt":"Малазгирт","name:ur":"مالازگیرت","name:zh":"马拉兹吉尔特","network":"TR49-districts","old_name":"Manzikert","type":"boundary","wikidata":"Q746811","wikipedia":"tr:Malazgirt"}}]},"id":"relation/13015049"},
{"type":"Feature","geometry":{"type":"Polygon","coordinates":[[[42.528112,39.1467504],[42.5408006,39.1715025],[42.5478601,39.1810339],[42.5279689,39.1989703],[42.4937653,39.167119],[42.4938512,39.1485838],[42.528112,39.1467504]]]},"properties":{"@id":"relation/13015058","admin_level":"8","boundary":"administrative","name":"Murat Mahallesi","type":"boundary","@relations":[{"role":"subarea","rel":1831012,"reltags":{"admin_level":"6","boundary":"administrative","name":"Malazgirt","name:ar":"ملاذكرد","name:az":"Malazgird","name:bg":"Малазгирт","name:de":"Malazgirt","name:el":"Μαλαζγκίρτ","name:en":"Malazgirt","name:es":"Mancicerta","name:fa":"ملازگرد","name:hy":"Մանազկերտ","name:ku":"Milazgir","name:pt":"Manziquerta","name:ru":"Малазгирт","name:tr":"Malazgirt","name:tr:suffix":"İlçesi","name:tt":"Малазгирт","name:ur":"مالازگیرت","name:zh":"马拉兹吉尔特","network":"TR49-districts","old_name":"Manzikert","type":"boundary","wikidata":"Q746811","wikipedia":"tr:Malazgirt"}}]},"id":"relation/13015058"},
{"type":"Feature","geometry":{"type":"Polygon","coordinates":[[[42.6396131,39.1463705],[42.5484663,39.151579],[42.5598711,39.1314418],[42.5969553,39.1082102],[42.6113641,39.1054379],[42.6008069,39.119931],[42.6299465,39.1316998],[42.6396131,39.1463705]]]},"properties":{"@id":"relation/13015087","admin_level":"8","boundary":"administrative","name":"Selçuklu Mahallesi","type":"boundary","@relations":[{"role":"subarea","rel":1831012,"reltags":{"admin_level":"6","boundary":"administrative","name":"Malazgirt","name:ar":"ملاذكرد","name:az":"Malazgird","name:bg":"Малазгирт","name:de":"Malazgirt","name:el":"Μαλαζγκίρτ","name:en":"Malazgirt","name:es":"Mancicerta","name:fa":"ملازگرد","name:hy":"Մանազկերտ","name:ku":"Milazgir","name:pt":"Manziquerta","name:ru":"Малазгирт","name:tr":"Malazgirt","name:tr:suffix":"İlçesi","name:tt":"Малазгирт","name:ur":"مالازگیرت","name:zh":"马拉兹吉尔特","network":"TR49-districts","old_name":"Manzikert","type":"boundary","wikidata":"Q746811","wikipedia":"tr:Malazgirt"}}]},"id":"relation/13015087"},
{"type":"Feature","geometry":{"type":"Polygon","coordinates":[[[42.5408006,39.1715025],[42.5409454,39.1461916],[42.5484663,39.151579],[42.6396131,39.1463705],[42.5478601,39.1810339],[42.5408006,39.1715025]]]},"properties":{"@id":"relation/13015088","admin_level":"8","boundary":"administrative","name":"Saltukgazi Mahallesi","type":"boundary","@relations":[{"role":"subarea","rel":1831012,"reltags":{"admin_level":"6","boundary":"administrative","name":"Malazgirt","name:ar":"ملاذكرد","name:az":"Malazgird","name:bg":"Малазгирт","name:de":"Malazgirt","name:el":"Μαλαζγκίρτ","name:en":"Malazgirt","name:es":"Mancicerta","name:fa":"ملازگرد","name:hy":"Մանազկերտ","name:ku":"Milazgir","name:pt":"Manziquerta","name:ru":"Малазгирт","name:tr":"Malazgirt","name:tr:suffix":"İlçesi","name:tt":"Малазгирт","name:ur":"مالازگیرت","name:zh":"马拉兹吉尔特","network":"TR49-districts","old_name":"Manzikert","type":"boundary","wikidata":"Q746811","wikipedia":"tr:Malazgirt"}}]},"id":"relation/13015088"},
{"type":"Feature","geometry":{"type":"Polygon","coordinates":[[[41.5163898,38.7459671],[41.5030167,38.7380479],[41.5189004,38.7452725],[41.5163898,38.7459671]]]},"properties":{"@id":"relation/14870768","admin_level":"8","boundary":"administrative","name":"Yeni Mahalle","type":"boundary","@relations":[{"role":"subarea","rel":1831013,"reltags":{"admin_level":"6","boundary":"administrative","name":"Muş Merkez","name:ar":"موش","name:bg":"Муш","name:ce":"Муш","name:de":"Muş","name:el":"Μους","name:en":"Muş","name:fa":"موش","name:he":"מוש","name:hy":"Մուշ","name:ja":"ムシュ","name:ka":"მუში","name:ko":"무슈","name:ku":"Mûş","name:ru":"Муш","name:th":"มุช","name:tr":"Muş Merkez","name:tr:suffix":"İlçesi","name:ur":"موش","name:zh":"穆什","network":"TR49-districts","type":"boundary","wikidata":"Q118995","wikipedia":"tr:Muş"}}]},"id":"relation/14870768"},
{"type":"Feature","geometry":{"type":"Polygon","coordinates":[[[41.487937,38.7310416],[41.4884412,38.7342931],[41.4850831,38.7438332],[41.487937,38.7310416]]]},"properties":{"@id":"relation/14870769","admin_level":"8","boundary":"administrative","name":"Muratpaşa Mahallesi","type":"boundary","@relations":[{"role":"subarea","rel":1831013,"reltags":{"admin_level":"6","boundary":"administrative","name":"Muş Merkez","name:ar":"موش","name:bg":"Муш","name:ce":"Муш","name:de":"Muş","name:el":"Μους","name:en":"Muş","name:fa":"موش","name:he":"מוש","name:hy":"Մուշ","name:ja":"ムシュ","name:ka":"მუში","name:ko":"무슈","name:ku":"Mûş","name:ru":"Муш","name:th":"มุช","name:tr":"Muş Merkez","name:tr:suffix":"İlçesi","name:ur":"موش","name:zh":"穆什","network":"TR49-districts","type":"boundary","wikidata":"Q118995","wikipedia":"tr:Muş"}}]},"id":"relation/14870769"}
]}