{"type":"FeatureCollection", "features": [
{"type":"Feature","geometry":{"type":"Polygon","coordinates":[[[34.3767197,37.7136469],[34.3761709,37.6734735],[34.3465165,37.6391876],[34.297168,37.5976546],[34.2971799,37.5753505],[34.3093157,37.5363777],[34.3083009,37.4958304],[34.3379776,37.4663755],[34.3753025,37.4502165],[34.3951725,37.4360167],[34.4136879,37.3644725],[34.436517,37.3314242],[34.4851131,37.3435889],[34.5348138,37.3838052],[34.5878754,37.3905018],[34.6218765,37.4010007],[34.6687476,37.408371],[34.6855951,37.4256618],[34.7174675,37.4356009],[34.7747918,37.4208587],[34.797161,37.4315526],[34.8020667,37.4660784],[34.8320547,37.4822985],[34.8499295,37.5147164],[34.8474673,37.5395568],[34.8695169,37.560826],[34.8585847,37.6012564],[34.8476525,37.6087017],[34.8552334,37.6339023],[34.8795525,37.6819709],[34.8665247,37.6958582],[34.8488183,37.6972069],[34.8033695,37.7227289],[34.781589,37.7192298],[34.7625727,37.694423],[34.7468264,37.688755],[34.6489665,37.6802317],[34.5979363,37.6993406],[34.5630234,37.7220832],[34.5379023,37.7232094],[34.4790607,37.7138211],[34.4511202,37.7273364],[34.4103271,37.7242575],[34.3767197,37.7136469]]]},"properties":{"@id":"relation/1249726","admin_level":"6","boundary":"administrative","name":"Ulukışla","name:de":"Ulukışla","name:el":"Ουλούκισλα","name:en":"Ulukışla","name:fa":"اولوکیشلا","name:hy":"Ուլուքըշլա","name:ru":"Улукышла","name:tr":"Ulukışla","name:tr:suffix":"İlçesi","name:zh":"烏盧克什拉","network":"TR51-districts","old_name":"Hamidiye;Loûlon Kástron;Şücaeddin;Φαυστινούπολις","type":"boundary","wikidata":"Q1018537","wikipedia":"tr:Ulukışla"},"id":"relation/1249726"},
{"type":"Feature","geometry":{"type":"Polygon","coordinates":[[[34.8795525,37.6819709],[34.9055869,37.6948434],[34.9365085,37.6936459],[34.9693458,37.6743271],[35.05271,37.6500269],[35.0910019,37.6495881],[35.3111078,37.7175514],[35.3046447,37.7532369],[35.2602772,37.7593961],[35.2149006,37.7607328],[35.1892911,37.7755264],[35.1610578,37.7840158],[35.1498853,37.8050503],[35.1703781,37.8230944],[35.1972033,37.8628728],[35.1979067,37.8811728],[35.2094136,37.8936339],[35.2062506,37.9332758],[35.2103514,37.9661839],[35.2007344,37.9806978],[35.2176961,37.9911044],[35.2292069,38.0488542],[35.1806355,38.0673357],[35.1446479,38.0648692],[35.1282845,38.0481854],[35.1336243,38.0318981],[35.0910257,38.0452086],[35.0785381,38.036398],[35.0581264,38.0422283],[35.0585823,38.0071534],[35.0382198,37.9901043],[34.9977992,37.968454],[34.9686176,37.9688027],[34.9341596,37.9868057],[34.90693,37.9850376],[34.8824013,37.9520175],[34.8516934,37.9383912],[34.8744746,37.9051281],[34.8650241,37.8742217],[34.8654173,37.8562323],[34.8837107,37.8393449],[34.8826737,37.8112966],[34.8878426,37.7660233],[34.8841988,37.7409965],[34.8670828,37.7226319],[34.8665247,37.6958582],[34.8795525,37.6819709]]]},"properties":{"@id":"relation/1249727","admin_level":"6","alt_name":"Maden","boundary":"administrative","name":"Çamardı","name:de":"Çamardı","name:el":"Τσαμαρντί","name:en":"Çamardı","name:ru":"Чамарды","name:tr":"Çamardı","name:tr:suffix":"İlçesi","network":"TR51-districts","old_name":"Bereketlimaden;Bereketli Maden;Μπερεκετλί Μαντέν","type":"boundary","wikidata":"Q272375","wikipedia":"tr:Çamardı"},"id":"relation/1249727"},
{"type":"Feature","geometry":{"type":"Polygon","coordinates":[[[34.8654173,37.8562323],[34.850966,37.8718062],[34.8313404,37.8768304],[34.7798061,37.8682442],[34.7633304,37.8836933],[34.729474,37.8662639],[34.7153153,37.8747147],[34.6922157,37.8594013],[34.6584708,37.8615373],[34.631679,37.8696722],[34.6017693,37.8759019],[34.6105098,37.9139486],[34.6163506,37.9165948],[34.6018394,37.9311889],[34.5274412,37.9669636],[34.5174323,37.9782868],[34.5104597,38.0076606],[34.5233343,38.0221316],[34.5339773,38.0512003],[34.5281667,38.0664525],[34.4924392,38.0408017],[34.4665844,38.0374593],[34.4312153,38.047007],[34.4058046,38.0297708],[34.3960584,37.9997362],[34.4113544,37.9767674],[34.3888716,37.9560306],[34.378213,37.9294136],[34.359011,37.95392],[34.3422805,37.9651912],[34.3131362,37.9625852],[34.2765324,37.9663699],[34.2660756,37.9604191],[34.2711091,37.935201],[34.2428466,37.9357953],[34.2211191,37.9727719],[34.1964369,37.9746766],[34.1701785,37.9849725],[34.1515766,37.9983086],[34.1047844,38.0109378],[34.0776789,38.0109271],[34.0520972,38.02183],[34.0135489,38.0183506],[33.9839531,38.0057919],[33.9755405,37.9960763],[33.9810052,37.975613],[33.9943099,37.9628811],[34.020595,37.9606376],[34.082866,37.9708928],[34.1232057,37.9551683],[34.140505,37.9267052],[34.1686967,37.9038886],[34.1988281,37.8739221],[34.2104225,37.869063],[34.2568251,37.8656207],[34.2877574,37.8464649],[34.3062276,37.8199154],[34.3507938,37.7649379],[34.3767197,37.7136469],[34.4103271,37.7242575],[34.4511202,37.7273364],[34.4790607,37.7138211],[34.5379023,37.7232094],[34.5630234,37.7220832],[34.5979363,37.6993406],[34.6489665,37.6802317],[34.7468264,37.688755],[34.7625727,37.694423],[34.781589,37.7192298],[34.8033695,37.7227289],[34.8488183,37.6972069],[34.8665247,37.6958582],[34.8670828,37.7226319],[34.8841988,37.7409965],[34.8878426,37.7660233],[34.8826737,37.8112966],[34.8837107,37.8393449],[34.8654173,37.8562323]]]},"properties":{"@id":"relation/1249728","admin_level":"6","alt_name":"Μπορ","boundary":"administrative","name":"Bor","name:bg":"Бор","name:de":"Bor","name:el":"Πόρου","name:en":"Bor","name:fa":"بور","name:hy":"Բոր","name:ru":"Бор","name:tr":"Bor","name:tr:suffix":"İlçesi","name:zh":"博爾","network":"TR51-districts","type":"boundary","wikidata":"Q289143","wikipedia":"tr:Bor, Niğde"},"id":"relation/1249728"},
{"type":"Feature","geometry":{"type":"Polygon","coordinates":[[[34.2749932,38.1134664],[34.2394867,38.1130556],[34.1762755,38.125659],[34.1606874,38.1232965],[34.1487325,38.0922476],[34.1268937,38.0785698],[34.1121756,38.0797546],[34.0899714,38.0635185],[34.0606973,38.061363],[34.0701932,38.0394581],[34.0520972,38.02183],[34.0776789,38.0109271],[34.1047844,38.0109378],[34.1515766,37.9983086],[34.1701785,37.9849725],[34.1964369,37.9746766],[34.2211191,37.9727719],[34.2428466,37.9357953],[34.2711091,37.935201],[34.2660756,37.9604191],[34.2765324,37.9663699],[34.3131362,37.9625852],[34.3422805,37.9651912],[34.359011,37.95392],[34.378213,37.9294136],[34.3888716,37.9560306],[34.4113544,37.9767674],[34.3960584,37.9997362],[34.4058046,38.0297708],[34.4312153,38.047007],[34.4665844,38.0374593],[34.4924392,38.0408017],[34.5281667,38.0664525],[34.5182182,38.0770673],[34.4883154,38.0862027],[34.4790457,38.1017389],[34.3011023,38.1103584],[34.2749932,38.1134664]]]},"properties":{"@id":"relation/1249729","admin_level":"6","boundary":"administrative","name":"Altunhisar","name:de":"Altunhisar","name:en":"Altunhisar","name:fa":"آلتون‌حصار","name:ru":"Алтунхисар","name:tr":"Altunhisar","name:tr:suffix":"İlçesi","network":"TR51-districts","type":"boundary","wikidata":"Q446192","wikipedia":"tr:Altunhisar"},"id":"relation/1249729"},
{"type":"Feature","geometry":{"type":"Polygon","coordinates":[[[35.2292069,38.0488542],[35.2316308,38.0607456],[35.2212322,38.0916328],[35.2308161,38.1086275],[35.2216344,38.1353436],[35.1750247,38.1675678],[35.1503867,38.1612911],[35.1306658,38.1756058],[35.1323617,38.1849478],[35.1049464,38.1880031],[35.1037944,38.1732886],[35.0819631,38.1591617],[35.0389911,38.1706686],[35.0382969,38.2041589],[35.0128008,38.2090517],[35.0081761,38.2285086],[35.0171889,38.2565014],[35.0306994,38.2686739],[35.0157683,38.27807],[35.0082281,38.3008961],[34.9767236,38.3024303],[34.967705,38.3125711],[34.9453008,38.3185911],[34.9323128,38.3401986],[34.9068631,38.34359],[34.9050281,38.3532019],[34.8808517,38.36164],[34.832083,38.346691],[34.8225033,38.3188553],[34.7989851,38.3254391],[34.7858811,38.3400027],[34.74705,38.3307597],[34.7435991,38.3411522],[34.6936461,38.3380792],[34.6832851,38.346007],[34.6468479,38.3125457],[34.6106564,38.2905071],[34.5960943,38.3194916],[34.5579403,38.3459379],[34.518517,38.3799077],[34.4944352,38.3902473],[34.4852416,38.3736268],[34.4696407,38.3665637],[34.4693356,38.35153],[34.4390289,38.3394743],[34.4215949,38.3131393],[34.4347281,38.2769653],[34.465508,38.2750603],[34.5035871,38.2667161],[34.5202308,38.2570349],[34.5264014,38.2381086],[34.5758193,38.2511468],[34.5914973,38.2119527],[34.6102975,38.1442583],[34.5817655,38.1124184],[34.5438402,38.1062458],[34.5281667,38.0664525],[34.5339773,38.0512003],[34.5233343,38.0221316],[34.5104597,38.0076606],[34.5174323,37.9782868],[34.5274412,37.9669636],[34.6018394,37.9311889],[34.6163506,37.9165948],[34.6105098,37.9139486],[34.6017693,37.8759019],[34.631679,37.8696722],[34.6584708,37.8615373],[34.6922157,37.8594013],[34.7153153,37.8747147],[34.729474,37.8662639],[34.7633304,37.8836933],[34.7798061,37.8682442],[34.8313404,37.8768304],[34.850966,37.8718062],[34.8654173,37.8562323],[34.8650241,37.8742217],[34.8744746,37.9051281],[34.8516934,37.9383912],[34.8824013,37.9520175],[34.90693,37.9850376],[34.9341596,37.9868057],[34.9686176,37.9688027],[34.9977992,37.968454],[35.0382198,37.9901043],[35.0585823,38.0071534],[35.0581264,38.0422283],[35.0785381,38.036398],[35.0910257,38.0452086],[35.1336243,38.0318981],[35.1282845,38.0481854],[35.1446479,38.0648692],[35.1806355,38.0673357],[35.2292069,38.0488542]]]},"properties":{"@id":"relation/1249730","admin_level":"6","alt_name":"Niğde","boundary":"administrative","name":"Niğde Merkez","name:ar":"نيدا","name:az":"Niğdə","name:bg":"Нигде","name:de":"Niğde","name:el":"Νίγδη","name:en":"Niğde","name:fa":"نیغده","name:hy":"Նիղդե","name:ja":"ニーデ","name:ka":"ნიღდე","name:ko":"니데","name:ru":"Нигде","name:tr":"Niğde Merkez","name:tr:suffix":"İlçesi","name:uk":"Нігде","name:zh":"尼代","network":"TR51-districts","type":"boundary","wikidata":"Q194146","wikipedia":"tr:Niğde"},"id":"relation/1249730"},
{"type":"Feature","geometry":{"type":"Polygon","coordinates":[[[34.4347281,38.2769653],[34.4369053,38.2338668],[34.427892,38.2246276],[34.3633016,38.2267172],[34.3439042,38.2160849],[34.3202206,38.1945853],[34.2892422,38.1469182],[34.2749932,38.1134664],[34.3011023,38.1103584],[34.4790457,38.1017389],[34.4883154,38.0862027],[34.5182182,38.0770673],[34.5281667,38.0664525],[34.5438402,38.1062458],[34.5817655,38.1124184],[34.6102975,38.1442583],[34.5914973,38.2119527],[34.5758193,38.2511468],[34.5264014,38.2381086],[34.5202308,38.2570349],[34.5035871,38.2667161],[34.465508,38.2750603],[34.4347281,38.2769653]]]},"properties":{"@id":"relation/1249731","admin_level":"6","boundary":"administrative","name":"Çiftlik","name:de":"Çiftlik","name:en":"Çiftlik","name:tr":"Çiftlik","name:tr:suffix":"İlçesi","network":"TR51-districts","type":"boundary","wikidata":"Q272835","wikipedia":"tr:Çiftlik, Niğde"},"id":"relation/1249731"},
{"type":"Feature","geometry":{"type":"Polygon","coordinates":[[[34.67309,37.9665459],[34.6683186,37.9630332],[34.652971,37.9373904],[34.6415073,37.9285644],[34.6595651,37.910273],[34.6815956,37.9495488],[34.6786479,37.9593258],[34.67309,37.9665459]]]},"properties":{"@id":"relation/8026442","admin_level":"8","boundary":"administrative","name":"Selçuk Mahallesi","type":"boundary","@relations":[{"role":"subarea","rel":1249730,"reltags":{"admin_level":"6","alt_name":"Niğde","boundary":"administrative","name":"Niğde Merkez","name:ar":"نيدا","name:az":"Niğdə","name:bg":"Нигде","name:de":"Niğde","name:el":"Νίγδη","name:en":"Niğde","name:fa":"نیغده","name:hy":"Նիղդե","name:ja":"ニーデ","name:ka":"ნიღდე","name:ko":"니데","name:ru":"Нигде","name:tr":"Niğde Merkez","name:tr:suffix":"İlçesi","name:uk":"Нігде","name:zh":"尼代","network":"TR51-districts","type":"boundary","wikidata":"Q194146","wikipedia":"tr:Niğde"}}]},"id":"relation/8026442"},
{"type":"Feature","geometry":{"type":"Polygon","coordinates":[[[34.7265948,37.9193479],[34.6924209,37.9418792],[34.6911013,37.9545106],[34.703992,37.9814117],[34.68797,37.9688646],[34.6786479,37.9593258],[34.6815956,37.9495488],[34.6595651,37.910273],[34.6973157,37.9075572],[34.7265948,37.9193479]]]},"properties":{"@id":"relation/8026679","admin_level":"8","boundary":"administrative","name":"İlhanlı Mahallesi","type":"boundary","@relations":[{"role":"subarea","rel":1249730,"reltags":{"admin_level":"6","alt_name":"Niğde","boundary":"administrative","name":"Niğde Merkez","name:ar":"نيدا","name:az":"Niğdə","name:bg":"Нигде","name:de":"Niğde","name:el":"Νίγδη","name:en":"Niğde","name:fa":"نیغده","name:hy":"Նիղդե","name:ja":"ニーデ","name:ka":"ნიღდე","name:ko":"니데","name:ru":"Нигде","name:tr":"Niğde Merkez","name:tr:suffix":"İlçesi","name:uk":"Нігде","name:zh":"尼代","network":"TR51-districts","type":"boundary","wikidata":"Q194146","wikipedia":"tr:Niğde"}}]},"id":"relation/8026679"},
{"type":"Feature","geometry":{"type":"Polygon","coordinates":[[[34.7265948,37.9193479],[34.7403144,37.9278493],[34.7508716,37.9578352],[34.7491979,37.9740752],[34.7314917,38.0009182],[34.703992,37.9814117],[34.6911013,37.9545106],[34.6924209,37.9418792],[34.7265948,37.9193479]]]},"properties":{"@id":"relation/8027148","admin_level":"8","boundary":"administrative","name":"Nar Mahallesi","type":"boundary","@relations":[{"role":"subarea","rel":1249730,"reltags":{"admin_level":"6","alt_name":"Niğde","boundary":"administrative","name":"Niğde Merkez","name:ar":"نيدا","name:az":"Niğdə","name:bg":"Нигде","name:de":"Niğde","name:el":"Νίγδη","name:en":"Niğde","name:fa":"نیغده","name:hy":"Նիղդե","name:ja":"ニーデ","name:ka":"ნიღდე","name:ko":"니데","name:ru":"Нигде","name:tr":"Niğde Merkez","name:tr:suffix":"İlçesi","name:uk":"Нігде","name:zh":"尼代","network":"TR51-districts","type":"boundary","wikidata":"Q194146","wikipedia":"tr:Niğde"}}]},"id":"relation/8027148"},
{"type":"Feature","geometry":{"type":"Polygon","coordinates":[[[34.6799903,37.9726472],[34.7089541,37.9950762],[34.7315222,38.0012397],[34.7219735,38.0186027],[34.6954358,38.013696],[34.6820553,38.0009443],[34.679026,37.9730011],[34.6799903,37.9726472]]]},"properties":{"@id":"relation/8027159","admin_level":"8","boundary":"administrative","name":"Efendibey Mahallesi","type":"boundary","@relations":[{"role":"subarea","rel":1249730,"reltags":{"admin_level":"6","alt_name":"Niğde","boundary":"administrative","name":"Niğde Merkez","name:ar":"نيدا","name:az":"Niğdə","name:bg":"Нигде","name:de":"Niğde","name:el":"Νίγδη","name:en":"Niğde","name:fa":"نیغده","name:hy":"Նիղդե","name:ja":"ニーデ","name:ka":"ნიღდე","name:ko":"니데","name:ru":"Нигде","name:tr":"Niğde Merkez","name:tr:suffix":"İlçesi","name:uk":"Нігде","name:zh":"尼代","network":"TR51-districts","type":"boundary","wikidata":"Q194146","wikipedia":"tr:Niğde"}}]},"id":"relation/8027159"},
{"type":"Feature","geometry":{"type":"Polygon","coordinates":[[[34.6786479,37.9593258],[34.68797,37.9688646],[34.6799903,37.9726472],[34.679026,37.9730011],[34.6768033,37.9701839],[34.67309,37.9665459],[34.6786479,37.9593258]]]},"properties":{"@id":"relation/8027236","admin_level":"8","boundary":"administrative","name":"Kale Mahallesi","type":"boundary","@relations":[{"role":"subarea","rel":1249730,"reltags":{"admin_level":"6","alt_name":"Niğde","boundary":"administrative","name":"Niğde Merkez","name:ar":"نيدا","name:az":"Niğdə","name:bg":"Нигде","name:de":"Niğde","name:el":"Νίγδη","name:en":"Niğde","name:fa":"نیغده","name:hy":"Նիղդե","name:ja":"ニーデ","name:ka":"ნიღდე","name:ko":"니데","name:ru":"Нигде","name:tr":"Niğde Merkez","name:tr:suffix":"İlçesi","name:uk":"Нігде","name:zh":"尼代","network":"TR51-districts","type":"boundary","wikidata":"Q194146","wikipedia":"tr:Niğde"}}]},"id":"relation/8027236"},
{"type":"Feature","geometry":{"type":"Polygon","coordinates":[[[34.631679,37.8696722],[34.6389115,37.8988006],[34.6105098,37.9139486],[34.6017693,37.8759019],[34.631679,37.8696722]]]},"properties":{"@id":"relation/8041435","admin_level":"8","boundary":"administrative","name":"Sazlıca Beldesi Aşağı Mahallesi","type":"boundary","@relations":[{"role":"subarea","rel":1249730,"reltags":{"admin_level":"6","alt_name":"Niğde","boundary":"administrative","name":"Niğde Merkez","name:ar":"نيدا","name:az":"Niğdə","name:bg":"Нигде","name:de":"Niğde","name:el":"Νίγδη","name:en":"Niğde","name:fa":"نیغده","name:hy":"Նիղդե","name:ja":"ニーデ","name:ka":"ნიღდე","name:ko":"니데","name:ru":"Нигде","name:tr":"Niğde Merkez","name:tr:suffix":"İlçesi","name:uk":"Нігде","name:zh":"尼代","network":"TR51-districts","type":"boundary","wikidata":"Q194146","wikipedia":"tr:Niğde"}}]},"id":"relation/8041435"},
{"type":"Feature","geometry":{"type":"Polygon","coordinates":[[[34.7153153,37.8747147],[34.7350401,37.8996767],[34.7265948,37.9193479],[34.6973157,37.9075572],[34.6595651,37.910273],[34.6389115,37.8988006],[34.631679,37.8696722],[34.6584708,37.8615373],[34.6922157,37.8594013],[34.7153153,37.8747147]]]},"properties":{"@id":"relation/8041456","admin_level":"8","boundary":"administrative","name":"Sazlıca Beldesi Yeni Mahallesi","type":"boundary","@relations":[{"role":"subarea","rel":1249730,"reltags":{"admin_level":"6","alt_name":"Niğde","boundary":"administrative","name":"Niğde Merkez","name:ar":"نيدا","name:az":"Niğdə","name:bg":"Нигде","name:de":"Niğde","name:el":"Νίγδη","name:en":"Niğde","name:fa":"نیغده","name:hy":"Նիղդե","name:ja":"ニーデ","name:ka":"ნიღდე","name:ko":"니데","name:ru":"Нигде","name:tr":"Niğde Merkez","name:tr:suffix":"İlçesi","name:uk":"Нігде","name:zh":"尼代","network":"TR51-districts","type":"boundary","wikidata":"Q194146","wikipedia":"tr:Niğde"}}]},"id":"relation/8041456"},
{"type":"Feature","geometry":{"type":"Polygon","coordinates":[[[34.6389115,37.8988006],[34.6595651,37.910273],[34.6415073,37.9285644],[34.6163506,37.9165948],[34.6105098,37.9139486],[34.6389115,37.8988006]]]},"properties":{"@id":"relation/8041468","admin_level":"8","boundary":"administrative","name":"Sazlıca Beldesi Yukarı Mahallesi","type":"boundary","@relations":[{"role":"subarea","rel":1249730,"reltags":{"admin_level":"6","alt_name":"Niğde","boundary":"administrative","name":"Niğde Merkez","name:ar":"نيدا","name:az":"Niğdə","name:bg":"Нигде","name:de":"Niğde","name:el":"Νίγδη","name:en":"Niğde","name:fa":"نیغده","name:hy":"Նիղդե","name:ja":"ニーデ","name:ka":"ნიღდე","name:ko":"니데","name:ru":"Нигде","name:tr":"Niğde Merkez","name:tr:suffix":"İlçesi","name:uk":"Нігде","name:zh":"尼代","network":"TR51-districts","type":"boundary","wikidata":"Q194146","wikipedia":"tr:Niğde"}}]},"id":"relation/8041468"},
{"type":"Feature","geometry":{"type":"Polygon","coordinates":[[[34.6638715,37.9638368],[34.6512598,37.9657442],[34.6360356,37.9689075],[34.6347328,37.9489589],[34.6475261,37.9608381],[34.6646118,37.9633123],[34.6638715,37.9638368]]]},"properties":{"@id":"relation/8048845","admin_level":"8","boundary":"administrative","name":"Aşağı Kayabaşı Mahallesi","type":"boundary","@relations":[{"role":"subarea","rel":1249730,"reltags":{"admin_level":"6","alt_name":"Niğde","boundary":"administrative","name":"Niğde Merkez","name:ar":"نيدا","name:az":"Niğdə","name:bg":"Нигде","name:de":"Niğde","name:el":"Νίγδη","name:en":"Niğde","name:fa":"نیغده","name:hy":"Նիղդե","name:ja":"ニーデ","name:ka":"ნიღდე","name:ko":"니데","name:ru":"Нигде","name:tr":"Niğde Merkez","name:tr:suffix":"İlçesi","name:uk":"Нігде","name:zh":"尼代","network":"TR51-districts","type":"boundary","wikidata":"Q194146","wikipedia":"tr:Niğde"}}]},"id":"relation/8048845"},
{"type":"Feature","geometry":{"type":"Polygon","coordinates":[[[34.6768033,37.9701839],[34.6686137,37.9777203],[34.6638715,37.9638368],[34.6646118,37.9633123],[34.6683186,37.9630332],[34.67309,37.9665459],[34.6768033,37.9701839]]]},"properties":{"@id":"relation/8048954","admin_level":"8","boundary":"administrative","name":"Yukarı Kayabaşı Mahallesi","type":"boundary","@relations":[{"role":"subarea","rel":1249730,"reltags":{"admin_level":"6","alt_name":"Niğde","boundary":"administrative","name":"Niğde Merkez","name:ar":"نيدا","name:az":"Niğdə","name:bg":"Нигде","name:de":"Niğde","name:el":"Νίγδη","name:en":"Niğde","name:fa":"نیغده","name:hy":"Նիղդե","name:ja":"ニーデ","name:ka":"ნიღდე","name:ko":"니데","name:ru":"Нигде","name:tr":"Niğde Merkez","name:tr:suffix":"İlçesi","name:uk":"Нігде","name:zh":"尼代","network":"TR51-districts","type":"boundary","wikidata":"Q194146","wikipedia":"tr:Niğde"}}]},"id":"relation/8048954"},
{"type":"Feature","geometry":{"type":"Polygon","coordinates":[[[34.670282,38.003349],[34.6686137,37.9777203],[34.6768033,37.9701839],[34.679026,37.9730011],[34.6740961,37.9997221],[34.670282,38.003349]]]},"properties":{"@id":"relation/8050311","admin_level":"8","boundary":"administrative","name":"İnönü Mahallesi","type":"boundary","@relations":[{"role":"subarea","rel":1249730,"reltags":{"admin_level":"6","alt_name":"Niğde","boundary":"administrative","name":"Niğde Merkez","name:ar":"نيدا","name:az":"Niğdə","name:bg":"Нигде","name:de":"Niğde","name:el":"Νίγδη","name:en":"Niğde","name:fa":"نیغده","name:hy":"Նիղդե","name:ja":"ニーデ","name:ka":"ნიღდე","name:ko":"니데","name:ru":"Нигде","name:tr":"Niğde Merkez","name:tr:suffix":"İlçesi","name:uk":"Нігде","name:zh":"尼代","network":"TR51-districts","type":"boundary","wikidata":"Q194146","wikipedia":"tr:Niğde"}}]},"id":"relation/8050311"},
{"type":"Feature","geometry":{"type":"Polygon","coordinates":[[[34.6392596,37.9845532],[34.6383798,37.983437],[34.6360356,37.9689075],[34.6512598,37.9657442],[34.653722,37.9809254],[34.6392596,37.9845532]]]},"properties":{"@id":"relation/8050924","admin_level":"8","boundary":"administrative","name":"Kumluca Mahallesi","type":"boundary","@relations":[{"role":"subarea","rel":1249730,"reltags":{"admin_level":"6","alt_name":"Niğde","boundary":"administrative","name":"Niğde Merkez","name:ar":"نيدا","name:az":"Niğdə","name:bg":"Нигде","name:de":"Niğde","name:el":"Νίγδη","name:en":"Niğde","name:fa":"نیغده","name:hy":"Նիղդե","name:ja":"ニーデ","name:ka":"ნიღდე","name:ko":"니데","name:ru":"Нигде","name:tr":"Niğde Merkez","name:tr:suffix":"İlçesi","name:uk":"Нігде","name:zh":"尼代","network":"TR51-districts","type":"boundary","wikidata":"Q194146","wikipedia":"tr:Niğde"}}]},"id":"relation/8050924"},
{"type":"Feature","geometry":{"type":"Polygon","coordinates":[[[34.606353,37.9859314],[34.6095024,37.9712717],[34.5970946,37.9536042],[34.5996152,37.9480903],[34.6062661,37.934068],[34.6347328,37.9489589],[34.6360356,37.9689075],[34.6383798,37.983437],[34.6310191,37.9814645],[34.606353,37.9859314]]]},"properties":{"@id":"relation/8050925","admin_level":"8","boundary":"administrative","name":"Fertek Mahallesi","type":"boundary","@relations":[{"role":"subarea","rel":1249730,"reltags":{"admin_level":"6","alt_name":"Niğde","boundary":"administrative","name":"Niğde Merkez","name:ar":"نيدا","name:az":"Niğdə","name:bg":"Нигде","name:de":"Niğde","name:el":"Νίγδη","name:en":"Niğde","name:fa":"نیغده","name:hy":"Նիղդե","name:ja":"ニーデ","name:ka":"ნიღდე","name:ko":"니데","name:ru":"Нигде","name:tr":"Niğde Merkez","name:tr:suffix":"İlçesi","name:uk":"Нігде","name:zh":"尼代","network":"TR51-districts","type":"boundary","wikidata":"Q194146","wikipedia":"tr:Niğde"}}]},"id":"relation/8050925"},
{"type":"Feature","geometry":{"type":"Polygon","coordinates":[[[34.6383798,37.983437],[34.606353,37.9859314],[34.6310191,37.9814645],[34.6383798,37.983437]]]},"properties":{"@id":"relation/8050926","admin_level":"8","boundary":"administrative","name":"Hançerli Köyü","type":"boundary","@relations":[{"role":"subarea","rel":1249730,"reltags":{"admin_level":"6","alt_name":"Niğde","boundary":"administrative","name":"Niğde Merkez","name:ar":"نيدا","name:az":"Niğdə","name:bg":"Нигде","name:de":"Niğde","name:el":"Νίγδη","name:en":"Niğde","name:fa":"نیغده","name:hy":"Նիղդե","name:ja":"ニーデ","name:ka":"ნიღდე","name:ko":"니데","name:ru":"Нигде","name:tr":"Niğde Merkez","name:tr:suffix":"İlçesi","name:uk":"Нігде","name:zh":"尼代","network":"TR51-districts","type":"boundary","wikidata":"Q194146","wikipedia":"tr:Niğde"}}]},"id":"relation/8050926"},
{"type":"Feature","geometry":{"type":"MultiPolygon","coordinates":[]},"properties":{"@id":"relation/8050947","admin_level":"8","boundary":"administrative","name":"Koyunlu Köyü","type":"boundary","@relations":[{"role":"subarea","rel":1249730,"reltags":{"admin_level":"6","alt_name":"Niğde","boundary":"administrative","name":"Niğde Merkez","name:ar":"نيدا","name:az":"Niğdə","name:bg":"Нигде","name:de":"Niğde","name:el":"Νίγδη","name:en":"Niğde","name:fa":"نیغده","name:hy":"Նիղդե","name:ja":"ニーデ","name:ka":"ნიღდე","name:ko":"니데","name:ru":"Нигде","name:tr":"Niğde Merkez","name:tr:suffix":"İlçesi","name:uk":"Нігде","name:zh":"尼代","network":"TR51-districts","type":"boundary","wikidata":"Q194146","wikipedia":"tr:Niğde"}}]},"id":"relation/8050947"},
{"type":"Feature","geometry":{"type":"Polygon","coordinates":[[[34.6017693,37.8759019],[34.6286267,37.8428062],[34.6566624,37.8381966],[34.6656603,37.8486582],[34.6922157,37.8594013],[34.6584708,37.8615373],[34.631679,37.8696722],[34.6017693,37.8759019]]]},"properties":{"@id":"relation/8051122","admin_level":"8","boundary":"administrative","name":"Kaynarca Köyü","type":"boundary"},"id":"relation/8051122"},
{"type":"Feature","geometry":{"type":"Polygon","coordinates":[[[34.6740961,37.9997221],[34.679026,37.9730011],[34.6820553,38.0009443],[34.6740961,37.9997221]]]},"properties":{"@id":"relation/8063593","admin_level":"8","boundary":"administrative","name":"Şehitler Mahallesi","type":"boundary","@relations":[{"role":"subarea","rel":1249730,"reltags":{"admin_level":"6","alt_name":"Niğde","boundary":"administrative","name":"Niğde Merkez","name:ar":"نيدا","name:az":"Niğdə","name:bg":"Нигде","name:de":"Niğde","name:el":"Νίγδη","name:en":"Niğde","name:fa":"نیغده","name:hy":"Նիղդե","name:ja":"ニーデ","name:ka":"ნიღდე","name:ko":"니데","name:ru":"Нигде","name:tr":"Niğde Merkez","name:tr:suffix":"İlçesi","name:uk":"Нігде","name:zh":"尼代","network":"TR51-districts","type":"boundary","wikidata":"Q194146","wikipedia":"tr:Niğde"}}]},"id":"relation/8063593"},
{"type":"Feature","geometry":{"type":"Polygon","coordinates":[[[34.6799903,37.9726472],[34.68797,37.9688646],[34.703992,37.9814117],[34.7314917,38.0009182],[34.7315222,38.0012397],[34.7089541,37.9950762],[34.6799903,37.9726472]]]},"properties":{"@id":"relation/8063696","admin_level":"8","boundary":"administrative","name":"Şahsüleyman Mahallesi","type":"boundary","@relations":[{"role":"subarea","rel":1249730,"reltags":{"admin_level":"6","alt_name":"Niğde","boundary":"administrative","name":"Niğde Merkez","name:ar":"نيدا","name:az":"Niğdə","name:bg":"Нигде","name:de":"Niğde","name:el":"Νίγδη","name:en":"Niğde","name:fa":"نیغده","name:hy":"Նիղդե","name:ja":"ニーデ","name:ka":"ნიღდე","name:ko":"니데","name:ru":"Нигде","name:tr":"Niğde Merkez","name:tr:suffix":"İlçesi","name:uk":"Нігде","name:zh":"尼代","network":"TR51-districts","type":"boundary","wikidata":"Q194146","wikipedia":"tr:Niğde"}}]},"id":"relation/8063696"},
{"type":"Feature","geometry":{"type":"Polygon","coordinates":[[[34.6062661,37.934068],[34.6018394,37.9311889],[34.6163506,37.9165948],[34.6415073,37.9285644],[34.652971,37.9373904],[34.6683186,37.9630332],[34.6646118,37.9633123],[34.6475261,37.9608381],[34.6347328,37.9489589],[34.6062661,37.934068]]]},"properties":{"@id":"relation/17243544","admin_level":"8","boundary":"administrative","name":"Sarıköprü Mahallesi","type":"boundary","@relations":[{"role":"subarea","rel":1249730,"reltags":{"admin_level":"6","alt_name":"Niğde","boundary":"administrative","name":"Niğde Merkez","name:ar":"نيدا","name:az":"Niğdə","name:bg":"Нигде","name:de":"Niğde","name:el":"Νίγδη","name:en":"Niğde","name:fa":"نیغده","name:hy":"Նիղդե","name:ja":"ニーデ","name:ka":"ნიღდე","name:ko":"니데","name:ru":"Нигде","name:tr":"Niğde Merkez","name:tr:suffix":"İlçesi","name:uk":"Нігде","name:zh":"尼代","network":"TR51-districts","type":"boundary","wikidata":"Q194146","wikipedia":"tr:Niğde"}}]},"id":"relation/17243544"},
{"type":"Feature","geometry":{"type":"Polygon","coordinates":[[[34.6392596,37.9845532],[34.653722,37.9809254],[34.6512598,37.9657442],[34.6638715,37.9638368],[34.6686137,37.9777203],[34.670282,38.003349],[34.6474671,38.0015736],[34.6392596,37.9845532]]]},"properties":{"@id":"relation/17243545","admin_level":"8","boundary":"administrative","name":"Kayaardı Mahallesi","type":"boundary","@relations":[{"role":"subarea","rel":1249730,"reltags":{"admin_level":"6","alt_name":"Niğde","boundary":"administrative","name":"Niğde Merkez","name:ar":"نيدا","name:az":"Niğdə","name:bg":"Нигде","name:de":"Niğde","name:el":"Νίγδη","name:en":"Niğde","name:fa":"نیغده","name:hy":"Նիղդե","name:ja":"ニーデ","name:ka":"ნიღდე","name:ko":"니데","name:ru":"Нигде","name:tr":"Niğde Merkez","name:tr:suffix":"İlçesi","name:uk":"Нігде","name:zh":"尼代","network":"TR51-districts","type":"boundary","wikidata":"Q194146","wikipedia":"tr:Niğde"}}]},"id":"relation/17243545"}
]}