{"type":"FeatureCollection", "features": [
{"type":"Feature","geometry":{"type":"Polygon","coordinates":[[[41.9032041,38.0254208],[41.9652812,38.0111071],[42.0410496,37.994862],[42.1551173,37.9519325],[42.2262733,37.9249065],[42.2594212,37.9618485],[42.3815252,37.9760479],[42.4037074,38.0196297],[42.4539086,38.0432887],[42.39148,38.0691268],[42.3706537,38.1079925],[42.2480963,38.1229439],[42.256441,38.1523298],[42.2363234,38.1802386],[42.2615828,38.2399799],[42.2324751,38.2469437],[42.1559141,38.2202456],[42.1095656,38.2240217],[42.06905,38.20817],[42.00296,38.19421],[41.9703071,38.1577338],[41.9435741,38.1752033],[41.9232656,38.1439977],[41.9307859,38.1070782],[41.9032041,38.0254208]]]},"properties":{"@id":"relation/1246472","admin_level":"6","alt_name:ku":"Kufre","boundary":"administrative","name":"Şirvan","name:ce":"Ширван","name:de":"Şirvan","name:en":"Şirvan","name:fa":"شیروان","name:fr":"Şirvan","name:it":"Şirvan","name:ku":"Şêrwan","name:ru":"Ширван","name:tr":"Şirvan","name:tr:suffix":"İlçesi","name:uk":"Шірван","network":"TR56-districts","population":"21321","population:date":"2021","type":"boundary","wikidata":"Q172902","wikipedia":"tr:Şirvan, Siirt"},"id":"relation/1246472"},
{"type":"Feature","geometry":{"type":"Polygon","coordinates":[[[42.1298393,37.9023719],[42.0896327,37.9497329],[42.0686025,37.9457103],[42.0442576,37.8935758],[42.0145291,37.8852378],[41.9834501,37.9657619],[41.9558182,37.9815762],[41.9652812,38.0111071],[41.9032041,38.0254208],[41.8388559,38.0510593],[41.7806478,38.0517644],[41.7726461,37.9799576],[41.794054,37.9473814],[41.7852458,37.9025833],[41.8321099,37.8277225],[41.7768832,37.7282841],[41.8173825,37.7145802],[41.8144736,37.6893597],[41.8697582,37.687235],[41.8791932,37.7346451],[41.8579791,37.7605157],[41.9280703,37.8089508],[41.907794,37.8484264],[41.9729945,37.8361705],[42.0636591,37.835866],[42.1317059,37.8676198],[42.1506784,37.8905505],[42.1298393,37.9023719]]]},"properties":{"@id":"relation/1246473","admin_level":"6","boundary":"administrative","name":"Siirt Merkez","name:ar":"سعرد","name:bg":"Сиирт","name:ce":"Сиирт","name:de":"Siirt","name:el":"Σύρτη","name:en":"Siirt","name:fa":"سعرد","name:hy":"Սղերդ","name:ja":"スィイルト","name:ka":"სიირთი","name:ko":"시이르트","name:ku":"Sêrt","name:ru":"Сиирт","name:sr":"Сирт","name:tr":"Siirt","name:tr:suffix":"İlçesi","name:uk":"Сіїрт","name:ur":"سعرد","name:zh":"錫爾特","name:zza":"Sêrt","network":"TR56-districts","type":"boundary","wikidata":"Q185084","wikipedia":"ku:Sêrt"},"id":"relation/1246473"},
{"type":"Feature","geometry":{"type":"Polygon","coordinates":[[[42.5292998,37.7266541],[42.5848866,37.7191596],[42.778177,37.6786759],[42.8407121,37.659676],[42.8684188,37.6916233],[42.8845218,37.7668903],[42.8392943,37.8242426],[42.8044711,37.891668],[42.770236,37.9360233],[42.7439095,37.9442353],[42.7360479,37.9990545],[42.6839635,38.0303549],[42.6495266,37.9943449],[42.5483321,37.9692375],[42.5019321,37.981597],[42.4896239,38.0203059],[42.4539086,38.0432887],[42.4037074,38.0196297],[42.3815252,37.9760479],[42.2594212,37.9618485],[42.2262733,37.9249065],[42.1551173,37.9519325],[42.1598544,37.9231288],[42.1298393,37.9023719],[42.1506784,37.8905505],[42.1877333,37.8656551],[42.237584,37.8523983],[42.291309,37.8538404],[42.3500528,37.835147],[42.3845296,37.7800291],[42.4661164,37.7595107],[42.5292998,37.7266541]]]},"properties":{"@id":"relation/1246474","admin_level":"6","boundary":"administrative","name":"Pervari","name:ce":"Первари","name:de":"Pervari","name:en":"Pervari","name:fa":"پرواری","name:hy":"Խոսխեր","name:ku":"Xisxêr","name:ru":"Первари","name:tr":"Pervari","name:tr:suffix":"İlçesi","name:ur":"پرواری","network":"TR56-districts","population":"30276","population:date":"2021","type":"boundary","wikidata":"Q921953","wikipedia":"tr:Pervari"},"id":"relation/1246474"},
{"type":"Feature","geometry":{"type":"Polygon","coordinates":[[[42.1506784,37.8905505],[42.1317059,37.8676198],[42.0636591,37.835866],[41.9729945,37.8361705],[41.907794,37.8484264],[41.9280703,37.8089508],[41.8579791,37.7605157],[41.8791932,37.7346451],[41.8697582,37.687235],[41.8144736,37.6893597],[41.8201815,37.6771],[41.9108394,37.6656422],[42.0052171,37.621234],[42.0950994,37.6213495],[42.1475023,37.6301986],[42.1536959,37.6066718],[42.2794449,37.6026458],[42.3239563,37.6604301],[42.3528558,37.6669243],[42.3625655,37.709764],[42.4219162,37.6921729],[42.4629746,37.7166612],[42.5292998,37.7266541],[42.4661164,37.7595107],[42.3845296,37.7800291],[42.3500528,37.835147],[42.291309,37.8538404],[42.237584,37.8523983],[42.1877333,37.8656551],[42.1506784,37.8905505]]]},"properties":{"@id":"relation/1246475","admin_level":"6","boundary":"administrative","name":"Eruh","name:de":"Eruh","name:en":"Eruh","name:fa":"اروخ","name:hy":"Դեհ","name:ku":"Dih","name:ru":"Эрух","name:tr":"Eruh","name:tr:suffix":"İlçesi","name:ur":"آروح","name:zh":"埃魯赫","name:zza":"Eruh","network":"TR56-districts","old_name":"Dihé","type":"boundary","wikidata":"Q132385","wikipedia":"tr:Eruh"},"id":"relation/1246475"},
{"type":"Feature","geometry":{"type":"Polygon","coordinates":[[[41.6096829,38.0838893],[41.5468551,38.0610691],[41.5370266,38.0202101],[41.4949645,38.0400518],[41.4004388,37.9852536],[41.3663741,37.9535018],[41.4398784,37.8971777],[41.5226179,37.8623029],[41.5900848,37.8806017],[41.644827,37.8803621],[41.7028027,37.8309828],[41.6732139,37.7467585],[41.7023787,37.7155508],[41.7768832,37.7282841],[41.8321099,37.8277225],[41.7852458,37.9025833],[41.794054,37.9473814],[41.7726461,37.9799576],[41.7806478,38.0517644],[41.6647373,38.0519535],[41.6096829,38.0838893]]]},"properties":{"@id":"relation/1246476","admin_level":"6","boundary":"administrative","name":"Kurtalan","name:ar":"كورتالان","name:ce":"Курталан","name:de":"Kurtalan","name:en":"Kurtalan","name:fa":"کورتالان","name:ku":"Misirc","name:ru":"Курталан","name:tr":"Kurtalan","name:tr:suffix":"İlçesi","name:ur":"کورتالان","name:zh":"庫爾塔蘭","network":"TR56-districts","population":"60592","population:date":"2021","type":"boundary","wikidata":"Q1004659","wikimedia_commons":"Category:Kurtalan","wikipedia":"tr:Kurtalan"},"id":"relation/1246476"},
{"type":"Feature","geometry":{"type":"Polygon","coordinates":[[[41.9652812,38.0111071],[41.9558182,37.9815762],[41.9834501,37.9657619],[42.0145291,37.8852378],[42.0442576,37.8935758],[42.0686025,37.9457103],[42.0896327,37.9497329],[42.1298393,37.9023719],[42.1598544,37.9231288],[42.1551173,37.9519325],[42.0410496,37.994862],[41.9652812,38.0111071]]]},"properties":{"@id":"relation/1246477","admin_level":"6","boundary":"administrative","name":"Tillo","name:ar":"تلو","name:ce":"Тилло","name:de":"Tillo","name:en":"Tillo","name:hy":"Տիլլո","name:ku":"Tilo","name:ru":"Тилло","name:tr":"Tillo","name:tr:suffix":"İlçesi","name:ur":"تلو","network":"TR56-districts","old_name":"Aydınlar","type":"boundary","wikidata":"Q792913","wikipedia":"tr:Tillo"},"id":"relation/1246477"},
{"type":"Feature","geometry":{"type":"Polygon","coordinates":[[[41.7806478,38.0517644],[41.8388559,38.0510593],[41.9032041,38.0254208],[41.9307859,38.1070782],[41.9232656,38.1439977],[41.9435741,38.1752033],[41.9148703,38.1898082],[41.8545508,38.1913099],[41.80065,38.2326],[41.746,38.22448],[41.64698,38.26066],[41.6288423,38.2150892],[41.6407858,38.1451649],[41.6074435,38.1108138],[41.6096829,38.0838893],[41.6647373,38.0519535],[41.7806478,38.0517644]]]},"properties":{"@id":"relation/1246478","admin_level":"6","boundary":"administrative","name":"Baykan","name:ce":"Байкан","name:de":"Baykan","name:en":"Baykan","name:ku":"Hawêl","name:ru":"Байкан","name:tr":"Baykan","name:tr:suffix":"İlçesi","name:ur":"بےخان","name:zh":"巴伊坎","network":"TR56-districts","old_name":"Havil","type":"boundary","wikidata":"Q812557","wikipedia":"ku:Hawêl"},"id":"relation/1246478"},
{"type":"Feature","geometry":{"type":"Polygon","coordinates":[[[41.9487612,37.9263589],[41.9470141,37.9284639],[41.9457115,37.9281194],[41.9457175,37.9270401],[41.9487612,37.9263589]]]},"properties":{"@id":"relation/13853002","admin_level":"8","boundary":"administrative","name":"Tınaztepe Mahallesi","type":"boundary","@relations":[{"role":"subarea","rel":1246473,"reltags":{"admin_level":"6","boundary":"administrative","name":"Siirt Merkez","name:ar":"سعرد","name:bg":"Сиирт","name:ce":"Сиирт","name:de":"Siirt","name:el":"Σύρτη","name:en":"Siirt","name:fa":"سعرد","name:hy":"Սղերդ","name:ja":"スィイルト","name:ka":"სიირთი","name:ko":"시이르트","name:ku":"Sêrt","name:ru":"Сиирт","name:sr":"Сирт","name:tr":"Siirt","name:tr:suffix":"İlçesi","name:uk":"Сіїрт","name:ur":"سعرد","name:zh":"錫爾特","name:zza":"Sêrt","network":"TR56-districts","type":"boundary","wikidata":"Q185084","wikipedia":"ku:Sêrt"}}]},"id":"relation/13853002"},
{"type":"Feature","geometry":{"type":"Polygon","coordinates":[[[41.9486769,37.9263499],[41.9487612,37.9263589],[41.9457175,37.9270401],[41.9436862,37.9263397],[41.9456824,37.9262664],[41.9486769,37.9263499]]]},"properties":{"@id":"relation/13853003","admin_level":"8","boundary":"administrative","name":"Ülkü Mahallesi","type":"boundary","@relations":[{"role":"subarea","rel":1246473,"reltags":{"admin_level":"6","boundary":"administrative","name":"Siirt Merkez","name:ar":"سعرد","name:bg":"Сиирт","name:ce":"Сиирт","name:de":"Siirt","name:el":"Σύρτη","name:en":"Siirt","name:fa":"سعرد","name:hy":"Սղերդ","name:ja":"スィイルト","name:ka":"სიირთი","name:ko":"시이르트","name:ku":"Sêrt","name:ru":"Сиирт","name:sr":"Сирт","name:tr":"Siirt","name:tr:suffix":"İlçesi","name:uk":"Сіїрт","name:ur":"سعرد","name:zh":"錫爾特","name:zza":"Sêrt","network":"TR56-districts","type":"boundary","wikidata":"Q185084","wikipedia":"ku:Sêrt"}}]},"id":"relation/13853003"},
{"type":"Feature","geometry":{"type":"Polygon","coordinates":[[[41.9439912,37.9247145],[41.9458259,37.9248964],[41.9456824,37.9262664],[41.9436862,37.9263397],[41.9439912,37.9247145]]]},"properties":{"@id":"relation/13853004","admin_level":"8","boundary":"administrative","name":"Karakol Mahallesi","type":"boundary","@relations":[{"role":"subarea","rel":1246473,"reltags":{"admin_level":"6","boundary":"administrative","name":"Siirt Merkez","name:ar":"سعرد","name:bg":"Сиирт","name:ce":"Сиирт","name:de":"Siirt","name:el":"Σύρτη","name:en":"Siirt","name:fa":"سعرد","name:hy":"Սղերդ","name:ja":"スィイルト","name:ka":"სიირთი","name:ko":"시이르트","name:ku":"Sêrt","name:ru":"Сиирт","name:sr":"Сирт","name:tr":"Siirt","name:tr:suffix":"İlçesi","name:uk":"Сіїрт","name:ur":"سعرد","name:zh":"錫爾特","name:zza":"Sêrt","network":"TR56-districts","type":"boundary","wikidata":"Q185084","wikipedia":"ku:Sêrt"}}]},"id":"relation/13853004"},
{"type":"Feature","geometry":{"type":"Polygon","coordinates":[[[41.942364,37.9272058],[41.943456,37.9243123],[41.9439912,37.9247145],[41.9436862,37.9263397],[41.9457175,37.9270401],[41.9457115,37.9281194],[41.9433401,37.92763],[41.942364,37.9272058]]]},"properties":{"@id":"relation/13853005","admin_level":"8","boundary":"administrative","name":"Batı Mahallesi","type":"boundary","@relations":[{"role":"subarea","rel":1246473,"reltags":{"admin_level":"6","boundary":"administrative","name":"Siirt Merkez","name:ar":"سعرد","name:bg":"Сиирт","name:ce":"Сиирт","name:de":"Siirt","name:el":"Σύρτη","name:en":"Siirt","name:fa":"سعرد","name:hy":"Սղերդ","name:ja":"スィイルト","name:ka":"სიირთი","name:ko":"시이르트","name:ku":"Sêrt","name:ru":"Сиирт","name:sr":"Сирт","name:tr":"Siirt","name:tr:suffix":"İlçesi","name:uk":"Сіїрт","name:ur":"سعرد","name:zh":"錫爾特","name:zza":"Sêrt","network":"TR56-districts","type":"boundary","wikidata":"Q185084","wikipedia":"ku:Sêrt"}}]},"id":"relation/13853005"},
{"type":"Feature","geometry":{"type":"Polygon","coordinates":[[[41.9456824,37.9262664],[41.9458259,37.9248964],[41.9458516,37.924298],[41.9486769,37.9263499],[41.9456824,37.9262664]]]},"properties":{"@id":"relation/13853006","admin_level":"8","boundary":"administrative","name":"Sakarya Mahallesi","type":"boundary","@relations":[{"role":"subarea","rel":1246473,"reltags":{"admin_level":"6","boundary":"administrative","name":"Siirt Merkez","name:ar":"سعرد","name:bg":"Сиирт","name:ce":"Сиирт","name:de":"Siirt","name:el":"Σύρτη","name:en":"Siirt","name:fa":"سعرد","name:hy":"Սղերդ","name:ja":"スィイルト","name:ka":"სიირთი","name:ko":"시이르트","name:ku":"Sêrt","name:ru":"Сиирт","name:sr":"Сирт","name:tr":"Siirt","name:tr:suffix":"İlçesi","name:uk":"Сіїрт","name:ur":"سعرد","name:zh":"錫爾特","name:zza":"Sêrt","network":"TR56-districts","type":"boundary","wikidata":"Q185084","wikipedia":"ku:Sêrt"}}]},"id":"relation/13853006"},
{"type":"Feature","geometry":{"type":"Polygon","coordinates":[[[41.9458516,37.924298],[41.9458259,37.9248964],[41.9439912,37.9247145],[41.943456,37.9243123],[41.9458516,37.924298]]]},"properties":{"@id":"relation/13853007","admin_level":"8","boundary":"administrative","name":"İnönü Mahallesi","type":"boundary","@relations":[{"role":"subarea","rel":1246473,"reltags":{"admin_level":"6","boundary":"administrative","name":"Siirt Merkez","name:ar":"سعرد","name:bg":"Сиирт","name:ce":"Сиирт","name:de":"Siirt","name:el":"Σύρτη","name:en":"Siirt","name:fa":"سعرد","name:hy":"Սղերդ","name:ja":"スィイルト","name:ka":"სიირთი","name:ko":"시이르트","name:ku":"Sêrt","name:ru":"Сиирт","name:sr":"Сирт","name:tr":"Siirt","name:tr:suffix":"İlçesi","name:uk":"Сіїрт","name:ur":"سعرد","name:zh":"錫爾特","name:zza":"Sêrt","network":"TR56-districts","type":"boundary","wikidata":"Q185084","wikipedia":"ku:Sêrt"}}]},"id":"relation/13853007"},
{"type":"Feature","geometry":{"type":"Polygon","coordinates":[[[41.9470141,37.9284639],[41.9344991,37.9452374],[41.9371007,37.9394391],[41.9433401,37.92763],[41.9457115,37.9281194],[41.9470141,37.9284639]]]},"properties":{"@id":"relation/13853008","admin_level":"8","boundary":"administrative","name":"Yeni Mahallesi","type":"boundary","@relations":[{"role":"subarea","rel":1246473,"reltags":{"admin_level":"6","boundary":"administrative","name":"Siirt Merkez","name:ar":"سعرد","name:bg":"Сиирт","name:ce":"Сиирт","name:de":"Siirt","name:el":"Σύρτη","name:en":"Siirt","name:fa":"سعرد","name:hy":"Սղերդ","name:ja":"スィイルト","name:ka":"სიირთი","name:ko":"시이르트","name:ku":"Sêrt","name:ru":"Сиирт","name:sr":"Сирт","name:tr":"Siirt","name:tr:suffix":"İlçesi","name:uk":"Сіїрт","name:ur":"سعرد","name:zh":"錫爾特","name:zza":"Sêrt","network":"TR56-districts","type":"boundary","wikidata":"Q185084","wikipedia":"ku:Sêrt"}}]},"id":"relation/13853008"},
{"type":"Feature","geometry":{"type":"Polygon","coordinates":[[[42.00296,38.19421],[42.043,38.1682],[42.06905,38.20817],[42.00296,38.19421]]]},"properties":{"@id":"relation/14390556","admin_level":"8","boundary":"administrative","name":"Cevizdalı Köyü","type":"boundary","@relations":[{"role":"subarea","rel":1246472,"reltags":{"admin_level":"6","alt_name:ku":"Kufre","boundary":"administrative","name":"Şirvan","name:ce":"Ширван","name:de":"Şirvan","name:en":"Şirvan","name:fa":"شیروان","name:fr":"Şirvan","name:it":"Şirvan","name:ku":"Şêrwan","name:ru":"Ширван","name:tr":"Şirvan","name:tr:suffix":"İlçesi","name:uk":"Шірван","network":"TR56-districts","population":"21321","population:date":"2021","type":"boundary","wikidata":"Q172902","wikipedia":"tr:Şirvan, Siirt"}}]},"id":"relation/14390556"},
{"type":"Feature","geometry":{"type":"Polygon","coordinates":[[[41.9371007,37.9394391],[41.9344991,37.9452374],[41.9295466,37.9343865],[41.9371007,37.9394391]]]},"properties":{"@id":"relation/16652343","admin_level":"8","boundary":"administrative","name":"Kooperatif Mahallesi","type":"boundary","@relations":[{"role":"subarea","rel":1246473,"reltags":{"admin_level":"6","boundary":"administrative","name":"Siirt Merkez","name:ar":"سعرد","name:bg":"Сиирт","name:ce":"Сиирт","name:de":"Siirt","name:el":"Σύρτη","name:en":"Siirt","name:fa":"سعرد","name:hy":"Սղերդ","name:ja":"スィイルト","name:ka":"სიირთი","name:ko":"시이르트","name:ku":"Sêrt","name:ru":"Сиирт","name:sr":"Сирт","name:tr":"Siirt","name:tr:suffix":"İlçesi","name:uk":"Сіїрт","name:ur":"سعرد","name:zh":"錫爾特","name:zza":"Sêrt","network":"TR56-districts","type":"boundary","wikidata":"Q185084","wikipedia":"ku:Sêrt"}}]},"id":"relation/16652343"},
{"type":"Feature","geometry":{"type":"Polygon","coordinates":[[[41.942364,37.9272058],[41.9433401,37.92763],[41.9371007,37.9394391],[41.9295466,37.9343865],[41.942364,37.9272058]]]},"properties":{"@id":"relation/16652344","admin_level":"8","boundary":"administrative","name":"Bahçelievler Mahallesi","type":"boundary","@relations":[{"role":"subarea","rel":1246473,"reltags":{"admin_level":"6","boundary":"administrative","name":"Siirt Merkez","name:ar":"سعرد","name:bg":"Сиирт","name:ce":"Сиирт","name:de":"Siirt","name:el":"Σύρτη","name:en":"Siirt","name:fa":"سعرد","name:hy":"Սղերդ","name:ja":"スィイルト","name:ka":"სიირთი","name:ko":"시이르트","name:ku":"Sêrt","name:ru":"Сиирт","name:sr":"Сирт","name:tr":"Siirt","name:tr:suffix":"İlçesi","name:uk":"Сіїрт","name:ur":"سعرد","name:zh":"錫爾特","name:zza":"Sêrt","network":"TR56-districts","type":"boundary","wikidata":"Q185084","wikipedia":"ku:Sêrt"}}]},"id":"relation/16652344"},
{"type":"Feature","geometry":{"type":"Polygon","coordinates":[[[41.7066389,37.9335657],[41.686871,37.9300073],[41.6982221,37.9275446],[41.7028731,37.927058],[41.7066389,37.9335657]]]},"properties":{"@id":"relation/16652711","admin_level":"8","boundary":"administrative","name":"Sümer Mahallesi","type":"boundary","@relations":[{"role":"subarea","rel":1246476,"reltags":{"admin_level":"6","boundary":"administrative","name":"Kurtalan","name:ar":"كورتالان","name:ce":"Курталан","name:de":"Kurtalan","name:en":"Kurtalan","name:fa":"کورتالان","name:ku":"Misirc","name:ru":"Курталан","name:tr":"Kurtalan","name:tr:suffix":"İlçesi","name:ur":"کورتالان","name:zh":"庫爾塔蘭","network":"TR56-districts","population":"60592","population:date":"2021","type":"boundary","wikidata":"Q1004659","wikimedia_commons":"Category:Kurtalan","wikipedia":"tr:Kurtalan"}}]},"id":"relation/16652711"},
{"type":"Feature","geometry":{"type":"Polygon","coordinates":[[[41.7028731,37.927058],[41.7110538,37.9307435],[41.7066389,37.9335657],[41.7028731,37.927058]]]},"properties":{"@id":"relation/16652712","admin_level":"8","boundary":"administrative","name":"Bahçelievler Mahallesi","type":"boundary","@relations":[{"role":"subarea","rel":1246476,"reltags":{"admin_level":"6","boundary":"administrative","name":"Kurtalan","name:ar":"كورتالان","name:ce":"Курталан","name:de":"Kurtalan","name:en":"Kurtalan","name:fa":"کورتالان","name:ku":"Misirc","name:ru":"Курталан","name:tr":"Kurtalan","name:tr:suffix":"İlçesi","name:ur":"کورتالان","name:zh":"庫爾塔蘭","network":"TR56-districts","population":"60592","population:date":"2021","type":"boundary","wikidata":"Q1004659","wikimedia_commons":"Category:Kurtalan","wikipedia":"tr:Kurtalan"}}]},"id":"relation/16652712"},
{"type":"Feature","geometry":{"type":"Polygon","coordinates":[[[41.6982221,37.9275446],[41.686871,37.9300073],[41.6906476,37.9269268],[41.6982221,37.9275446]]]},"properties":{"@id":"relation/16652713","admin_level":"8","boundary":"administrative","name":"Cumhuriyet Mahallesi","type":"boundary","@relations":[{"role":"subarea","rel":1246476,"reltags":{"admin_level":"6","boundary":"administrative","name":"Kurtalan","name:ar":"كورتالان","name:ce":"Курталан","name:de":"Kurtalan","name:en":"Kurtalan","name:fa":"کورتالان","name:ku":"Misirc","name:ru":"Курталан","name:tr":"Kurtalan","name:tr:suffix":"İlçesi","name:ur":"کورتالان","name:zh":"庫爾塔蘭","network":"TR56-districts","population":"60592","population:date":"2021","type":"boundary","wikidata":"Q1004659","wikimedia_commons":"Category:Kurtalan","wikipedia":"tr:Kurtalan"}}]},"id":"relation/16652713"}
]}