{"type":"FeatureCollection", "features": [
{"type":"Feature","geometry":{"type":"Polygon","coordinates":[[[42.6303004,37.5149959],[42.6738689,37.5257948],[42.7467285,37.5153741],[42.8004774,37.5276893],[42.8948366,37.5314782],[42.9605297,37.526742],[43.0178618,37.5030568],[43.0321949,37.4708329],[43.0548888,37.4651449],[43.1313317,37.4566121],[43.1646823,37.429849],[43.1877229,37.4216236],[43.1898306,37.4132551],[43.2063101,37.4011193],[43.2186697,37.4041194],[43.2346342,37.3947097],[43.2566069,37.3891179],[43.2639883,37.3975737],[43.307247,37.3963463],[43.3419272,37.401767],[43.3156351,37.4635848],[43.3064872,37.4902144],[43.3078773,37.5360347],[43.3159642,37.542247],[43.3547944,37.5414138],[43.3958997,37.5437928],[43.4324556,37.5909264],[43.4754637,37.6320128],[43.4870128,37.6958689],[43.4991914,37.7417871],[43.3609592,37.7550213],[43.3072673,37.7496104],[43.2558907,37.7403513],[43.2110549,37.7353051],[43.1280437,37.7425169],[43.0778169,37.7525906],[42.967712,37.7553291],[42.9354872,37.7602812],[42.908538,37.7698422],[42.8845218,37.7668903],[42.8684188,37.6916233],[42.8407121,37.659676],[42.8318389,37.6158273],[42.7912246,37.591543],[42.7368169,37.5623915],[42.6885396,37.5593542],[42.6433276,37.5380898],[42.6303004,37.5149959]]]},"properties":{"@id":"relation/1751837","admin_level":"6","alt_name":"Beytüşebap","boundary":"administrative","name":"Beytüşşebap","name:ar":"بيت الشباب","name:ce":"Бейтуьшшебар","name:de":"Beytüşşebap","name:en":"Beytüşşebap","name:fa":"بیت‌الشباب","name:hy":"Բեթելշաբաբ","name:ku":"Elkê","name:ru":"Бейтюшшебап","name:tr":"Beytüşşebap","name:tr:suffix":"İlçesi","name:tt":"Бейтүшшебап","name:zza":"Beytuşşebab","network":"TR73-districts","type":"boundary","wikidata":"Q853401","wikipedia":"tr:Beytüşşebap"},"id":"relation/1751837"},
{"type":"Feature","geometry":{"type":"Polygon","coordinates":[[[42.3111482,37.2557036],[42.3180286,37.2744629],[42.3331894,37.3000122],[42.3421399,37.3492723],[42.3485803,37.359017],[42.3900895,37.376101],[42.3945369,37.3973033],[42.3611813,37.4102573],[42.2514784,37.4126124],[42.1773736,37.3935614],[42.1465203,37.3988988],[42.1150185,37.4122289],[42.1000726,37.3904111],[42.0830199,37.3858725],[42.0650827,37.3561407],[42.0413839,37.3486598],[42.0333585,37.3331995],[42.0417124,37.327619],[42.0433744,37.2803096],[41.9958404,37.2728332],[41.9927058,37.2659096],[42.012539,37.2524665],[42.0315146,37.2321675],[42.0279567,37.2099741],[42.00757,37.1946319],[41.960356,37.1920256],[41.9417252,37.187506],[41.9299902,37.1579926],[41.951487,37.157481],[41.9790302,37.1703183],[42.0087364,37.1797435],[42.0360602,37.182389],[42.0562622,37.1978588],[42.088023,37.2068869],[42.0983473,37.2236157],[42.180923,37.2839089],[42.1960697,37.3104072],[42.2071189,37.3185359],[42.2178443,37.3184776],[42.2249073,37.3160334],[42.2248659,37.3090458],[42.2079046,37.2917171],[42.2166358,37.277185],[42.2378275,37.2825018],[42.2572975,37.2721704],[42.2807808,37.2819202],[42.2929765,37.2612947],[42.3111482,37.2557036]]]},"properties":{"@id":"relation/1751838","admin_level":"6","alt_name:ckb":"جزیرا بۆتان","alt_name:ku":"Cizîra Botan","boundary":"administrative","name":"Cizre","name:ar":"جزيرة ابن عمر","name:ce":"Джизре","name:ckb":"جزیر","name:de":"Cizre","name:en":"Cizre","name:fa":"جزیره ابن عمر","name:he":"ג'יזרה","name:hy":"Գզիրա","name:ja":"ジズレ","name:ku":"Cizîr","name:ru":"Джизре","name:tr":"Cizre","name:tr:suffix":"İlçesi","name:tt":"Җизре","name:uk":"Джизре","name:ur":"جزیرہ ابن عمر","name:zh":"吉茲雷","name:zza":"Cizra","network":"TR73-districts","population":"155182","population:date":"2021","type":"boundary","wikidata":"Q821363","wikipedia":"tr:Cizre"},"id":"relation/1751838"},
{"type":"Feature","geometry":{"type":"Polygon","coordinates":[[[42.0950994,37.6213495],[42.0770672,37.6278065],[42.0614337,37.6203764],[42.0386903,37.6270648],[42.0052171,37.621234],[41.9828152,37.6347955],[41.9484431,37.6450957],[41.9108394,37.6656422],[41.8756129,37.6749273],[41.8201815,37.6771],[41.823759,37.64589],[41.8359977,37.6388175],[41.8300221,37.6280064],[41.8738842,37.6056463],[41.875694,37.5941917],[41.8967151,37.5796667],[41.8874989,37.5548721],[41.8678702,37.5458489],[41.8560314,37.534759],[41.8381786,37.5170607],[41.8512249,37.5020819],[41.8536688,37.4863162],[41.8486499,37.4670743],[41.8593415,37.4590258],[41.8463021,37.4442828],[41.863554,37.4195762],[41.8742919,37.4155659],[41.8880915,37.405717],[41.906116,37.4112688],[41.9379896,37.4134559],[41.9525351,37.4265592],[41.9710916,37.430213],[41.9915906,37.4236028],[42.0140774,37.4254774],[42.0829576,37.395313],[42.1000726,37.3904111],[42.1150185,37.4122289],[42.1023754,37.4309544],[42.0645723,37.473322],[42.0393703,37.4944968],[42.0356641,37.5203689],[42.0682785,37.5620983],[42.0950994,37.6213495]]]},"properties":{"@id":"relation/1751839","admin_level":"6","alt_name:ku":"Basan","boundary":"administrative","name":"Güçlükonak","name:ce":"Гуьчлуьконак","name:de":"Güçlükonak","name:en":"Güçlükonak","name:fa":"گوچلوکوناک","name:ku":"Basan","name:ru":"Гючлюконак","name:tr":"Güçlükonak","name:tr:suffix":"İlçesi","name:ur":"گوچلوکوناک","name:zza":"Basê","network":"TR73-districts","population":"11915","population:date":"2021","type":"boundary","wikidata":"Q1027277","wikipedia":"tr:Güçlükonak"},"id":"relation/1751839"},
{"type":"Feature","geometry":{"type":"Polygon","coordinates":[[[42.4671186,37.1407472],[42.477826,37.1355518],[42.5133288,37.1432957],[42.5343852,37.1430281],[42.5533855,37.1508827],[42.5704715,37.1438273],[42.6002994,37.1899204],[42.6182451,37.2058485],[42.6173124,37.218265],[42.6304191,37.2198316],[42.6367767,37.2328154],[42.6551473,37.2465799],[42.6502563,37.2565421],[42.6609594,37.2719592],[42.6975793,37.2916888],[42.6879197,37.3083068],[42.706639,37.3071412],[42.7241094,37.313284],[42.7360248,37.3302159],[42.7333262,37.3362198],[42.7079956,37.3354177],[42.6956251,37.3395029],[42.6724184,37.3589483],[42.6719762,37.3897725],[42.6394843,37.3978463],[42.6096977,37.3808806],[42.5581026,37.3856713],[42.5212615,37.3758966],[42.4541944,37.3772385],[42.4252988,37.3933393],[42.3945369,37.3973033],[42.3900895,37.376101],[42.3485803,37.359017],[42.3421399,37.3492723],[42.3331894,37.3000122],[42.3180286,37.2744629],[42.3111482,37.2557036],[42.3166113,37.2463907],[42.3403788,37.2359624],[42.3386367,37.2104209],[42.320445,37.1833483],[42.330074,37.1668174],[42.3306653,37.1537332],[42.3523227,37.1329998],[42.3620582,37.1151551],[42.3960244,37.1128813],[42.4090001,37.1220595],[42.4353714,37.1270072],[42.4456282,37.1384857],[42.4671186,37.1407472]]]},"properties":{"@id":"relation/1751840","admin_level":"6","alt_name:ckb":"سلۆپیا","alt_name:ku":"Silopiya","boundary":"administrative","name":"Silopi","name:ar":"سيلوبي","name:ce":"Силопи","name:ckb":"سلۆپیا","name:de":"Silopi","name:en":"Silopi","name:fa":"سیلوپی","name:ku":"Silopiya","name:ru":"Силопи","name:tr":"Silopi","name:tr:suffix":"İlçesi","name:uk":"Силопі","name:ur":"سیلوپی","name:zh":"斯洛比","name:zza":"Silopi","network":"TR73-districts","population":"141621","population:date":"2021","type":"boundary","wikidata":"Q1012881","wikipedia":"ku:Silopiya","wikipedia:tr":"Silopi"},"id":"relation/1751840"},
{"type":"Feature","geometry":{"type":"Polygon","coordinates":[[[42.6303004,37.5149959],[42.6348982,37.4967588],[42.6632515,37.4888546],[42.6839418,37.4669619],[42.6862407,37.4377616],[42.6739798,37.4128107],[42.6719762,37.3897725],[42.6724184,37.3589483],[42.6956251,37.3395029],[42.7079956,37.3354177],[42.7333262,37.3362198],[42.75356,37.34769],[42.7801542,37.3757219],[42.7936634,37.3806687],[42.8243848,37.3710545],[42.826802,37.34909],[42.8405737,37.3431599],[42.8513992,37.3481259],[42.8685028,37.3379923],[42.881182,37.338745],[42.897551,37.328715],[42.963463,37.315579],[42.973398,37.326067],[43.009301,37.331974],[43.034427,37.354045],[43.06063,37.357049],[43.0721182,37.3665084],[43.098958,37.3668],[43.1096362,37.3716949],[43.1433192,37.3729246],[43.1630911,37.3578154],[43.1947567,37.357442],[43.20074,37.350125],[43.220048,37.345871],[43.2348488,37.3481155],[43.250276,37.330154],[43.269248,37.328886],[43.269173,37.314408],[43.288443,37.312155],[43.301488,37.303705],[43.3313508,37.3270843],[43.3364705,37.3648175],[43.3345412,37.3786151],[43.3419272,37.401767],[43.307247,37.3963463],[43.2639883,37.3975737],[43.2566069,37.3891179],[43.2346342,37.3947097],[43.2186697,37.4041194],[43.2063101,37.4011193],[43.1898306,37.4132551],[43.1877229,37.4216236],[43.1646823,37.429849],[43.1313317,37.4566121],[43.0548888,37.4651449],[43.0321949,37.4708329],[43.0178618,37.5030568],[42.9605297,37.526742],[42.8948366,37.5314782],[42.8004774,37.5276893],[42.7467285,37.5153741],[42.6738689,37.5257948],[42.6303004,37.5149959]]]},"properties":{"@id":"relation/1751841","admin_level":"6","alt_name":"Qileban","boundary":"administrative","name":"Uludere","name:ce":"Улудере","name:de":"Uludere","name:en":"Uludere","name:fa":"اولودره","name:ku":"Qilaban","name:ru":"Улудере","name:tr":"Uludere","name:tr:suffix":"İlçesi","name:tt":"Улудере","name:ur":"اولودرے","name:zh":"烏盧代雷","name:zza":"Qılaban","network":"TR73-districts","old_name":"Guyan;Kılaban","type":"boundary","wikidata":"Q993707","wikipedia":"tr:Uludere"},"id":"relation/1751841"},
{"type":"Feature","geometry":{"type":"Polygon","coordinates":[[[41.8742919,37.4155659],[41.8590716,37.3973082],[41.8420878,37.3991201],[41.8337143,37.4077552],[41.8203817,37.4031802],[41.8054893,37.411784],[41.7685536,37.4186386],[41.7375319,37.4200262],[41.7244601,37.4294716],[41.7051701,37.4336662],[41.6998529,37.4191517],[41.6894636,37.4106953],[41.6656983,37.4150483],[41.6520103,37.4045227],[41.6324343,37.414774],[41.6303334,37.4291797],[41.6196171,37.4350037],[41.6200333,37.4475164],[41.5894929,37.4396931],[41.5990786,37.4301717],[41.6008892,37.4117733],[41.5871833,37.3987484],[41.5635332,37.3567124],[41.5711857,37.3471438],[41.5631112,37.3370518],[41.5767946,37.3231051],[41.5765084,37.2943185],[41.5501455,37.2844397],[41.5454871,37.275755],[41.5634882,37.2657187],[41.5665831,37.2496506],[41.6014409,37.2498335],[41.6053691,37.2578078],[41.638308,37.2725609],[41.6579555,37.2600824],[41.6474429,37.2469321],[41.6661835,37.222453],[41.6778963,37.1933009],[41.6797084,37.1771001],[41.6679663,37.1594007],[41.6645481,37.1176959],[41.6944368,37.1141237],[41.7935437,37.1278711],[41.823848,37.1377352],[41.8580017,37.1415671],[41.9299902,37.1579926],[41.9417252,37.187506],[41.960356,37.1920256],[42.00757,37.1946319],[42.0279567,37.2099741],[42.0315146,37.2321675],[42.012539,37.2524665],[41.9927058,37.2659096],[41.9958404,37.2728332],[42.0433744,37.2803096],[42.0417124,37.327619],[42.0333585,37.3331995],[42.0413839,37.3486598],[42.0650827,37.3561407],[42.0830199,37.3858725],[42.1000726,37.3904111],[42.0829576,37.395313],[42.0140774,37.4254774],[41.9915906,37.4236028],[41.9710916,37.430213],[41.9525351,37.4265592],[41.9379896,37.4134559],[41.906116,37.4112688],[41.8880915,37.405717],[41.8742919,37.4155659]]]},"properties":{"@id":"relation/1751842","admin_level":"6","boundary":"administrative","name":"İdil","name:ar":"إيدل","name:arc":"ܐܙܟ","name:ce":"Идил","name:ckb":"هەزەخ","name:de":"İdil","name:en":"İdil","name:fa":"ایدیل","name:hy":"Ազախ","name:ku":"Hezex","name:ru":"Идиль","name:tr":"İdil","name:tr:suffix":"İlçesi","name:tt":"Идил","name:ur":"ادیل","name:zh":"伊迪爾","name:zza":"Hezex","network":"TR73-districts","type":"boundary","wikidata":"Q4595546","wikipedia":"ku:Hezex"},"id":"relation/1751842"},
{"type":"Feature","geometry":{"type":"Polygon","coordinates":[[[42.1150185,37.4122289],[42.1465203,37.3988988],[42.1773736,37.3935614],[42.2514784,37.4126124],[42.3611813,37.4102573],[42.3945369,37.3973033],[42.4252988,37.3933393],[42.4541944,37.3772385],[42.5212615,37.3758966],[42.5581026,37.3856713],[42.6096977,37.3808806],[42.6394843,37.3978463],[42.6719762,37.3897725],[42.6739798,37.4128107],[42.6862407,37.4377616],[42.6839418,37.4669619],[42.6632515,37.4888546],[42.6348982,37.4967588],[42.6303004,37.5149959],[42.6433276,37.5380898],[42.6885396,37.5593542],[42.7368169,37.5623915],[42.7912246,37.591543],[42.8318389,37.6158273],[42.8407121,37.659676],[42.8242887,37.6601761],[42.778177,37.6786759],[42.6777418,37.6981708],[42.5848866,37.7191596],[42.5292998,37.7266541],[42.4920314,37.7256549],[42.4629746,37.7166612],[42.4433929,37.70017],[42.4219162,37.6921729],[42.4042103,37.6983782],[42.39064,37.711817],[42.3625655,37.709764],[42.3528558,37.6669243],[42.3239563,37.6604301],[42.3158829,37.6397712],[42.3022198,37.6348176],[42.2682082,37.6554115],[42.2639199,37.6419777],[42.2758208,37.6197218],[42.2794449,37.6026458],[42.2518786,37.589455],[42.234106,37.6029443],[42.1995481,37.6012269],[42.1536959,37.6066718],[42.1475023,37.6301986],[42.1193907,37.6297947],[42.0950994,37.6213495],[42.0682785,37.5620983],[42.0356641,37.5203689],[42.0393703,37.4944968],[42.0645723,37.473322],[42.1023754,37.4309544],[42.1150185,37.4122289]]]},"properties":{"@id":"relation/1751843","admin_level":"6","boundary":"administrative","name":"Şırnak Merkez","name:ar":"شرناق","name:arc":"ܫܝܪܢܐܟ","name:ce":"Ширнак","name:ckb":"شرنەخ","name:de":"Şırnak","name:el":"Σιρνάκ","name:en":"Şırnak","name:es":"Şırnak","name:fa":"شرناق","name:fr":"Şırnak","name:hy":"Շերնակ","name:it":"Şırnak","name:ja":"シュルナク","name:ka":"შირნაქი","name:ko":"시르나크","name:ku":"Şirnex","name:pt":"Şırnak","name:tr":"Şırnak Merkez","name:tr:suffix":"İlçesi","name:tt":"Шырнак","name:uk":"Ширнак","name:ur":"شرناق","name:vi":"Şırnak","name:zh":"舍爾納克","network":"TR73-districts","type":"boundary","wikidata":"Q647378","wikipedia":"ku:Şirnex (parêzgeh)"},"id":"relation/1751843"},
{"type":"Feature","geometry":{"type":"Polygon","coordinates":[[[42.4199208,37.2414792],[42.4334134,37.2482316],[42.4597982,37.2478616],[42.4602329,37.2545879],[42.4592305,37.2630959],[42.4422126,37.2680178],[42.4193415,37.2536921],[42.4199208,37.2414792]]]},"properties":{"@id":"relation/11292503","admin_level":"8","boundary":"administrative","name":"Yenişehir Mahallesi","type":"boundary","@relations":[{"role":"subarea","rel":1751840,"reltags":{"admin_level":"6","alt_name:ckb":"سلۆپیا","alt_name:ku":"Silopiya","boundary":"administrative","name":"Silopi","name:ar":"سيلوبي","name:ce":"Силопи","name:ckb":"سلۆپیا","name:de":"Silopi","name:en":"Silopi","name:fa":"سیلوپی","name:ku":"Silopiya","name:ru":"Силопи","name:tr":"Silopi","name:tr:suffix":"İlçesi","name:uk":"Силопі","name:ur":"سیلوپی","name:zh":"斯洛比","name:zza":"Silopi","network":"TR73-districts","population":"141621","population:date":"2021","type":"boundary","wikidata":"Q1012881","wikipedia":"ku:Silopiya","wikipedia:tr":"Silopi"}}]},"id":"relation/11292503"},
{"type":"Feature","geometry":{"type":"Polygon","coordinates":[[[42.4694881,37.2521027],[42.4602329,37.2545879],[42.4597982,37.2478616],[42.4678778,37.2473557],[42.4694881,37.2521027]]]},"properties":{"@id":"relation/11292504","admin_level":"8","boundary":"administrative","name":"Cudi Mahallesi","type":"boundary","@relations":[{"role":"subarea","rel":1751840,"reltags":{"admin_level":"6","alt_name:ckb":"سلۆپیا","alt_name:ku":"Silopiya","boundary":"administrative","name":"Silopi","name:ar":"سيلوبي","name:ce":"Силопи","name:ckb":"سلۆپیا","name:de":"Silopi","name:en":"Silopi","name:fa":"سیلوپی","name:ku":"Silopiya","name:ru":"Силопи","name:tr":"Silopi","name:tr:suffix":"İlçesi","name:uk":"Силопі","name:ur":"سیلوپی","name:zh":"斯洛比","name:zza":"Silopi","network":"TR73-districts","population":"141621","population:date":"2021","type":"boundary","wikidata":"Q1012881","wikipedia":"ku:Silopiya","wikipedia:tr":"Silopi"}}]},"id":"relation/11292504"},
{"type":"Feature","geometry":{"type":"Polygon","coordinates":[[[42.4698455,37.2527425],[42.4694881,37.2521027],[42.4678778,37.2473557],[42.4722452,37.2458553],[42.4730547,37.2515219],[42.4698455,37.2527425]]]},"properties":{"@id":"relation/11292505","admin_level":"8","boundary":"administrative","name":"Yeşiltepe Mahallesi","type":"boundary","@relations":[{"role":"subarea","rel":1751840,"reltags":{"admin_level":"6","alt_name:ckb":"سلۆپیا","alt_name:ku":"Silopiya","boundary":"administrative","name":"Silopi","name:ar":"سيلوبي","name:ce":"Силопи","name:ckb":"سلۆپیا","name:de":"Silopi","name:en":"Silopi","name:fa":"سیلوپی","name:ku":"Silopiya","name:ru":"Силопи","name:tr":"Silopi","name:tr:suffix":"İlçesi","name:uk":"Силопі","name:ur":"سیلوپی","name:zh":"斯洛比","name:zza":"Silopi","network":"TR73-districts","population":"141621","population:date":"2021","type":"boundary","wikidata":"Q1012881","wikipedia":"ku:Silopiya","wikipedia:tr":"Silopi"}}]},"id":"relation/11292505"},
{"type":"Feature","geometry":{"type":"Polygon","coordinates":[[[42.479468,37.2565805],[42.4730547,37.2515219],[42.4722452,37.2458553],[42.4739006,37.2449802],[42.479468,37.2565805]]]},"properties":{"@id":"relation/11292506","admin_level":"8","boundary":"administrative","name":"Karşıyaka Mahallesi","type":"boundary","@relations":[{"role":"subarea","rel":1751840,"reltags":{"admin_level":"6","alt_name:ckb":"سلۆپیا","alt_name:ku":"Silopiya","boundary":"administrative","name":"Silopi","name:ar":"سيلوبي","name:ce":"Силопи","name:ckb":"سلۆپیا","name:de":"Silopi","name:en":"Silopi","name:fa":"سیلوپی","name:ku":"Silopiya","name:ru":"Силопи","name:tr":"Silopi","name:tr:suffix":"İlçesi","name:uk":"Силопі","name:ur":"سیلوپی","name:zh":"斯洛比","name:zza":"Silopi","network":"TR73-districts","population":"141621","population:date":"2021","type":"boundary","wikidata":"Q1012881","wikipedia":"ku:Silopiya","wikipedia:tr":"Silopi"}}]},"id":"relation/11292506"},
{"type":"Feature","geometry":{"type":"Polygon","coordinates":[[[42.4803196,37.2579484],[42.479468,37.2565805],[42.4739006,37.2449802],[42.490949,37.2296683],[42.4968392,37.2327836],[42.5133474,37.2534299],[42.4888137,37.2652945],[42.4803196,37.2579484]]]},"properties":{"@id":"relation/11292507","admin_level":"8","boundary":"administrative","name":"Şehit Harun Boy Mahallesi","type":"boundary","@relations":[{"role":"subarea","rel":1751840,"reltags":{"admin_level":"6","alt_name:ckb":"سلۆپیا","alt_name:ku":"Silopiya","boundary":"administrative","name":"Silopi","name:ar":"سيلوبي","name:ce":"Силопи","name:ckb":"سلۆپیا","name:de":"Silopi","name:en":"Silopi","name:fa":"سیلوپی","name:ku":"Silopiya","name:ru":"Силопи","name:tr":"Silopi","name:tr:suffix":"İlçesi","name:uk":"Силопі","name:ur":"سیلوپی","name:zh":"斯洛比","name:zza":"Silopi","network":"TR73-districts","population":"141621","population:date":"2021","type":"boundary","wikidata":"Q1012881","wikipedia":"ku:Silopiya","wikipedia:tr":"Silopi"}}]},"id":"relation/11292507"},
{"type":"Feature","geometry":{"type":"Polygon","coordinates":[[[42.4739006,37.2449802],[42.4722452,37.2458553],[42.4477102,37.2267172],[42.4714389,37.219853],[42.490949,37.2296683],[42.4739006,37.2449802]]]},"properties":{"@id":"relation/11292508","admin_level":"8","boundary":"administrative","name":"Ofis Mahallesi","type":"boundary","@relations":[{"role":"subarea","rel":1751840,"reltags":{"admin_level":"6","alt_name:ckb":"سلۆپیا","alt_name:ku":"Silopiya","boundary":"administrative","name":"Silopi","name:ar":"سيلوبي","name:ce":"Силопи","name:ckb":"سلۆپیا","name:de":"Silopi","name:en":"Silopi","name:fa":"سیلوپی","name:ku":"Silopiya","name:ru":"Силопи","name:tr":"Silopi","name:tr:suffix":"İlçesi","name:uk":"Силопі","name:ur":"سیلوپی","name:zh":"斯洛比","name:zza":"Silopi","network":"TR73-districts","population":"141621","population:date":"2021","type":"boundary","wikidata":"Q1012881","wikipedia":"ku:Silopiya","wikipedia:tr":"Silopi"}}]},"id":"relation/11292508"},
{"type":"Feature","geometry":{"type":"Polygon","coordinates":[[[42.4722452,37.2458553],[42.4678778,37.2473557],[42.4597982,37.2478616],[42.4334134,37.2482316],[42.4199208,37.2414792],[42.4477102,37.2267172],[42.4722452,37.2458553]]]},"properties":{"@id":"relation/11292509","admin_level":"8","boundary":"administrative","name":"Dicle Mahallesi","type":"boundary","@relations":[{"role":"subarea","rel":1751840,"reltags":{"admin_level":"6","alt_name:ckb":"سلۆپیا","alt_name:ku":"Silopiya","boundary":"administrative","name":"Silopi","name:ar":"سيلوبي","name:ce":"Силопи","name:ckb":"سلۆپیا","name:de":"Silopi","name:en":"Silopi","name:fa":"سیلوپی","name:ku":"Silopiya","name:ru":"Силопи","name:tr":"Silopi","name:tr:suffix":"İlçesi","name:uk":"Силопі","name:ur":"سیلوپی","name:zh":"斯洛比","name:zza":"Silopi","network":"TR73-districts","population":"141621","population:date":"2021","type":"boundary","wikidata":"Q1012881","wikipedia":"ku:Silopiya","wikipedia:tr":"Silopi"}}]},"id":"relation/11292509"},
{"type":"Feature","geometry":{"type":"Polygon","coordinates":[[[42.479468,37.2565805],[42.4803196,37.2579484],[42.4771363,37.2596308],[42.4698455,37.2527425],[42.4730547,37.2515219],[42.479468,37.2565805]]]},"properties":{"@id":"relation/11292612","admin_level":"8","boundary":"administrative","name":"Barbaros Mahallesi","type":"boundary","@relations":[{"role":"subarea","rel":1751840,"reltags":{"admin_level":"6","alt_name:ckb":"سلۆپیا","alt_name:ku":"Silopiya","boundary":"administrative","name":"Silopi","name:ar":"سيلوبي","name:ce":"Силопи","name:ckb":"سلۆپیا","name:de":"Silopi","name:en":"Silopi","name:fa":"سیلوپی","name:ku":"Silopiya","name:ru":"Силопи","name:tr":"Silopi","name:tr:suffix":"İlçesi","name:uk":"Силопі","name:ur":"سیلوپی","name:zh":"斯洛比","name:zza":"Silopi","network":"TR73-districts","population":"141621","population:date":"2021","type":"boundary","wikidata":"Q1012881","wikipedia":"ku:Silopiya","wikipedia:tr":"Silopi"}}]},"id":"relation/11292612"},
{"type":"Feature","geometry":{"type":"Polygon","coordinates":[[[42.4635218,37.26088],[42.4698455,37.2527425],[42.4771363,37.2596308],[42.4635218,37.26088]]]},"properties":{"@id":"relation/11292613","admin_level":"8","boundary":"administrative","name":"Başak Mahallesi","type":"boundary","@relations":[{"role":"subarea","rel":1751840,"reltags":{"admin_level":"6","alt_name:ckb":"سلۆپیا","alt_name:ku":"Silopiya","boundary":"administrative","name":"Silopi","name:ar":"سيلوبي","name:ce":"Силопи","name:ckb":"سلۆپیا","name:de":"Silopi","name:en":"Silopi","name:fa":"سیلوپی","name:ku":"Silopiya","name:ru":"Силопи","name:tr":"Silopi","name:tr:suffix":"İlçesi","name:uk":"Силопі","name:ur":"سیلوپی","name:zh":"斯洛比","name:zza":"Silopi","network":"TR73-districts","population":"141621","population:date":"2021","type":"boundary","wikidata":"Q1012881","wikipedia":"ku:Silopiya","wikipedia:tr":"Silopi"}}]},"id":"relation/11292613"},
{"type":"Feature","geometry":{"type":"Polygon","coordinates":[[[42.4694881,37.2521027],[42.4698455,37.2527425],[42.4635218,37.26088],[42.4592305,37.2630959],[42.4602329,37.2545879],[42.4694881,37.2521027]]]},"properties":{"@id":"relation/11292614","admin_level":"8","boundary":"administrative","name":"Nuh Mahallesi","type":"boundary","@relations":[{"role":"subarea","rel":1751840,"reltags":{"admin_level":"6","alt_name:ckb":"سلۆپیا","alt_name:ku":"Silopiya","boundary":"administrative","name":"Silopi","name:ar":"سيلوبي","name:ce":"Силопи","name:ckb":"سلۆپیا","name:de":"Silopi","name:en":"Silopi","name:fa":"سیلوپی","name:ku":"Silopiya","name:ru":"Силопи","name:tr":"Silopi","name:tr:suffix":"İlçesi","name:uk":"Силопі","name:ur":"سیلوپی","name:zh":"斯洛比","name:zza":"Silopi","network":"TR73-districts","population":"141621","population:date":"2021","type":"boundary","wikidata":"Q1012881","wikipedia":"ku:Silopiya","wikipedia:tr":"Silopi"}}]},"id":"relation/11292614"},
{"type":"Feature","geometry":{"type":"Polygon","coordinates":[[[42.490949,37.2296683],[42.4714389,37.219853],[42.4972439,37.1931623],[42.5061605,37.1884833],[42.5115373,37.2106315],[42.5145019,37.2323889],[42.4968392,37.2327836],[42.490949,37.2296683]]]},"properties":{"@id":"relation/11292726","admin_level":"8","boundary":"administrative","name":"Cumhuriyet Mahallesi","type":"boundary","@relations":[{"role":"subarea","rel":1751840,"reltags":{"admin_level":"6","alt_name:ckb":"سلۆپیا","alt_name:ku":"Silopiya","boundary":"administrative","name":"Silopi","name:ar":"سيلوبي","name:ce":"Силопи","name:ckb":"سلۆپیا","name:de":"Silopi","name:en":"Silopi","name:fa":"سیلوپی","name:ku":"Silopiya","name:ru":"Силопи","name:tr":"Silopi","name:tr:suffix":"İlçesi","name:uk":"Силопі","name:ur":"سیلوپی","name:zh":"斯洛比","name:zza":"Silopi","network":"TR73-districts","population":"141621","population:date":"2021","type":"boundary","wikidata":"Q1012881","wikipedia":"ku:Silopiya","wikipedia:tr":"Silopi"}}]},"id":"relation/11292726"},
{"type":"Feature","geometry":{"type":"Polygon","coordinates":[[[41.9009765,37.4852123],[41.8886075,37.482593],[41.9072489,37.472404],[41.9316616,37.4647975],[41.9309428,37.472288],[41.924752,37.4810179],[41.9009765,37.4852123]]]},"properties":{"@id":"relation/11342233","admin_level":"8","boundary":"administrative","name":"Yeni Mahallesi","type":"boundary","@relations":[{"role":"subarea","rel":1751839,"reltags":{"admin_level":"6","alt_name:ku":"Basan","boundary":"administrative","name":"Güçlükonak","name:ce":"Гуьчлуьконак","name:de":"Güçlükonak","name:en":"Güçlükonak","name:fa":"گوچلوکوناک","name:ku":"Basan","name:ru":"Гючлюконак","name:tr":"Güçlükonak","name:tr:suffix":"İlçesi","name:ur":"گوچلوکوناک","name:zza":"Basê","network":"TR73-districts","population":"11915","population:date":"2021","type":"boundary","wikidata":"Q1027277","wikipedia":"tr:Güçlükonak"}}]},"id":"relation/11342233"},
{"type":"Feature","geometry":{"type":"Polygon","coordinates":[[[41.8918648,37.4546431],[41.9191637,37.4454632],[41.9401445,37.4543876],[41.9316616,37.4647975],[41.9072489,37.472404],[41.8886075,37.482593],[41.8858652,37.4811002],[41.8952622,37.4691016],[41.8918648,37.4546431]]]},"properties":{"@id":"relation/11342234","admin_level":"8","boundary":"administrative","name":"Bağlar Mahallesi","type":"boundary","@relations":[{"role":"subarea","rel":1751839,"reltags":{"admin_level":"6","alt_name:ku":"Basan","boundary":"administrative","name":"Güçlükonak","name:ce":"Гуьчлуьконак","name:de":"Güçlükonak","name:en":"Güçlükonak","name:fa":"گوچلوکوناک","name:ku":"Basan","name:ru":"Гючлюконак","name:tr":"Güçlükonak","name:tr:suffix":"İlçesi","name:ur":"گوچلوکوناک","name:zza":"Basê","network":"TR73-districts","population":"11915","population:date":"2021","type":"boundary","wikidata":"Q1027277","wikipedia":"tr:Güçlükonak"}}]},"id":"relation/11342234"},
{"type":"Feature","geometry":{"type":"Polygon","coordinates":[[[41.8593415,37.4590258],[41.8918648,37.4546431],[41.8952622,37.4691016],[41.8858652,37.4811002],[41.8806514,37.4882073],[41.8607409,37.4899728],[41.8536688,37.4863162],[41.8486499,37.4670743],[41.8593415,37.4590258]]]},"properties":{"@id":"relation/11343150","admin_level":"8","boundary":"administrative","name":"Damlabaşı Köyü","name:ku":"Dilopkê","type":"boundary","wikidata":"Q2689381","wikimedia_commons":"Category:Damlabaşı, Güçlükonak","wikipedia":"tr:Damlabaşı, Güçlükonak","@relations":[{"role":"subarea","rel":1751839,"reltags":{"admin_level":"6","alt_name:ku":"Basan","boundary":"administrative","name":"Güçlükonak","name:ce":"Гуьчлуьконак","name:de":"Güçlükonak","name:en":"Güçlükonak","name:fa":"گوچلوکوناک","name:ku":"Basan","name:ru":"Гючлюконак","name:tr":"Güçlükonak","name:tr:suffix":"İlçesi","name:ur":"گوچلوکوناک","name:zza":"Basê","network":"TR73-districts","population":"11915","population:date":"2021","type":"boundary","wikidata":"Q1027277","wikipedia":"tr:Güçlükonak"}}]},"id":"relation/11343150"},
{"type":"Feature","geometry":{"type":"Polygon","coordinates":[[[41.9007048,37.5174412],[41.8877344,37.5259699],[41.8748659,37.5247683],[41.878083,37.5118946],[41.8607409,37.4899728],[41.8806514,37.4882073],[41.8945837,37.5011759],[41.9007048,37.5174412]]]},"properties":{"@id":"relation/11343151","admin_level":"8","boundary":"administrative","name":"Akçakuşak Köyü","name:ku":"Şikefta Sipî","type":"boundary","wikidata":"Q6939810","wikipedia":"tr:Akçakuşak, Güçlükonak","@relations":[{"role":"subarea","rel":1751839,"reltags":{"admin_level":"6","alt_name:ku":"Basan","boundary":"administrative","name":"Güçlükonak","name:ce":"Гуьчлуьконак","name:de":"Güçlükonak","name:en":"Güçlükonak","name:fa":"گوچلوکوناک","name:ku":"Basan","name:ru":"Гючлюконак","name:tr":"Güçlükonak","name:tr:suffix":"İlçesi","name:ur":"گوچلوکوناک","name:zza":"Basê","network":"TR73-districts","population":"11915","population:date":"2021","type":"boundary","wikidata":"Q1027277","wikipedia":"tr:Güçlükonak"}}]},"id":"relation/11343151"},
{"type":"Feature","geometry":{"type":"Polygon","coordinates":[[[41.8748659,37.5247683],[41.8560314,37.534759],[41.8381786,37.5170607],[41.8512249,37.5020819],[41.8536688,37.4863162],[41.8607409,37.4899728],[41.878083,37.5118946],[41.8748659,37.5247683]]]},"properties":{"@id":"relation/11343152","admin_level":"8","boundary":"administrative","name":"Düğünyurdu Köyü","name:hy":"Տերունի","name:ku":"Tarûnê","type":"boundary","wikidata":"Q47256","wikipedia":"tr:Düğünyurdu, Güçlükonak","@relations":[{"role":"subarea","rel":1751839,"reltags":{"admin_level":"6","alt_name:ku":"Basan","boundary":"administrative","name":"Güçlükonak","name:ce":"Гуьчлуьконак","name:de":"Güçlükonak","name:en":"Güçlükonak","name:fa":"گوچلوکوناک","name:ku":"Basan","name:ru":"Гючлюконак","name:tr":"Güçlükonak","name:tr:suffix":"İlçesi","name:ur":"گوچلوکوناک","name:zza":"Basê","network":"TR73-districts","population":"11915","population:date":"2021","type":"boundary","wikidata":"Q1027277","wikipedia":"tr:Güçlükonak"}}]},"id":"relation/11343152"},
{"type":"Feature","geometry":{"type":"Polygon","coordinates":[[[41.8858652,37.4811002],[41.8886075,37.482593],[41.9009765,37.4852123],[41.9056582,37.5154025],[41.9007048,37.5174412],[41.8945837,37.5011759],[41.8806514,37.4882073],[41.8858652,37.4811002]]]},"properties":{"@id":"relation/11343153","admin_level":"8","boundary":"administrative","name":"Sağkol Köyü","name:ku":"Kanîhêjîr","type":"boundary","wikidata":"Q3671112","wikipedia":"tr:Sağkol, Güçlükonak","@relations":[{"role":"subarea","rel":1751839,"reltags":{"admin_level":"6","alt_name:ku":"Basan","boundary":"administrative","name":"Güçlükonak","name:ce":"Гуьчлуьконак","name:de":"Güçlükonak","name:en":"Güçlükonak","name:fa":"گوچلوکوناک","name:ku":"Basan","name:ru":"Гючлюконак","name:tr":"Güçlükonak","name:tr:suffix":"İlçesi","name:ur":"گوچلوکوناک","name:zza":"Basê","network":"TR73-districts","population":"11915","population:date":"2021","type":"boundary","wikidata":"Q1027277","wikipedia":"tr:Güçlükonak"}}]},"id":"relation/11343153"},
{"type":"Feature","geometry":{"type":"Polygon","coordinates":[[[41.9009765,37.4852123],[41.924752,37.4810179],[41.9309428,37.472288],[41.9526186,37.4886882],[41.9511539,37.4982887],[41.9243597,37.5014533],[41.9056582,37.5154025],[41.9009765,37.4852123]]]},"properties":{"@id":"relation/11343179","admin_level":"8","boundary":"administrative","name":"Çobankazanı Köyü","name:ku":"Şehrikan","type":"boundary","wikidata":"Q3669739","wikipedia":"tr:Çobankazanı, Güçlükonak","@relations":[{"role":"subarea","rel":1751839,"reltags":{"admin_level":"6","alt_name:ku":"Basan","boundary":"administrative","name":"Güçlükonak","name:ce":"Гуьчлуьконак","name:de":"Güçlükonak","name:en":"Güçlükonak","name:fa":"گوچلوکوناک","name:ku":"Basan","name:ru":"Гючлюконак","name:tr":"Güçlükonak","name:tr:suffix":"İlçesi","name:ur":"گوچلوکوناک","name:zza":"Basê","network":"TR73-districts","population":"11915","population:date":"2021","type":"boundary","wikidata":"Q1027277","wikipedia":"tr:Güçlükonak"}}]},"id":"relation/11343179"},
{"type":"Feature","geometry":{"type":"Polygon","coordinates":[[[41.9511539,37.4982887],[41.9530657,37.5236872],[41.9272773,37.5212767],[41.9177189,37.5288445],[41.9007048,37.5174412],[41.9056582,37.5154025],[41.9243597,37.5014533],[41.9511539,37.4982887]]]},"properties":{"@id":"relation/11343180","admin_level":"8","boundary":"administrative","name":"Fındık Beldesi Gümüşyazı Mahallesi","type":"boundary","@relations":[{"role":"subarea","rel":1751839,"reltags":{"admin_level":"6","alt_name:ku":"Basan","boundary":"administrative","name":"Güçlükonak","name:ce":"Гуьчлуьконак","name:de":"Güçlükonak","name:en":"Güçlükonak","name:fa":"گوچلوکوناک","name:ku":"Basan","name:ru":"Гючлюконак","name:tr":"Güçlükonak","name:tr:suffix":"İlçesi","name:ur":"گوچلوکوناک","name:zza":"Basê","network":"TR73-districts","population":"11915","population:date":"2021","type":"boundary","wikidata":"Q1027277","wikipedia":"tr:Güçlükonak"}}]},"id":"relation/11343180"},
{"type":"Feature","geometry":{"type":"Polygon","coordinates":[[[41.8874989,37.5548721],[41.8678702,37.5458489],[41.8560314,37.534759],[41.8748659,37.5247683],[41.8877344,37.5259699],[41.8874989,37.5548721]]]},"properties":{"@id":"relation/11343248","admin_level":"8","boundary":"administrative","name":"Koçtepe Köyü","name:ku":"Xeste","type":"boundary","wikidata":"Q47257","wikipedia":"tr:Koçtepe, Güçlükonak","@relations":[{"role":"subarea","rel":1751839,"reltags":{"admin_level":"6","alt_name:ku":"Basan","boundary":"administrative","name":"Güçlükonak","name:ce":"Гуьчлуьконак","name:de":"Güçlükonak","name:en":"Güçlükonak","name:fa":"گوچلوکوناک","name:ku":"Basan","name:ru":"Гючлюконак","name:tr":"Güçlükonak","name:tr:suffix":"İlçesi","name:ur":"گوچلوکوناک","name:zza":"Basê","network":"TR73-districts","population":"11915","population:date":"2021","type":"boundary","wikidata":"Q1027277","wikipedia":"tr:Güçlükonak"}}]},"id":"relation/11343248"},
{"type":"Feature","geometry":{"type":"Polygon","coordinates":[[[42.4644542,37.5265665],[42.4526524,37.5267112],[42.4551952,37.5235374],[42.4644542,37.5265665]]]},"properties":{"@id":"relation/12409866","admin_level":"8","boundary":"administrative","name":"Dicle Mahallesi","type":"boundary","@relations":[{"role":"subarea","rel":1751843,"reltags":{"admin_level":"6","boundary":"administrative","name":"Şırnak Merkez","name:ar":"شرناق","name:arc":"ܫܝܪܢܐܟ","name:ce":"Ширнак","name:ckb":"شرنەخ","name:de":"Şırnak","name:el":"Σιρνάκ","name:en":"Şırnak","name:es":"Şırnak","name:fa":"شرناق","name:fr":"Şırnak","name:hy":"Շերնակ","name:it":"Şırnak","name:ja":"シュルナク","name:ka":"შირნაქი","name:ko":"시르나크","name:ku":"Şirnex","name:pt":"Şırnak","name:tr":"Şırnak Merkez","name:tr:suffix":"İlçesi","name:tt":"Шырнак","name:uk":"Ширнак","name:ur":"شرناق","name:vi":"Şırnak","name:zh":"舍爾納克","network":"TR73-districts","type":"boundary","wikidata":"Q647378","wikipedia":"ku:Şirnex (parêzgeh)"}}]},"id":"relation/12409866"},
{"type":"Feature","geometry":{"type":"Polygon","coordinates":[[[42.4526524,37.5267112],[42.4535751,37.5198443],[42.4571232,37.52197],[42.4551952,37.5235374],[42.4526524,37.5267112]]]},"properties":{"@id":"relation/12409867","admin_level":"8","boundary":"administrative","name":"Atatürk Mahallesi","type":"boundary","@relations":[{"role":"subarea","rel":1751843,"reltags":{"admin_level":"6","boundary":"administrative","name":"Şırnak Merkez","name:ar":"شرناق","name:arc":"ܫܝܪܢܐܟ","name:ce":"Ширнак","name:ckb":"شرنەخ","name:de":"Şırnak","name:el":"Σιρνάκ","name:en":"Şırnak","name:es":"Şırnak","name:fa":"شرناق","name:fr":"Şırnak","name:hy":"Շերնակ","name:it":"Şırnak","name:ja":"シュルナク","name:ka":"შირნაქი","name:ko":"시르나크","name:ku":"Şirnex","name:pt":"Şırnak","name:tr":"Şırnak Merkez","name:tr:suffix":"İlçesi","name:tt":"Шырнак","name:uk":"Ширнак","name:ur":"شرناق","name:vi":"Şırnak","name:zh":"舍爾納克","network":"TR73-districts","type":"boundary","wikidata":"Q647378","wikipedia":"ku:Şirnex (parêzgeh)"}}]},"id":"relation/12409867"},
{"type":"Feature","geometry":{"type":"Polygon","coordinates":[[[42.4644542,37.5265665],[42.4551952,37.5235374],[42.4571232,37.52197],[42.4644542,37.5265665]]]},"properties":{"@id":"relation/12409868","admin_level":"8","boundary":"administrative","name":"Cumhuriyet Mahallesi","type":"boundary","@relations":[{"role":"subarea","rel":1751843,"reltags":{"admin_level":"6","boundary":"administrative","name":"Şırnak Merkez","name:ar":"شرناق","name:arc":"ܫܝܪܢܐܟ","name:ce":"Ширнак","name:ckb":"شرنەخ","name:de":"Şırnak","name:el":"Σιρνάκ","name:en":"Şırnak","name:es":"Şırnak","name:fa":"شرناق","name:fr":"Şırnak","name:hy":"Շերնակ","name:it":"Şırnak","name:ja":"シュルナク","name:ka":"შირნაქი","name:ko":"시르나크","name:ku":"Şirnex","name:pt":"Şırnak","name:tr":"Şırnak Merkez","name:tr:suffix":"İlçesi","name:tt":"Шырнак","name:uk":"Ширнак","name:ur":"شرناق","name:vi":"Şırnak","name:zh":"舍爾納克","network":"TR73-districts","type":"boundary","wikidata":"Q647378","wikipedia":"ku:Şirnex (parêzgeh)"}}]},"id":"relation/12409868"},
{"type":"Feature","geometry":{"type":"Polygon","coordinates":[[[42.1696123,37.3275161],[42.1848262,37.3264212],[42.1839374,37.3304406],[42.172356,37.334153],[42.1696123,37.3275161]]]},"properties":{"@id":"relation/13808685","admin_level":"8","boundary":"administrative","name":"Cudi Mahallesi","type":"boundary","@relations":[{"role":"subarea","rel":1751838,"reltags":{"admin_level":"6","alt_name:ckb":"جزیرا بۆتان","alt_name:ku":"Cizîra Botan","boundary":"administrative","name":"Cizre","name:ar":"جزيرة ابن عمر","name:ce":"Джизре","name:ckb":"جزیر","name:de":"Cizre","name:en":"Cizre","name:fa":"جزیره ابن عمر","name:he":"ג'יזרה","name:hy":"Գզիրա","name:ja":"ジズレ","name:ku":"Cizîr","name:ru":"Джизре","name:tr":"Cizre","name:tr:suffix":"İlçesi","name:tt":"Җизре","name:uk":"Джизре","name:ur":"جزیرہ ابن عمر","name:zh":"吉茲雷","name:zza":"Cizra","network":"TR73-districts","population":"155182","population:date":"2021","type":"boundary","wikidata":"Q821363","wikipedia":"tr:Cizre"}}]},"id":"relation/13808685"},
{"type":"Feature","geometry":{"type":"Polygon","coordinates":[[[42.180923,37.2839089],[42.1960697,37.3104072],[42.192323,37.3203006],[42.1858297,37.3230789],[42.1701445,37.3227487],[42.1556661,37.3161457],[42.153877,37.3014574],[42.1752993,37.2929227],[42.180923,37.2839089]]]},"properties":{"@id":"relation/13808717","admin_level":"8","boundary":"administrative","name":"Sur Mahallesi","type":"boundary","@relations":[{"role":"subarea","rel":1751838,"reltags":{"admin_level":"6","alt_name:ckb":"جزیرا بۆتان","alt_name:ku":"Cizîra Botan","boundary":"administrative","name":"Cizre","name:ar":"جزيرة ابن عمر","name:ce":"Джизре","name:ckb":"جزیر","name:de":"Cizre","name:en":"Cizre","name:fa":"جزیره ابن عمر","name:he":"ג'יזרה","name:hy":"Գզիրա","name:ja":"ジズレ","name:ku":"Cizîr","name:ru":"Джизре","name:tr":"Cizre","name:tr:suffix":"İlçesi","name:tt":"Җизре","name:uk":"Джизре","name:ur":"جزیرہ ابن عمر","name:zh":"吉茲雷","name:zza":"Cizra","network":"TR73-districts","population":"155182","population:date":"2021","type":"boundary","wikidata":"Q821363","wikipedia":"tr:Cizre"}}]},"id":"relation/13808717"},
{"type":"Feature","geometry":{"type":"Polygon","coordinates":[[[42.1848262,37.3264212],[42.1854076,37.3244782],[42.1894238,37.3270203],[42.1894874,37.3274824],[42.1855431,37.3324442],[42.1839374,37.3304406],[42.1848262,37.3264212]]]},"properties":{"@id":"relation/13817446","admin_level":"8","boundary":"administrative","name":"Şah Mahallesi","type":"boundary","@relations":[{"role":"subarea","rel":1751838,"reltags":{"admin_level":"6","alt_name:ckb":"جزیرا بۆتان","alt_name:ku":"Cizîra Botan","boundary":"administrative","name":"Cizre","name:ar":"جزيرة ابن عمر","name:ce":"Джизре","name:ckb":"جزیر","name:de":"Cizre","name:en":"Cizre","name:fa":"جزیره ابن عمر","name:he":"ג'יזרה","name:hy":"Գզիրա","name:ja":"ジズレ","name:ku":"Cizîr","name:ru":"Джизре","name:tr":"Cizre","name:tr:suffix":"İlçesi","name:tt":"Җизре","name:uk":"Джизре","name:ur":"جزیرہ ابن عمر","name:zh":"吉茲雷","name:zza":"Cizra","network":"TR73-districts","population":"155182","population:date":"2021","type":"boundary","wikidata":"Q821363","wikipedia":"tr:Cizre"}}]},"id":"relation/13817446"},
{"type":"Feature","geometry":{"type":"Polygon","coordinates":[[[42.194018,37.3312357],[42.1932276,37.3325266],[42.1855431,37.3324442],[42.1894874,37.3274824],[42.194018,37.3312357]]]},"properties":{"@id":"relation/13817447","admin_level":"8","boundary":"administrative","name":"Dicle Mahallesi","type":"boundary","@relations":[{"role":"subarea","rel":1751838,"reltags":{"admin_level":"6","alt_name:ckb":"جزیرا بۆتان","alt_name:ku":"Cizîra Botan","boundary":"administrative","name":"Cizre","name:ar":"جزيرة ابن عمر","name:ce":"Джизре","name:ckb":"جزیر","name:de":"Cizre","name:en":"Cizre","name:fa":"جزیره ابن عمر","name:he":"ג'יזרה","name:hy":"Գզիրա","name:ja":"ジズレ","name:ku":"Cizîr","name:ru":"Джизре","name:tr":"Cizre","name:tr:suffix":"İlçesi","name:tt":"Җизре","name:uk":"Джизре","name:ur":"جزیرہ ابن عمر","name:zh":"吉茲雷","name:zza":"Cizra","network":"TR73-districts","population":"155182","population:date":"2021","type":"boundary","wikidata":"Q821363","wikipedia":"tr:Cizre"}}]},"id":"relation/13817447"},
{"type":"Feature","geometry":{"type":"Polygon","coordinates":[[[42.1932276,37.3325266],[42.1936762,37.3394024],[42.1797866,37.3416886],[42.1769278,37.341807],[42.1855431,37.3324442],[42.1932276,37.3325266]]]},"properties":{"@id":"relation/13842107","admin_level":"8","boundary":"administrative","name":"Nur Mahallesi","type":"boundary","@relations":[{"role":"subarea","rel":1751838,"reltags":{"admin_level":"6","alt_name:ckb":"جزیرا بۆتان","alt_name:ku":"Cizîra Botan","boundary":"administrative","name":"Cizre","name:ar":"جزيرة ابن عمر","name:ce":"Джизре","name:ckb":"جزیر","name:de":"Cizre","name:en":"Cizre","name:fa":"جزیره ابن عمر","name:he":"ג'יזרה","name:hy":"Գզիրա","name:ja":"ジズレ","name:ku":"Cizîr","name:ru":"Джизре","name:tr":"Cizre","name:tr:suffix":"İlçesi","name:tt":"Җизре","name:uk":"Джизре","name:ur":"جزیرہ ابن عمر","name:zh":"吉茲雷","name:zza":"Cizra","network":"TR73-districts","population":"155182","population:date":"2021","type":"boundary","wikidata":"Q821363","wikipedia":"tr:Cizre"}}]},"id":"relation/13842107"},
{"type":"Feature","geometry":{"type":"Polygon","coordinates":[[[42.2071189,37.3185359],[42.1955144,37.329658],[42.194353,37.325315],[42.192323,37.3203006],[42.1960697,37.3104072],[42.2071189,37.3185359]]]},"properties":{"@id":"relation/13880335","admin_level":"8","boundary":"administrative","name":"Yafes Mahallesi","type":"boundary","@relations":[{"role":"subarea","rel":1751838,"reltags":{"admin_level":"6","alt_name:ckb":"جزیرا بۆتان","alt_name:ku":"Cizîra Botan","boundary":"administrative","name":"Cizre","name:ar":"جزيرة ابن عمر","name:ce":"Джизре","name:ckb":"جزیر","name:de":"Cizre","name:en":"Cizre","name:fa":"جزیره ابن عمر","name:he":"ג'יזרה","name:hy":"Գզիրա","name:ja":"ジズレ","name:ku":"Cizîr","name:ru":"Джизре","name:tr":"Cizre","name:tr:suffix":"İlçesi","name:tt":"Җизре","name:uk":"Джизре","name:ur":"جزیرہ ابن عمر","name:zh":"吉茲雷","name:zza":"Cizra","network":"TR73-districts","population":"155182","population:date":"2021","type":"boundary","wikidata":"Q821363","wikipedia":"tr:Cizre"}}]},"id":"relation/13880335"},
{"type":"Feature","geometry":{"type":"Polygon","coordinates":[[[42.2178443,37.3184776],[42.21023,37.3252135],[42.2148861,37.3544816],[42.1927667,37.3424194],[42.1936762,37.3394024],[42.1932276,37.3325266],[42.194018,37.3312357],[42.1955144,37.329658],[42.2071189,37.3185359],[42.2178443,37.3184776]]]},"properties":{"@id":"relation/13923203","admin_level":"8","boundary":"administrative","name":"Konak Mahallesi","type":"boundary","@relations":[{"role":"subarea","rel":1751838,"reltags":{"admin_level":"6","alt_name:ckb":"جزیرا بۆتان","alt_name:ku":"Cizîra Botan","boundary":"administrative","name":"Cizre","name:ar":"جزيرة ابن عمر","name:ce":"Джизре","name:ckb":"جزیر","name:de":"Cizre","name:en":"Cizre","name:fa":"جزیره ابن عمر","name:he":"ג'יזרה","name:hy":"Գզիրա","name:ja":"ジズレ","name:ku":"Cizîr","name:ru":"Джизре","name:tr":"Cizre","name:tr:suffix":"İlçesi","name:tt":"Җизре","name:uk":"Джизре","name:ur":"جزیرہ ابن عمر","name:zh":"吉茲雷","name:zza":"Cizra","network":"TR73-districts","population":"155182","population:date":"2021","type":"boundary","wikidata":"Q821363","wikipedia":"tr:Cizre"}}]},"id":"relation/13923203"},
{"type":"Feature","geometry":{"type":"Polygon","coordinates":[[[42.1894238,37.3270203],[42.1909004,37.3261522],[42.194353,37.325315],[42.1955144,37.329658],[42.194018,37.3312357],[42.1894874,37.3274824],[42.1894238,37.3270203]]]},"properties":{"@id":"relation/13923204","admin_level":"8","boundary":"administrative","name":"Kale Mahallesi","type":"boundary","@relations":[{"role":"subarea","rel":1751838,"reltags":{"admin_level":"6","alt_name:ckb":"جزیرا بۆتان","alt_name:ku":"Cizîra Botan","boundary":"administrative","name":"Cizre","name:ar":"جزيرة ابن عمر","name:ce":"Джизре","name:ckb":"جزیر","name:de":"Cizre","name:en":"Cizre","name:fa":"جزیره ابن عمر","name:he":"ג'יזרה","name:hy":"Գզիրա","name:ja":"ジズレ","name:ku":"Cizîr","name:ru":"Джизре","name:tr":"Cizre","name:tr:suffix":"İlçesi","name:tt":"Җизре","name:uk":"Джизре","name:ur":"جزیرہ ابن عمر","name:zh":"吉茲雷","name:zza":"Cizra","network":"TR73-districts","population":"155182","population:date":"2021","type":"boundary","wikidata":"Q821363","wikipedia":"tr:Cizre"}}]},"id":"relation/13923204"},
{"type":"Feature","geometry":{"type":"Polygon","coordinates":[[[42.192323,37.3203006],[42.1909004,37.3261522],[42.1894238,37.3270203],[42.1854076,37.3244782],[42.1858297,37.3230789],[42.192323,37.3203006]]]},"properties":{"@id":"relation/13925358","admin_level":"8","boundary":"administrative","name":"Dağ Kapı Mahallesi","type":"boundary","@relations":[{"role":"subarea","rel":1751838,"reltags":{"admin_level":"6","alt_name:ckb":"جزیرا بۆتان","alt_name:ku":"Cizîra Botan","boundary":"administrative","name":"Cizre","name:ar":"جزيرة ابن عمر","name:ce":"Джизре","name:ckb":"جزیر","name:de":"Cizre","name:en":"Cizre","name:fa":"جزیره ابن عمر","name:he":"ג'יזרה","name:hy":"Գզիրա","name:ja":"ジズレ","name:ku":"Cizîr","name:ru":"Джизре","name:tr":"Cizre","name:tr:suffix":"İlçesi","name:tt":"Җизре","name:uk":"Джизре","name:ur":"جزیرہ ابن عمر","name:zh":"吉茲雷","name:zza":"Cizra","network":"TR73-districts","population":"155182","population:date":"2021","type":"boundary","wikidata":"Q821363","wikipedia":"tr:Cizre"}}]},"id":"relation/13925358"},
{"type":"Feature","geometry":{"type":"Polygon","coordinates":[[[42.192323,37.3203006],[42.194353,37.325315],[42.1909004,37.3261522],[42.192323,37.3203006]]]},"properties":{"@id":"relation/13925364","admin_level":"8","boundary":"administrative","name":"Ali Bey Mahallesi","type":"boundary","@relations":[{"role":"subarea","rel":1751838,"reltags":{"admin_level":"6","alt_name:ckb":"جزیرا بۆتان","alt_name:ku":"Cizîra Botan","boundary":"administrative","name":"Cizre","name:ar":"جزيرة ابن عمر","name:ce":"Джизре","name:ckb":"جزیر","name:de":"Cizre","name:en":"Cizre","name:fa":"جزیره ابن عمر","name:he":"ג'יזרה","name:hy":"Գզիրա","name:ja":"ジズレ","name:ku":"Cizîr","name:ru":"Джизре","name:tr":"Cizre","name:tr:suffix":"İlçesi","name:tt":"Җизре","name:uk":"Джизре","name:ur":"جزیرہ ابن عمر","name:zh":"吉茲雷","name:zza":"Cizra","network":"TR73-districts","population":"155182","population:date":"2021","type":"boundary","wikidata":"Q821363","wikipedia":"tr:Cizre"}}]},"id":"relation/13925364"},
{"type":"Feature","geometry":{"type":"Polygon","coordinates":[[[42.1858297,37.3230789],[42.1854076,37.3244782],[42.1848262,37.3264212],[42.1696123,37.3275161],[42.1701445,37.3227487],[42.1858297,37.3230789]]]},"properties":{"@id":"relation/17223389","admin_level":"8","boundary":"administrative","name":"Caferi Sadık Mahallesi","type":"boundary","@relations":[{"role":"subarea","rel":1751838,"reltags":{"admin_level":"6","alt_name:ckb":"جزیرا بۆتان","alt_name:ku":"Cizîra Botan","boundary":"administrative","name":"Cizre","name:ar":"جزيرة ابن عمر","name:ce":"Джизре","name:ckb":"جزیر","name:de":"Cizre","name:en":"Cizre","name:fa":"جزیره ابن عمر","name:he":"ג'יזרה","name:hy":"Գզիրա","name:ja":"ジズレ","name:ku":"Cizîr","name:ru":"Джизре","name:tr":"Cizre","name:tr:suffix":"İlçesi","name:tt":"Җизре","name:uk":"Джизре","name:ur":"جزیرہ ابن عمر","name:zh":"吉茲雷","name:zza":"Cizra","network":"TR73-districts","population":"155182","population:date":"2021","type":"boundary","wikidata":"Q821363","wikipedia":"tr:Cizre"}}]},"id":"relation/17223389"},
{"type":"Feature","geometry":{"type":"Polygon","coordinates":[[[42.1855431,37.3324442],[42.1769278,37.341807],[42.172356,37.334153],[42.1839374,37.3304406],[42.1855431,37.3324442]]]},"properties":{"@id":"relation/17223390","admin_level":"8","boundary":"administrative","name":"Vatan Mahallesi","type":"boundary","@relations":[{"role":"subarea","rel":1751838,"reltags":{"admin_level":"6","alt_name:ckb":"جزیرا بۆتان","alt_name:ku":"Cizîra Botan","boundary":"administrative","name":"Cizre","name:ar":"جزيرة ابن عمر","name:ce":"Джизре","name:ckb":"جزیر","name:de":"Cizre","name:en":"Cizre","name:fa":"جزیره ابن عمر","name:he":"ג'יזרה","name:hy":"Գզիրա","name:ja":"ジズレ","name:ku":"Cizîr","name:ru":"Джизре","name:tr":"Cizre","name:tr:suffix":"İlçesi","name:tt":"Җизре","name:uk":"Джизре","name:ur":"جزیرہ ابن عمر","name:zh":"吉茲雷","name:zza":"Cizra","network":"TR73-districts","population":"155182","population:date":"2021","type":"boundary","wikidata":"Q821363","wikipedia":"tr:Cizre"}}]},"id":"relation/17223390"},
{"type":"Feature","geometry":{"type":"Polygon","coordinates":[[[42.1797866,37.3416886],[42.1936762,37.3394024],[42.1927667,37.3424194],[42.1797866,37.3416886]]]},"properties":{"@id":"relation/17223391","admin_level":"8","boundary":"administrative","name":"Fatih Mahallesi","type":"boundary","@relations":[{"role":"subarea","rel":1751838,"reltags":{"admin_level":"6","alt_name:ckb":"جزیرا بۆتان","alt_name:ku":"Cizîra Botan","boundary":"administrative","name":"Cizre","name:ar":"جزيرة ابن عمر","name:ce":"Джизре","name:ckb":"جزیر","name:de":"Cizre","name:en":"Cizre","name:fa":"جزیره ابن عمر","name:he":"ג'יזרה","name:hy":"Գզիրա","name:ja":"ジズレ","name:ku":"Cizîr","name:ru":"Джизре","name:tr":"Cizre","name:tr:suffix":"İlçesi","name:tt":"Җизре","name:uk":"Джизре","name:ur":"جزیرہ ابن عمر","name:zh":"吉茲雷","name:zza":"Cizra","network":"TR73-districts","population":"155182","population:date":"2021","type":"boundary","wikidata":"Q821363","wikipedia":"tr:Cizre"}}]},"id":"relation/17223391"},
{"type":"Feature","geometry":{"type":"Polygon","coordinates":[[[42.2148861,37.3544816],[42.21023,37.3252135],[42.2178443,37.3184776],[42.2249073,37.3160334],[42.2301999,37.3261182],[42.2310232,37.3512383],[42.2148861,37.3544816]]]},"properties":{"@id":"relation/17223392","admin_level":"8","boundary":"administrative","name":"Cumhuriyet Mahallesi","type":"boundary","@relations":[{"role":"subarea","rel":1751838,"reltags":{"admin_level":"6","alt_name:ckb":"جزیرا بۆتان","alt_name:ku":"Cizîra Botan","boundary":"administrative","name":"Cizre","name:ar":"جزيرة ابن عمر","name:ce":"Джизре","name:ckb":"جزیر","name:de":"Cizre","name:en":"Cizre","name:fa":"جزیره ابن عمر","name:he":"ג'יזרה","name:hy":"Գզիրա","name:ja":"ジズレ","name:ku":"Cizîr","name:ru":"Джизре","name:tr":"Cizre","name:tr:suffix":"İlçesi","name:tt":"Җизре","name:uk":"Джизре","name:ur":"جزیرہ ابن عمر","name:zh":"吉茲雷","name:zza":"Cizra","network":"TR73-districts","population":"155182","population:date":"2021","type":"boundary","wikidata":"Q821363","wikipedia":"tr:Cizre"}}]},"id":"relation/17223392"},
{"type":"Feature","geometry":{"type":"Polygon","coordinates":[[[42.4671186,37.1407472],[42.477826,37.1355518],[42.5133288,37.1432957],[42.5326352,37.1813732],[42.5250121,37.1983011],[42.5115373,37.2106315],[42.5061605,37.1884833],[42.4877772,37.1945453],[42.4713582,37.1730192],[42.4671186,37.1407472]]]},"properties":{"@id":"relation/17223393","admin_level":"8","boundary":"administrative","name":"Köprübaşı Mahallesi","type":"boundary"},"id":"relation/17223393"},
{"type":"Feature","geometry":{"type":"Polygon","coordinates":[[[41.8738576,37.3175207],[41.8795722,37.3249416],[41.8772321,37.3325157],[41.8834334,37.344492],[41.8755356,37.3518316],[41.8554362,37.3350018],[41.8554362,37.3232287],[41.8738576,37.3175207]]]},"properties":{"@id":"relation/18526192","admin_level":"8","boundary":"administrative","name":"Turgut Özal Mahallesi","type":"boundary","@relations":[{"role":"subarea","rel":1751842,"reltags":{"admin_level":"6","boundary":"administrative","name":"İdil","name:ar":"إيدل","name:arc":"ܐܙܟ","name:ce":"Идил","name:ckb":"هەزەخ","name:de":"İdil","name:en":"İdil","name:fa":"ایدیل","name:hy":"Ազախ","name:ku":"Hezex","name:ru":"Идиль","name:tr":"İdil","name:tr:suffix":"İlçesi","name:tt":"Идил","name:ur":"ادیل","name:zh":"伊迪爾","name:zza":"Hezex","network":"TR73-districts","type":"boundary","wikidata":"Q4595546","wikipedia":"ku:Hezex"}}]},"id":"relation/18526192"},
{"type":"Feature","geometry":{"type":"Polygon","coordinates":[[[41.8876767,37.3429863],[41.8834334,37.344492],[41.8772321,37.3325157],[41.8876767,37.3429863]]]},"properties":{"@id":"relation/18526193","admin_level":"8","boundary":"administrative","name":"Atakent Mahallesi","type":"boundary","@relations":[{"role":"subarea","rel":1751842,"reltags":{"admin_level":"6","boundary":"administrative","name":"İdil","name:ar":"إيدل","name:arc":"ܐܙܟ","name:ce":"Идил","name:ckb":"هەزەخ","name:de":"İdil","name:en":"İdil","name:fa":"ایدیل","name:hy":"Ազախ","name:ku":"Hezex","name:ru":"Идиль","name:tr":"İdil","name:tr:suffix":"İlçesi","name:tt":"Идил","name:ur":"ادیل","name:zh":"伊迪爾","name:zza":"Hezex","network":"TR73-districts","type":"boundary","wikidata":"Q4595546","wikipedia":"ku:Hezex"}}]},"id":"relation/18526193"},
{"type":"Feature","geometry":{"type":"Polygon","coordinates":[[[41.8772321,37.3325157],[41.8795722,37.3249416],[41.8992781,37.341192],[41.8876767,37.3429863],[41.8772321,37.3325157]]]},"properties":{"@id":"relation/18526475","admin_level":"8","boundary":"administrative","name":"Yukarı Mahallesi","type":"boundary","@relations":[{"role":"subarea","rel":1751842,"reltags":{"admin_level":"6","boundary":"administrative","name":"İdil","name:ar":"إيدل","name:arc":"ܐܙܟ","name:ce":"Идил","name:ckb":"هەزەخ","name:de":"İdil","name:en":"İdil","name:fa":"ایدیل","name:hy":"Ազախ","name:ku":"Hezex","name:ru":"Идиль","name:tr":"İdil","name:tr:suffix":"İlçesi","name:tt":"Идил","name:ur":"ادیل","name:zh":"伊迪爾","name:zza":"Hezex","network":"TR73-districts","type":"boundary","wikidata":"Q4595546","wikipedia":"ku:Hezex"}}]},"id":"relation/18526475"},
{"type":"Feature","geometry":{"type":"Polygon","coordinates":[[[41.8738576,37.3175207],[41.899538,37.3124835],[41.9347311,37.3191094],[41.9422404,37.3324932],[41.9383856,37.3556514],[41.8992781,37.341192],[41.8795722,37.3249416],[41.8738576,37.3175207]]]},"properties":{"@id":"relation/18526535","admin_level":"8","boundary":"administrative","name":"Aşağı Mahalle","type":"boundary","@relations":[{"role":"subarea","rel":1751842,"reltags":{"admin_level":"6","boundary":"administrative","name":"İdil","name:ar":"إيدل","name:arc":"ܐܙܟ","name:ce":"Идил","name:ckb":"هەزەخ","name:de":"İdil","name:en":"İdil","name:fa":"ایدیل","name:hy":"Ազախ","name:ku":"Hezex","name:ru":"Идиль","name:tr":"İdil","name:tr:suffix":"İlçesi","name:tt":"Идил","name:ur":"ادیل","name:zh":"伊迪爾","name:zza":"Hezex","network":"TR73-districts","type":"boundary","wikidata":"Q4595546","wikipedia":"ku:Hezex"}}]},"id":"relation/18526535"},
{"type":"Feature","geometry":{"type":"Polygon","coordinates":[[[41.8755356,37.3518316],[41.8834334,37.344492],[41.8876767,37.3429863],[41.8992781,37.341192],[41.9383856,37.3556514],[41.922968,37.366363],[41.9006921,37.3647151],[41.8755356,37.3518316]]]},"properties":{"@id":"relation/18526536","admin_level":"8","boundary":"administrative","name":"Yeni Mahalle","type":"boundary","@relations":[{"role":"subarea","rel":1751842,"reltags":{"admin_level":"6","boundary":"administrative","name":"İdil","name:ar":"إيدل","name:arc":"ܐܙܟ","name:ce":"Идил","name:ckb":"هەزەخ","name:de":"İdil","name:en":"İdil","name:fa":"ایدیل","name:hy":"Ազախ","name:ku":"Hezex","name:ru":"Идиль","name:tr":"İdil","name:tr:suffix":"İlçesi","name:tt":"Идил","name:ur":"ادیل","name:zh":"伊迪爾","name:zza":"Hezex","network":"TR73-districts","type":"boundary","wikidata":"Q4595546","wikipedia":"ku:Hezex"}}]},"id":"relation/18526536"}
]}