{"type":"FeatureCollection", "features": [
{"type":"Feature","geometry":{"type":"Polygon","coordinates":[[[39.1155485,39.0160837],[39.1907155,38.9806909],[39.2242106,38.9801502],[39.2910333,39.0056241],[39.3320423,39.0417793],[39.354493,39.0648425],[39.3580871,39.1196768],[39.3192522,39.1450381],[39.3220657,39.1955083],[39.3096478,39.2188545],[39.2113141,39.2023468],[39.1869449,39.2356438],[39.143772,39.2232774],[39.1061782,39.2488056],[38.9905754,39.2209782],[38.9399242,39.2232109],[38.9160361,39.2080187],[38.9580344,39.1607471],[39.0177229,39.1434288],[39.0471266,39.1212712],[39.0435217,39.0715787],[39.1215642,39.0420758],[39.1155485,39.0160837]]]},"properties":{"@id":"relation/1829324","admin_level":"6","border_type":"district","boundary":"administrative","name":"Hozat","name:ar":"خوزات","name:de":"Hozat","name:en":"Hozat","name:fa":"خوزات","name:hy":"Խոզաթ","name:ku":"Xozat","name:ru":"Хозат","name:tr":"Hozat","name:tr:suffix":"İlçesi","name:zza":"Xozat","network":"TR62-districts","population":"6891","population:date":"2018","type":"boundary","wikidata":"Q1004584","wikipedia":"ku:Xozat"},"id":"relation/1829324"},
{"type":"Feature","geometry":{"type":"Polygon","coordinates":[[[39.8631273,39.0536877],[39.7671834,39.0787269],[39.7232101,39.0607682],[39.6639491,39.0503328],[39.6183513,39.033695],[39.5595036,39.0510136],[39.5130009,39.0370624],[39.5169752,38.9847238],[39.5617241,38.9558034],[39.5940068,38.9454178],[39.6075931,38.9064812],[39.5833767,38.8251436],[39.5968486,38.8115281],[39.6457158,38.8176149],[39.6849483,38.7993203],[39.7181147,38.8339561],[39.7983838,38.8210601],[39.8139381,38.8580233],[39.8445993,38.8950277],[39.8674899,38.9070675],[39.8677662,38.9394116],[39.8992075,39.0163234],[39.8631273,39.0536877]]]},"properties":{"@id":"relation/1829325","admin_level":"6","alt_name":"Mezingirt","border_type":"district","boundary":"administrative","name":"Mazgirt","name:de":"Mazgirt","name:en":"Mazgirt","name:hy":"Մեծկերտ","name:ku":"Mêzgir","name:ru":"Мазгирт","name:tr":"Mazgirt","name:tr:suffix":"İlçesi","name:zza":"Mazgerd","network":"TR62-districts","old_name":"Medzgerd","population":"8430","population:date":"2018","type":"boundary","wikidata":"Q1023313","wikipedia":"tr:Mazgirt"},"id":"relation/1829325"},
{"type":"Feature","geometry":{"type":"Polygon","coordinates":[[[39.7671834,39.0787269],[39.8631273,39.0536877],[39.9092977,39.0971918],[39.9352308,39.1017112],[39.9427247,39.1553146],[39.9262527,39.1673625],[39.9385642,39.2262694],[40.0072973,39.2692533],[40.0089454,39.2902028],[40.0421818,39.32242],[40.0256257,39.3342451],[39.7870561,39.3371219],[39.7788913,39.2833819],[39.7507608,39.2394056],[39.7544598,39.213911],[39.7260588,39.1851829],[39.7555969,39.1184706],[39.7409675,39.1024941],[39.7671834,39.0787269]]]},"properties":{"@id":"relation/1829326","admin_level":"6","alt_name":"Nazimiye;Nazmiye","alt_name:ku":"Nazmiye","border_type":"district","boundary":"administrative","name":"Nazımiye","name:ar":"ناظمية","name:ce":"Назимийе","name:de":"Nazmiye","name:en":"Nazmiye","name:fa":"ناظمیه","name:hy":"Կըզլքիլիսա","name:ku":"Qisle","name:ota":"قزيل کليسا","name:ru":"Назымие","name:tr":"Nazmiye","name:tr:suffix":"İlçesi","name:tt":"Назымие","name:ur":"ناظمیہ","name:zza":"Nazmiya","network":"TR62-districts","population":"3599","population:date":"2018","type":"boundary","wikidata":"Q1023317","wikipedia":"tr:Nazımiye"},"id":"relation/1829326"},
{"type":"Feature","geometry":{"type":"Polygon","coordinates":[[[39.6140975,39.4467844],[39.5714469,39.4447097],[39.5423975,39.4734907],[39.5370242,39.5165103],[39.4933597,39.5000187],[39.4285442,39.5015735],[39.3299273,39.4583446],[39.298496,39.4544365],[39.2646585,39.4884862],[39.1969884,39.4676192],[39.1227697,39.4682673],[39.0750096,39.4529127],[39.0435602,39.384147],[38.9781902,39.3286613],[38.9553549,39.3524626],[38.933529,39.3242405],[38.8615606,39.3143787],[38.8230995,39.3263383],[38.7947093,39.2856564],[38.8265417,39.2658858],[38.8976844,39.2579147],[38.8847459,39.2259285],[38.9160361,39.2080187],[38.9399242,39.2232109],[38.9905754,39.2209782],[39.1061782,39.2488056],[39.143772,39.2232774],[39.1869449,39.2356438],[39.2113141,39.2023468],[39.3096478,39.2188545],[39.3594804,39.2352378],[39.4365859,39.2393329],[39.6228852,39.3227741],[39.694191,39.3625832],[39.6660085,39.3838824],[39.6140975,39.4467844]]]},"properties":{"@id":"relation/1829327","admin_level":"6","border_type":"district","boundary":"administrative","name":"Ovacık","name:de":"Ovacık","name:el":"Οβατζίκ","name:en":"Ovacık","name:hy":"Բլուր","name:ku":"Pulur","name:ru":"Оваджык","name:tr":"Ovacık","name:tr:suffix":"İlçesi","name:zza":"Pulur","network":"TR62-districts","population":"6998","population:date":"2018","type":"boundary","wikidata":"Q963947","wikipedia":"tr:Ovacık, Tunceli"},"id":"relation/1829327"},
{"type":"Feature","geometry":{"type":"Polygon","coordinates":[[[39.3320423,39.0417793],[39.2910333,39.0056241],[39.2242106,38.9801502],[39.1907155,38.9806909],[39.1155485,39.0160837],[39.0436076,39.0103141],[39.0594011,38.9840622],[39.0116124,38.9210988],[39.0041655,38.8904953],[39.0702665,38.8895488],[39.2052685,38.8567727],[39.2608185,38.8584358],[39.2645532,38.8438334],[39.3108215,38.8181687],[39.3708266,38.8045496],[39.3936006,38.7731696],[39.4287111,38.7869357],[39.4837427,38.7631676],[39.5066731,38.7876103],[39.5833767,38.8251436],[39.6075931,38.9064812],[39.5739044,38.9003022],[39.5261779,38.9587361],[39.4434659,38.9816469],[39.3320423,39.0417793]]]},"properties":{"@id":"relation/1829328","admin_level":"6","border_type":"district","boundary":"administrative","name":"Pertek","name:ar":"برتك","name:de":"Pertek","name:en":"Pertek","name:fa":"پرتک","name:hy":"Բերդակ","name:ku":"Pêrtag","name:ru":"Пертек","name:tr":"Pertek","name:tr:suffix":"İlçesi","name:zh":"佩爾泰克","name:zza":"Pêrtage","network":"TR62-districts","population":"11669","population:date":"2018","type":"boundary","wikidata":"Q990298","wikipedia":"ku:Pêrtag"},"id":"relation/1829328"},
{"type":"Feature","geometry":{"type":"Polygon","coordinates":[[[40.0421818,39.32242],[40.1152437,39.3016668],[40.1473126,39.3398527],[40.2371868,39.3677787],[40.2945898,39.4479917],[40.2820723,39.494102],[40.326321,39.5078521],[40.3965631,39.5529655],[40.3854213,39.5852197],[40.3626124,39.5901138],[40.2896187,39.5754405],[40.2209905,39.5690016],[40.1545388,39.5775289],[40.1369325,39.5647123],[40.0633063,39.5505634],[40.0130745,39.5680582],[39.873122,39.5891241],[39.8019051,39.6149985],[39.7887914,39.5791542],[39.8080337,39.5311242],[39.7208854,39.4925033],[39.6867985,39.4842096],[39.6140975,39.4467844],[39.6660085,39.3838824],[39.694191,39.3625832],[39.7178158,39.3716945],[39.7593261,39.3418375],[39.7870561,39.3371219],[40.0256257,39.3342451],[40.0421818,39.32242]]]},"properties":{"@id":"relation/1829329","admin_level":"6","alt_name:ku":"Pilemûriye","border_type":"district","boundary":"administrative","name":"Pülümür","name:ce":"Пуьлуьмуьр","name:de":"Pülümür","name:diq":"Pılemoriye","name:en":"Pülümür","name:hy":"Բոլոմոր","name:ku":"Pilemor","name:ru":"Пюлюмюр","name:tr":"Pülümür","name:tr:suffix":"İlçesi","name:tt":"Пүлүмүр","name:ur":"پولومور","name:zza":"Pılemoriye","network":"TR62-districts","old_name":"Plumuri","population":"3760","population:date":"2018","type":"boundary","wikidata":"Q1023268","wikipedia":"tr:Pülümür"},"id":"relation/1829329"},
{"type":"Feature","geometry":{"type":"Polygon","coordinates":[[[39.3096478,39.2188545],[39.3220657,39.1955083],[39.3192522,39.1450381],[39.3580871,39.1196768],[39.354493,39.0648425],[39.3320423,39.0417793],[39.4434659,38.9816469],[39.5261779,38.9587361],[39.5739044,38.9003022],[39.6075931,38.9064812],[39.5940068,38.9454178],[39.5617241,38.9558034],[39.5169752,38.9847238],[39.5130009,39.0370624],[39.5595036,39.0510136],[39.6183513,39.033695],[39.6639491,39.0503328],[39.7232101,39.0607682],[39.7671834,39.0787269],[39.7409675,39.1024941],[39.7555969,39.1184706],[39.7260588,39.1851829],[39.7544598,39.213911],[39.7507608,39.2394056],[39.7788913,39.2833819],[39.7870561,39.3371219],[39.7593261,39.3418375],[39.7178158,39.3716945],[39.694191,39.3625832],[39.6228852,39.3227741],[39.4365859,39.2393329],[39.3594804,39.2352378],[39.3096478,39.2188545]]]},"properties":{"@id":"relation/1829330","admin_level":"6","alt_name:ku":"Mamekiye","boundary":"administrative","name":"Tunceli Merkez","name:ar":"تونجلي","name:bg":"Тунджели","name:ce":"Тунджели","name:el":"Τούντζελι","name:fa":"تونجلی","name:he":"טונג'לי","name:hy":"Թունջելի","name:ja":"トゥンジェリ","name:ka":"თუნჯელი","name:ko":"툰젤리","name:ku":"Mamekî","name:ru":"Тунджели","name:tg":"Тунчели","name:tr":"Tunceli Merkez","name:tr:suffix":"İlçesi","name:tt":"Тунҗели","name:uk":"Тунджелі","name:ur":"تونجیلی","name:zh":"通傑利","name:zza":"Mamekiye","network":"TR62-districts","old_name":"Mamiki;Mameki;Dersim;Kalan;Qalan","population":"38429","population:date":"2020","type":"boundary","wikidata":"Q202195","wikipedia":"tr:Tunceli"},"id":"relation/1829330"},
{"type":"Feature","geometry":{"type":"Polygon","coordinates":[[[38.9160361,39.2080187],[38.8847459,39.2259285],[38.7575693,39.2111498],[38.7731016,39.1741537],[38.7628227,39.1502778],[38.7339867,39.1382435],[38.7499996,39.0449904],[38.7919,38.9618],[38.7514,38.9288],[38.7414,38.8864],[38.7745366,38.8668949],[38.8566666,38.8787147],[38.9156614,38.8938643],[39.0041655,38.8904953],[39.0116124,38.9210988],[39.0594011,38.9840622],[39.0436076,39.0103141],[39.1155485,39.0160837],[39.1215642,39.0420758],[39.0435217,39.0715787],[39.0471266,39.1212712],[39.0177229,39.1434288],[38.9580344,39.1607471],[38.9160361,39.2080187]]]},"properties":{"@id":"relation/1829331","admin_level":"6","alt_name":"Çemişkezek","alt_name:ku":"Melkişî","border_type":"district","boundary":"administrative","name":"Çemişgezek","name:de":"Çemişgezek","name:en":"Çemişgezek","name:hy":"Չմշկածագ","name:ku":"Melkişî","name:ota":"چمشکزک","name:tr":"Çemişgezek","name:tr:suffix":"İlçesi","name:zza":"Çemışgezeg","network":"TR62-districts","population":"8347","population:date":"2018","type":"boundary","wikidata":"Q2619996","wikipedia":"tr:Çemişgezek"},"id":"relation/1829331"},
{"type":"Feature","geometry":{"type":"Polygon","coordinates":[[[38.6886356,38.9002656],[38.6624014,38.8783888],[38.6486583,38.8250798],[38.6564432,38.7958537],[38.627254,38.77431],[38.6454501,38.7564414],[38.5684927,38.753607],[38.5421856,38.7641819],[38.5144592,38.751417],[38.5450912,38.7151814],[38.5854431,38.718901],[38.6232582,38.6884683],[38.6507333,38.6803968],[38.6891431,38.6492837],[38.7482825,38.671769],[38.8011074,38.6478711],[38.8580313,38.6489292],[38.8882584,38.6398044],[38.9114867,38.6707771],[38.9006151,38.7008346],[38.910979,38.7572781],[38.8795263,38.8120381],[38.9176592,38.8528624],[38.9156614,38.8938643],[38.8566666,38.8787147],[38.7745366,38.8668949],[38.7414,38.8864],[38.6886356,38.9002656]]]},"properties":{"@id":"relation/1830508","admin_level":"6","boundary":"administrative","name":"Keban","name:de":"Keban","name:en":"Keban","name:hy":"Կապան","name:ku":"Keban","name:ru":"Кебан","name:tr":"Keban","name:tr:suffix":"İlçesi","network":"TR23-districts","type":"boundary","wikidata":"Q1023265","wikipedia":"tr:Keban"},"id":"relation/1830508"},
{"type":"Feature","geometry":{"type":"Polygon","coordinates":[[[39.5509475,39.1017239],[39.5451035,39.1046243],[39.5345134,39.1155221],[39.5327368,39.0959461],[39.5509475,39.1017239]]]},"properties":{"@id":"relation/6682255","admin_level":"8","boundary":"administrative","name":"Cumhuriyet Mahallesi","type":"boundary","@relations":[{"role":"subarea","rel":1829330,"reltags":{"admin_level":"6","alt_name:ku":"Mamekiye","boundary":"administrative","name":"Tunceli Merkez","name:ar":"تونجلي","name:bg":"Тунджели","name:ce":"Тунджели","name:el":"Τούντζελι","name:fa":"تونجلی","name:he":"טונג'לי","name:hy":"Թունջելի","name:ja":"トゥンジェリ","name:ka":"თუნჯელი","name:ko":"툰젤리","name:ku":"Mamekî","name:ru":"Тунджели","name:tg":"Тунчели","name:tr":"Tunceli Merkez","name:tr:suffix":"İlçesi","name:tt":"Тунҗели","name:uk":"Тунджелі","name:ur":"تونجیلی","name:zh":"通傑利","name:zza":"Mamekiye","network":"TR62-districts","old_name":"Mamiki;Mameki;Dersim;Kalan;Qalan","population":"38429","population:date":"2020","type":"boundary","wikidata":"Q202195","wikipedia":"tr:Tunceli"}}]},"id":"relation/6682255"},
{"type":"Feature","geometry":{"type":"Polygon","coordinates":[[[39.5480603,39.1113293],[39.5345134,39.1155221],[39.5451035,39.1046243],[39.5480603,39.1113293]]]},"properties":{"@id":"relation/6682256","admin_level":"8","boundary":"administrative","name":"Alibaba Mahallesi","type":"boundary","@relations":[{"role":"subarea","rel":1829330,"reltags":{"admin_level":"6","alt_name:ku":"Mamekiye","boundary":"administrative","name":"Tunceli Merkez","name:ar":"تونجلي","name:bg":"Тунджели","name:ce":"Тунджели","name:el":"Τούντζελι","name:fa":"تونجلی","name:he":"טונג'לי","name:hy":"Թունջելի","name:ja":"トゥンジェリ","name:ka":"თუნჯელი","name:ko":"툰젤리","name:ku":"Mamekî","name:ru":"Тунджели","name:tg":"Тунчели","name:tr":"Tunceli Merkez","name:tr:suffix":"İlçesi","name:tt":"Тунҗели","name:uk":"Тунджелі","name:ur":"تونجیلی","name:zh":"通傑利","name:zza":"Mamekiye","network":"TR62-districts","old_name":"Mamiki;Mameki;Dersim;Kalan;Qalan","population":"38429","population:date":"2020","type":"boundary","wikidata":"Q202195","wikipedia":"tr:Tunceli"}}]},"id":"relation/6682256"},
{"type":"Feature","geometry":{"type":"Polygon","coordinates":[[[39.5480603,39.1113293],[39.5451035,39.1046243],[39.5509475,39.1017239],[39.5480603,39.1113293]]]},"properties":{"@id":"relation/6682257","admin_level":"8","boundary":"administrative","name":"Moğultay Mahallesi","type":"boundary","@relations":[{"role":"subarea","rel":1829330,"reltags":{"admin_level":"6","alt_name:ku":"Mamekiye","boundary":"administrative","name":"Tunceli Merkez","name:ar":"تونجلي","name:bg":"Тунджели","name:ce":"Тунджели","name:el":"Τούντζελι","name:fa":"تونجلی","name:he":"טונג'לי","name:hy":"Թունջելի","name:ja":"トゥンジェリ","name:ka":"თუნჯელი","name:ko":"툰젤리","name:ku":"Mamekî","name:ru":"Тунджели","name:tg":"Тунчели","name:tr":"Tunceli Merkez","name:tr:suffix":"İlçesi","name:tt":"Тунҗели","name:uk":"Тунджелі","name:ur":"تونجیلی","name:zh":"通傑利","name:zza":"Mamekiye","network":"TR62-districts","old_name":"Mamiki;Mameki;Dersim;Kalan;Qalan","population":"38429","population:date":"2020","type":"boundary","wikidata":"Q202195","wikipedia":"tr:Tunceli"}}]},"id":"relation/6682257"},
{"type":"Feature","geometry":{"type":"Polygon","coordinates":[[[39.2925559,38.839977],[39.3029068,38.8525347],[39.2868931,38.8696668],[39.2925559,38.839977]]]},"properties":{"@id":"relation/6690764","admin_level":"8","boundary":"administrative","name":"Kaledibi Mahallesi","type":"boundary","@relations":[{"role":"subarea","rel":1829328,"reltags":{"admin_level":"6","border_type":"district","boundary":"administrative","name":"Pertek","name:ar":"برتك","name:de":"Pertek","name:en":"Pertek","name:fa":"پرتک","name:hy":"Բերդակ","name:ku":"Pêrtag","name:ru":"Пертек","name:tr":"Pertek","name:tr:suffix":"İlçesi","name:zh":"佩爾泰克","name:zza":"Pêrtage","network":"TR62-districts","population":"11669","population:date":"2018","type":"boundary","wikidata":"Q990298","wikipedia":"ku:Pêrtag"}}]},"id":"relation/6690764"},
{"type":"Feature","geometry":{"type":"Polygon","coordinates":[[[39.2925559,38.839977],[39.3222087,38.8322465],[39.3461649,38.8515331],[39.3354355,38.8590776],[39.3123134,38.8520148],[39.3029068,38.8525347],[39.2925559,38.839977]]]},"properties":{"@id":"relation/6690765","admin_level":"8","boundary":"administrative","name":"Camikebir Mahallesi","type":"boundary","@relations":[{"role":"subarea","rel":1829328,"reltags":{"admin_level":"6","border_type":"district","boundary":"administrative","name":"Pertek","name:ar":"برتك","name:de":"Pertek","name:en":"Pertek","name:fa":"پرتک","name:hy":"Բերդակ","name:ku":"Pêrtag","name:ru":"Пертек","name:tr":"Pertek","name:tr:suffix":"İlçesi","name:zh":"佩爾泰克","name:zza":"Pêrtage","network":"TR62-districts","population":"11669","population:date":"2018","type":"boundary","wikidata":"Q990298","wikipedia":"ku:Pêrtag"}}]},"id":"relation/6690765"},
{"type":"Feature","geometry":{"type":"Polygon","coordinates":[[[39.2868931,38.8696668],[39.3029068,38.8525347],[39.3123134,38.8520148],[39.3162827,38.8774883],[39.2868931,38.8696668]]]},"properties":{"@id":"relation/6690766","admin_level":"8","boundary":"administrative","name":"Soğukpınar Mahallesi","type":"boundary","@relations":[{"role":"subarea","rel":1829328,"reltags":{"admin_level":"6","border_type":"district","boundary":"administrative","name":"Pertek","name:ar":"برتك","name:de":"Pertek","name:en":"Pertek","name:fa":"پرتک","name:hy":"Բերդակ","name:ku":"Pêrtag","name:ru":"Пертек","name:tr":"Pertek","name:tr:suffix":"İlçesi","name:zh":"佩爾泰克","name:zza":"Pêrtage","network":"TR62-districts","population":"11669","population:date":"2018","type":"boundary","wikidata":"Q990298","wikipedia":"ku:Pêrtag"}}]},"id":"relation/6690766"},
{"type":"Feature","geometry":{"type":"Polygon","coordinates":[[[39.3354355,38.8590776],[39.3162827,38.8774883],[39.3123134,38.8520148],[39.3354355,38.8590776]]]},"properties":{"@id":"relation/6690767","admin_level":"8","boundary":"administrative","name":"İstiklal Mahallesi","type":"boundary","@relations":[{"role":"subarea","rel":1829328,"reltags":{"admin_level":"6","border_type":"district","boundary":"administrative","name":"Pertek","name:ar":"برتك","name:de":"Pertek","name:en":"Pertek","name:fa":"پرتک","name:hy":"Բերդակ","name:ku":"Pêrtag","name:ru":"Пертек","name:tr":"Pertek","name:tr:suffix":"İlçesi","name:zh":"佩爾泰克","name:zza":"Pêrtage","network":"TR62-districts","population":"11669","population:date":"2018","type":"boundary","wikidata":"Q990298","wikipedia":"ku:Pêrtag"}}]},"id":"relation/6690767"},
{"type":"Feature","geometry":{"type":"Polygon","coordinates":[[[39.3461649,38.8515331],[39.3222087,38.8322465],[39.3678817,38.834959],[39.3461649,38.8515331]]]},"properties":{"@id":"relation/6690769","admin_level":"8","boundary":"administrative","name":"Derebaşı Mahallesi","type":"boundary","@relations":[{"role":"subarea","rel":1829328,"reltags":{"admin_level":"6","border_type":"district","boundary":"administrative","name":"Pertek","name:ar":"برتك","name:de":"Pertek","name:en":"Pertek","name:fa":"پرتک","name:hy":"Բերդակ","name:ku":"Pêrtag","name:ru":"Пертек","name:tr":"Pertek","name:tr:suffix":"İlçesi","name:zh":"佩爾泰克","name:zza":"Pêrtage","network":"TR62-districts","population":"11669","population:date":"2018","type":"boundary","wikidata":"Q990298","wikipedia":"ku:Pêrtag"}}]},"id":"relation/6690769"},
{"type":"Feature","geometry":{"type":"Polygon","coordinates":[[[38.6886356,38.9002656],[38.7300432,38.8547035],[38.7745366,38.8668949],[38.7414,38.8864],[38.6886356,38.9002656]]]},"properties":{"@id":"relation/18956130","admin_level":"8","boundary":"administrative","name":"Dürümlü Köyü","type":"boundary"},"id":"relation/18956130"}
]}