{"type":"FeatureCollection", "features": [
{"type":"Feature","geometry":{"type":"Polygon","coordinates":[[[29.1898735,38.567185],[29.2619852,38.5890727],[29.3001598,38.568543],[29.3406741,38.5332581],[29.400755,38.5276758],[29.4244409,38.5097281],[29.4371258,38.4642585],[29.4601453,38.4568682],[29.5133203,38.4691249],[29.5158525,38.5033604],[29.5021127,38.5484836],[29.5648408,38.6013483],[29.6393665,38.6290024],[29.6192244,38.6937118],[29.6340361,38.7803852],[29.5867694,38.8115943],[29.5396857,38.8102633],[29.5238598,38.8483701],[29.5567727,38.9016901],[29.519617,38.9046768],[29.5058235,38.8679826],[29.4778983,38.8507698],[29.4445386,38.8526042],[29.3970641,38.8714766],[29.3751825,38.8624823],[29.3276438,38.8160793],[29.2814612,38.7929113],[29.247068,38.7928845],[29.2169952,38.8123081],[29.1811761,38.8534803],[29.141395,38.8563557],[29.1186319,38.8444937],[29.0662192,38.7903525],[29.0383089,38.7284834],[28.9362716,38.6933482],[28.9023685,38.6989083],[28.8450497,38.6932602],[28.8334009,38.675097],[28.8454626,38.6448973],[28.8268161,38.5792389],[28.8837919,38.5797423],[28.9070584,38.6151409],[28.9717223,38.6479741],[29.0174353,38.6273538],[29.022888,38.6006377],[29.0822204,38.5975825],[29.1121596,38.5830218],[29.1898735,38.567185]]]},"properties":{"@id":"relation/1609669","admin_level":"6","boundary":"administrative","name":"Uşak Merkez","name:be":"Ушак","name:bg":"Ушак","name:ce":"Ушак","name:el":"Ουσάκ","name:fa":"عشاق","name:hy":"Ուշաք","name:ja":"ウシャク","name:ka":"უშაქი","name:ko":"우샤크","name:lt":"Ušakas","name:pa":"ਉਸ਼ਾਕ","name:ru":"Ушак","name:tg":"Ушоқ","name:tr":"Uşak","name:tr:suffix":"İlçesi","name:ur":"عشاق","name:zh":"烏沙克","network":"TR64-districts","type":"boundary","wikidata":"Q189134","wikipedia":"tr:Uşak"},"id":"relation/1609669"},
{"type":"Feature","geometry":{"type":"Polygon","coordinates":[[[28.7486082,38.3711344],[28.834444,38.3090161],[28.8695194,38.2325753],[28.9103625,38.2480927],[28.9415249,38.2313094],[28.9948492,38.2431847],[29.0450495,38.2192873],[29.0636229,38.2399161],[29.100616,38.2410958],[29.1647677,38.2230191],[29.1311277,38.2725073],[29.1209991,38.4003984],[29.1082924,38.4533449],[29.1250506,38.4756948],[29.1663015,38.4901104],[29.1386781,38.5104315],[29.1344425,38.5414066],[29.1898735,38.567185],[29.1121596,38.5830218],[29.0822204,38.5975825],[29.022888,38.6006377],[29.0174353,38.6273538],[28.9717223,38.6479741],[28.9070584,38.6151409],[28.8837919,38.5797423],[28.8268161,38.5792389],[28.8034056,38.525876],[28.8018606,38.4926974],[28.8259796,38.4694922],[28.8110315,38.4289767],[28.7486082,38.3711344]]]},"properties":{"@id":"relation/1609670","admin_level":"6","boundary":"administrative","name":"Eşme","name:ce":"Эшме","name:fa":"اشمه","name:ru":"Эшме","name:tr":"Eşme","name:tr:suffix":"İlçesi","name:ur":"اشمے","name:zh":"埃什梅","network":"TR64-districts","type":"boundary","wikidata":"Q1004540","wikipedia":"tr:Eşme"},"id":"relation/1609670"},
{"type":"Feature","geometry":{"type":"Polygon","coordinates":[[[29.6082847,38.3916854],[29.6232188,38.4176195],[29.6701372,38.4151036],[29.6694662,38.4387954],[29.7363104,38.4618187],[29.7588614,38.4510233],[29.7978896,38.4560795],[29.8281553,38.5091365],[29.8359357,38.5564773],[29.774606,38.5990995],[29.7389258,38.6368695],[29.6393665,38.6290024],[29.5648408,38.6013483],[29.5021127,38.5484836],[29.5158525,38.5033604],[29.5133203,38.4691249],[29.5391022,38.4602931],[29.5948281,38.4176604],[29.6082847,38.3916854]]]},"properties":{"@id":"relation/1609671","admin_level":"6","boundary":"administrative","name":"Sivaslı","name:ce":"Сивасли","name:de":"Sivaslı","name:en":"Sivaslı","name:tr":"Sivaslı","name:tr:suffix":"İlçesi","name:tt":"Сиваслы","name:ur":"سیواسلی","network":"TR64-districts","type":"boundary","wikidata":"Q1022144","wikipedia":"tr:Sivaslı"},"id":"relation/1609671"},
{"type":"Feature","geometry":{"type":"Polygon","coordinates":[[[29.1647677,38.2230191],[29.1819836,38.2147799],[29.1880917,38.1772316],[29.2208672,38.193141],[29.2117344,38.2134377],[29.2981249,38.2991421],[29.3538305,38.3221529],[29.4202487,38.3197366],[29.4251487,38.3546121],[29.4463336,38.3933887],[29.4601453,38.4568682],[29.4371258,38.4642585],[29.4244409,38.5097281],[29.400755,38.5276758],[29.3406741,38.5332581],[29.3001598,38.568543],[29.2619852,38.5890727],[29.1898735,38.567185],[29.1344425,38.5414066],[29.1386781,38.5104315],[29.1663015,38.4901104],[29.1250506,38.4756948],[29.1082924,38.4533449],[29.1209991,38.4003984],[29.1311277,38.2725073],[29.1647677,38.2230191]]]},"properties":{"@id":"relation/1609672","admin_level":"6","boundary":"administrative","name":"Ulubey","name:ce":"Улубей","name:de":"Ulubey","name:en":"Ulubey","name:tr":"Ulubey","name:tr:suffix":"İlçesi","name:tt":"Улубей","name:ur":"اولوبے","network":"TR64-districts","type":"boundary","wikidata":"Q1816898","wikimedia_commons":"Category:Ulubey, Uşak","wikipedia":"tr:Ulubey, Uşak"},"id":"relation/1609672"},
{"type":"Feature","geometry":{"type":"Polygon","coordinates":[[[29.6393665,38.6290024],[29.7389258,38.6368695],[29.774606,38.5990995],[29.8359357,38.5564773],[29.8652359,38.5835913],[29.903097,38.6460851],[29.918776,38.7082179],[29.9718141,38.7410786],[30.0026118,38.7420068],[30.0237357,38.8374011],[29.9623733,38.8320428],[29.9483228,38.8645896],[29.9183778,38.8984669],[29.8790458,38.9160175],[29.8209779,38.9078462],[29.7657018,38.918823],[29.7059538,38.9176928],[29.6418155,38.9330098],[29.5567727,38.9016901],[29.5238598,38.8483701],[29.5396857,38.8102633],[29.5867694,38.8115943],[29.6340361,38.7803852],[29.6192244,38.6937118],[29.6393665,38.6290024]]]},"properties":{"@id":"relation/1609673","admin_level":"6","boundary":"administrative","name":"Banaz","name:ar":"باناز","name:ce":"Баназ","name:de":"Banaz","name:el":"Μπανάζ","name:en":"Banaz","name:fa":"باناز","name:tr":"Banaz","name:tr:suffix":"İlçesi","name:tt":"Баназ","name:ur":"باناز","name:zh":"巴納茲","network":"TR64-districts","type":"boundary","wikidata":"Q669172","wikipedia":"tr:Banaz"},"id":"relation/1609673"},
{"type":"Feature","geometry":{"type":"Polygon","coordinates":[[[29.4601453,38.4568682],[29.4463336,38.3933887],[29.4251487,38.3546121],[29.4202487,38.3197366],[29.4264085,38.302715],[29.4821141,38.27276],[29.5307226,38.2890528],[29.546122,38.2718138],[29.6078535,38.2546759],[29.6249936,38.3004031],[29.6228511,38.3527176],[29.6470884,38.3646879],[29.6082847,38.3916854],[29.5948281,38.4176604],[29.5391022,38.4602931],[29.5133203,38.4691249],[29.4601453,38.4568682]]]},"properties":{"@id":"relation/1609674","admin_level":"6","boundary":"administrative","name":"Karahallı","name:ce":"КарахӀалли","name:tr":"Karahallı","name:tr:suffix":"İlçesi","name:tt":"Карахаллы","name:ur":"قرہ حالی","network":"TR64-districts","type":"boundary","wikidata":"Q1352472","wikipedia":"tr:Karahallı"},"id":"relation/1609674"},
{"type":"Feature","geometry":{"type":"Polygon","coordinates":[[[29.0678872,38.8718589],[29.1054837,38.863653],[29.1186319,38.8444937],[29.141395,38.8563557],[29.1811761,38.8534803],[29.2324486,38.914624],[29.2318673,38.951992],[29.3007624,38.9809885],[29.3115487,39.0515724],[29.274875,39.0796745],[29.2075703,39.0928845],[29.1351486,39.0341986],[29.1540463,39.0085809],[29.1594007,38.9695641],[29.194881,38.940794],[29.1925882,38.9087322],[29.1611329,38.9123101],[29.0678872,38.8718589]]]},"properties":{"@id":"relation/1669549","admin_level":"6","boundary":"administrative","name":"Şaphane","name:ce":"ШапхӀане","name:fa":"شبخانه","name:tr":"Şaphane","name:tr:suffix":"İlçesi","name:tt":"Шапхане","network":"TR43-districts","type":"boundary","wikidata":"Q953775","wikipedia":"tr:Şaphane, Kütahya"},"id":"relation/1669549"},
{"type":"Feature","geometry":{"type":"Polygon","coordinates":[[[28.6117642,38.7358384],[28.5715836,38.7337166],[28.5468812,38.7137477],[28.4918164,38.6935895],[28.4425331,38.6468946],[28.4536143,38.5998344],[28.4199347,38.5742262],[28.4747227,38.5070895],[28.4711461,38.4758958],[28.5286276,38.4762958],[28.5710362,38.456693],[28.6193207,38.4498908],[28.6619848,38.4076627],[28.6939189,38.4190728],[28.7174225,38.3864393],[28.7486082,38.3711344],[28.8110315,38.4289767],[28.8259796,38.4694922],[28.8018606,38.4926974],[28.8034056,38.525876],[28.8268161,38.5792389],[28.8454626,38.6448973],[28.8334009,38.675097],[28.8450497,38.6932602],[28.7767123,38.6941521],[28.746073,38.7099364],[28.7182775,38.6788308],[28.6610514,38.6882436],[28.6117642,38.7358384]]]},"properties":{"@id":"relation/1821205","admin_level":"6","boundary":"administrative","name":"Kula","name:ce":"Кула","name:fa":"کولا","name:ru":"Кула","name:tr":"Kula","name:tr:suffix":"İlçesi","name:tt":"Кула","name:ur":"کولا","name:zh":"庫拉","network":"TR45-districts","type":"boundary","wikidata":"Q64831","wikipedia":"tr:Kula"},"id":"relation/1821205"},
{"type":"Feature","geometry":{"type":"Polygon","coordinates":[[[29.0678872,38.8718589],[29.0011167,38.8591595],[28.9605188,38.9257632],[28.9315675,38.9236694],[28.9097789,38.8943054],[28.861041,38.9037059],[28.7867989,38.8742177],[28.7273039,38.8386349],[28.7038481,38.8363239],[28.7067142,38.782006],[28.6333947,38.7542927],[28.6117642,38.7358384],[28.6610514,38.6882436],[28.7182775,38.6788308],[28.746073,38.7099364],[28.7767123,38.6941521],[28.8450497,38.6932602],[28.9023685,38.6989083],[28.9362716,38.6933482],[29.0383089,38.7284834],[29.0662192,38.7903525],[29.1186319,38.8444937],[29.1054837,38.863653],[29.0678872,38.8718589]]]},"properties":{"@id":"relation/1821206","admin_level":"6","boundary":"administrative","name":"Selendi","name:ce":"Селенди","name:fa":"سلندی","name:tr":"Selendi","name:tr:suffix":"İlçesi","name:tt":"Селенди","name:ur":"سیلیندی","network":"TR45-districts","type":"boundary","wikidata":"Q2674090","wikipedia":"tr:Selendi"},"id":"relation/1821206"},
{"type":"Feature","geometry":{"type":"Polygon","coordinates":[[[29.3841934,38.6772245],[29.3989303,38.6792319],[29.3698588,38.6931107],[29.3488307,38.6740143],[29.3841934,38.6772245]]]},"properties":{"@id":"relation/9035885","admin_level":"8","boundary":"administrative","name":"Dikilitaş Mahallesi","type":"boundary","@relations":[{"role":"subarea","rel":1609669,"reltags":{"admin_level":"6","boundary":"administrative","name":"Uşak Merkez","name:be":"Ушак","name:bg":"Ушак","name:ce":"Ушак","name:el":"Ουσάκ","name:fa":"عشاق","name:hy":"Ուշաք","name:ja":"ウシャク","name:ka":"უშაქი","name:ko":"우샤크","name:lt":"Ušakas","name:pa":"ਉਸ਼ਾਕ","name:ru":"Ушак","name:tg":"Ушоқ","name:tr":"Uşak","name:tr:suffix":"İlçesi","name:ur":"عشاق","name:zh":"烏沙克","network":"TR64-districts","type":"boundary","wikidata":"Q189134","wikipedia":"tr:Uşak"}}]},"id":"relation/9035885"},
{"type":"Feature","geometry":{"type":"Polygon","coordinates":[[[29.380216,38.7111219],[29.3698588,38.6931107],[29.3989303,38.6792319],[29.3996714,38.6792562],[29.4003772,38.6800222],[29.395401,38.6920825],[29.380216,38.7111219]]]},"properties":{"@id":"relation/9036141","admin_level":"8","boundary":"administrative","name":"Karaağaç Mahallesi","type":"boundary","@relations":[{"role":"subarea","rel":1609669,"reltags":{"admin_level":"6","boundary":"administrative","name":"Uşak Merkez","name:be":"Ушак","name:bg":"Ушак","name:ce":"Ушак","name:el":"Ουσάκ","name:fa":"عشاق","name:hy":"Ուշաք","name:ja":"ウシャク","name:ka":"უშაქი","name:ko":"우샤크","name:lt":"Ušakas","name:pa":"ਉਸ਼ਾਕ","name:ru":"Ушак","name:tg":"Ушоқ","name:tr":"Uşak","name:tr:suffix":"İlçesi","name:ur":"عشاق","name:zh":"烏沙克","network":"TR64-districts","type":"boundary","wikidata":"Q189134","wikipedia":"tr:Uşak"}}]},"id":"relation/9036141"},
{"type":"Feature","geometry":{"type":"Polygon","coordinates":[[[29.4028872,38.6783374],[29.3996714,38.6792562],[29.3989303,38.6792319],[29.3841934,38.6772245],[29.4006038,38.671082],[29.4028872,38.6783374]]]},"properties":{"@id":"relation/9036158","admin_level":"8","boundary":"administrative","name":"Ünalan Mahallesi","type":"boundary","@relations":[{"role":"subarea","rel":1609669,"reltags":{"admin_level":"6","boundary":"administrative","name":"Uşak Merkez","name:be":"Ушак","name:bg":"Ушак","name:ce":"Ушак","name:el":"Ουσάκ","name:fa":"عشاق","name:hy":"Ուշաք","name:ja":"ウシャク","name:ka":"უშაქი","name:ko":"우샤크","name:lt":"Ušakas","name:pa":"ਉਸ਼ਾਕ","name:ru":"Ушак","name:tg":"Ушоқ","name:tr":"Uşak","name:tr:suffix":"İlçesi","name:ur":"عشاق","name:zh":"烏沙克","network":"TR64-districts","type":"boundary","wikidata":"Q189134","wikipedia":"tr:Uşak"}}]},"id":"relation/9036158"},
{"type":"Feature","geometry":{"type":"Polygon","coordinates":[[[29.3886109,38.6562277],[29.4006038,38.671082],[29.3841934,38.6772245],[29.3488307,38.6740143],[29.3886109,38.6562277]]]},"properties":{"@id":"relation/9036171","admin_level":"8","boundary":"administrative","name":"Kemalöz Mahallesi","type":"boundary","@relations":[{"role":"subarea","rel":1609669,"reltags":{"admin_level":"6","boundary":"administrative","name":"Uşak Merkez","name:be":"Ушак","name:bg":"Ушак","name:ce":"Ушак","name:el":"Ουσάκ","name:fa":"عشاق","name:hy":"Ուշաք","name:ja":"ウシャク","name:ka":"უშაქი","name:ko":"우샤크","name:lt":"Ušakas","name:pa":"ਉਸ਼ਾਕ","name:ru":"Ушак","name:tg":"Ушоқ","name:tr":"Uşak","name:tr:suffix":"İlçesi","name:ur":"عشاق","name:zh":"烏沙克","network":"TR64-districts","type":"boundary","wikidata":"Q189134","wikipedia":"tr:Uşak"}}]},"id":"relation/9036171"},
{"type":"Feature","geometry":{"type":"Polygon","coordinates":[[[29.4048724,38.6789481],[29.404595,38.6798399],[29.4035849,38.6808249],[29.4003772,38.6800222],[29.3996714,38.6792562],[29.4028872,38.6783374],[29.4048724,38.6789481]]]},"properties":{"@id":"relation/9036894","admin_level":"8","boundary":"administrative","name":"Özdemir Mahallesi","type":"boundary","@relations":[{"role":"subarea","rel":1609669,"reltags":{"admin_level":"6","boundary":"administrative","name":"Uşak Merkez","name:be":"Ушак","name:bg":"Ушак","name:ce":"Ушак","name:el":"Ουσάκ","name:fa":"عشاق","name:hy":"Ուշաք","name:ja":"ウシャク","name:ka":"უშაქი","name:ko":"우샤크","name:lt":"Ušakas","name:pa":"ਉਸ਼ਾਕ","name:ru":"Ушак","name:tg":"Ушоқ","name:tr":"Uşak","name:tr:suffix":"İlçesi","name:ur":"عشاق","name:zh":"烏沙克","network":"TR64-districts","type":"boundary","wikidata":"Q189134","wikipedia":"tr:Uşak"}}]},"id":"relation/9036894"},
{"type":"Feature","geometry":{"type":"Polygon","coordinates":[[[29.4003772,38.6800222],[29.4035849,38.6808249],[29.4030674,38.6821765],[29.395401,38.6920825],[29.4003772,38.6800222]]]},"properties":{"@id":"relation/9036895","admin_level":"8","boundary":"administrative","name":"Işık Mahallesi","type":"boundary","@relations":[{"role":"subarea","rel":1609669,"reltags":{"admin_level":"6","boundary":"administrative","name":"Uşak Merkez","name:be":"Ушак","name:bg":"Ушак","name:ce":"Ушак","name:el":"Ουσάκ","name:fa":"عشاق","name:hy":"Ուշաք","name:ja":"ウシャク","name:ka":"უშაქი","name:ko":"우샤크","name:lt":"Ušakas","name:pa":"ਉਸ਼ਾਕ","name:ru":"Ушак","name:tg":"Ушоқ","name:tr":"Uşak","name:tr:suffix":"İlçesi","name:ur":"عشاق","name:zh":"烏沙克","network":"TR64-districts","type":"boundary","wikidata":"Q189134","wikipedia":"tr:Uşak"}}]},"id":"relation/9036895"},
{"type":"Feature","geometry":{"type":"Polygon","coordinates":[[[29.4042348,38.682446],[29.4030674,38.6821765],[29.4035849,38.6808249],[29.404595,38.6798399],[29.4094745,38.6797949],[29.4086316,38.6814371],[29.4042348,38.682446]]]},"properties":{"@id":"relation/9036905","admin_level":"8","boundary":"administrative","name":"Köme Mahallesi","type":"boundary","@relations":[{"role":"subarea","rel":1609669,"reltags":{"admin_level":"6","boundary":"administrative","name":"Uşak Merkez","name:be":"Ушак","name:bg":"Ушак","name:ce":"Ушак","name:el":"Ουσάκ","name:fa":"عشاق","name:hy":"Ուշաք","name:ja":"ウシャク","name:ka":"უშაქი","name:ko":"우샤크","name:lt":"Ušakas","name:pa":"ਉਸ਼ਾਕ","name:ru":"Ушак","name:tg":"Ушоқ","name:tr":"Uşak","name:tr:suffix":"İlçesi","name:ur":"عشاق","name:zh":"烏沙克","network":"TR64-districts","type":"boundary","wikidata":"Q189134","wikipedia":"tr:Uşak"}}]},"id":"relation/9036905"},
{"type":"Feature","geometry":{"type":"Polygon","coordinates":[[[29.4048724,38.6789481],[29.4059152,38.6742392],[29.4107782,38.6758173],[29.4110542,38.6797354],[29.4094745,38.6797949],[29.404595,38.6798399],[29.4048724,38.6789481]]]},"properties":{"@id":"relation/9036913","admin_level":"8","boundary":"administrative","name":"İslice Mahallesi","type":"boundary","@relations":[{"role":"subarea","rel":1609669,"reltags":{"admin_level":"6","boundary":"administrative","name":"Uşak Merkez","name:be":"Ушак","name:bg":"Ушак","name:ce":"Ушак","name:el":"Ουσάκ","name:fa":"عشاق","name:hy":"Ուշաք","name:ja":"ウシャク","name:ka":"უშაქი","name:ko":"우샤크","name:lt":"Ušakas","name:pa":"ਉਸ਼ਾਕ","name:ru":"Ушак","name:tg":"Ушоқ","name:tr":"Uşak","name:tr:suffix":"İlçesi","name:ur":"عشاق","name:zh":"烏沙克","network":"TR64-districts","type":"boundary","wikidata":"Q189134","wikipedia":"tr:Uşak"}}]},"id":"relation/9036913"},
{"type":"Feature","geometry":{"type":"Polygon","coordinates":[[[29.4006038,38.671082],[29.4073848,38.6708916],[29.4059152,38.6742392],[29.4048724,38.6789481],[29.4028872,38.6783374],[29.4006038,38.671082]]]},"properties":{"@id":"relation/9036948","admin_level":"8","boundary":"administrative","name":"Kurtuluş Mahallesi","type":"boundary","@relations":[{"role":"subarea","rel":1609669,"reltags":{"admin_level":"6","boundary":"administrative","name":"Uşak Merkez","name:be":"Ушак","name:bg":"Ушак","name:ce":"Ушак","name:el":"Ουσάκ","name:fa":"عشاق","name:hy":"Ուշաք","name:ja":"ウシャク","name:ka":"უშაქი","name:ko":"우샤크","name:lt":"Ušakas","name:pa":"ਉਸ਼ਾਕ","name:ru":"Ушак","name:tg":"Ушоқ","name:tr":"Uşak","name:tr:suffix":"İlçesi","name:ur":"عشاق","name:zh":"烏沙克","network":"TR64-districts","type":"boundary","wikidata":"Q189134","wikipedia":"tr:Uşak"}}]},"id":"relation/9036948"},
{"type":"Feature","geometry":{"type":"Polygon","coordinates":[[[29.3874279,38.6319327],[29.4081313,38.6690216],[29.4073848,38.6708916],[29.4006038,38.671082],[29.3886109,38.6562277],[29.3874279,38.6319327]]]},"properties":{"@id":"relation/9037188","admin_level":"8","boundary":"administrative","name":"Cumhuriyet Mahallesi","type":"boundary","@relations":[{"role":"subarea","rel":1609669,"reltags":{"admin_level":"6","boundary":"administrative","name":"Uşak Merkez","name:be":"Ушак","name:bg":"Ушак","name:ce":"Ушак","name:el":"Ουσάκ","name:fa":"عشاق","name:hy":"Ուշաք","name:ja":"ウシャク","name:ka":"უშაქი","name:ko":"우샤크","name:lt":"Ušakas","name:pa":"ਉਸ਼ਾਕ","name:ru":"Ушак","name:tg":"Ушоқ","name:tr":"Uşak","name:tr:suffix":"İlçesi","name:ur":"عشاق","name:zh":"烏沙克","network":"TR64-districts","type":"boundary","wikidata":"Q189134","wikipedia":"tr:Uşak"}}]},"id":"relation/9037188"},
{"type":"Feature","geometry":{"type":"Polygon","coordinates":[[[29.4086316,38.6814371],[29.4094745,38.6797949],[29.4110542,38.6797354],[29.4147728,38.6798645],[29.4296264,38.6895325],[29.4164221,38.7076434],[29.4086316,38.6814371]]]},"properties":{"@id":"relation/9038536","admin_level":"8","boundary":"administrative","name":"Elmalıdere Mahallesi","type":"boundary","@relations":[{"role":"subarea","rel":1609669,"reltags":{"admin_level":"6","boundary":"administrative","name":"Uşak Merkez","name:be":"Ушак","name:bg":"Ушак","name:ce":"Ушак","name:el":"Ουσάκ","name:fa":"عشاق","name:hy":"Ուշաք","name:ja":"ウシャク","name:ka":"უშაქი","name:ko":"우샤크","name:lt":"Ušakas","name:pa":"ਉਸ਼ਾਕ","name:ru":"Ушак","name:tg":"Ушоқ","name:tr":"Uşak","name:tr:suffix":"İlçesi","name:ur":"عشاق","name:zh":"烏沙克","network":"TR64-districts","type":"boundary","wikidata":"Q189134","wikipedia":"tr:Uşak"}}]},"id":"relation/9038536"},
{"type":"Feature","geometry":{"type":"Polygon","coordinates":[[[29.4042348,38.682446],[29.4086316,38.6814371],[29.4164221,38.7076434],[29.4056227,38.71932],[29.4042348,38.682446]]]},"properties":{"@id":"relation/9038537","admin_level":"8","boundary":"administrative","name":"Aybey Mahallesi","type":"boundary","@relations":[{"role":"subarea","rel":1609669,"reltags":{"admin_level":"6","boundary":"administrative","name":"Uşak Merkez","name:be":"Ушак","name:bg":"Ушак","name:ce":"Ушак","name:el":"Ουσάκ","name:fa":"عشاق","name:hy":"Ուշաք","name:ja":"ウシャク","name:ka":"უშაქი","name:ko":"우샤크","name:lt":"Ušakas","name:pa":"ਉਸ਼ਾਕ","name:ru":"Ушак","name:tg":"Ушоқ","name:tr":"Uşak","name:tr:suffix":"İlçesi","name:ur":"عشاق","name:zh":"烏沙克","network":"TR64-districts","type":"boundary","wikidata":"Q189134","wikipedia":"tr:Uşak"}}]},"id":"relation/9038537"},
{"type":"Feature","geometry":{"type":"Polygon","coordinates":[[[29.4042348,38.682446],[29.4056227,38.71932],[29.380216,38.7111219],[29.395401,38.6920825],[29.4030674,38.6821765],[29.4042348,38.682446]]]},"properties":{"@id":"relation/9038550","admin_level":"8","boundary":"administrative","name":"Bozkurt Mahallesi","type":"boundary","@relations":[{"role":"subarea","rel":1609669,"reltags":{"admin_level":"6","boundary":"administrative","name":"Uşak Merkez","name:be":"Ушак","name:bg":"Ушак","name:ce":"Ушак","name:el":"Ουσάκ","name:fa":"عشاق","name:hy":"Ուշաք","name:ja":"ウシャク","name:ka":"უშაქი","name:ko":"우샤크","name:lt":"Ušakas","name:pa":"ਉਸ਼ਾਕ","name:ru":"Ушак","name:tg":"Ушоқ","name:tr":"Uşak","name:tr:suffix":"İlçesi","name:ur":"عشاق","name:zh":"烏沙克","network":"TR64-districts","type":"boundary","wikidata":"Q189134","wikipedia":"tr:Uşak"}}]},"id":"relation/9038550"},
{"type":"Feature","geometry":{"type":"Polygon","coordinates":[[[29.4147728,38.6798645],[29.4500565,38.6795798],[29.4296264,38.6895325],[29.4147728,38.6798645]]]},"properties":{"@id":"relation/9038767","admin_level":"8","boundary":"administrative","name":"Mehmet Akif Ersoy Mahallesi","type":"boundary","@relations":[{"role":"subarea","rel":1609669,"reltags":{"admin_level":"6","boundary":"administrative","name":"Uşak Merkez","name:be":"Ушак","name:bg":"Ушак","name:ce":"Ушак","name:el":"Ουσάκ","name:fa":"عشاق","name:hy":"Ուշաք","name:ja":"ウシャク","name:ka":"უშაქი","name:ko":"우샤크","name:lt":"Ušakas","name:pa":"ਉਸ਼ਾਕ","name:ru":"Ушак","name:tg":"Ушоқ","name:tr":"Uşak","name:tr:suffix":"İlçesi","name:ur":"عشاق","name:zh":"烏沙克","network":"TR64-districts","type":"boundary","wikidata":"Q189134","wikipedia":"tr:Uşak"}}]},"id":"relation/9038767"},
{"type":"Feature","geometry":{"type":"Polygon","coordinates":[[[29.4223492,38.6715914],[29.4505947,38.6783397],[29.4500565,38.6795798],[29.4147728,38.6798645],[29.4110542,38.6797354],[29.4107782,38.6758173],[29.4223492,38.6715914]]]},"properties":{"@id":"relation/9038784","admin_level":"8","boundary":"administrative","name":"Sarayaltı Mahallesi","type":"boundary","@relations":[{"role":"subarea","rel":1609669,"reltags":{"admin_level":"6","boundary":"administrative","name":"Uşak Merkez","name:be":"Ушак","name:bg":"Ушак","name:ce":"Ушак","name:el":"Ουσάκ","name:fa":"عشاق","name:hy":"Ուշաք","name:ja":"ウシャク","name:ka":"უშაქი","name:ko":"우샤크","name:lt":"Ušakas","name:pa":"ਉਸ਼ਾਕ","name:ru":"Ушак","name:tg":"Ушоқ","name:tr":"Uşak","name:tr:suffix":"İlçesi","name:ur":"عشاق","name:zh":"烏沙克","network":"TR64-districts","type":"boundary","wikidata":"Q189134","wikipedia":"tr:Uşak"}}]},"id":"relation/9038784"},
{"type":"Feature","geometry":{"type":"Polygon","coordinates":[[[29.4073848,38.6708916],[29.4223492,38.6715914],[29.4107782,38.6758173],[29.4059152,38.6742392],[29.4073848,38.6708916]]]},"properties":{"@id":"relation/9038790","admin_level":"8","boundary":"administrative","name":"Durak Mahallesi","type":"boundary","@relations":[{"role":"subarea","rel":1609669,"reltags":{"admin_level":"6","boundary":"administrative","name":"Uşak Merkez","name:be":"Ушак","name:bg":"Ушак","name:ce":"Ушак","name:el":"Ουσάκ","name:fa":"عشاق","name:hy":"Ուշաք","name:ja":"ウシャク","name:ka":"უშაქი","name:ko":"우샤크","name:lt":"Ušakas","name:pa":"ਉਸ਼ਾਕ","name:ru":"Ушак","name:tg":"Ушоқ","name:tr":"Uşak","name:tr:suffix":"İlçesi","name:ur":"عشاق","name:zh":"烏沙克","network":"TR64-districts","type":"boundary","wikidata":"Q189134","wikipedia":"tr:Uşak"}}]},"id":"relation/9038790"},
{"type":"Feature","geometry":{"type":"Polygon","coordinates":[[[29.4073848,38.6708916],[29.4494935,38.6450077],[29.4678627,38.6759507],[29.4505947,38.6783397],[29.4223492,38.6715914],[29.4073848,38.6708916]]]},"properties":{"@id":"relation/9038821","admin_level":"8","boundary":"administrative","name":"Fevzi Çakmak Mahallesi","type":"boundary","@relations":[{"role":"subarea","rel":1609669,"reltags":{"admin_level":"6","boundary":"administrative","name":"Uşak Merkez","name:be":"Ушак","name:bg":"Ушак","name:ce":"Ушак","name:el":"Ουσάκ","name:fa":"عشاق","name:hy":"Ուշաք","name:ja":"ウシャク","name:ka":"უშაქი","name:ko":"우샤크","name:lt":"Ušakas","name:pa":"ਉਸ਼ਾਕ","name:ru":"Ушак","name:tg":"Ушоқ","name:tr":"Uşak","name:tr:suffix":"İlçesi","name:ur":"عشاق","name:zh":"烏沙克","network":"TR64-districts","type":"boundary","wikidata":"Q189134","wikipedia":"tr:Uşak"}}]},"id":"relation/9038821"},
{"type":"Feature","geometry":{"type":"Polygon","coordinates":[[[29.4369247,38.6336595],[29.4532648,38.6406279],[29.4494935,38.6450077],[29.4073848,38.6708916],[29.4081313,38.6690216],[29.4369247,38.6336595]]]},"properties":{"@id":"relation/9038824","admin_level":"8","boundary":"administrative","name":"Atatürk Mahallesi","type":"boundary","@relations":[{"role":"subarea","rel":1609669,"reltags":{"admin_level":"6","boundary":"administrative","name":"Uşak Merkez","name:be":"Ушак","name:bg":"Ушак","name:ce":"Ушак","name:el":"Ουσάκ","name:fa":"عشاق","name:hy":"Ուշաք","name:ja":"ウシャク","name:ka":"უშაქი","name:ko":"우샤크","name:lt":"Ušakas","name:pa":"ਉਸ਼ਾਕ","name:ru":"Ушак","name:tg":"Ушоқ","name:tr":"Uşak","name:tr:suffix":"İlçesi","name:ur":"عشاق","name:zh":"烏沙克","network":"TR64-districts","type":"boundary","wikidata":"Q189134","wikipedia":"tr:Uşak"}}]},"id":"relation/9038824"},
{"type":"Feature","geometry":{"type":"Polygon","coordinates":[[[29.3890745,38.6309268],[29.4359529,38.6336106],[29.4369247,38.6336595],[29.4081313,38.6690216],[29.3874279,38.6319327],[29.3890745,38.6309268]]]},"properties":{"@id":"relation/9038825","admin_level":"8","boundary":"administrative","name":"Fatih Mahallesi","type":"boundary","@relations":[{"role":"subarea","rel":1609669,"reltags":{"admin_level":"6","boundary":"administrative","name":"Uşak Merkez","name:be":"Ушак","name:bg":"Ушак","name:ce":"Ушак","name:el":"Ουσάκ","name:fa":"عشاق","name:hy":"Ուշաք","name:ja":"ウシャク","name:ka":"უშაქი","name:ko":"우샤크","name:lt":"Ušakas","name:pa":"ਉਸ਼ਾਕ","name:ru":"Ушак","name:tg":"Ушоқ","name:tr":"Uşak","name:tr:suffix":"İlçesi","name:ur":"عشاق","name:zh":"烏沙克","network":"TR64-districts","type":"boundary","wikidata":"Q189134","wikipedia":"tr:Uşak"}}]},"id":"relation/9038825"},
{"type":"Feature","geometry":{"type":"Polygon","coordinates":[[[29.4532648,38.6406279],[29.4821303,38.6544031],[29.4678627,38.6759507],[29.4494935,38.6450077],[29.4532648,38.6406279]]]},"properties":{"@id":"relation/9038996","admin_level":"8","boundary":"administrative","name":"Kalfa Mahallesi","type":"boundary","@relations":[{"role":"subarea","rel":1609669,"reltags":{"admin_level":"6","boundary":"administrative","name":"Uşak Merkez","name:be":"Ушак","name:bg":"Ушак","name:ce":"Ушак","name:el":"Ουσάκ","name:fa":"عشاق","name:hy":"Ուշաք","name:ja":"ウシャク","name:ka":"უშაქი","name:ko":"우샤크","name:lt":"Ušakas","name:pa":"ਉਸ਼ਾਕ","name:ru":"Ушак","name:tg":"Ушоқ","name:tr":"Uşak","name:tr:suffix":"İlçesi","name:ur":"عشاق","name:zh":"烏沙克","network":"TR64-districts","type":"boundary","wikidata":"Q189134","wikipedia":"tr:Uşak"}}]},"id":"relation/9038996"},
{"type":"Feature","geometry":{"type":"Polygon","coordinates":[[[29.3890745,38.6309268],[29.4070208,38.6040184],[29.4490778,38.6125029],[29.4359529,38.6336106],[29.3890745,38.6309268]]]},"properties":{"@id":"relation/9045974","admin_level":"8","boundary":"administrative","name":"Ovademirler Mahallesi","type":"boundary","@relations":[{"role":"subarea","rel":1609669,"reltags":{"admin_level":"6","boundary":"administrative","name":"Uşak Merkez","name:be":"Ушак","name:bg":"Ушак","name:ce":"Ушак","name:el":"Ουσάκ","name:fa":"عشاق","name:hy":"Ուշաք","name:ja":"ウシャク","name:ka":"უშაქი","name:ko":"우샤크","name:lt":"Ušakas","name:pa":"ਉਸ਼ਾਕ","name:ru":"Ушак","name:tg":"Ушоқ","name:tr":"Uşak","name:tr:suffix":"İlçesi","name:ur":"عشاق","name:zh":"烏沙克","network":"TR64-districts","type":"boundary","wikidata":"Q189134","wikipedia":"tr:Uşak"}}]},"id":"relation/9045974"}
]}