{"type":"FeatureCollection", "features": [
{"type":"Feature","geometry":{"type":"Polygon","coordinates":[[[29.4360716,40.6895527],[29.4409267,40.6768354],[29.4334272,40.6618022],[29.4364627,40.6576031],[29.4466406,40.6498816],[29.4443193,40.6481204],[29.443248,40.6386363],[29.4462835,40.6337582],[29.4634252,40.6326742],[29.4677106,40.6300994],[29.4819954,40.6296929],[29.4834239,40.6272536],[29.4784242,40.6204773],[29.4719961,40.6212905],[29.4694962,40.6180376],[29.458247,40.6168178],[29.4518188,40.6134291],[29.4516403,40.6099048],[29.4407482,40.6059736],[29.4350343,40.5991951],[29.4296363,40.5848374],[29.4299934,40.5699191],[29.4253509,40.5666638],[29.4221368,40.5581178],[29.4230296,40.5486209],[29.4202175,40.5455719],[29.4469034,40.5418957],[29.4504927,40.5486551],[29.4472155,40.5529239],[29.4567789,40.5554699],[29.4572032,40.564306],[29.4700065,40.5679418],[29.4827596,40.5633935],[29.4884527,40.568964],[29.4928075,40.5684713],[29.4996214,40.5764614],[29.5021541,40.5831991],[29.4956195,40.5942342],[29.4986129,40.6036327],[29.5017135,40.604993],[29.5025187,40.6166986],[29.4983615,40.6219712],[29.5000521,40.6272678],[29.4977016,40.6394999],[29.4989845,40.6450265],[29.5117979,40.6495961],[29.5188582,40.6504701],[29.5296293,40.6548449],[29.5388775,40.6557058],[29.5358023,40.6624734],[29.5306599,40.6656412],[29.5435212,40.6709035],[29.557308,40.6853498],[29.5507135,40.6915684],[29.5317099,40.7139375],[29.520365,40.721693],[29.5168655,40.7333966],[29.5107993,40.7344127],[29.4940766,40.7257087],[29.4792411,40.7200796],[29.4695874,40.7106153],[29.4665996,40.7034146],[29.4570239,40.6954495],[29.4462404,40.693924],[29.4360716,40.6895527]]]},"properties":{"@id":"relation/1840930","admin_level":"6","boundary":"administrative","name":"Altınova","name:ar":"آلتينوفا","name:ce":"Алтинова","name:de":"Altınova","name:el":"Αλτίνοβα","name:en":"Altınova","name:fa":"آلتینوا","name:ru":"Алтынова","name:tr":"Altınova","name:tr:suffix":"İlçesi","name:tt":"Алтынова","name:ur":"التینووا","name:zh":"阿爾特諾瓦","network":"TR77-districts","type":"boundary","wikidata":"Q1922420","wikipedia":"tr:Altınova"},"id":"relation/1840930"},
{"type":"Feature","geometry":{"type":"Polygon","coordinates":[[[28.9058313,40.5917822],[28.8908941,40.5828377],[28.867811,40.5759317],[28.8508111,40.5727372],[28.8353865,40.5663167],[28.8185882,40.5654272],[28.80996,40.559077],[28.8033008,40.5571502],[28.7925552,40.5509652],[28.7886033,40.5402378],[28.7804612,40.5344694],[28.7796787,40.5258094],[28.7812403,40.5182276],[28.7901993,40.517716],[28.7974277,40.513975],[28.807995,40.5136228],[28.8242911,40.5096891],[28.840241,40.5093436],[28.8532363,40.5063938],[28.874523,40.490269],[28.8828325,40.4810633],[28.8998024,40.4729603],[28.909156,40.472372],[28.9230124,40.4659563],[28.9315608,40.4640746],[28.946904,40.46404],[28.9654926,40.4618091],[28.977087,40.4566603],[28.9820596,40.4641194],[29.0020808,40.469938],[29.0106525,40.4709125],[29.0098869,40.4749414],[28.9993634,40.4802669],[28.990624,40.4897447],[28.9959133,40.500441],[29.0039913,40.5216312],[29.0079415,40.5448454],[29.0115764,40.5525062],[28.9885724,40.5586286],[28.9882414,40.5546882],[28.981179,40.5526759],[28.9713579,40.5550235],[28.9666129,40.5592155],[28.9610955,40.5554427],[28.9500605,40.5585448],[28.9480742,40.5617305],[28.9520468,40.5660897],[28.948626,40.5729632],[28.9425568,40.5767349],[28.9360462,40.5738014],[28.9275493,40.5791655],[28.9198248,40.5779921],[28.9179489,40.5818474],[28.9058313,40.5917822]]]},"properties":{"@id":"relation/1840931","admin_level":"6","boundary":"administrative","name":"Armutlu","name:ar":"أرموتلو","name:az":"Armudlu","name:ce":"Армутлу","name:fa":"آرموتلو","name:ru":"Армутлу","name:tr":"Armutlu","name:tr:suffix":"İlçesi","name:tt":"Армутлу","name:ur":"ارموتلو","name:zh":"阿穆特鲁","network":"TR77-districts","type":"boundary","wikidata":"Q689620","wikipedia":"tr:Armutlu"},"id":"relation/1840931"},
{"type":"Feature","geometry":{"type":"Polygon","coordinates":[[[29.1708893,40.6420572],[29.1691646,40.642076],[29.1632678,40.6329134],[29.1668714,40.6261663],[29.1667154,40.619237],[29.1584443,40.6147355],[29.1582102,40.6075088],[29.1472082,40.6009923],[29.1511096,40.5897942],[29.1375326,40.583513],[29.1324449,40.5772582],[29.1486749,40.5759544],[29.1577262,40.5665896],[29.1580383,40.5627959],[29.1528884,40.5542594],[29.162564,40.5479748],[29.1667775,40.5428756],[29.1764531,40.5368272],[29.1854487,40.5378536],[29.1958379,40.5451822],[29.1940001,40.5489234],[29.1944902,40.5580112],[29.2059048,40.5625739],[29.2118082,40.5718413],[29.2114114,40.5780818],[29.2041984,40.5837698],[29.204552,40.5894908],[29.1994035,40.5959064],[29.2041797,40.6000922],[29.2129044,40.6091036],[29.2066126,40.613917],[29.2010087,40.615043],[29.200682,40.6179333],[29.2104779,40.6228354],[29.2173173,40.6302221],[29.2082555,40.6392036],[29.2036528,40.6405616],[29.2014519,40.6475986],[29.2039062,40.6505834],[29.2087935,40.6559972],[29.1933343,40.6566226],[29.1898861,40.646832],[29.1849439,40.6434596],[29.1708893,40.6420572]]]},"properties":{"@id":"relation/1840932","admin_level":"6","boundary":"administrative","name":"Termal","name:ar":"تيرمال","name:ce":"Термал","name:fa":"ترمال","name:ru":"Термал","name:tr":"Termal","name:tr:suffix":"İlçesi","name:ur":"تیرمال","network":"TR77-districts","type":"boundary","wikidata":"Q2601948","wikipedia":"tr:Termal, Yalova"},"id":"relation/1840932"},
{"type":"Feature","geometry":{"type":"Polygon","coordinates":[[[29.2010087,40.615043],[29.2066126,40.613917],[29.2129044,40.6091036],[29.2041797,40.6000922],[29.1994035,40.5959064],[29.204552,40.5894908],[29.2041984,40.5837698],[29.2114114,40.5780818],[29.2118082,40.5718413],[29.2059048,40.5625739],[29.1944902,40.5580112],[29.1940001,40.5489234],[29.1958379,40.5451822],[29.1854487,40.5378536],[29.1971596,40.5368747],[29.2050507,40.5345086],[29.2057008,40.5292786],[29.2135072,40.5242403],[29.2214382,40.5246344],[29.2291004,40.5206063],[29.2341727,40.5220107],[29.2374094,40.529029],[29.2416845,40.5320995],[29.2536627,40.5324271],[29.2564811,40.5360192],[29.2700587,40.5364596],[29.2886381,40.5353316],[29.302816,40.5288201],[29.3171443,40.5276603],[29.3188507,40.5327647],[29.3247616,40.5401644],[29.3330339,40.5583526],[29.3414946,40.5656125],[29.3486101,40.5680395],[29.3503941,40.573237],[29.3456675,40.5813141],[29.3374196,40.5846781],[29.3370752,40.5900052],[29.3331534,40.5969846],[29.3274877,40.5975989],[29.323758,40.6057423],[29.324167,40.6191765],[29.3212518,40.6234823],[29.3230557,40.6264006],[29.3172598,40.6351815],[29.3169246,40.6378162],[29.305518,40.6434173],[29.3038708,40.6498726],[29.3099336,40.6596802],[29.3074715,40.6676713],[29.2902327,40.6635156],[29.2808023,40.6600303],[29.2700973,40.6596269],[29.266243,40.65877],[29.2590149,40.6575244],[29.2398897,40.6591527],[29.2230124,40.6568418],[29.2087935,40.6559972],[29.2039062,40.6505834],[29.2014519,40.6475986],[29.2036528,40.6405616],[29.2082555,40.6392036],[29.2173173,40.6302221],[29.2104779,40.6228354],[29.200682,40.6179333],[29.2010087,40.615043]]]},"properties":{"@id":"relation/1840933","admin_level":"6","boundary":"administrative","name":"Yalova Merkez","name:ar":"يالوفا","name:el":"Γιάλοβα Μερκέζ","name:ru":"Ялова","name:tr":"Yalova Merkez","name:tr:suffix":"İlçesi","name:uk":"Ялова","name:zh":"亞洛瓦","network":"TR77-districts","type":"boundary","wikidata":"Q205942","wikipedia":"tr:Yalova"},"id":"relation/1840933"},
{"type":"Feature","geometry":{"type":"Polygon","coordinates":[[[29.4360716,40.6895527],[29.4233747,40.6887972],[29.4141049,40.6917354],[29.3934927,40.7021205],[29.3819745,40.7014825],[29.3694861,40.6959801],[29.3549935,40.6819913],[29.3443674,40.6742881],[29.3371245,40.6719776],[29.327155,40.6711808],[29.3074715,40.6676713],[29.3099336,40.6596802],[29.3038708,40.6498726],[29.305518,40.6434173],[29.3169246,40.6378162],[29.3172598,40.6351815],[29.3230557,40.6264006],[29.3212518,40.6234823],[29.324167,40.6191765],[29.323758,40.6057423],[29.3274877,40.5975989],[29.3331534,40.5969846],[29.3370752,40.5900052],[29.3374196,40.5846781],[29.3456675,40.5813141],[29.3503941,40.573237],[29.3486101,40.5680395],[29.3825667,40.5604188],[29.3881985,40.5551622],[29.397121,40.5512639],[29.4045067,40.5517399],[29.4202175,40.5455719],[29.4230296,40.5486209],[29.4221368,40.5581178],[29.4253509,40.5666638],[29.4299934,40.5699191],[29.4296363,40.5848374],[29.4350343,40.5991951],[29.4407482,40.6059736],[29.4516403,40.6099048],[29.4518188,40.6134291],[29.458247,40.6168178],[29.4694962,40.6180376],[29.4719961,40.6212905],[29.4784242,40.6204773],[29.4834239,40.6272536],[29.4819954,40.6296929],[29.4677106,40.6300994],[29.4634252,40.6326742],[29.4462835,40.6337582],[29.443248,40.6386363],[29.4443193,40.6481204],[29.4466406,40.6498816],[29.4364627,40.6576031],[29.4334272,40.6618022],[29.4409267,40.6768354],[29.4360716,40.6895527]]]},"properties":{"@id":"relation/1840934","admin_level":"6","boundary":"administrative","name":"Çiftlikköy","name:ar":"تشيفيتليككوي","name:ce":"Чифтликкоьй","name:de":"Çiftlikköy","name:en":"Çiftlikköy","name:fa":"چیفتلیک‌کوی","name:ru":"Чифтликкёй","name:tr":"Çiftlikköy","name:tr:suffix":"İlçesi","name:tt":"Чифтликкөй","name:ur":"چیفتلیکوئے","name:zh":"奇夫特利克伊","network":"TR77-districts","old_name":"Karakilise","old_name:el":"Πύλαι","type":"boundary","wikidata":"Q2248619","wikipedia":"tr:Çiftlikköy"},"id":"relation/1840934"},
{"type":"Feature","geometry":{"type":"Polygon","coordinates":[[[28.9885724,40.5586286],[29.0115764,40.5525062],[29.015832,40.5595949],[29.018991,40.5702646],[29.0305393,40.5769026],[29.0399027,40.5761914],[29.0506707,40.5667082],[29.0619069,40.5616104],[29.0715824,40.5644557],[29.0767323,40.5723983],[29.0850034,40.5764285],[29.0968638,40.5778509],[29.0998288,40.5760729],[29.100141,40.5676566],[29.1063833,40.5708573],[29.1153053,40.5710595],[29.1268268,40.5686049],[29.1324449,40.5772582],[29.1375326,40.583513],[29.1511096,40.5897942],[29.1472082,40.6009923],[29.1582102,40.6075088],[29.1584443,40.6147355],[29.1667154,40.619237],[29.1668714,40.6261663],[29.1632678,40.6329134],[29.1691646,40.642076],[29.1708893,40.6420572],[29.1849439,40.6434596],[29.1898861,40.646832],[29.1933343,40.6566226],[29.1899146,40.6574762],[29.1712137,40.6551965],[29.1640747,40.6560171],[29.1454457,40.6568545],[29.1380922,40.649554],[29.1179048,40.6469997],[29.1066833,40.6433943],[29.0789008,40.6460537],[29.0707497,40.6440645],[29.0642593,40.6446619],[29.0470499,40.6484815],[29.0354783,40.6459445],[29.0272555,40.6464569],[29.0126402,40.6439843],[28.9966001,40.6458481],[28.9845381,40.6404785],[28.9735363,40.6371465],[28.962516,40.630523],[28.958297,40.6258652],[28.9534167,40.6146828],[28.9413405,40.607976],[28.9330108,40.601285],[28.920047,40.5954626],[28.9058313,40.5917822],[28.9179489,40.5818474],[28.9198248,40.5779921],[28.9275493,40.5791655],[28.9360462,40.5738014],[28.9425568,40.5767349],[28.948626,40.5729632],[28.9520468,40.5660897],[28.9480742,40.5617305],[28.9500605,40.5585448],[28.9610955,40.5554427],[28.9666129,40.5592155],[28.9713579,40.5550235],[28.981179,40.5526759],[28.9882414,40.5546882],[28.9885724,40.5586286]]]},"properties":{"@id":"relation/1840935","admin_level":"6","boundary":"administrative","name":"Çınarcık","name:az":"Çinarcıq","name:ce":"Чинарджик","name:el":"Τσινάρτσικ","name:fa":"چنارجیک","name:ru":"Чынарджык","name:tr":"Çınarcık","name:tr:suffix":"İlçesi","name:tt":"Чынарҗык","name:ur":"چنارجیک","name:zh":"徹納爾哲克","network":"TR77-districts","type":"boundary","wikidata":"Q2249559","wikipedia":"tr:Çınarcık"},"id":"relation/1840935"},
{"type":"Feature","geometry":{"type":"Polygon","coordinates":[[[29.2427297,40.6513828],[29.2455709,40.6541874],[29.2557654,40.6532444],[29.2647878,40.6526233],[29.266243,40.65877],[29.2590149,40.6575244],[29.2398897,40.6591527],[29.2230124,40.6568418],[29.2087935,40.6559972],[29.2039062,40.6505834],[29.2119962,40.6486101],[29.2211229,40.6509183],[29.2337454,40.6450985],[29.2427297,40.6513828]]]},"properties":{"@id":"relation/10576534","admin_level":"8","boundary":"administrative","name":"Bahçelievler Mahallesi","type":"boundary","@relations":[{"role":"subarea","rel":1840933,"reltags":{"admin_level":"6","boundary":"administrative","name":"Yalova Merkez","name:ar":"يالوفا","name:el":"Γιάλοβα Μερκέζ","name:ru":"Ялова","name:tr":"Yalova Merkez","name:tr:suffix":"İlçesi","name:uk":"Ялова","name:zh":"亞洛瓦","network":"TR77-districts","type":"boundary","wikidata":"Q205942","wikipedia":"tr:Yalova"}}]},"id":"relation/10576534"},
{"type":"Feature","geometry":{"type":"Polygon","coordinates":[[[29.2444927,40.6327987],[29.2505519,40.6275135],[29.2540003,40.6311642],[29.2525471,40.6377531],[29.2568565,40.6463537],[29.2557654,40.6532444],[29.2455709,40.6541874],[29.2427297,40.6513828],[29.2516064,40.6490776],[29.2464026,40.6417237],[29.2444927,40.6327987]]]},"properties":{"@id":"relation/10576589","admin_level":"8","boundary":"administrative","name":"Kazım Karabekir Mahallesi","type":"boundary","@relations":[{"role":"subarea","rel":1840933,"reltags":{"admin_level":"6","boundary":"administrative","name":"Yalova Merkez","name:ar":"يالوفا","name:el":"Γιάλοβα Μερκέζ","name:ru":"Ялова","name:tr":"Yalova Merkez","name:tr:suffix":"İlçesi","name:uk":"Ялова","name:zh":"亞洛瓦","network":"TR77-districts","type":"boundary","wikidata":"Q205942","wikipedia":"tr:Yalova"}}]},"id":"relation/10576589"},
{"type":"Feature","geometry":{"type":"Polygon","coordinates":[[[29.2708164,40.6556615],[29.2700973,40.6596269],[29.266243,40.65877],[29.2647878,40.6526233],[29.2704179,40.6522837],[29.2714311,40.6525797],[29.2708164,40.6556615]]]},"properties":{"@id":"relation/10586001","admin_level":"8","boundary":"administrative","name":"Rüstem Paşa Mahallesi","type":"boundary","@relations":[{"role":"subarea","rel":1840933,"reltags":{"admin_level":"6","boundary":"administrative","name":"Yalova Merkez","name:ar":"يالوفا","name:el":"Γιάλοβα Μερκέζ","name:ru":"Ялова","name:tr":"Yalova Merkez","name:tr:suffix":"İlçesi","name:uk":"Ялова","name:zh":"亞洛瓦","network":"TR77-districts","type":"boundary","wikidata":"Q205942","wikipedia":"tr:Yalova"}}]},"id":"relation/10586001"},
{"type":"Feature","geometry":{"type":"Polygon","coordinates":[[[29.2830766,40.6570009],[29.2708164,40.6556615],[29.2714311,40.6525797],[29.2844308,40.6548179],[29.2830766,40.6570009]]]},"properties":{"@id":"relation/10586844","admin_level":"8","boundary":"administrative","name":"Fevzi Çakmak Mahallesi","type":"boundary","@relations":[{"role":"subarea","rel":1840933,"reltags":{"admin_level":"6","boundary":"administrative","name":"Yalova Merkez","name:ar":"يالوفا","name:el":"Γιάλοβα Μερκέζ","name:ru":"Ялова","name:tr":"Yalova Merkez","name:tr:suffix":"İlçesi","name:uk":"Ялова","name:zh":"亞洛瓦","network":"TR77-districts","type":"boundary","wikidata":"Q205942","wikipedia":"tr:Yalova"}}]},"id":"relation/10586844"},
{"type":"Feature","geometry":{"type":"Polygon","coordinates":[[[29.2714311,40.6525797],[29.2777957,40.6485091],[29.2708222,40.6372032],[29.2691235,40.6284893],[29.2721192,40.6288874],[29.2728003,40.6308391],[29.277478,40.6376637],[29.285782,40.6503094],[29.2844308,40.6548179],[29.2714311,40.6525797]]]},"properties":{"@id":"relation/10586845","admin_level":"8","boundary":"administrative","name":"Bayraktepe Mahallesi","type":"boundary","@relations":[{"role":"subarea","rel":1840933,"reltags":{"admin_level":"6","boundary":"administrative","name":"Yalova Merkez","name:ar":"يالوفا","name:el":"Γιάλοβα Μερκέζ","name:ru":"Ялова","name:tr":"Yalova Merkez","name:tr:suffix":"İlçesi","name:uk":"Ялова","name:zh":"亞洛瓦","network":"TR77-districts","type":"boundary","wikidata":"Q205942","wikipedia":"tr:Yalova"}}]},"id":"relation/10586845"},
{"type":"Feature","geometry":{"type":"Polygon","coordinates":[[[29.2844308,40.6548179],[29.285782,40.6503094],[29.277478,40.6376637],[29.2878179,40.6444052],[29.2922729,40.6555501],[29.2913994,40.6582052],[29.2830766,40.6570009],[29.2844308,40.6548179]]]},"properties":{"@id":"relation/10586846","admin_level":"8","boundary":"administrative","name":"Gazi Osman Paşa Mahallesi","type":"boundary","@relations":[{"role":"subarea","rel":1840933,"reltags":{"admin_level":"6","boundary":"administrative","name":"Yalova Merkez","name:ar":"يالوفا","name:el":"Γιάλοβα Μερκέζ","name:ru":"Ялова","name:tr":"Yalova Merkez","name:tr:suffix":"İlçesi","name:uk":"Ялова","name:zh":"亞洛瓦","network":"TR77-districts","type":"boundary","wikidata":"Q205942","wikipedia":"tr:Yalova"}}]},"id":"relation/10586846"},
{"type":"Feature","geometry":{"type":"Polygon","coordinates":[[[29.2922729,40.6555501],[29.2878179,40.6444052],[29.277478,40.6376637],[29.2728003,40.6308391],[29.2757546,40.6293777],[29.2845974,40.6309224],[29.2883181,40.6345428],[29.2897754,40.6394076],[29.2963492,40.6445938],[29.2987017,40.6556465],[29.2922729,40.6555501]]]},"properties":{"@id":"relation/10586847","admin_level":"8","boundary":"administrative","name":"Mustafa Kemal Paşa Mahallesi","type":"boundary","@relations":[{"role":"subarea","rel":1840933,"reltags":{"admin_level":"6","boundary":"administrative","name":"Yalova Merkez","name:ar":"يالوفا","name:el":"Γιάλοβα Μερκέζ","name:ru":"Ялова","name:tr":"Yalova Merkez","name:tr:suffix":"İlçesi","name:uk":"Ялова","name:zh":"亞洛瓦","network":"TR77-districts","type":"boundary","wikidata":"Q205942","wikipedia":"tr:Yalova"}}]},"id":"relation/10586847"},
{"type":"Feature","geometry":{"type":"Polygon","coordinates":[[[29.298465,40.6205955],[29.2915813,40.6330453],[29.2883181,40.6345428],[29.2845974,40.6309224],[29.2757546,40.6293777],[29.2712902,40.6235244],[29.2744056,40.6135372],[29.273048,40.606187],[29.2828529,40.6019208],[29.2887033,40.5952602],[29.2995253,40.5973109],[29.2954734,40.600979],[29.2980823,40.6083367],[29.298465,40.6205955]]]},"properties":{"@id":"relation/10586848","admin_level":"8","boundary":"administrative","name":"Kirazlı Köyü","name:ar":"كيرازلي","type":"boundary","wikidata":"Q10780159","wikipedia":"tr:Kirazlı, Yalova","@relations":[{"role":"subarea","rel":1840933,"reltags":{"admin_level":"6","boundary":"administrative","name":"Yalova Merkez","name:ar":"يالوفا","name:el":"Γιάλοβα Μερκέζ","name:ru":"Ялова","name:tr":"Yalova Merkez","name:tr:suffix":"İlçesi","name:uk":"Ялова","name:zh":"亞洛瓦","network":"TR77-districts","type":"boundary","wikidata":"Q205942","wikipedia":"tr:Yalova"}}]},"id":"relation/10586848"},
{"type":"Feature","geometry":{"type":"Polygon","coordinates":[[[29.2628148,40.5860162],[29.2595408,40.5829945],[29.2640332,40.5711286],[29.2698025,40.5709566],[29.2755109,40.5659034],[29.2882734,40.5677423],[29.2888543,40.5702037],[29.2823224,40.5833046],[29.2904821,40.5911063],[29.2998421,40.5910215],[29.2995253,40.5973109],[29.2887033,40.5952602],[29.2828529,40.6019208],[29.273048,40.606187],[29.2744056,40.6135372],[29.2712902,40.6235244],[29.2757546,40.6293777],[29.2728003,40.6308391],[29.2721192,40.6288874],[29.270644,40.6240312],[29.2723806,40.6161555],[29.270511,40.6032481],[29.2735629,40.5937487],[29.2628148,40.5860162]]]},"properties":{"@id":"relation/10586850","admin_level":"8","boundary":"administrative","name":"Soğucak Köyü","place":"village","type":"boundary","wikidata":"Q10820326","@relations":[{"role":"subarea","rel":1840933,"reltags":{"admin_level":"6","boundary":"administrative","name":"Yalova Merkez","name:ar":"يالوفا","name:el":"Γιάλοβα Μερκέζ","name:ru":"Ялова","name:tr":"Yalova Merkez","name:tr:suffix":"İlçesi","name:uk":"Ялова","name:zh":"亞洛瓦","network":"TR77-districts","type":"boundary","wikidata":"Q205942","wikipedia":"tr:Yalova"}}]},"id":"relation/10586850"},
{"type":"Feature","geometry":{"type":"Polygon","coordinates":[[[29.2998421,40.5910215],[29.2904821,40.5911063],[29.2823224,40.5833046],[29.2888543,40.5702037],[29.2882734,40.5677423],[29.3016091,40.564656],[29.3088185,40.5717304],[29.3179401,40.5767163],[29.3212405,40.5806965],[29.3100611,40.5890407],[29.2998421,40.5910215]]]},"properties":{"@id":"relation/10586851","admin_level":"8","boundary":"administrative","name":"Esadiye Köyü","type":"boundary","wikidata":"Q10759006","wikipedia":"tr:Esadiye","@relations":[{"role":"subarea","rel":1840933,"reltags":{"admin_level":"6","boundary":"administrative","name":"Yalova Merkez","name:ar":"يالوفا","name:el":"Γιάλοβα Μερκέζ","name:ru":"Ялова","name:tr":"Yalova Merkez","name:tr:suffix":"İlçesi","name:uk":"Ялова","name:zh":"亞洛瓦","network":"TR77-districts","type":"boundary","wikidata":"Q205942","wikipedia":"tr:Yalova"}}]},"id":"relation/10586851"},
{"type":"Feature","geometry":{"type":"Polygon","coordinates":[[[29.2902327,40.6635156],[29.2913994,40.6582052],[29.2922729,40.6555501],[29.2987017,40.6556465],[29.2963492,40.6445938],[29.2897754,40.6394076],[29.2883181,40.6345428],[29.2915813,40.6330453],[29.3011545,40.6401281],[29.3066414,40.6374601],[29.305518,40.6434173],[29.3038708,40.6498726],[29.3099336,40.6596802],[29.3074715,40.6676713],[29.2902327,40.6635156]]]},"properties":{"@id":"relation/10586886","admin_level":"8","boundary":"administrative","name":"İsmet Paşa Mahallesi","type":"boundary","@relations":[{"role":"subarea","rel":1840933,"reltags":{"admin_level":"6","boundary":"administrative","name":"Yalova Merkez","name:ar":"يالوفا","name:el":"Γιάλοβα Μερκέζ","name:ru":"Ялова","name:tr":"Yalova Merkez","name:tr:suffix":"İlçesi","name:uk":"Ялова","name:zh":"亞洛瓦","network":"TR77-districts","type":"boundary","wikidata":"Q205942","wikipedia":"tr:Yalova"}}]},"id":"relation/10586886"},
{"type":"Feature","geometry":{"type":"Polygon","coordinates":[[[29.2830766,40.6570009],[29.2913994,40.6582052],[29.2902327,40.6635156],[29.2808023,40.6600303],[29.2700973,40.6596269],[29.2708164,40.6556615],[29.2830766,40.6570009]]]},"properties":{"@id":"relation/10586897","admin_level":"8","boundary":"administrative","name":"Süleyman Bey Mahallesi","type":"boundary","@relations":[{"role":"subarea","rel":1840933,"reltags":{"admin_level":"6","boundary":"administrative","name":"Yalova Merkez","name:ar":"يالوفا","name:el":"Γιάλοβα Μερκέζ","name:ru":"Ялова","name:tr":"Yalova Merkez","name:tr:suffix":"İlçesi","name:uk":"Ялова","name:zh":"亞洛瓦","network":"TR77-districts","type":"boundary","wikidata":"Q205942","wikipedia":"tr:Yalova"}}]},"id":"relation/10586897"},
{"type":"Feature","geometry":{"type":"Polygon","coordinates":[[[29.305518,40.6434173],[29.3066414,40.6374601],[29.3081618,40.6342168],[29.3172598,40.6351815],[29.3169246,40.6378162],[29.305518,40.6434173]]]},"properties":{"@id":"relation/10586972","admin_level":"8","boundary":"administrative","name":"Seyrantepe Mahallesi","type":"boundary","@relations":[{"role":"subarea","rel":1840933,"reltags":{"admin_level":"6","boundary":"administrative","name":"Yalova Merkez","name:ar":"يالوفا","name:el":"Γιάλοβα Μερκέζ","name:ru":"Ялова","name:tr":"Yalova Merkez","name:tr:suffix":"İlçesi","name:uk":"Ялова","name:zh":"亞洛瓦","network":"TR77-districts","type":"boundary","wikidata":"Q205942","wikipedia":"tr:Yalova"}}]},"id":"relation/10586972"},
{"type":"Feature","geometry":{"type":"Polygon","coordinates":[[[29.3212518,40.6234823],[29.3230557,40.6264006],[29.3172598,40.6351815],[29.3081618,40.6342168],[29.3066414,40.6374601],[29.3011545,40.6401281],[29.2915813,40.6330453],[29.298465,40.6205955],[29.3092923,40.6231164],[29.3212518,40.6234823]]]},"properties":{"@id":"relation/10586973","admin_level":"8","boundary":"administrative","name":"Kazımiye Köyü","type":"boundary","wikidata":"Q10778477","wikipedia":"tr:Kazımiye, Yalova","@relations":[{"role":"subarea","rel":1840933,"reltags":{"admin_level":"6","boundary":"administrative","name":"Yalova Merkez","name:ar":"يالوفا","name:el":"Γιάλοβα Μερκέζ","name:ru":"Ялова","name:tr":"Yalova Merkez","name:tr:suffix":"İlçesi","name:uk":"Ялова","name:zh":"亞洛瓦","network":"TR77-districts","type":"boundary","wikidata":"Q205942","wikipedia":"tr:Yalova"}}]},"id":"relation/10586973"},
{"type":"Feature","geometry":{"type":"Polygon","coordinates":[[[29.2995253,40.5973109],[29.2998421,40.5910215],[29.3100611,40.5890407],[29.3212405,40.5806965],[29.3297349,40.5870733],[29.3374196,40.5846781],[29.3370752,40.5900052],[29.3331534,40.5969846],[29.3274877,40.5975989],[29.323758,40.6057423],[29.324167,40.6191765],[29.3212518,40.6234823],[29.3092923,40.6231164],[29.298465,40.6205955],[29.2980823,40.6083367],[29.2954734,40.600979],[29.2995253,40.5973109]]]},"properties":{"@id":"relation/10587015","admin_level":"8","boundary":"administrative","name":"Elmalık Köyü","type":"boundary","wikidata":"Q10758333","wikipedia":"tr:Elmalık, Yalova","@relations":[{"role":"subarea","rel":1840933,"reltags":{"admin_level":"6","boundary":"administrative","name":"Yalova Merkez","name:ar":"يالوفا","name:el":"Γιάλοβα Μερκέζ","name:ru":"Ялова","name:tr":"Yalova Merkez","name:tr:suffix":"İlçesi","name:uk":"Ялова","name:zh":"亞洛瓦","network":"TR77-districts","type":"boundary","wikidata":"Q205942","wikipedia":"tr:Yalova"}}]},"id":"relation/10587015"},
{"type":"Feature","geometry":{"type":"Polygon","coordinates":[[[29.3212405,40.5806965],[29.3179401,40.5767163],[29.3088185,40.5717304],[29.3016091,40.564656],[29.3030533,40.5527225],[29.2937666,40.5479717],[29.2960667,40.5434467],[29.2949061,40.5360859],[29.302816,40.5288201],[29.3171443,40.5276603],[29.3188507,40.5327647],[29.3247616,40.5401644],[29.3330339,40.5583526],[29.3414946,40.5656125],[29.3486101,40.5680395],[29.3503941,40.573237],[29.3456675,40.5813141],[29.3374196,40.5846781],[29.3297349,40.5870733],[29.3212405,40.5806965]]]},"properties":{"@id":"relation/10587080","admin_level":"8","boundary":"administrative","name":"Sugören Köyü","type":"boundary","@relations":[{"role":"subarea","rel":1840933,"reltags":{"admin_level":"6","boundary":"administrative","name":"Yalova Merkez","name:ar":"يالوفا","name:el":"Γιάλοβα Μερκέζ","name:ru":"Ялова","name:tr":"Yalova Merkez","name:tr:suffix":"İlçesi","name:uk":"Ялова","name:zh":"亞洛瓦","network":"TR77-districts","type":"boundary","wikidata":"Q205942","wikipedia":"tr:Yalova"}}]},"id":"relation/10587080"},
{"type":"Feature","geometry":{"type":"Polygon","coordinates":[[[29.3016091,40.564656],[29.2882734,40.5677423],[29.2755109,40.5659034],[29.2698025,40.5709566],[29.2640332,40.5711286],[29.2496633,40.5709462],[29.2394519,40.5799402],[29.2350948,40.5701915],[29.2425657,40.5675925],[29.2383718,40.5598195],[29.231605,40.5602725],[29.2291729,40.5401461],[29.223049,40.5325587],[29.2214382,40.5246344],[29.2291004,40.5206063],[29.2341727,40.5220107],[29.2374094,40.529029],[29.2416845,40.5320995],[29.2536627,40.5324271],[29.2564811,40.5360192],[29.2700587,40.5364596],[29.2886381,40.5353316],[29.302816,40.5288201],[29.2949061,40.5360859],[29.2960667,40.5434467],[29.2937666,40.5479717],[29.3030533,40.5527225],[29.3016091,40.564656]]]},"properties":{"@id":"relation/10594344","admin_level":"8","boundary":"administrative","name":"Güneyköy Köyü","type":"boundary","@relations":[{"role":"subarea","rel":1840933,"reltags":{"admin_level":"6","boundary":"administrative","name":"Yalova Merkez","name:ar":"يالوفا","name:el":"Γιάλοβα Μερκέζ","name:ru":"Ялова","name:tr":"Yalova Merkez","name:tr:suffix":"İlçesi","name:uk":"Ялова","name:zh":"亞洛瓦","network":"TR77-districts","type":"boundary","wikidata":"Q205942","wikipedia":"tr:Yalova"}}]},"id":"relation/10594344"},
{"type":"Feature","geometry":{"type":"Polygon","coordinates":[[[29.2214382,40.5246344],[29.223049,40.5325587],[29.2291729,40.5401461],[29.231605,40.5602725],[29.2383718,40.5598195],[29.2425657,40.5675925],[29.2350948,40.5701915],[29.2394519,40.5799402],[29.2365186,40.5851711],[29.2371036,40.5911483],[29.2298508,40.5982727],[29.2250409,40.5992514],[29.2172325,40.5970634],[29.211059,40.591439],[29.2041797,40.6000922],[29.1994035,40.5959064],[29.204552,40.5894908],[29.2041984,40.5837698],[29.2114114,40.5780818],[29.2118082,40.5718413],[29.2059048,40.5625739],[29.1944902,40.5580112],[29.1940001,40.5489234],[29.1958379,40.5451822],[29.1854487,40.5378536],[29.1971596,40.5368747],[29.2050507,40.5345086],[29.2057008,40.5292786],[29.2135072,40.5242403],[29.2214382,40.5246344]]]},"properties":{"@id":"relation/10594345","admin_level":"8","boundary":"administrative","name":"Kurtköy Köyü","type":"boundary","wikidata":"Q10782562","wikipedia":"tr:Kurtköy, Yalova","@relations":[{"role":"subarea","rel":1840933,"reltags":{"admin_level":"6","boundary":"administrative","name":"Yalova Merkez","name:ar":"يالوفا","name:el":"Γιάλοβα Μερκέζ","name:ru":"Ялова","name:tr":"Yalova Merkez","name:tr:suffix":"İlçesi","name:uk":"Ялова","name:zh":"亞洛瓦","network":"TR77-districts","type":"boundary","wikidata":"Q205942","wikipedia":"tr:Yalova"}}]},"id":"relation/10594345"},
{"type":"Feature","geometry":{"type":"Polygon","coordinates":[[[29.2298508,40.5982727],[29.2371036,40.5911483],[29.2365186,40.5851711],[29.2394519,40.5799402],[29.2496633,40.5709462],[29.2640332,40.5711286],[29.2595408,40.5829945],[29.2628148,40.5860162],[29.2578469,40.5969378],[29.2624192,40.6003357],[29.2663503,40.609567],[29.2660914,40.6158214],[29.2553409,40.617723],[29.2546174,40.6199155],[29.2526632,40.6207147],[29.2483538,40.6139322],[29.2417955,40.6108614],[29.2358465,40.6112928],[29.2285643,40.6051776],[29.2298508,40.5982727]]]},"properties":{"@id":"relation/10594467","admin_level":"8","boundary":"administrative","name":"Safran Köyü","type":"boundary","wikidata":"Q10812204","wikipedia":"tr:Safran, Yalova","@relations":[{"role":"subarea","rel":1840933,"reltags":{"admin_level":"6","boundary":"administrative","name":"Yalova Merkez","name:ar":"يالوفا","name:el":"Γιάλοβα Μερκέζ","name:ru":"Ялова","name:tr":"Yalova Merkez","name:tr:suffix":"İlçesi","name:uk":"Ялова","name:zh":"亞洛瓦","network":"TR77-districts","type":"boundary","wikidata":"Q205942","wikipedia":"tr:Yalova"}}]},"id":"relation/10594467"},
{"type":"Feature","geometry":{"type":"Polygon","coordinates":[[[29.2298508,40.5982727],[29.2285643,40.6051776],[29.2358465,40.6112928],[29.2417955,40.6108614],[29.2483538,40.6139322],[29.2526632,40.6207147],[29.2505519,40.6275135],[29.2444927,40.6327987],[29.2449098,40.6251434],[29.2417377,40.6209815],[29.2355733,40.6193323],[29.2335958,40.6142027],[29.2270132,40.6110197],[29.2237663,40.6032356],[29.2250409,40.5992514],[29.2298508,40.5982727]]]},"properties":{"@id":"relation/10594982","admin_level":"8","boundary":"administrative","name":"Hacımehmet Köyü","type":"boundary","wikidata":"Q10764527","wikipedia":"tr:Hacımehmet, Yalova","@relations":[{"role":"subarea","rel":1840933,"reltags":{"admin_level":"6","boundary":"administrative","name":"Yalova Merkez","name:ar":"يالوفا","name:el":"Γιάλοβα Μερκέζ","name:ru":"Ялова","name:tr":"Yalova Merkez","name:tr:suffix":"İlçesi","name:uk":"Ялова","name:zh":"亞洛瓦","network":"TR77-districts","type":"boundary","wikidata":"Q205942","wikipedia":"tr:Yalova"}}]},"id":"relation/10594982"},
{"type":"Feature","geometry":{"type":"Polygon","coordinates":[[[29.2039062,40.6505834],[29.2014519,40.6475986],[29.2036528,40.6405616],[29.2082555,40.6392036],[29.2173173,40.6302221],[29.2275667,40.6297077],[29.2337954,40.6358681],[29.2337454,40.6450985],[29.2211229,40.6509183],[29.2119962,40.6486101],[29.2039062,40.6505834]]]},"properties":{"@id":"relation/10595051","admin_level":"8","boundary":"administrative","name":"Samanlı Köyü","type":"boundary","wikidata":"Q10812366","wikipedia":"tr:Samanlı, Yalova","@relations":[{"role":"subarea","rel":1840933,"reltags":{"admin_level":"6","boundary":"administrative","name":"Yalova Merkez","name:ar":"يالوفا","name:el":"Γιάλοβα Μερκέζ","name:ru":"Ялова","name:tr":"Yalova Merkez","name:tr:suffix":"İlçesi","name:uk":"Ялова","name:zh":"亞洛瓦","network":"TR77-districts","type":"boundary","wikidata":"Q205942","wikipedia":"tr:Yalova"}}]},"id":"relation/10595051"},
{"type":"Feature","geometry":{"type":"Polygon","coordinates":[[[29.2505519,40.6275135],[29.2526632,40.6207147],[29.2598399,40.6349717],[29.2590853,40.6399417],[29.2647878,40.6526233],[29.2557654,40.6532444],[29.2568565,40.6463537],[29.2525471,40.6377531],[29.2540003,40.6311642],[29.2505519,40.6275135]]]},"properties":{"@id":"relation/10595365","admin_level":"8","boundary":"administrative","name":"Adnan Menderes Mahallesi","type":"boundary","@relations":[{"role":"subarea","rel":1840933,"reltags":{"admin_level":"6","boundary":"administrative","name":"Yalova Merkez","name:ar":"يالوفا","name:el":"Γιάλοβα Μερκέζ","name:ru":"Ялова","name:tr":"Yalova Merkez","name:tr:suffix":"İlçesi","name:uk":"Ялова","name:zh":"亞洛瓦","network":"TR77-districts","type":"boundary","wikidata":"Q205942","wikipedia":"tr:Yalova"}}]},"id":"relation/10595365"},
{"type":"Feature","geometry":{"type":"Polygon","coordinates":[[[29.2704179,40.6522837],[29.2647878,40.6526233],[29.2590853,40.6399417],[29.2598399,40.6349717],[29.2526632,40.6207147],[29.2546174,40.6199155],[29.2592709,40.6258616],[29.2616767,40.6398409],[29.2654901,40.6426051],[29.2704179,40.6522837]]]},"properties":{"@id":"relation/10595389","admin_level":"8","boundary":"administrative","name":"Dere Mahallesi","type":"boundary","@relations":[{"role":"subarea","rel":1840933,"reltags":{"admin_level":"6","boundary":"administrative","name":"Yalova Merkez","name:ar":"يالوفا","name:el":"Γιάλοβα Μερκέζ","name:ru":"Ялова","name:tr":"Yalova Merkez","name:tr:suffix":"İlçesi","name:uk":"Ялова","name:zh":"亞洛瓦","network":"TR77-districts","type":"boundary","wikidata":"Q205942","wikipedia":"tr:Yalova"}}]},"id":"relation/10595389"},
{"type":"Feature","geometry":{"type":"Polygon","coordinates":[[[29.2704179,40.6522837],[29.2654901,40.6426051],[29.2616767,40.6398409],[29.2592709,40.6258616],[29.2546174,40.6199155],[29.2553409,40.617723],[29.2660914,40.6158214],[29.2674315,40.6215497],[29.2641165,40.6256394],[29.2691235,40.6284893],[29.2708222,40.6372032],[29.2777957,40.6485091],[29.2714311,40.6525797],[29.2704179,40.6522837]]]},"properties":{"@id":"relation/10595433","admin_level":"8","boundary":"administrative","name":"Bağlarbaşı Mahallesi","type":"boundary","@relations":[{"role":"subarea","rel":1840933,"reltags":{"admin_level":"6","boundary":"administrative","name":"Yalova Merkez","name:ar":"يالوفا","name:el":"Γιάλοβα Μερκέζ","name:ru":"Ялова","name:tr":"Yalova Merkez","name:tr:suffix":"İlçesi","name:uk":"Ялова","name:zh":"亞洛瓦","network":"TR77-districts","type":"boundary","wikidata":"Q205942","wikipedia":"tr:Yalova"}}]},"id":"relation/10595433"},
{"type":"Feature","geometry":{"type":"Polygon","coordinates":[[[29.2691235,40.6284893],[29.2641165,40.6256394],[29.2674315,40.6215497],[29.2660914,40.6158214],[29.2663503,40.609567],[29.2624192,40.6003357],[29.2578469,40.5969378],[29.2628148,40.5860162],[29.2735629,40.5937487],[29.270511,40.6032481],[29.2723806,40.6161555],[29.270644,40.6240312],[29.2721192,40.6288874],[29.2691235,40.6284893]]]},"properties":{"@id":"relation/10595459","admin_level":"8","boundary":"administrative","name":"Paşakent Mahallesi","type":"boundary","@relations":[{"role":"subarea","rel":1840933,"reltags":{"admin_level":"6","boundary":"administrative","name":"Yalova Merkez","name:ar":"يالوفا","name:el":"Γιάλοβα Μερκέζ","name:ru":"Ялова","name:tr":"Yalova Merkez","name:tr:suffix":"İlçesi","name:uk":"Ялова","name:zh":"亞洛瓦","network":"TR77-districts","type":"boundary","wikidata":"Q205942","wikipedia":"tr:Yalova"}}]},"id":"relation/10595459"},
{"type":"Feature","geometry":{"type":"Polygon","coordinates":[[[29.5317099,40.7139375],[29.520365,40.721693],[29.5168655,40.7333966],[29.5107993,40.7344127],[29.4940766,40.7257087],[29.4792411,40.7200796],[29.4925618,40.7107679],[29.4969177,40.7154359],[29.5046854,40.7135492],[29.5097923,40.7161678],[29.518311,40.7118008],[29.5317099,40.7139375]]]},"properties":{"@id":"relation/12715229","admin_level":"8","boundary":"administrative","name":"Hersek Mahallesi","type":"boundary","@relations":[{"role":"subarea","rel":1840930,"reltags":{"admin_level":"6","boundary":"administrative","name":"Altınova","name:ar":"آلتينوفا","name:ce":"Алтинова","name:de":"Altınova","name:el":"Αλτίνοβα","name:en":"Altınova","name:fa":"آلتینوا","name:ru":"Алтынова","name:tr":"Altınova","name:tr:suffix":"İlçesi","name:tt":"Алтынова","name:ur":"التینووا","name:zh":"阿爾特諾瓦","network":"TR77-districts","type":"boundary","wikidata":"Q1922420","wikipedia":"tr:Altınova"}}]},"id":"relation/12715229"},
{"type":"Feature","geometry":{"type":"Polygon","coordinates":[[[29.2010087,40.615043],[29.2066126,40.613917],[29.2129044,40.6091036],[29.2041797,40.6000922],[29.211059,40.591439],[29.2172325,40.5970634],[29.2250409,40.5992514],[29.2237663,40.6032356],[29.2270132,40.6110197],[29.2335958,40.6142027],[29.2355733,40.6193323],[29.2417377,40.6209815],[29.2449098,40.6251434],[29.2444927,40.6327987],[29.2464026,40.6417237],[29.2516064,40.6490776],[29.2427297,40.6513828],[29.2337454,40.6450985],[29.2337954,40.6358681],[29.2275667,40.6297077],[29.2173173,40.6302221],[29.2104779,40.6228354],[29.200682,40.6179333],[29.2010087,40.615043]]]},"properties":{"@id":"relation/12753886","admin_level":"8","boundary":"administrative","name":"Kadıköy Beldesi","type":"boundary","wikidata":"Q6345862","wikipedia":"tr:Kadıköy, Yalova","@relations":[{"role":"subarea","rel":1840933,"reltags":{"admin_level":"6","boundary":"administrative","name":"Yalova Merkez","name:ar":"يالوفا","name:el":"Γιάλοβα Μερκέζ","name:ru":"Ялова","name:tr":"Yalova Merkez","name:tr:suffix":"İlçesi","name:uk":"Ялова","name:zh":"亞洛瓦","network":"TR77-districts","type":"boundary","wikidata":"Q205942","wikipedia":"tr:Yalova"}}]},"id":"relation/12753886"},
{"type":"Feature","geometry":{"type":"Polygon","coordinates":[[[29.1933343,40.6566226],[29.1899146,40.6574762],[29.1712137,40.6551965],[29.1640747,40.6560171],[29.1454457,40.6568545],[29.1380922,40.649554],[29.1404192,40.6459962],[29.1517385,40.6452084],[29.1566567,40.6422133],[29.163252,40.645823],[29.1691646,40.642076],[29.1708893,40.6420572],[29.1849439,40.6434596],[29.1898861,40.646832],[29.1933343,40.6566226]]]},"properties":{"@id":"relation/17527115","admin_level":"8","boundary":"administrative","name":"Koru","type":"boundary"},"id":"relation/17527115"},
{"type":"Feature","geometry":{"type":"Polygon","coordinates":[[[29.1632678,40.6329134],[29.1668714,40.6261663],[29.1667154,40.619237],[29.1699111,40.6150246],[29.1788555,40.6134523],[29.1783188,40.6070665],[29.1867415,40.6049566],[29.1929703,40.608224],[29.1949,40.6123798],[29.2010087,40.615043],[29.200682,40.6179333],[29.2104779,40.6228354],[29.2173173,40.6302221],[29.2082555,40.6392036],[29.2036528,40.6405616],[29.2014519,40.6475986],[29.2039062,40.6505834],[29.2087935,40.6559972],[29.1933343,40.6566226],[29.1898861,40.646832],[29.1849439,40.6434596],[29.1708893,40.6420572],[29.1691646,40.642076],[29.1632678,40.6329134]]]},"properties":{"@id":"relation/17531192","admin_level":"8","boundary":"administrative","name":"Akköy","type":"boundary"},"id":"relation/17531192"},
{"type":"Feature","geometry":{"type":"Polygon","coordinates":[[[29.0789008,40.6460537],[29.0800923,40.6357413],[29.1031065,40.6246282],[29.1002495,40.6191229],[29.1030428,40.6103213],[29.0986453,40.6004205],[29.0988758,40.5961071],[29.0883449,40.5871469],[29.0835783,40.5858168],[29.0850034,40.5764285],[29.0968638,40.5778509],[29.0998288,40.5760729],[29.100141,40.5676566],[29.1063833,40.5708573],[29.1153053,40.5710595],[29.1193203,40.5732304],[29.1247293,40.5839823],[29.1206808,40.5930058],[29.1282519,40.5994825],[29.1348219,40.6026985],[29.1362381,40.6095731],[29.1344142,40.6165123],[29.1384733,40.6217681],[29.1285348,40.6256004],[29.1358194,40.6290423],[29.1404192,40.6459962],[29.1380922,40.649554],[29.1179048,40.6469997],[29.1066833,40.6433943],[29.0789008,40.6460537]]]},"properties":{"@id":"relation/17531267","admin_level":"8","boundary":"administrative","name":"Çınarcık","type":"boundary"},"id":"relation/17531267"},
{"type":"Feature","geometry":{"type":"Polygon","coordinates":[[[29.0294022,40.5998553],[29.0183529,40.5939917],[29.010199,40.592786],[29.0019163,40.5881583],[28.9999851,40.5826015],[28.9940199,40.5735176],[28.9867243,40.5685137],[28.9885724,40.5586286],[29.0115764,40.5525062],[29.015832,40.5595949],[29.018991,40.5702646],[29.0305393,40.5769026],[29.0399027,40.5761914],[29.0506707,40.5667082],[29.0619069,40.5616104],[29.0715824,40.5644557],[29.0767323,40.5723983],[29.0850034,40.5764285],[29.0835783,40.5858168],[29.0883449,40.5871469],[29.0988758,40.5961071],[29.0986453,40.6004205],[29.1030428,40.6103213],[29.1002495,40.6191229],[29.1031065,40.6246282],[29.0800923,40.6357413],[29.0789008,40.6460537],[29.0707497,40.6440645],[29.0642593,40.6446619],[29.0635175,40.6343194],[29.0582856,40.6319452],[29.0571997,40.6230914],[29.0542945,40.6179065],[29.0405401,40.6076281],[29.0341243,40.6060642],[29.0294022,40.5998553]]]},"properties":{"@id":"relation/17538975","admin_level":"8","boundary":"administrative","name":"Teşvikiye","type":"boundary"},"id":"relation/17538975"},
{"type":"Feature","geometry":{"type":"Polygon","coordinates":[[[29.1380922,40.649554],[29.1404192,40.6459962],[29.1517385,40.6452084],[29.155938,40.6476719],[29.163252,40.645823],[29.1691646,40.642076],[29.1708893,40.6420572],[29.1660946,40.6476916],[29.1640747,40.6560171],[29.1454457,40.6568545],[29.1380922,40.649554]]]},"properties":{"@id":"relation/17539175","admin_level":"8","boundary":"administrative","name":"Cumhuriyet mahallesi","type":"boundary"},"id":"relation/17539175"},
{"type":"Feature","geometry":{"type":"Polygon","coordinates":[[[29.1708893,40.6420572],[29.1849439,40.6434596],[29.1898861,40.646832],[29.1933343,40.6566226],[29.1899146,40.6574762],[29.1712137,40.6551965],[29.1640747,40.6560171],[29.1660946,40.6476916],[29.1708893,40.6420572]]]},"properties":{"@id":"relation/17539179","admin_level":"8","boundary":"administrative","name":"Hürriyet mahallesi","type":"boundary"},"id":"relation/17539179"},
{"type":"Feature","geometry":{"type":"Polygon","coordinates":[[[29.163252,40.645823],[29.1566567,40.6422133],[29.1517385,40.6452084],[29.1404192,40.6459962],[29.1358194,40.6290423],[29.1285348,40.6256004],[29.1384733,40.6217681],[29.1499419,40.6257236],[29.1632678,40.6329134],[29.1691646,40.642076],[29.163252,40.645823]]]},"properties":{"@id":"relation/17550576","admin_level":"8","boundary":"administrative","name":"Çalıca köyü","type":"boundary"},"id":"relation/17550576"},
{"type":"Feature","geometry":{"type":"Polygon","coordinates":[[[29.1324449,40.5772582],[29.1375326,40.583513],[29.1511096,40.5897942],[29.1472082,40.6009923],[29.1582102,40.6075088],[29.1584443,40.6147355],[29.1667154,40.619237],[29.1668714,40.6261663],[29.1632678,40.6329134],[29.1499419,40.6257236],[29.1384733,40.6217681],[29.1344142,40.6165123],[29.1362381,40.6095731],[29.1348219,40.6026985],[29.1282519,40.5994825],[29.1206808,40.5930058],[29.1247293,40.5839823],[29.1193203,40.5732304],[29.1153053,40.5710595],[29.1268268,40.5686049],[29.1324449,40.5772582]]]},"properties":{"@id":"relation/17550601","admin_level":"8","boundary":"administrative","name":"Ortaburun köyü","type":"boundary"},"id":"relation/17550601"},
{"type":"Feature","geometry":{"type":"Polygon","coordinates":[[[28.9058313,40.5917822],[28.9179489,40.5818474],[28.9198248,40.5779921],[28.9275493,40.5791655],[28.9360462,40.5738014],[28.9425568,40.5767349],[28.948626,40.5729632],[28.9520468,40.5660897],[28.9480742,40.5617305],[28.9500605,40.5585448],[28.9610955,40.5554427],[28.9666129,40.5592155],[28.9713579,40.5550235],[28.981179,40.5526759],[28.9882414,40.5546882],[28.9885724,40.5586286],[28.9867243,40.5685137],[28.9940199,40.5735176],[28.9999851,40.5826015],[28.9863274,40.5822448],[28.979894,40.580004],[28.9743415,40.5816068],[28.9669246,40.5926073],[28.9711658,40.5962167],[28.9706126,40.6013971],[28.9762675,40.608677],[28.9738317,40.6167881],[28.9783888,40.6199839],[28.9808507,40.6297113],[28.99615,40.6380324],[28.9990898,40.6416471],[28.9966001,40.6458481],[28.9845381,40.6404785],[28.9735363,40.6371465],[28.962516,40.630523],[28.958297,40.6258652],[28.9534167,40.6146828],[28.9413405,40.607976],[28.9330108,40.601285],[28.920047,40.5954626],[28.9058313,40.5917822]]]},"properties":{"@id":"relation/17631029","admin_level":"8","boundary":"administrative","name":"Esenköy","type":"boundary"},"id":"relation/17631029"},
{"type":"Feature","geometry":{"type":"Polygon","coordinates":[[[28.9999851,40.5826015],[29.0019163,40.5881583],[29.010199,40.592786],[29.0183529,40.5939917],[29.0294022,40.5998553],[29.0301839,40.6047405],[29.0264262,40.6091022],[29.0327459,40.615986],[29.0317056,40.620182],[29.0228711,40.6200818],[29.0194816,40.6285487],[29.0267779,40.6370282],[29.0272555,40.6464569],[29.0126402,40.6439843],[28.9966001,40.6458481],[28.9990898,40.6416471],[28.99615,40.6380324],[28.9808507,40.6297113],[28.9783888,40.6199839],[28.9738317,40.6167881],[28.9762675,40.608677],[28.9706126,40.6013971],[28.9711658,40.5962167],[28.9669246,40.5926073],[28.9743415,40.5816068],[28.979894,40.580004],[28.9863274,40.5822448],[28.9999851,40.5826015]]]},"properties":{"@id":"relation/17632340","admin_level":"8","boundary":"administrative","name":"Şenköy","type":"boundary"},"id":"relation/17632340"},
{"type":"Feature","geometry":{"type":"Polygon","coordinates":[[[29.0272555,40.6464569],[29.0267779,40.6370282],[29.0194816,40.6285487],[29.0228711,40.6200818],[29.0317056,40.620182],[29.0327459,40.615986],[29.0264262,40.6091022],[29.0301839,40.6047405],[29.0294022,40.5998553],[29.0341243,40.6060642],[29.0405401,40.6076281],[29.0542945,40.6179065],[29.0571997,40.6230914],[29.0582856,40.6319452],[29.0635175,40.6343194],[29.0642593,40.6446619],[29.0470499,40.6484815],[29.0354783,40.6459445],[29.0272555,40.6464569]]]},"properties":{"@id":"relation/17632342","admin_level":"8","boundary":"administrative","name":"Kocadere","type":"boundary"},"id":"relation/17632342"},
{"type":"Feature","geometry":{"type":"Polygon","coordinates":[[[29.2039062,40.6505834],[29.2119962,40.6486101],[29.2211229,40.6509183],[29.2337454,40.6450985],[29.2427297,40.6513828],[29.2516064,40.6490776],[29.2464026,40.6417237],[29.2444927,40.6327987],[29.2505519,40.6275135],[29.2526632,40.6207147],[29.2546174,40.6199155],[29.2553409,40.617723],[29.2660914,40.6158214],[29.2663503,40.609567],[29.2624192,40.6003357],[29.2578469,40.5969378],[29.2628148,40.5860162],[29.2735629,40.5937487],[29.270511,40.6032481],[29.2723806,40.6161555],[29.270644,40.6240312],[29.2721192,40.6288874],[29.2728003,40.6308391],[29.2757546,40.6293777],[29.2845974,40.6309224],[29.2883181,40.6345428],[29.2915813,40.6330453],[29.3011545,40.6401281],[29.3066414,40.6374601],[29.3081618,40.6342168],[29.3172598,40.6351815],[29.3169246,40.6378162],[29.305518,40.6434173],[29.3038708,40.6498726],[29.3099336,40.6596802],[29.3074715,40.6676713],[29.2902327,40.6635156],[29.2808023,40.6600303],[29.2700973,40.6596269],[29.266243,40.65877],[29.2590149,40.6575244],[29.2398897,40.6591527],[29.2230124,40.6568418],[29.2087935,40.6559972],[29.2039062,40.6505834]]]},"properties":{"@id":"relation/17686696","admin_level":"8","boundary":"administrative","name":"Yalova Belediye sınırı","type":"boundary"},"id":"relation/17686696"}
]}