{"type":"FeatureCollection", "features": [
{"type":"Feature","geometry":{"type":"Polygon","coordinates":[[[34.3587587,39.9432569],[34.3207339,39.9394362],[34.2860826,39.9449378],[34.2498033,39.9451581],[34.2369075,39.9583187],[34.2124121,39.9666691],[34.1668467,39.9378722],[34.1186787,39.9204013],[34.0951588,39.908757],[34.0947723,39.8859776],[34.0692619,39.8564844],[34.0606553,39.8351561],[34.1120414,39.7967363],[34.1438725,39.790031],[34.1578834,39.7987628],[34.1814855,39.7975584],[34.184353,39.7878681],[34.2056879,39.7728597],[34.2058914,39.7555257],[34.2227941,39.7507325],[34.2511394,39.7161539],[34.2829542,39.7077897],[34.2927689,39.6954504],[34.3056523,39.7001639],[34.3726001,39.6971995],[34.4468634,39.6784295],[34.4683247,39.6754858],[34.4643475,39.6463103],[34.4529449,39.6339093],[34.4859962,39.6165308],[34.477296,39.6010878],[34.4770141,39.573789],[34.5035046,39.5674478],[34.494111,39.5370505],[34.4942619,39.4962544],[34.4977325,39.4673504],[34.5628657,39.4400733],[34.5702789,39.4981405],[34.5628113,39.5201843],[34.6420331,39.5667539],[34.6719037,39.5647515],[34.684131,39.5742694],[34.6960218,39.6005668],[34.6914078,39.6295078],[34.6744374,39.6384819],[34.6920104,39.6625227],[34.7230999,39.6772161],[34.720603,39.6943802],[34.7066392,39.7177842],[34.6958339,39.7253281],[34.6452709,39.7431627],[34.6205289,39.7289079],[34.5832921,39.7283965],[34.569827,39.7397742],[34.5694945,39.760607],[34.5864506,39.7811781],[34.5939312,39.7990609],[34.5879467,39.8136193],[34.5684971,39.8252382],[34.5463877,39.8251105],[34.5317589,39.8058297],[34.5159665,39.8101715],[34.5139716,39.8263872],[34.4983455,39.8544683],[34.4675918,39.8663355],[34.4424901,39.8659527],[34.4132326,39.8793487],[34.4100741,39.9090659],[34.3956116,39.9339265],[34.3631359,39.9364134],[34.3587587,39.9432569]]]},"properties":{"@id":"relation/1240430","admin_level":"6","boundary":"administrative","name":"Yerköy","name:ce":"Йеркоьй","name:de":"Yerköy","name:en":"Yerköy","name:fa":"یرکوی","name:tr":"Yerköy","name:tr:suffix":"İlçesi","name:tt":"Еркөй","name:uk":"Єркьой","name:ur":"یرکوی","name:zh":"耶爾柯伊","network":"TR66-districts","population":"34888","population:date":"31-12-2021","type":"boundary","wikidata":"Q1012911","wikipedia":"tr:Yerköy"},"id":"relation/1240430"},
{"type":"Feature","geometry":{"type":"Polygon","coordinates":[[[35.8962313,39.498186],[35.9068218,39.5226978],[35.9451563,39.5191935],[35.9907729,39.4975223],[36.0310362,39.5041733],[36.037216,39.4984777],[36.0718916,39.4898672],[36.1048506,39.5117225],[36.1087131,39.5247662],[36.131544,39.5469415],[36.1505126,39.5570669],[36.1463069,39.5730793],[36.158924,39.5843917],[36.1502551,39.6048947],[36.1439036,39.6402647],[36.1568641,39.6441642],[36.1594389,39.6651782],[36.1496417,39.673123],[36.159439,39.6905448],[36.1348056,39.7095638],[36.1181544,39.7059321],[36.1077689,39.7264651],[36.0674285,39.7669851],[36.0483741,39.769624],[36.0380744,39.7838723],[36.0373878,39.8043162],[36.0573863,39.8112394],[36.0901736,39.8120305],[36.0992717,39.8321365],[36.0928344,39.8445267],[36.0989284,39.8660066],[36.0765266,39.860802],[36.045885,39.8597478],[36.0239123,39.8833965],[35.9867477,39.8939336],[35.9864473,39.9319691],[35.9758901,39.9392249],[35.9664166,39.9348073],[35.9448718,39.9457437],[35.9290402,39.931539],[35.8927876,39.9382543],[35.8527607,39.9231903],[35.8274823,39.923047],[35.8186141,39.9074409],[35.8214807,39.891342],[35.8088191,39.8874191],[35.7738537,39.8923688],[35.7516186,39.8994504],[35.7276791,39.9007214],[35.7339699,39.919721],[35.7186234,39.9245429],[35.6773183,39.8599873],[35.6754742,39.8453624],[35.6608923,39.8333392],[35.6411166,39.8343687],[35.627647,39.8164006],[35.594813,39.7870931],[35.582553,39.764439],[35.595656,39.684759],[35.6124,39.670678],[35.605082,39.643191],[35.6022739,39.6166883],[35.6189012,39.5996083],[35.6847708,39.5859741],[35.6907395,39.571187],[35.67737,39.55743],[35.6693029,39.5433674],[35.649,39.55333],[35.618872,39.5504904],[35.6098223,39.5314029],[35.62793,39.51513],[35.66711,39.51596],[35.68741,39.51229],[35.69999,39.52867],[35.72076,39.53026],[35.7479667,39.5394953],[35.74595,39.54625],[35.8101148,39.5667502],[35.8350557,39.5526165],[35.8440672,39.5362539],[35.8638686,39.5161173],[35.8962313,39.498186]]]},"properties":{"@id":"relation/1559325","admin_level":"6","boundary":"administrative","name":"Akdağmadeni","name:ce":"АкдагӀмадени","name:de":"Akdağmadeni","name:el":"Ακνταγμαντενί","name:en":"Akdağmadeni","name:fa":"آقداغ‌معدنی","name:ru":"Акдагмадени","name:tr":"Akdağmadeni","name:tr:suffix":"İlçesi","name:tt":"Акдагмадени","name:ur":"آقداغ معدنی","name:zh":"阿克達馬代尼","network":"TR66-districts","population":"41902","population:date":"31-12-2021","postal_code":"66300","type":"boundary","wikidata":"Q1859513","wikipedia":"tr:Akdağmadeni"},"id":"relation/1559325"},
{"type":"Feature","geometry":{"type":"Polygon","coordinates":[[[35.7186234,39.9245429],[35.7339699,39.919721],[35.7276791,39.9007214],[35.7516186,39.8994504],[35.7738537,39.8923688],[35.8088191,39.8874191],[35.8214807,39.891342],[35.8186141,39.9074409],[35.8274823,39.923047],[35.8527607,39.9231903],[35.8927876,39.9382543],[35.9290402,39.931539],[35.9448718,39.9457437],[35.9664166,39.9348073],[35.9758901,39.9392249],[35.9879708,39.9646387],[35.9852457,39.9767419],[35.96529,39.9833189],[35.9416652,39.9984763],[35.9321594,40.0413822],[35.9579086,40.0444376],[35.9676504,40.0803372],[35.9612559,40.0969176],[35.9264945,40.0942913],[35.8744811,40.0774804],[35.8321666,40.0717664],[35.8215236,40.1043364],[35.8040141,40.107028],[35.7887363,40.0862147],[35.7612704,40.0718978],[35.7209859,40.0618592],[35.7290742,40.0448562],[35.7292336,40.0243136],[35.7217025,40.0019775],[35.6987857,39.997901],[35.6852185,39.9888253],[35.6547546,39.9829736],[35.6252288,39.967451],[35.61528,39.9058727],[35.6398785,39.9193827],[35.6788236,39.9204988],[35.6869921,39.9286134],[35.712138,39.9328547],[35.7186234,39.9245429]]]},"properties":{"@id":"relation/1561845","admin_level":"6","boundary":"administrative","name":"Kadışehri","name:ce":"КадишехӀри","name:de":"Kadışehri","name:en":"Kadışehri","name:fa":"قاضی‌شهری","name:tr":"Kadışehri","name:tr:suffix":"İlçesi","name:tt":"Кадышеһри","name:ur":"قاضی شہری","network":"TR66-districts","old_name":"Devecidağı","population":"10491","population:date":"31-12-2021","type":"boundary","wikidata":"Q3056065","wikipedia":"tr:Kadışehri"},"id":"relation/1561845"},
{"type":"Feature","geometry":{"type":"Polygon","coordinates":[[[35.61528,39.9058727],[35.6096761,39.8733172],[35.5920533,39.8552947],[35.5680201,39.8409909],[35.5520926,39.8212713],[35.5250448,39.8052036],[35.525736,39.780203],[35.51591,39.762557],[35.495464,39.762998],[35.487228,39.751994],[35.4509,39.751917],[35.41427,39.721885],[35.402459,39.70682],[35.423715,39.704861],[35.46635,39.682844],[35.467421,39.669993],[35.438606,39.661985],[35.459664,39.640365],[35.472254,39.634543],[35.502479,39.632598],[35.52154,39.619292],[35.547341,39.614842],[35.550975,39.626965],[35.578353,39.628974],[35.605082,39.643191],[35.6124,39.670678],[35.595656,39.684759],[35.582553,39.764439],[35.594813,39.7870931],[35.627647,39.8164006],[35.6411166,39.8343687],[35.6608923,39.8333392],[35.6754742,39.8453624],[35.6773183,39.8599873],[35.7186234,39.9245429],[35.712138,39.9328547],[35.6869921,39.9286134],[35.6788236,39.9204988],[35.6398785,39.9193827],[35.61528,39.9058727]]]},"properties":{"@id":"relation/1561846","admin_level":"6","boundary":"administrative","name":"Saraykent","name:ce":"Сарайкент","name:de":"Saraykent","name:en":"Saraykent","name:fa":"سرای‌کند","name:tr":"Saraykent","name:tr:suffix":"İlçesi","name:tt":"Сарайкент","name:ur":"سرائےکینت","name:zh":"薩拉伊肯特","network":"TR66-districts","type":"boundary","wikidata":"Q2372316","wikipedia":"tr:Saraykent"},"id":"relation/1561846"},
{"type":"Feature","geometry":{"type":"Polygon","coordinates":[[[35.0349209,39.064471],[35.0494827,39.0861941],[35.0875114,39.1025826],[35.1160811,39.1317914],[35.1358492,39.1697674],[35.130329,39.1867638],[35.1329309,39.207154],[35.149386,39.2406352],[35.1425365,39.252755],[35.1002423,39.2739694],[35.077992,39.261811],[35.030308,39.261975],[35.018353,39.28167],[34.997339,39.296739],[35.010555,39.312955],[35.004923,39.344866],[35.014487,39.36627],[35.005175,39.393046],[34.9879056,39.4076595],[34.9176898,39.383036],[34.9106979,39.373996],[34.9239823,39.3601452],[34.9117596,39.3385856],[34.9351394,39.3087408],[34.9344098,39.2853232],[34.9183205,39.258709],[34.9230672,39.2481755],[34.9604745,39.2490554],[34.9681216,39.2146364],[34.9539676,39.2076567],[34.9506119,39.1840099],[34.9365919,39.1711187],[34.9532877,39.147252],[34.9813092,39.1389682],[35.0085296,39.140487],[35.0143462,39.1233847],[35.0040078,39.0852245],[35.0162597,39.0655759],[35.0349209,39.064471]]]},"properties":{"@id":"relation/1561847","admin_level":"6","boundary":"administrative","name":"Yenifakılı","name:ce":"Йенифакили","name:de":"Yenifakılı","name:en":"Yenifakılı","name:fa":"ینیفاکیلی","name:tr":"Yenifakılı","name:tr:suffix":"İlçesi","name:tt":"Енифакылы","name:ur":"ینی قافلی","network":"TR66-districts","old_name":"Fakılı","type":"boundary","wikidata":"Q2674100","wikipedia":"tr:Yenifakılı"},"id":"relation/1561847"},
{"type":"Feature","geometry":{"type":"Polygon","coordinates":[[[35.6238856,39.1974297],[35.6108707,39.2289506],[35.5943818,39.2577863],[35.519113,39.3231097],[35.4677894,39.3384633],[35.4332158,39.3100723],[35.4273649,39.2944318],[35.4406625,39.2660229],[35.4789593,39.2248302],[35.5027539,39.19436],[35.5302792,39.1840519],[35.5754003,39.1906731],[35.6101167,39.1882869],[35.6238856,39.1974297]]]},"properties":{"@id":"relation/1561848","admin_level":"6","boundary":"administrative","name":"Çandır","name:ce":"Чандир","name:de":"Çandır","name:en":"Çandır","name:fa":"چاندیر","name:hy":"Չանդըր","name:tr":"Çandır","name:tr:suffix":"İlçesi","name:tt":"Чандыр","name:ur":"چاندیر","network":"TR66-districts","population":"4240","population:date":"31-12-2021","type":"boundary","wikidata":"Q2367349","wikipedia":"tr:Çandır"},"id":"relation/1561848"},
{"type":"Feature","geometry":{"type":"Polygon","coordinates":[[[35.08798,40.020757],[35.0697711,40.0045445],[35.0300121,40.0056745],[35.0054033,40.000285],[34.9444377,40.0013421],[34.9183188,39.9871806],[34.8975733,39.9884522],[34.8886112,39.9970983],[34.8987462,40.0308335],[34.8767989,40.0491352],[34.8550231,40.0334903],[34.8340121,40.004244],[34.7964696,39.9938229],[34.7548109,40.0067624],[34.7072549,40.0067398],[34.683037,40.0176437],[34.658154,40.0109435],[34.6381563,39.9879801],[34.6344038,39.9627555],[34.6198823,39.953781],[34.5844364,39.943551],[34.5417342,39.9517689],[34.5298128,39.9784467],[34.5096855,39.9835457],[34.4881168,39.9795606],[34.4634577,39.9922972],[34.4129839,39.9952073],[34.380396,39.9550012],[34.3587587,39.9432569],[34.3631359,39.9364134],[34.3956116,39.9339265],[34.4100741,39.9090659],[34.4132326,39.8793487],[34.4424901,39.8659527],[34.4675918,39.8663355],[34.4983455,39.8544683],[34.5139716,39.8263872],[34.5159665,39.8101715],[34.5317589,39.8058297],[34.5463877,39.8251105],[34.5684971,39.8252382],[34.5879467,39.8136193],[34.5939312,39.7990609],[34.5864506,39.7811781],[34.5694945,39.760607],[34.569827,39.7397742],[34.5832921,39.7283965],[34.6205289,39.7289079],[34.6452709,39.7431627],[34.6958339,39.7253281],[34.7066392,39.7177842],[34.720603,39.6943802],[34.7230999,39.6772161],[34.6920104,39.6625227],[34.6744374,39.6384819],[34.6914078,39.6295078],[34.7588353,39.6528112],[34.8150624,39.6384954],[34.839133,39.635598],[34.8466221,39.6269462],[34.8724938,39.6237998],[34.8814413,39.6010091],[34.9597593,39.5395815],[34.990523,39.5083018],[35.0227672,39.4803931],[35.0334427,39.4652572],[35.0434645,39.4672755],[35.1186812,39.5022855],[35.1246138,39.5162713],[35.1199995,39.5330506],[35.1038495,39.5625316],[35.1005284,39.592679],[35.0899942,39.6137541],[35.0495682,39.6364283],[35.0336463,39.6531834],[35.0336463,39.6727201],[35.020133,39.7107629],[34.9977207,39.7513188],[35.002335,39.8052718],[35.0181682,39.8444234],[35.0177787,39.8796298],[35.0242451,39.893273],[35.0062902,39.9216455],[35.0142004,39.9466654],[35.0336463,39.9640981],[35.0768229,39.99087],[35.0876995,40.0007174],[35.08798,40.020757]]]},"properties":{"@id":"relation/1561849","admin_level":"6","alt_name":"Yozgat","boundary":"administrative","name":"Yozgat Merkez","name:ar":"يوزغات","name:az":"Yozqat","name:bg":"Йозгат","name:ce":"Йозгат","name:de":"Yozgat","name:el":"Γιοζγκάτ","name:en":"Yozgat","name:fa":"یوزغاد","name:hy":"Յոզգաթ","name:ja":"ヨズガト","name:lt":"Jozgatas","name:ru":"Йозгат","name:tg":"Йозгат","name:tr":"Yozgat Merkez","name:tr:suffix":"İlçesi","name:tt":"Йозгат","name:uk":"Йозґат","name:ur":"یوزگت","name:zh":"約茲加特","network":"TR66-districts","type":"boundary","wikidata":"Q210292","wikipedia":"tr:Yozgat"},"id":"relation/1561849"},
{"type":"Feature","geometry":{"type":"Polygon","coordinates":[[[35.68741,39.51229],[35.66711,39.51596],[35.62793,39.51513],[35.6098223,39.5314029],[35.618872,39.5504904],[35.649,39.55333],[35.6693029,39.5433674],[35.67737,39.55743],[35.6907395,39.571187],[35.6847708,39.5859741],[35.6189012,39.5996083],[35.6022739,39.6166883],[35.605082,39.643191],[35.578353,39.628974],[35.550975,39.626965],[35.547341,39.614842],[35.52154,39.619292],[35.502479,39.632598],[35.472254,39.634543],[35.459664,39.640365],[35.438606,39.661985],[35.42834,39.650656],[35.401583,39.670475],[35.374632,39.66687],[35.375021,39.654671],[35.362126,39.62974],[35.325713,39.617137],[35.294806,39.625704],[35.273615,39.622656],[35.273598,39.601315],[35.311489,39.597288],[35.30994,39.569965],[35.2919482,39.5575301],[35.2640314,39.5546067],[35.1986279,39.5621505],[35.1790584,39.5526213],[35.1543389,39.5196561],[35.1186812,39.5022855],[35.1327898,39.4815702],[35.1427102,39.4346932],[35.1273729,39.4100067],[35.1390748,39.3894558],[35.2076899,39.3643754],[35.3002407,39.3380519],[35.330559,39.3401088],[35.3417289,39.3590292],[35.3231124,39.3980879],[35.3289633,39.4083629],[35.3587497,39.4112396],[35.3704516,39.3919222],[35.368324,39.3750665],[35.3748332,39.3513169],[35.4007699,39.3446337],[35.4406625,39.3429883],[35.4677894,39.3384633],[35.498105,39.360955],[35.517319,39.353255],[35.533457,39.367584],[35.532701,39.379783],[35.511992,39.403264],[35.499448,39.403327],[35.507578,39.472903],[35.516077,39.48204],[35.544426,39.468873],[35.5741695,39.465464],[35.6151259,39.4753185],[35.6544577,39.4900424],[35.68741,39.51229]]]},"properties":{"@id":"relation/1561850","admin_level":"6","boundary":"administrative","name":"Sarıkaya","name:ce":"Сарикайа","name:de":"Sarıkaya","name:en":"Sarıkaya","name:fa":"ساری‌قایه","name:ru":"Сарыкая","name:tr":"Sarıkaya Deresi","name:tr:suffix":"İlçesi","name:tt":"Сарыкая","name:ur":"ساریکایا","name:zh":"薩勒卡亞","network":"TR66-districts","population":"32544","population:date":"31-12-2021","type":"boundary","wikidata":"Q659435","wikipedia":"tr:Sarıkaya, Yozgat"},"id":"relation/1561850"},
{"type":"Feature","geometry":{"type":"Polygon","coordinates":[[[35.61528,39.9058727],[35.6252288,39.967451],[35.6547546,39.9829736],[35.6852185,39.9888253],[35.6987857,39.997901],[35.7217025,40.0019775],[35.7292336,40.0243136],[35.7290742,40.0448562],[35.7209859,40.0618592],[35.6878852,40.0592202],[35.6658267,40.0909426],[35.6697749,40.109063],[35.6377601,40.1231096],[35.6083631,40.0965236],[35.5726575,40.1009225],[35.5488824,40.1204186],[35.5492687,40.1357096],[35.5268669,40.1347253],[35.5176401,40.122486],[35.4758834,40.1339707],[35.4954528,40.1480121],[35.5043363,40.1752337],[35.4969978,40.1869389],[35.4996585,40.210671],[35.466957,40.205722],[35.4626226,40.2171598],[35.4325569,40.2427259],[35.4270354,40.2056988],[35.3951206,40.2022487],[35.3720473,40.188302],[35.3711097,40.1727293],[35.3852373,40.1589261],[35.3868489,40.1462206],[35.3677891,40.127889],[35.312933,40.1077104],[35.2870589,40.0803659],[35.2819692,40.0485089],[35.2987233,40.0402366],[35.3026172,40.0283109],[35.3251609,40.0113603],[35.3519497,39.9797475],[35.3231991,39.9573285],[35.3345772,39.9483037],[35.3871396,39.9428125],[35.438464,39.9210278],[35.4497665,39.8792213],[35.4906957,39.8612833],[35.504118,39.865136],[35.523965,39.8883255],[35.5503319,39.9027257],[35.5731498,39.900741],[35.61528,39.9058727]]]},"properties":{"@id":"relation/1561851","admin_level":"6","boundary":"administrative","name":"Çekerek","name:ce":"Чекерек","name:de":"Çekerek","name:en":"Çekerek","name:fa":"چکرک","name:tr":"Çekerek","name:tr:suffix":"İlçesi","name:tt":"Чекерек","name:ur":"چکرک","name:zh":"切凱雷克","network":"TR66-districts","population":"18688","population:date":"31-12-2021","type":"boundary","wikidata":"Q763824","wikipedia":"tr:Çekerek"},"id":"relation/1561851"},
{"type":"Feature","geometry":{"type":"Polygon","coordinates":[[[35.4325569,40.2427259],[35.4087294,40.2374994],[35.3915339,40.2423478],[35.3623573,40.2330084],[35.3472284,40.2365534],[35.3399519,40.2550786],[35.2846259,40.2266654],[35.2427266,40.1930771],[35.2052744,40.1983854],[35.1921805,40.2043048],[35.1721554,40.2390947],[35.1572595,40.2395249],[35.1361378,40.2117098],[35.1570283,40.1834122],[35.1559291,40.1510391],[35.1846807,40.1395703],[35.175294,40.1234835],[35.1464548,40.1072886],[35.1516963,40.0919873],[35.1726549,40.0888819],[35.1894276,40.0990694],[35.2426501,40.0983138],[35.263678,40.0915246],[35.2744555,40.0768103],[35.2870589,40.0803659],[35.312933,40.1077104],[35.3677891,40.127889],[35.3868489,40.1462206],[35.3852373,40.1589261],[35.3711097,40.1727293],[35.3720473,40.188302],[35.3951206,40.2022487],[35.4270354,40.2056988],[35.4325569,40.2427259]]]},"properties":{"@id":"relation/1561852","admin_level":"6","boundary":"administrative","name":"Aydıncık","name:ar":"أيدينشيك","name:ce":"Айдинджик","name:de":"Aydıncık","name:en":"Aydıncık","name:fa":"آیدینجیک","name:hy":"Այդընջըք","name:ru":"Айдынджык","name:tr":"Aydıncık","name:tr:suffix":"İlçesi","name:tt":"Айдынҗык","name:ur":"آیدینجیک","network":"TR66-districts","population":"9722","population:date":"31-12-2021","type":"boundary","wikidata":"Q2874885","wikipedia":"tr:Aydıncık, Yozgat"},"id":"relation/1561852"},
{"type":"Feature","geometry":{"type":"Polygon","coordinates":[[[35.74595,39.54625],[35.7479667,39.5394953],[35.72076,39.53026],[35.69999,39.52867],[35.68741,39.51229],[35.6544577,39.4900424],[35.6151259,39.4753185],[35.5741695,39.465464],[35.544426,39.468873],[35.516077,39.48204],[35.507578,39.472903],[35.499448,39.403327],[35.511992,39.403264],[35.532701,39.379783],[35.533457,39.367584],[35.517319,39.353255],[35.498105,39.360955],[35.4677894,39.3384633],[35.519113,39.3231097],[35.5943818,39.2577863],[35.6108707,39.2289506],[35.6238856,39.1974297],[35.6363414,39.2178231],[35.6707097,39.2239208],[35.7089958,39.2201658],[35.7303628,39.2221242],[35.7481883,39.2335775],[35.7426144,39.2738419],[35.7629744,39.2795742],[35.7828236,39.3002308],[35.8085178,39.3062267],[35.8261961,39.3188025],[35.8451589,39.3153528],[35.856485,39.3223264],[35.8533667,39.3507595],[35.8403205,39.3527506],[35.8458995,39.3801556],[35.8615207,39.3745826],[35.8745669,39.4172316],[35.8596142,39.4592331],[35.8617365,39.4806124],[35.8800601,39.4831767],[35.8962313,39.498186],[35.8638686,39.5161173],[35.8440672,39.5362539],[35.8350557,39.5526165],[35.8101148,39.5667502],[35.74595,39.54625]]]},"properties":{"@id":"relation/1561853","admin_level":"6","boundary":"administrative","name":"Çayıralan","name:ce":"Чайиралан","name:de":"Çayıralan","name:en":"Çayıralan","name:fa":"چاییرالان","name:tr":"Çayıralan","name:tr:suffix":"İlçesi","name:tt":"Чаералан","name:ur":"چایئرالان","name:zh":"恰耶拉蘭","network":"TR66-districts","old_name":"Çayırşehri","population":"5129","population:date":"31-12-2021","postal_code":"66600","type":"boundary","wikidata":"Q2225384","wikipedia":"tr:Çayıralan"},"id":"relation/1561853"},
{"type":"Feature","geometry":{"type":"Polygon","coordinates":[[[34.5628657,39.4400733],[34.5968605,39.4271837],[34.6066858,39.4080558],[34.636687,39.4145704],[34.6622943,39.4036372],[34.6625518,39.3914994],[34.6929203,39.3667684],[34.7350035,39.3387828],[34.7424932,39.3378969],[34.7746338,39.3044946],[34.7977541,39.3149906],[34.8563644,39.3202851],[34.8517301,39.3344823],[34.8692635,39.3560405],[34.8915555,39.3513472],[34.9106979,39.373996],[34.9176898,39.383036],[34.9879056,39.4076595],[34.9927016,39.447258],[35.027996,39.4568469],[35.0334427,39.4652572],[35.0227672,39.4803931],[34.990523,39.5083018],[34.9597593,39.5395815],[34.8814413,39.6010091],[34.8724938,39.6237998],[34.8466221,39.6269462],[34.839133,39.635598],[34.8150624,39.6384954],[34.7588353,39.6528112],[34.6914078,39.6295078],[34.6960218,39.6005668],[34.684131,39.5742694],[34.6719037,39.5647515],[34.6420331,39.5667539],[34.5628113,39.5201843],[34.5702789,39.4981405],[34.5628657,39.4400733]]]},"properties":{"@id":"relation/1561854","admin_level":"6","boundary":"administrative","name":"Şefaatli","name:ce":"Шефаатли","name:de":"Şefaatli","name:en":"Şefaatli","name:fa":"شفاعت‌لی","name:tr":"Şefaatli","name:tr:suffix":"İlçesi","name:tt":"Шефаатли","name:ur":"شفاعتلی","name:zh":"謝法阿特利","network":"TR66-districts","population":"14351","population:date":"31-12-2021","type":"boundary","wikidata":"Q388673","wikipedia":"tr:Şefaatli"},"id":"relation/1561854"},
{"type":"Feature","geometry":{"type":"Polygon","coordinates":[[[35.0349209,39.064471],[35.0510044,39.0327336],[35.072055,39.0457717],[35.0858942,39.0353692],[35.1102083,39.0299789],[35.1237558,39.0191397],[35.1465258,39.0145986],[35.1689219,39.0221317],[35.1958575,39.0153881],[35.2368919,38.9959261],[35.2431278,39.00052],[35.2712778,38.9966844],[35.2831711,38.9871947],[35.2960206,38.996425],[35.3407475,39.0083186],[35.3521139,39.0155547],[35.3690475,39.0064978],[35.3700219,38.9941592],[35.3925014,38.9860247],[35.4137214,39.0071494],[35.3745769,39.0199831],[35.3773503,39.0363164],[35.4103639,39.0576522],[35.4387511,39.0584008],[35.4709892,39.0528392],[35.4778056,39.0616861],[35.4609439,39.1073394],[35.4348406,39.1102658],[35.4327661,39.1398464],[35.450695,39.1505758],[35.4672064,39.1756936],[35.4804717,39.1841347],[35.5014322,39.1850553],[35.5027539,39.19436],[35.4789593,39.2248302],[35.4406625,39.2660229],[35.4273649,39.2944318],[35.4332158,39.3100723],[35.4677894,39.3384633],[35.4406625,39.3429883],[35.4007699,39.3446337],[35.3748332,39.3513169],[35.368324,39.3750665],[35.3704516,39.3919222],[35.3587497,39.4112396],[35.3289633,39.4083629],[35.3231124,39.3980879],[35.3417289,39.3590292],[35.330559,39.3401088],[35.3002407,39.3380519],[35.2076899,39.3643754],[35.1390748,39.3894558],[35.1273729,39.4100067],[35.1427102,39.4346932],[35.1327898,39.4815702],[35.1186812,39.5022855],[35.0434645,39.4672755],[35.0334427,39.4652572],[35.027996,39.4568469],[34.9927016,39.447258],[34.9879056,39.4076595],[35.005175,39.393046],[35.014487,39.36627],[35.004923,39.344866],[35.010555,39.312955],[34.997339,39.296739],[35.018353,39.28167],[35.030308,39.261975],[35.077992,39.261811],[35.1002423,39.2739694],[35.1425365,39.252755],[35.149386,39.2406352],[35.1329309,39.207154],[35.130329,39.1867638],[35.1358492,39.1697674],[35.1160811,39.1317914],[35.0875114,39.1025826],[35.0494827,39.0861941],[35.0349209,39.064471]]]},"properties":{"@id":"relation/1561855","admin_level":"6","boundary":"administrative","name":"Boğazlıyan","name:ce":"БогӀазлийан","name:de":"Boğazlıyan","name:el":"Μπογάζλιγιαν","name:en":"Boğazlıyan","name:fa":"بوغازلیان","name:hy":"Պողազլյան","name:os":"Богъазлыйан","name:tr":"Boğazlıyan","name:tr:suffix":"İlçesi","name:tt":"Богазлыян","name:ur":"بوغازلیان","name:zh":"博阿茲勒揚","network":"TR66-districts","population":"33817","population:date":"31-12-2021","type":"boundary","wikidata":"Q1869200","wikipedia":"tr:Boğazlıyan"},"id":"relation/1561855"},
{"type":"Feature","geometry":{"type":"Polygon","coordinates":[[[35.61528,39.9058727],[35.5731498,39.900741],[35.5503319,39.9027257],[35.523965,39.8883255],[35.504118,39.865136],[35.4906957,39.8612833],[35.4497665,39.8792213],[35.438464,39.9210278],[35.3871396,39.9428125],[35.3345772,39.9483037],[35.3231991,39.9573285],[35.3519497,39.9797475],[35.3251609,40.0113603],[35.3026172,40.0283109],[35.2987233,40.0402366],[35.2819692,40.0485089],[35.2870589,40.0803659],[35.2744555,40.0768103],[35.263678,40.0915246],[35.2426501,40.0983138],[35.1894276,40.0990694],[35.1726549,40.0888819],[35.1954525,40.08157],[35.1895229,40.0553769],[35.1660745,40.0283118],[35.1529748,40.0199301],[35.1057798,40.0260639],[35.08798,40.020757],[35.0876995,40.0007174],[35.0768229,39.99087],[35.0336463,39.9640981],[35.0142004,39.9466654],[35.0062902,39.9216455],[35.0242451,39.893273],[35.0177787,39.8796298],[35.0181682,39.8444234],[35.002335,39.8052718],[34.9977207,39.7513188],[35.020133,39.7107629],[35.0336463,39.6727201],[35.0336463,39.6531834],[35.0495682,39.6364283],[35.0899942,39.6137541],[35.1005284,39.592679],[35.1038495,39.5625316],[35.1199995,39.5330506],[35.1246138,39.5162713],[35.1186812,39.5022855],[35.1543389,39.5196561],[35.1790584,39.5526213],[35.1986279,39.5621505],[35.2640314,39.5546067],[35.2919482,39.5575301],[35.30994,39.569965],[35.311489,39.597288],[35.273598,39.601315],[35.273615,39.622656],[35.294806,39.625704],[35.325713,39.617137],[35.362126,39.62974],[35.375021,39.654671],[35.374632,39.66687],[35.401583,39.670475],[35.42834,39.650656],[35.438606,39.661985],[35.467421,39.669993],[35.46635,39.682844],[35.423715,39.704861],[35.402459,39.70682],[35.41427,39.721885],[35.4509,39.751917],[35.487228,39.751994],[35.495464,39.762998],[35.51591,39.762557],[35.525736,39.780203],[35.5250448,39.8052036],[35.5520926,39.8212713],[35.5680201,39.8409909],[35.5920533,39.8552947],[35.6096761,39.8733172],[35.61528,39.9058727]]]},"properties":{"@id":"relation/1561856","admin_level":"6","boundary":"administrative","name":"Sorgun","name:ce":"Соргун","name:de":"Sorgun","name:en":"Sorgun","name:fa":"سورگون","name:ota":"صورقون","name:tr":"Sorgun","name:tr:suffix":"İlçesi","name:tt":"Соргун","name:ur":"سورگون","name:zh":"索爾貢","network":"TR66-districts","type":"boundary","wikidata":"Q1004526","wikipedia":"tr:Sorgun"},"id":"relation/1561856"},
{"type":"Feature","geometry":{"type":"Polygon","coordinates":[[[34.8059351,39.8218397],[34.8053723,39.8214852],[34.8158669,39.8237322],[34.8059351,39.8218397]]]},"properties":{"@id":"relation/12680942","admin_level":"8","boundary":"administrative","name":"Medrese Mahallesi","type":"boundary","@relations":[{"role":"subarea","rel":1561849,"reltags":{"admin_level":"6","alt_name":"Yozgat","boundary":"administrative","name":"Yozgat Merkez","name:ar":"يوزغات","name:az":"Yozqat","name:bg":"Йозгат","name:ce":"Йозгат","name:de":"Yozgat","name:el":"Γιοζγκάτ","name:en":"Yozgat","name:fa":"یوزغاد","name:hy":"Յոզգաթ","name:ja":"ヨズガト","name:lt":"Jozgatas","name:ru":"Йозгат","name:tg":"Йозгат","name:tr":"Yozgat Merkez","name:tr:suffix":"İlçesi","name:tt":"Йозгат","name:uk":"Йозґат","name:ur":"یوزگت","name:zh":"約茲加特","network":"TR66-districts","type":"boundary","wikidata":"Q210292","wikipedia":"tr:Yozgat"}}]},"id":"relation/12680942"},
{"type":"Feature","geometry":{"type":"Polygon","coordinates":[[[34.8158669,39.8237322],[34.8149121,39.8267603],[34.8046746,39.8242186],[34.8048147,39.8238606],[34.8059351,39.8218397],[34.8158669,39.8237322]]]},"properties":{"@id":"relation/12680943","admin_level":"8","boundary":"administrative","name":"Aşağınohutlu Mahallesi","type":"boundary","@relations":[{"role":"subarea","rel":1561849,"reltags":{"admin_level":"6","alt_name":"Yozgat","boundary":"administrative","name":"Yozgat Merkez","name:ar":"يوزغات","name:az":"Yozqat","name:bg":"Йозгат","name:ce":"Йозгат","name:de":"Yozgat","name:el":"Γιοζγκάτ","name:en":"Yozgat","name:fa":"یوزغاد","name:hy":"Յոզգաթ","name:ja":"ヨズガト","name:lt":"Jozgatas","name:ru":"Йозгат","name:tg":"Йозгат","name:tr":"Yozgat Merkez","name:tr:suffix":"İlçesi","name:tt":"Йозгат","name:uk":"Йозґат","name:ur":"یوزگت","name:zh":"約茲加特","network":"TR66-districts","type":"boundary","wikidata":"Q210292","wikipedia":"tr:Yozgat"}}]},"id":"relation/12680943"},
{"type":"Feature","geometry":{"type":"Polygon","coordinates":[[[34.8149121,39.8267603],[34.8048162,39.8299572],[34.8044139,39.8252854],[34.8046746,39.8242186],[34.8149121,39.8267603]]]},"properties":{"@id":"relation/12680944","admin_level":"8","boundary":"administrative","name":"Yukarınohutlu Mahallesi","type":"boundary","@relations":[{"role":"subarea","rel":1561849,"reltags":{"admin_level":"6","alt_name":"Yozgat","boundary":"administrative","name":"Yozgat Merkez","name:ar":"يوزغات","name:az":"Yozqat","name:bg":"Йозгат","name:ce":"Йозгат","name:de":"Yozgat","name:el":"Γιοζγκάτ","name:en":"Yozgat","name:fa":"یوزغاد","name:hy":"Յոզգաթ","name:ja":"ヨズガト","name:lt":"Jozgatas","name:ru":"Йозгат","name:tg":"Йозгат","name:tr":"Yozgat Merkez","name:tr:suffix":"İlçesi","name:tt":"Йозгат","name:uk":"Йозґат","name:ur":"یوزگت","name:zh":"約茲加特","network":"TR66-districts","type":"boundary","wikidata":"Q210292","wikipedia":"tr:Yozgat"}}]},"id":"relation/12680944"},
{"type":"Feature","geometry":{"type":"Polygon","coordinates":[[[34.8048162,39.8299572],[34.8013723,39.8279344],[34.8044139,39.8252854],[34.8048162,39.8299572]]]},"properties":{"@id":"relation/12680945","admin_level":"8","boundary":"administrative","name":"Yukarıçatak Mahallesi","type":"boundary","@relations":[{"role":"subarea","rel":1561849,"reltags":{"admin_level":"6","alt_name":"Yozgat","boundary":"administrative","name":"Yozgat Merkez","name:ar":"يوزغات","name:az":"Yozqat","name:bg":"Йозгат","name:ce":"Йозгат","name:de":"Yozgat","name:el":"Γιοζγκάτ","name:en":"Yozgat","name:fa":"یوزغاد","name:hy":"Յոզգաթ","name:ja":"ヨズガト","name:lt":"Jozgatas","name:ru":"Йозгат","name:tg":"Йозгат","name:tr":"Yozgat Merkez","name:tr:suffix":"İlçesi","name:tt":"Йозгат","name:uk":"Йозґат","name:ur":"یوزگت","name:zh":"約茲加特","network":"TR66-districts","type":"boundary","wikidata":"Q210292","wikipedia":"tr:Yozgat"}}]},"id":"relation/12680945"},
{"type":"Feature","geometry":{"type":"Polygon","coordinates":[[[34.8001277,39.8273041],[34.8032069,39.823452],[34.8048147,39.8238606],[34.8046746,39.8242186],[34.8044139,39.8252854],[34.8013723,39.8279344],[34.8001277,39.8273041]]]},"properties":{"@id":"relation/12680946","admin_level":"8","alt_name":"Aşağıçatak Mahallesi","boundary":"administrative","name":"Aşağı Çatak Mahallesi","type":"boundary","@relations":[{"role":"subarea","rel":1561849,"reltags":{"admin_level":"6","alt_name":"Yozgat","boundary":"administrative","name":"Yozgat Merkez","name:ar":"يوزغات","name:az":"Yozqat","name:bg":"Йозгат","name:ce":"Йозгат","name:de":"Yozgat","name:el":"Γιοζγκάτ","name:en":"Yozgat","name:fa":"یوزغاد","name:hy":"Յոզգաթ","name:ja":"ヨズガト","name:lt":"Jozgatas","name:ru":"Йозгат","name:tg":"Йозгат","name:tr":"Yozgat Merkez","name:tr:suffix":"İlçesi","name:tt":"Йозгат","name:uk":"Йозґат","name:ur":"یوزگت","name:zh":"約茲加特","network":"TR66-districts","type":"boundary","wikidata":"Q210292","wikipedia":"tr:Yozgat"}}]},"id":"relation/12680946"},
{"type":"Feature","geometry":{"type":"Polygon","coordinates":[[[34.7921616,39.8240824],[34.7936314,39.8208687],[34.8036629,39.8219647],[34.7988939,39.822525],[34.7921616,39.8240824]]]},"properties":{"@id":"relation/12680947","admin_level":"8","boundary":"administrative","name":"Tuzkaya Mahallesi","type":"boundary","@relations":[{"role":"subarea","rel":1561849,"reltags":{"admin_level":"6","alt_name":"Yozgat","boundary":"administrative","name":"Yozgat Merkez","name:ar":"يوزغات","name:az":"Yozqat","name:bg":"Йозгат","name:ce":"Йозгат","name:de":"Yozgat","name:el":"Γιοζγκάτ","name:en":"Yozgat","name:fa":"یوزغاد","name:hy":"Յոզգաթ","name:ja":"ヨズガト","name:lt":"Jozgatas","name:ru":"Йозгат","name:tg":"Йозгат","name:tr":"Yozgat Merkez","name:tr:suffix":"İlçesi","name:tt":"Йозгат","name:uk":"Йозґат","name:ur":"یوزگت","name:zh":"約茲加特","network":"TR66-districts","type":"boundary","wikidata":"Q210292","wikipedia":"tr:Yozgat"}}]},"id":"relation/12680947"},
{"type":"Feature","geometry":{"type":"Polygon","coordinates":[[[34.798318,39.823751],[34.7954929,39.825273],[34.7921616,39.8240824],[34.7988939,39.822525],[34.798318,39.823751]]]},"properties":{"@id":"relation/12680948","admin_level":"8","boundary":"administrative","name":"Agahefendi Mahallesi","type":"boundary","@relations":[{"role":"subarea","rel":1561849,"reltags":{"admin_level":"6","alt_name":"Yozgat","boundary":"administrative","name":"Yozgat Merkez","name:ar":"يوزغات","name:az":"Yozqat","name:bg":"Йозгат","name:ce":"Йозгат","name:de":"Yozgat","name:el":"Γιοζγκάτ","name:en":"Yozgat","name:fa":"یوزغاد","name:hy":"Յոզգաթ","name:ja":"ヨズガト","name:lt":"Jozgatas","name:ru":"Йозгат","name:tg":"Йозгат","name:tr":"Yozgat Merkez","name:tr:suffix":"İlçesi","name:tt":"Йозгат","name:uk":"Йозґат","name:ur":"یوزگت","name:zh":"約茲加特","network":"TR66-districts","type":"boundary","wikidata":"Q210292","wikipedia":"tr:Yozgat"}}]},"id":"relation/12680948"},
{"type":"Feature","geometry":{"type":"Polygon","coordinates":[[[34.7988939,39.822525],[34.8036629,39.8219647],[34.8053723,39.8214852],[34.8059351,39.8218397],[34.8048147,39.8238606],[34.8032069,39.823452],[34.798318,39.823751],[34.7988939,39.822525]]]},"properties":{"@id":"relation/12680949","admin_level":"8","boundary":"administrative","name":"İstanbulluoğlu Mahallesi","type":"boundary","@relations":[{"role":"subarea","rel":1561849,"reltags":{"admin_level":"6","alt_name":"Yozgat","boundary":"administrative","name":"Yozgat Merkez","name:ar":"يوزغات","name:az":"Yozqat","name:bg":"Йозгат","name:ce":"Йозгат","name:de":"Yozgat","name:el":"Γιοζγκάτ","name:en":"Yozgat","name:fa":"یوزغاد","name:hy":"Յոզգաթ","name:ja":"ヨズガト","name:lt":"Jozgatas","name:ru":"Йозгат","name:tg":"Йозгат","name:tr":"Yozgat Merkez","name:tr:suffix":"İlçesi","name:tt":"Йозгат","name:uk":"Йозґат","name:ur":"یوزگت","name:zh":"約茲加特","network":"TR66-districts","type":"boundary","wikidata":"Q210292","wikipedia":"tr:Yozgat"}}]},"id":"relation/12680949"},
{"type":"Feature","geometry":{"type":"Polygon","coordinates":[[[34.7954929,39.825273],[34.798318,39.823751],[34.8032069,39.823452],[34.8001277,39.8273041],[34.7954929,39.825273]]]},"properties":{"@id":"relation/12680950","admin_level":"8","boundary":"administrative","name":"Mutafoğlu Mahallesi","type":"boundary","@relations":[{"role":"subarea","rel":1561849,"reltags":{"admin_level":"6","alt_name":"Yozgat","boundary":"administrative","name":"Yozgat Merkez","name:ar":"يوزغات","name:az":"Yozqat","name:bg":"Йозгат","name:ce":"Йозгат","name:de":"Yozgat","name:el":"Γιοζγκάτ","name:en":"Yozgat","name:fa":"یوزغاد","name:hy":"Յոզգաթ","name:ja":"ヨズガト","name:lt":"Jozgatas","name:ru":"Йозгат","name:tg":"Йозгат","name:tr":"Yozgat Merkez","name:tr:suffix":"İlçesi","name:tt":"Йозгат","name:uk":"Йозґат","name:ur":"یوزگت","name:zh":"約茲加特","network":"TR66-districts","type":"boundary","wikidata":"Q210292","wikipedia":"tr:Yozgat"}}]},"id":"relation/12680950"},
{"type":"Feature","geometry":{"type":"Polygon","coordinates":[[[35.67737,39.55743],[35.6693029,39.5433674],[35.649,39.55333],[35.618872,39.5504904],[35.6098223,39.5314029],[35.62793,39.51513],[35.66711,39.51596],[35.68741,39.51229],[35.69999,39.52867],[35.72076,39.53026],[35.7479667,39.5394953],[35.74595,39.54625],[35.72299,39.5424076],[35.68995,39.54429],[35.67737,39.55743]]]},"properties":{"@id":"relation/14744228","admin_level":"8","boundary":"administrative","name":"Akçakışla Köyü","type":"boundary","@relations":[{"role":"subarea","rel":1559325,"reltags":{"admin_level":"6","boundary":"administrative","name":"Akdağmadeni","name:ce":"АкдагӀмадени","name:de":"Akdağmadeni","name:el":"Ακνταγμαντενί","name:en":"Akdağmadeni","name:fa":"آقداغ‌معدنی","name:ru":"Акдагмадени","name:tr":"Akdağmadeni","name:tr:suffix":"İlçesi","name:tt":"Акдагмадени","name:ur":"آقداغ معدنی","name:zh":"阿克達馬代尼","network":"TR66-districts","population":"41902","population:date":"31-12-2021","postal_code":"66300","type":"boundary","wikidata":"Q1859513","wikipedia":"tr:Akdağmadeni"}}]},"id":"relation/14744228"},
{"type":"Feature","geometry":{"type":"Polygon","coordinates":[[[35.3756693,39.4912365],[35.381432,39.4927609],[35.3818944,39.495662],[35.3779034,39.4962615],[35.3756723,39.4963188],[35.3753003,39.4936186],[35.3756693,39.4912365]]]},"properties":{"@id":"relation/15508321","admin_level":"8","boundary":"administrative","name":"Kaplıca Mahallesi","type":"boundary"},"id":"relation/15508321"},
{"type":"Feature","geometry":{"type":"Polygon","coordinates":[[[35.3412966,39.5241513],[35.3710569,39.4970372],[35.3729571,39.4954856],[35.3749139,39.4939632],[35.3753003,39.4936186],[35.3756723,39.4963188],[35.3725282,39.5024145],[35.3500553,39.5240711],[35.3412966,39.5241513]]]},"properties":{"@id":"relation/15508322","admin_level":"8","boundary":"administrative","name":"Bahçelievler Mahallesi","type":"boundary"},"id":"relation/15508322"},
{"type":"Feature","geometry":{"type":"Polygon","coordinates":[[[35.3725282,39.5024145],[35.3756723,39.4963188],[35.3779034,39.4962615],[35.3806122,39.50087],[35.3725282,39.5024145]]]},"properties":{"@id":"relation/15508323","admin_level":"8","boundary":"administrative","name":"Karşıyaka Mahallesi","type":"boundary"},"id":"relation/15508323"},
{"type":"Feature","geometry":{"type":"Polygon","coordinates":[[[35.3841111,39.5169736],[35.3806122,39.50087],[35.3779034,39.4962615],[35.3818944,39.495662],[35.3993832,39.5180531],[35.3841111,39.5169736]]]},"properties":{"@id":"relation/15508324","admin_level":"8","boundary":"administrative","name":"Cumhuriyet Mahallesi","type":"boundary"},"id":"relation/15508324"},
{"type":"Feature","geometry":{"type":"Polygon","coordinates":[[[35.4132231,39.5156209],[35.3993832,39.5180531],[35.3818944,39.495662],[35.4041954,39.488404],[35.3996268,39.5029242],[35.4132231,39.5156209]]]},"properties":{"@id":"relation/15508325","admin_level":"8","boundary":"administrative","name":"Beyazıt Mahallesi","type":"boundary"},"id":"relation/15508325"},
{"type":"Feature","geometry":{"type":"Polygon","coordinates":[[[35.4041954,39.488404],[35.3818944,39.495662],[35.381432,39.4927609],[35.403636,39.4812714],[35.4041954,39.488404]]]},"properties":{"@id":"relation/15508326","admin_level":"8","boundary":"administrative","name":"Osmangazi Mahallesi","type":"boundary"},"id":"relation/15508326"},
{"type":"Feature","geometry":{"type":"Polygon","coordinates":[[[35.381432,39.4927609],[35.3756693,39.4912365],[35.3738607,39.4875782],[35.3961999,39.4660611],[35.3991526,39.4468865],[35.4190176,39.456148],[35.4147908,39.4721766],[35.403636,39.4812714],[35.381432,39.4927609]]]},"properties":{"@id":"relation/15508327","admin_level":"8","boundary":"administrative","name":"Şekerpınar Mahallesi","type":"boundary"},"id":"relation/15508327"},
{"type":"Feature","geometry":{"type":"Polygon","coordinates":[[[35.3749139,39.4939632],[35.3539275,39.4893284],[35.3278187,39.4725436],[35.3415824,39.4642446],[35.3507903,39.4735542],[35.3735916,39.4870974],[35.3738607,39.4875782],[35.3756693,39.4912365],[35.3753003,39.4936186],[35.3749139,39.4939632]]]},"properties":{"@id":"relation/15508328","admin_level":"8","boundary":"administrative","name":"Fatih Mahallesi","type":"boundary"},"id":"relation/15508328"},
{"type":"Feature","geometry":{"type":"Polygon","coordinates":[[[35.3531893,39.493167],[35.3273611,39.4897938],[35.3278187,39.4725436],[35.3539275,39.4893284],[35.3749139,39.4939632],[35.3729571,39.4954856],[35.3531893,39.493167]]]},"properties":{"@id":"relation/15508416","admin_level":"8","boundary":"administrative","name":"Yenidoğan Mahallesi","type":"boundary"},"id":"relation/15508416"},
{"type":"Feature","geometry":{"type":"Polygon","coordinates":[[[35.3729571,39.4954856],[35.3710569,39.4970372],[35.3577704,39.5054222],[35.3531893,39.493167],[35.3729571,39.4954856]]]},"properties":{"@id":"relation/15508417","admin_level":"8","boundary":"administrative","name":"Battalgazi Mahallesi","type":"boundary"},"id":"relation/15508417"},
{"type":"Feature","geometry":{"type":"Polygon","coordinates":[[[35.3710569,39.4970372],[35.3412966,39.5241513],[35.3577704,39.5054222],[35.3710569,39.4970372]]]},"properties":{"@id":"relation/15508418","admin_level":"8","boundary":"administrative","name":"Fevzi Çakmak Mahallesi","type":"boundary"},"id":"relation/15508418"},
{"type":"Feature","geometry":{"type":"Polygon","coordinates":[[[35.3841111,39.5169736],[35.3500553,39.5240711],[35.3725282,39.5024145],[35.3806122,39.50087],[35.3841111,39.5169736]]]},"properties":{"@id":"relation/15509023","admin_level":"8","boundary":"administrative","name":"İstiklal Mahallesi","type":"boundary"},"id":"relation/15509023"},
{"type":"Feature","geometry":{"type":"Polygon","coordinates":[[[35.4147908,39.4721766],[35.4278218,39.4727111],[35.4518963,39.4894398],[35.4349627,39.5090966],[35.4132231,39.5156209],[35.3996268,39.5029242],[35.4041954,39.488404],[35.403636,39.4812714],[35.4147908,39.4721766]]]},"properties":{"@id":"relation/15509252","admin_level":"8","boundary":"administrative","name":"Köprücek Mahallesi","type":"boundary"},"id":"relation/15509252"},
{"type":"Feature","geometry":{"type":"Polygon","coordinates":[[[35.3735916,39.4870974],[35.3674573,39.471651],[35.3658282,39.4617485],[35.3991526,39.4468865],[35.3961999,39.4660611],[35.3738607,39.4875782],[35.3735916,39.4870974]]]},"properties":{"@id":"relation/15509767","admin_level":"8","boundary":"administrative","name":"Hürriyet Mahallesi","type":"boundary"},"id":"relation/15509767"},
{"type":"Feature","geometry":{"type":"Polygon","coordinates":[[[35.3658282,39.4617485],[35.3674573,39.471651],[35.3507903,39.4735542],[35.3415824,39.4642446],[35.3658282,39.4617485]]]},"properties":{"@id":"relation/15509869","admin_level":"8","boundary":"administrative","name":"Kayapınar Mahallesi","type":"boundary"},"id":"relation/15509869"},
{"type":"Feature","geometry":{"type":"Polygon","coordinates":[[[35.3674573,39.471651],[35.3735916,39.4870974],[35.3507903,39.4735542],[35.3674573,39.471651]]]},"properties":{"@id":"relation/15509870","admin_level":"8","boundary":"administrative","name":"Kazım Karabekir Mahallesi","type":"boundary"},"id":"relation/15509870"},
{"type":"Feature","geometry":{"type":"Polygon","coordinates":[[[35.2493651,39.1917386],[35.2461413,39.1928043],[35.2438839,39.1936717],[35.2438961,39.191069],[35.2378017,39.1807715],[35.2494472,39.1805554],[35.2493651,39.1917386]]]},"properties":{"@id":"relation/16920354","admin_level":"8","boundary":"administrative","name":"Çarşı Mahallesi","type":"boundary"},"id":"relation/16920354"},
{"type":"Feature","geometry":{"type":"Polygon","coordinates":[[[35.2493651,39.1917386],[35.2626164,39.1971928],[35.2664841,39.1894149],[35.3220273,39.1877712],[35.2899348,39.2209861],[35.2777215,39.2150376],[35.2467557,39.1936451],[35.2461413,39.1928043],[35.2493651,39.1917386]]]},"properties":{"@id":"relation/16920355","admin_level":"8","boundary":"administrative","name":"Yenidoğan Mahallesi","type":"boundary"},"id":"relation/16920355"},
{"type":"Feature","geometry":{"type":"Polygon","coordinates":[[[35.2494472,39.1805554],[35.2568772,39.1625204],[35.3098391,39.1544914],[35.3196369,39.1596608],[35.3220273,39.1877712],[35.2664841,39.1894149],[35.2493651,39.1917386],[35.2494472,39.1805554]]]},"properties":{"@id":"relation/16920356","admin_level":"8","boundary":"administrative","name":"Bağlarbaşı Mahallesi","type":"boundary"},"id":"relation/16920356"},
{"type":"Feature","geometry":{"type":"Polygon","coordinates":[[[35.2664841,39.1894149],[35.2626164,39.1971928],[35.2493651,39.1917386],[35.2664841,39.1894149]]]},"properties":{"@id":"relation/16920357","admin_level":"8","boundary":"administrative","name":"Kaymakam Kemal Bey","type":"boundary"},"id":"relation/16920357"},
{"type":"Feature","geometry":{"type":"Polygon","coordinates":[[[35.2494472,39.1805554],[35.2378017,39.1807715],[35.2192644,39.1534913],[35.2136332,39.1314241],[35.1967978,39.1120422],[35.200752,39.1050044],[35.22764,39.1136191],[35.2414849,39.1298455],[35.2428021,39.1537966],[35.2568772,39.1625204],[35.2494472,39.1805554]]]},"properties":{"@id":"relation/16920358","admin_level":"8","boundary":"administrative","name":"Mevlana Mahallesi","type":"boundary"},"id":"relation/16920358"},
{"type":"Feature","geometry":{"type":"Polygon","coordinates":[[[35.2378017,39.1807715],[35.2438961,39.191069],[35.2209947,39.1859523],[35.1830476,39.1626764],[35.1770181,39.1261323],[35.1967978,39.1120422],[35.2136332,39.1314241],[35.2192644,39.1534913],[35.2378017,39.1807715]]]},"properties":{"@id":"relation/16928353","admin_level":"8","boundary":"administrative","name":"Aşağı Mahalle","type":"boundary"},"id":"relation/16928353"},
{"type":"Feature","geometry":{"type":"Polygon","coordinates":[[[35.2054787,39.2474584],[35.2288128,39.2288341],[35.2467557,39.1936451],[35.2777215,39.2150376],[35.2768902,39.2312499],[35.2411412,39.2564986],[35.2054787,39.2474584]]]},"properties":{"@id":"relation/16928727","admin_level":"8","boundary":"administrative","name":"Kemaliye Mahallesi","type":"boundary"},"id":"relation/16928727"},
{"type":"Feature","geometry":{"type":"Polygon","coordinates":[[[35.2438839,39.1936717],[35.2461413,39.1928043],[35.2467557,39.1936451],[35.2288128,39.2288341],[35.2054787,39.2474584],[35.2022842,39.2325838],[35.2157988,39.2200934],[35.21312,39.1962577],[35.2438839,39.1936717]]]},"properties":{"@id":"relation/16928728","admin_level":"8","boundary":"administrative","name":"Yukarı Mahalle","type":"boundary"},"id":"relation/16928728"},
{"type":"Feature","geometry":{"type":"Polygon","coordinates":[[[35.2438961,39.191069],[35.2438839,39.1936717],[35.21312,39.1962577],[35.1955398,39.1815664],[35.1787814,39.1827972],[35.1830476,39.1626764],[35.2209947,39.1859523],[35.2438961,39.191069]]]},"properties":{"@id":"relation/16928843","admin_level":"8","boundary":"administrative","name":"Bahçeler Mahallesi","type":"boundary"},"id":"relation/16928843"}
]}