{"type":"FeatureCollection", "features": [
{"type":"Feature","geometry":{"type":"Polygon","coordinates":[[[31.3889993,41.1934252],[31.3831619,41.1878862],[31.382773,41.1807004],[31.3450811,41.1533577],[31.3456851,41.1455076],[31.3398932,41.1369564],[31.3089211,41.1212507],[31.2828409,41.1127282],[31.2952264,41.1105049],[31.3086955,41.1019397],[31.3073881,41.0869858],[31.3123222,41.0738298],[31.3274608,41.0466678],[31.3231091,41.0227818],[31.3511828,41.0196541],[31.3650456,41.0164833],[31.3926316,41.0200663],[31.4092253,41.028219],[31.4221936,41.0258029],[31.4371303,41.0178419],[31.4556481,41.0155633],[31.47274,41.0217438],[31.482868,41.0194125],[31.5024374,41.0204486],[31.5160945,41.0308957],[31.5287016,41.0311975],[31.5534208,41.027442],[31.5707586,41.0357296],[31.5818341,41.0453706],[31.5916663,41.0456258],[31.6017204,41.0540736],[31.6488935,41.050371],[31.6595249,41.0478699],[31.7028394,41.0869796],[31.6723855,41.0866345],[31.6598265,41.0985398],[31.6495626,41.1122888],[31.6274902,41.122559],[31.618486,41.1324774],[31.6070818,41.1292562],[31.579093,41.1287373],[31.5597482,41.1347731],[31.5582186,41.1398326],[31.5432179,41.1518011],[31.5211057,41.1509988],[31.515985,41.1663545],[31.5104113,41.1752571],[31.4925714,41.1835331],[31.4796278,41.1832084],[31.4705157,41.1859257],[31.4590396,41.1935856],[31.4534521,41.1922389],[31.439974,41.2003758],[31.4304312,41.2008961],[31.4225905,41.1950665],[31.4071056,41.1975724],[31.3889993,41.1934252]]]},"properties":{"@id":"relation/1793737","admin_level":"6","boundary":"administrative","name":"Alaplı","name:de":"Alaplı","name:en":"Alaplı","name:tr":"Alaplı","name:tr:suffix":"İlçesi","name:zh":"阿拉普勒","network":"TR81-districts","type":"boundary","wikidata":"Q1012945","wikipedia":"tr:Alaplı"},"id":"relation/1793737"},
{"type":"Feature","geometry":{"type":"Polygon","coordinates":[[[32.2898388,41.368173],[32.294704,41.3842263],[32.2798758,41.3931796],[32.2742198,41.4053011],[32.2767021,41.4164972],[32.2884018,41.4253121],[32.2693487,41.4377777],[32.2597406,41.4476726],[32.2473256,41.4553059],[32.2363861,41.4723162],[32.2337874,41.4817275],[32.2343851,41.4986501],[32.2238455,41.5163196],[32.2255012,41.5290527],[32.2186011,41.5398981],[32.210997,41.536823],[32.20299,41.540118],[32.1901548,41.5346236],[32.1867402,41.5206862],[32.1683702,41.5156697],[32.1544933,41.526379],[32.158863,41.5386148],[32.1504514,41.5494594],[32.1309672,41.5540462],[32.1190917,41.5626068],[32.1096209,41.5761883],[32.0949129,41.589552],[32.0853768,41.5896975],[32.0502951,41.5809677],[32.0312077,41.5745997],[32.0227916,41.5639017],[32.001357,41.548994],[32.01421,41.5453461],[32.029406,41.5305618],[32.0306899,41.5218728],[32.0231366,41.5167315],[32.0157246,41.5063638],[32.0132944,41.4966766],[32.0046411,41.4868181],[31.9924656,41.4821029],[31.9882294,41.4742258],[31.9842256,41.458092],[31.9723234,41.4407643],[31.9715975,41.4276515],[31.9689036,41.4160536],[31.9826725,41.3940785],[32.0272789,41.359071],[32.034711,41.3511222],[32.0606317,41.337487],[32.0731969,41.3363409],[32.0849565,41.3568405],[32.0991416,41.354944],[32.1108555,41.3420889],[32.1233367,41.3415693],[32.130804,41.335576],[32.1496867,41.3346738],[32.1636116,41.3436358],[32.1821885,41.3506819],[32.1930784,41.3479599],[32.2040799,41.3495558],[32.224112,41.3692078],[32.26419,41.3745339],[32.2713208,41.3696118],[32.2898388,41.368173]]]},"properties":{"@id":"relation/1830383","admin_level":"6","boundary":"administrative","name":"Çaycuma","name:az":"Çaycümə","name:ce":"Чайджума","name:de":"Çaycuma","name:en":"Çaycuma","name:fa":"چای‌جوما","name:tr":"Çaycuma","name:tr:suffix":"İlçesi","name:tt":"Чайҗума","name:uk":"ЧаЙджума","name:ur":"چایکجوما","name:zh":"恰伊朱馬","network":"TR67-districts","population":"90362","population:date":"2021-12-31","type":"boundary","wikidata":"Q272709","wikipedia":"tr:Çaycuma"},"id":"relation/1830383"},
{"type":"Feature","geometry":{"type":"Polygon","coordinates":[[[32.0496595,41.3222716],[32.0408534,41.3160459],[32.0287406,41.3005372],[32.018494,41.297238],[32.0053198,41.2975129],[31.9928774,41.3129075],[31.9822649,41.3200538],[31.9668949,41.3250007],[31.9551882,41.3256121],[31.9347952,41.3397096],[31.9270265,41.33655],[31.9148148,41.3197529],[31.8954671,41.3131903],[31.8811603,41.3020537],[31.8444253,41.2872671],[31.8411907,41.2810408],[31.8541086,41.2791417],[31.8568569,41.2630617],[31.85517,41.2590693],[31.8631919,41.2493873],[31.8567729,41.2370491],[31.8561587,41.229247],[31.8341178,41.2098897],[31.8161561,41.2015243],[31.8153761,41.1968691],[31.8018366,41.1892801],[31.7970083,41.1793001],[31.7894552,41.1763284],[31.7813939,41.1629016],[31.7498015,41.1606925],[31.7405317,41.1480259],[31.7460249,41.1392354],[31.7437933,41.1317367],[31.7332692,41.1242797],[31.7218207,41.1127276],[31.7166708,41.1013453],[31.7028394,41.0869796],[31.6595249,41.0478699],[31.6978703,41.0395975],[31.7432783,41.0179878],[31.75872,41.0241927],[31.7813648,41.0293353],[31.7903435,41.0296298],[31.8075203,41.0187327],[31.8536456,41.0082997],[31.8849799,41.0082956],[31.8936946,41.00698],[31.901254,41.0118286],[31.9269972,41.0118792],[31.9435865,41.0354964],[31.96251,41.0443112],[31.9809328,41.0463319],[31.9791455,41.0575751],[31.9950096,41.0671783],[32.0013569,41.0812751],[32.0332379,41.1184847],[32.0459309,41.1273674],[32.0533011,41.1410656],[32.0573316,41.1572716],[32.0610933,41.1616799],[32.089687,41.1603353],[32.0963617,41.1638951],[32.1023168,41.1807811],[32.1203673,41.2087863],[32.1284628,41.2186362],[32.1488758,41.2320963],[32.1432964,41.2418431],[32.1256541,41.249677],[32.1187018,41.2502577],[32.1085953,41.2695606],[32.1166409,41.2778025],[32.1086597,41.2892871],[32.1126079,41.2921247],[32.1096038,41.3017974],[32.0889186,41.3109529],[32.084152,41.3238605],[32.0576507,41.3065852],[32.0496595,41.3222716]]]},"properties":{"@id":"relation/1840248","admin_level":"6","boundary":"administrative","name":"Devrek","name:ce":"Деврек","name:de":"Devrek","name:en":"Devrek","name:fa":"دورک","name:tr":"Devrek","name:tr:suffix":"İlçesi","name:tt":"Деврек","name:ur":"دیورک","name:zh":"代夫雷克","network":"TR81-districts","population":"56925","type":"boundary","wikidata":"Q1207056","wikipedia":"tr:Devrek"},"id":"relation/1840248"},
{"type":"Feature","geometry":{"type":"Polygon","coordinates":[[[32.0496595,41.3222716],[32.0576507,41.3065852],[32.084152,41.3238605],[32.0889186,41.3109529],[32.1096038,41.3017974],[32.1126079,41.2921247],[32.1086597,41.2892871],[32.1166409,41.2778025],[32.1085953,41.2695606],[32.1187018,41.2502577],[32.1256541,41.249677],[32.1432964,41.2418431],[32.1488758,41.2320963],[32.1744023,41.2473788],[32.2162027,41.2537944],[32.2418732,41.2511626],[32.2489923,41.2556622],[32.2459159,41.2711443],[32.2401232,41.2798399],[32.2418749,41.2863193],[32.257877,41.2923226],[32.2790763,41.3081334],[32.2841299,41.3203363],[32.2797197,41.3324035],[32.2795927,41.3425825],[32.2898388,41.368173],[32.2713208,41.3696118],[32.26419,41.3745339],[32.224112,41.3692078],[32.2040799,41.3495558],[32.1930784,41.3479599],[32.1821885,41.3506819],[32.1636116,41.3436358],[32.1496867,41.3346738],[32.130804,41.335576],[32.1233367,41.3415693],[32.1108555,41.3420889],[32.0991416,41.354944],[32.0849565,41.3568405],[32.0731969,41.3363409],[32.0496595,41.3222716]]]},"properties":{"@id":"relation/1840249","admin_level":"6","boundary":"administrative","name":"Gökçebey","name:az":"Göyçəbəy","name:ce":"Гоькчебей","name:de":"Gökçebey","name:en":"Gökçebey","name:fa":"گوکچه‌بی","name:ru":"Гёкчебей","name:tr":"Gökçebey","name:tr:suffix":"İlçesi","name:tt":"Гөкчебей","name:ur":"گوکچہ بے","name:zh":"格克切貝伊","network":"TR81-districts","population":"20839","population:date":"2021-12-31","type":"boundary","wikidata":"Q1014093","wikipedia":"tr:Gökçebey"},"id":"relation/1840249"},
{"type":"Feature","geometry":{"type":"Polygon","coordinates":[[[31.3889993,41.1934252],[31.4071056,41.1975724],[31.4225905,41.1950665],[31.4304312,41.2008961],[31.439974,41.2003758],[31.4534521,41.1922389],[31.4590396,41.1935856],[31.4705157,41.1859257],[31.4796278,41.1832084],[31.4925714,41.1835331],[31.5104113,41.1752571],[31.515985,41.1663545],[31.5211057,41.1509988],[31.5432179,41.1518011],[31.5582186,41.1398326],[31.5597482,41.1347731],[31.579093,41.1287373],[31.6070818,41.1292562],[31.618486,41.1324774],[31.6274902,41.122559],[31.6495626,41.1122888],[31.6598265,41.0985398],[31.6723855,41.0866345],[31.7028394,41.0869796],[31.7166708,41.1013453],[31.7218207,41.1127276],[31.7332692,41.1242797],[31.7437933,41.1317367],[31.7460249,41.1392354],[31.7405317,41.1480259],[31.7498015,41.1606925],[31.7813939,41.1629016],[31.7894552,41.1763284],[31.7970083,41.1793001],[31.8018366,41.1892801],[31.8153761,41.1968691],[31.8161561,41.2015243],[31.8341178,41.2098897],[31.8561587,41.229247],[31.8567729,41.2370491],[31.8631919,41.2493873],[31.85517,41.2590693],[31.8568569,41.2630617],[31.8541086,41.2791417],[31.8411907,41.2810408],[31.8093717,41.2686258],[31.7932461,41.2635173],[31.7825194,41.2599592],[31.7588496,41.2677753],[31.7414581,41.2885587],[31.7334752,41.2932716],[31.7103815,41.2930574],[31.6761688,41.2994834],[31.6627687,41.3054805],[31.660773,41.3176872],[31.6644794,41.3241109],[31.6659049,41.3410235],[31.658207,41.3497991],[31.6600886,41.3687224],[31.6472768,41.3674047],[31.6573517,41.3812535],[31.660773,41.3919487],[31.6569295,41.4024516],[31.6289386,41.3901952],[31.6206377,41.3823374],[31.6052901,41.3764486],[31.5631469,41.3710474],[31.542757,41.3628877],[31.531373,41.3642503],[31.5117886,41.3563377],[31.5026323,41.3552251],[31.4874301,41.3474783],[31.4723406,41.3378607],[31.4661073,41.3274699],[31.4366184,41.3271299],[31.4275952,41.3200302],[31.4223394,41.3161406],[31.3984826,41.3139252],[31.3928005,41.3024459],[31.3934506,41.2923993],[31.3994985,41.2869592],[31.4109025,41.2867039],[31.4197571,41.2785726],[31.4203075,41.26908],[31.4042709,41.2615864],[31.4055082,41.248312],[31.4035285,41.2364622],[31.398751,41.2340911],[31.4034037,41.2231683],[31.4097546,41.2199404],[31.4060719,41.2084544],[31.3889993,41.1934252]]]},"properties":{"@id":"relation/1840250","admin_level":"6","alt_name":"Ereğli;Karadeniz Ereğlisi","boundary":"administrative","name":"Ereğli","name:de":"Ereğli","name:en":"Ereğli","name:tr":"Ereğli","name:tr:suffix":"İlçesi","network":"TR81-districts","type":"boundary","wikidata":"Q1012887","wikipedia":"tr:Karadeniz Ereğli"},"id":"relation/1840250"},
{"type":"Feature","geometry":{"type":"Polygon","coordinates":[[[31.7839837,41.4328172],[31.7955816,41.433324],[31.801461,41.4273231],[31.7865042,41.4238647],[31.7755399,41.4123747],[31.7688543,41.3882709],[31.7756133,41.3654479],[31.820143,41.3654479],[31.8265044,41.3618671],[31.8322694,41.3497804],[31.8248606,41.3403287],[31.828319,41.3266037],[31.8112564,41.3199298],[31.8115997,41.3119441],[31.8070292,41.3056741],[31.8091014,41.2894212],[31.8043862,41.2840508],[31.7932461,41.2635173],[31.8093717,41.2686258],[31.8411907,41.2810408],[31.8444253,41.2872671],[31.8811603,41.3020537],[31.8954671,41.3131903],[31.9148148,41.3197529],[31.9270265,41.33655],[31.9347952,41.3397096],[31.9551882,41.3256121],[31.9668949,41.3250007],[31.9822649,41.3200538],[31.9928774,41.3129075],[32.0053198,41.2975129],[32.018494,41.297238],[32.0287406,41.3005372],[32.0408534,41.3160459],[32.0496595,41.3222716],[32.0731969,41.3363409],[32.0606317,41.337487],[32.034711,41.3511222],[32.0272789,41.359071],[31.9826725,41.3940785],[31.9689036,41.4160536],[31.9715975,41.4276515],[31.9563418,41.4305052],[31.9452998,41.4414905],[31.9098056,41.4369946],[31.9002719,41.428121],[31.8760826,41.4366149],[31.8780729,41.4462553],[31.8665906,41.4482061],[31.8647534,41.4525666],[31.8502092,41.4600248],[31.8473003,41.4664495],[31.8313782,41.4646139],[31.8287633,41.4767767],[31.8222995,41.4818596],[31.8090034,41.4750715],[31.7981283,41.4667858],[31.7868744,41.4647514],[31.7877451,41.456958],[31.7875673,41.4545711],[31.7760159,41.453938],[31.7671356,41.4552707],[31.7559054,41.4545649],[31.7665229,41.4415476],[31.7689217,41.4415616],[31.772943,41.4406203],[31.7839837,41.4328172]]]},"properties":{"@id":"relation/1840251","admin_level":"6","alt_name":"Zonguldak","boundary":"administrative","name":"Zonguldak Merkez","name:ar":"زونغولداق","name:az":"Zonquldak","name:be":"Зангулдак","name:bg":"Зонгулдак","name:ce":"Зонгулдак","name:de":"Zonguldak","name:el":"Ζονγκουλντάκ","name:en":"Zonguldak","name:fa":"زونگولداغ","name:hy":"Զոնգուլդաք","name:ja":"ゾングルダク","name:ka":"ზონგულდაქი","name:kk":"Зонгулдак","name:ko":"종굴다크","name:lt":"Zonguldakas","name:os":"Зонгулдак","name:pt":"Zonguldaque","name:ru":"Зонгулдак","name:sr":"Зонгулдак","name:tg":"Зонгулдак","name:tr":"Zonguldak Merkez","name:tr:suffix":"İlçesi","name:tt":"Зонгулдак","name:uk":"Зонгулдак","name:ur":"زانگولداک","name:zh":"宗古爾達克","network":"TR67-districts","population":"120395","population:date":"2021-12-31","type":"boundary","wikidata":"Q187895","wikipedia":"tr:Zonguldak"},"id":"relation/1840251"},
{"type":"Feature","geometry":{"type":"Polygon","coordinates":[[[31.7839837,41.4328172],[31.772943,41.4406203],[31.7689217,41.4415616],[31.7665229,41.4415476],[31.7559054,41.4545649],[31.7490018,41.4402002],[31.7326807,41.4360463],[31.7129531,41.4231235],[31.7050569,41.4221667],[31.6818999,41.4079565],[31.6726104,41.4079326],[31.6569295,41.4024516],[31.660773,41.3919487],[31.6573517,41.3812535],[31.6472768,41.3674047],[31.6600886,41.3687224],[31.658207,41.3497991],[31.6659049,41.3410235],[31.6644794,41.3241109],[31.660773,41.3176872],[31.6627687,41.3054805],[31.6761688,41.2994834],[31.7103815,41.2930574],[31.7334752,41.2932716],[31.7414581,41.2885587],[31.7588496,41.2677753],[31.7825194,41.2599592],[31.7932461,41.2635173],[31.8043862,41.2840508],[31.8091014,41.2894212],[31.8070292,41.3056741],[31.8115997,41.3119441],[31.8112564,41.3199298],[31.828319,41.3266037],[31.8248606,41.3403287],[31.8322694,41.3497804],[31.8265044,41.3618671],[31.820143,41.3654479],[31.7756133,41.3654479],[31.7688543,41.3882709],[31.7755399,41.4123747],[31.7865042,41.4238647],[31.801461,41.4273231],[31.7955816,41.433324],[31.7839837,41.4328172]]]},"properties":{"@id":"relation/3680519","admin_level":"6","boundary":"administrative","name":"Kozlu","name:ce":"Козлу","name:de":"Kozlu","name:en":"Kozlu","name:fa":"کوزلو","name:tr":"Kozlu","name:tr:suffix":"İlçesi","name:tt":"Козлу","name:ur":"کوزلو","name:zh":"科茲盧","network":"TR67-districts","type":"boundary","wikidata":"Q1179637","wikipedia":"tr:Kozlu"},"id":"relation/3680519"},
{"type":"Feature","geometry":{"type":"Polygon","coordinates":[[[32.001357,41.548994],[31.9654674,41.5416919],[31.9577207,41.5369145],[31.9211594,41.5283524],[31.8768855,41.5126217],[31.8614899,41.5047589],[31.8443846,41.4995164],[31.8305998,41.4904094],[31.8222995,41.4818596],[31.8287633,41.4767767],[31.8313782,41.4646139],[31.8473003,41.4664495],[31.8502092,41.4600248],[31.8647534,41.4525666],[31.8665906,41.4482061],[31.8780729,41.4462553],[31.8760826,41.4366149],[31.9002719,41.428121],[31.9098056,41.4369946],[31.9452998,41.4414905],[31.9563418,41.4305052],[31.9715975,41.4276515],[31.9723234,41.4407643],[31.9842256,41.458092],[31.9882294,41.4742258],[31.9924656,41.4821029],[32.0046411,41.4868181],[32.0132944,41.4966766],[32.0157246,41.5063638],[32.0231366,41.5167315],[32.0306899,41.5218728],[32.029406,41.5305618],[32.01421,41.5453461],[32.001357,41.548994]]]},"properties":{"@id":"relation/3680552","admin_level":"6","boundary":"administrative","name":"Kilimli","name:ce":"Килимли","name:de":"Kilimli","name:en":"Kilimli","name:fa":"کیلیملی","name:tr":"Kilimli","name:tr:suffix":"İlçesi","name:tt":"Килимли","name:uk":"Кілімлі","name:ur":"کیلیملی","name:zh":"基利姆利","network":"TR67-districts","population":"33620","population:date":"2021-12-31","type":"boundary","wikidata":"Q3233266","wikipedia":"tr:Kilimli"},"id":"relation/3680552"},
{"type":"Feature","geometry":{"type":"Polygon","coordinates":[[[31.79865,41.4662706],[31.7981283,41.4667858],[31.7868744,41.4647514],[31.7877451,41.456958],[31.7946643,41.4613623],[31.79865,41.4662706]]]},"properties":{"@id":"relation/12335782","admin_level":"8","boundary":"administrative","name":"Yayla Mahallesi","type":"boundary","@relations":[{"role":"subarea","rel":1840251,"reltags":{"admin_level":"6","alt_name":"Zonguldak","boundary":"administrative","name":"Zonguldak Merkez","name:ar":"زونغولداق","name:az":"Zonquldak","name:be":"Зангулдак","name:bg":"Зонгулдак","name:ce":"Зонгулдак","name:de":"Zonguldak","name:el":"Ζονγκουλντάκ","name:en":"Zonguldak","name:fa":"زونگولداغ","name:hy":"Զոնգուլդաք","name:ja":"ゾングルダク","name:ka":"ზონგულდაქი","name:kk":"Зонгулдак","name:ko":"종굴다크","name:lt":"Zonguldakas","name:os":"Зонгулдак","name:pt":"Zonguldaque","name:ru":"Зонгулдак","name:sr":"Зонгулдак","name:tg":"Зонгулдак","name:tr":"Zonguldak Merkez","name:tr:suffix":"İlçesi","name:tt":"Зонгулдак","name:uk":"Зонгулдак","name:ur":"زانگولداک","name:zh":"宗古爾達克","network":"TR67-districts","population":"120395","population:date":"2021-12-31","type":"boundary","wikidata":"Q187895","wikipedia":"tr:Zonguldak"}}]},"id":"relation/12335782"},
{"type":"Feature","geometry":{"type":"Polygon","coordinates":[[[31.8080056,41.4684212],[31.8090034,41.4750715],[31.7981283,41.4667858],[31.79865,41.4662706],[31.8080056,41.4684212]]]},"properties":{"@id":"relation/12988935","admin_level":"8","boundary":"administrative","name":"Yeşil Mahallesi","type":"boundary","@relations":[{"role":"subarea","rel":1840251,"reltags":{"admin_level":"6","alt_name":"Zonguldak","boundary":"administrative","name":"Zonguldak Merkez","name:ar":"زونغولداق","name:az":"Zonquldak","name:be":"Зангулдак","name:bg":"Зонгулдак","name:ce":"Зонгулдак","name:de":"Zonguldak","name:el":"Ζονγκουλντάκ","name:en":"Zonguldak","name:fa":"زونگولداغ","name:hy":"Զոնգուլդաք","name:ja":"ゾングルダク","name:ka":"ზონგულდაქი","name:kk":"Зонгулдак","name:ko":"종굴다크","name:lt":"Zonguldakas","name:os":"Зонгулдак","name:pt":"Zonguldaque","name:ru":"Зонгулдак","name:sr":"Зонгулдак","name:tg":"Зонгулдак","name:tr":"Zonguldak Merkez","name:tr:suffix":"İlçesi","name:tt":"Зонгулдак","name:uk":"Зонгулдак","name:ur":"زانگولداک","name:zh":"宗古爾達克","network":"TR67-districts","population":"120395","population:date":"2021-12-31","type":"boundary","wikidata":"Q187895","wikipedia":"tr:Zonguldak"}}]},"id":"relation/12988935"},
{"type":"Feature","geometry":{"type":"Polygon","coordinates":[[[31.7976308,41.4571289],[31.8122327,41.4568515],[31.8156981,41.4570686],[31.814121,41.4653621],[31.8080056,41.4684212],[31.79865,41.4662706],[31.7946643,41.4613623],[31.7976308,41.4571289]]]},"properties":{"@id":"relation/12988936","admin_level":"8","boundary":"administrative","name":"Tepebaşı Mahallesi","type":"boundary","@relations":[{"role":"subarea","rel":1840251,"reltags":{"admin_level":"6","alt_name":"Zonguldak","boundary":"administrative","name":"Zonguldak Merkez","name:ar":"زونغولداق","name:az":"Zonquldak","name:be":"Зангулдак","name:bg":"Зонгулдак","name:ce":"Зонгулдак","name:de":"Zonguldak","name:el":"Ζονγκουλντάκ","name:en":"Zonguldak","name:fa":"زونگولداغ","name:hy":"Զոնգուլդաք","name:ja":"ゾングルダク","name:ka":"ზონგულდაქი","name:kk":"Зонгулдак","name:ko":"종굴다크","name:lt":"Zonguldakas","name:os":"Зонгулдак","name:pt":"Zonguldaque","name:ru":"Зонгулдак","name:sr":"Зонгулдак","name:tg":"Зонгулдак","name:tr":"Zonguldak Merkez","name:tr:suffix":"İlçesi","name:tt":"Зонгулдак","name:uk":"Зонгулдак","name:ur":"زانگولداک","name:zh":"宗古爾達克","network":"TR67-districts","population":"120395","population:date":"2021-12-31","type":"boundary","wikidata":"Q187895","wikipedia":"tr:Zonguldak"}}]},"id":"relation/12988936"},
{"type":"Feature","geometry":{"type":"Polygon","coordinates":[[[31.7886373,41.4530591],[31.7976308,41.4571289],[31.7946643,41.4613623],[31.7877451,41.456958],[31.7875673,41.4545711],[31.7886373,41.4530591]]]},"properties":{"@id":"relation/12988937","admin_level":"8","boundary":"administrative","name":"Meşrutiyet Mahallesi","type":"boundary","@relations":[{"role":"subarea","rel":1840251,"reltags":{"admin_level":"6","alt_name":"Zonguldak","boundary":"administrative","name":"Zonguldak Merkez","name:ar":"زونغولداق","name:az":"Zonquldak","name:be":"Зангулдак","name:bg":"Зонгулдак","name:ce":"Зонгулдак","name:de":"Zonguldak","name:el":"Ζονγκουλντάκ","name:en":"Zonguldak","name:fa":"زونگولداغ","name:hy":"Զոնգուլդաք","name:ja":"ゾングルダク","name:ka":"ზონგულდაქი","name:kk":"Зонгулдак","name:ko":"종굴다크","name:lt":"Zonguldakas","name:os":"Зонгулдак","name:pt":"Zonguldaque","name:ru":"Зонгулдак","name:sr":"Зонгулдак","name:tg":"Зонгулдак","name:tr":"Zonguldak Merkez","name:tr:suffix":"İlçesi","name:tt":"Зонгулдак","name:uk":"Зонгулдак","name:ur":"زانگولداک","name:zh":"宗古爾達克","network":"TR67-districts","population":"120395","population:date":"2021-12-31","type":"boundary","wikidata":"Q187895","wikipedia":"tr:Zonguldak"}}]},"id":"relation/12988937"},
{"type":"Feature","geometry":{"type":"Polygon","coordinates":[[[31.4204517,41.2810097],[31.4211985,41.2803453],[31.4227707,41.2804089],[31.4253033,41.283741],[31.4246963,41.2887771],[31.4221752,41.2885696],[31.4211345,41.2824304],[31.4204517,41.2810097]]]},"properties":{"@id":"relation/12988967","admin_level":"8","boundary":"administrative","name":"Murtaza Mahallesi","type":"boundary","@relations":[{"role":"subarea","rel":1840250,"reltags":{"admin_level":"6","alt_name":"Ereğli;Karadeniz Ereğlisi","boundary":"administrative","name":"Ereğli","name:de":"Ereğli","name:en":"Ereğli","name:tr":"Ereğli","name:tr:suffix":"İlçesi","network":"TR81-districts","type":"boundary","wikidata":"Q1012887","wikipedia":"tr:Karadeniz Ereğli"}}]},"id":"relation/12988967"},
{"type":"Feature","geometry":{"type":"Polygon","coordinates":[[[31.4352297,41.2617834],[31.4352228,41.2649287],[31.4449847,41.2700172],[31.4257157,41.2760649],[31.4227707,41.2804089],[31.4211985,41.2803453],[31.4197571,41.2785726],[31.4203075,41.26908],[31.4042709,41.2615864],[31.4055082,41.248312],[31.4229154,41.2539842],[31.4280481,41.2527232],[31.4352297,41.2617834]]]},"properties":{"@id":"relation/12988968","admin_level":"8","boundary":"administrative","name":"Müftü Mahallesi","type":"boundary","@relations":[{"role":"subarea","rel":1840250,"reltags":{"admin_level":"6","alt_name":"Ereğli;Karadeniz Ereğlisi","boundary":"administrative","name":"Ereğli","name:de":"Ereğli","name:en":"Ereğli","name:tr":"Ereğli","name:tr:suffix":"İlçesi","network":"TR81-districts","type":"boundary","wikidata":"Q1012887","wikipedia":"tr:Karadeniz Ereğli"}}]},"id":"relation/12988968"},
{"type":"Feature","geometry":{"type":"Polygon","coordinates":[[[31.4221752,41.2885696],[31.4194433,41.2906187],[31.4211345,41.2824304],[31.4221752,41.2885696]]]},"properties":{"@id":"relation/12988969","admin_level":"8","boundary":"administrative","name":"Kirmanlı Mahallesi","type":"boundary","@relations":[{"role":"subarea","rel":1840250,"reltags":{"admin_level":"6","alt_name":"Ereğli;Karadeniz Ereğlisi","boundary":"administrative","name":"Ereğli","name:de":"Ereğli","name:en":"Ereğli","name:tr":"Ereğli","name:tr:suffix":"İlçesi","network":"TR81-districts","type":"boundary","wikidata":"Q1012887","wikipedia":"tr:Karadeniz Ereğli"}}]},"id":"relation/12988969"},
{"type":"Feature","geometry":{"type":"Polygon","coordinates":[[[31.4123046,41.2887711],[31.4204517,41.2810097],[31.4211345,41.2824304],[31.4194433,41.2906187],[31.4175403,41.29098],[31.4123046,41.2887711]]]},"properties":{"@id":"relation/12988970","admin_level":"8","boundary":"administrative","name":"Akarca Mahallesi","type":"boundary","@relations":[{"role":"subarea","rel":1840250,"reltags":{"admin_level":"6","alt_name":"Ereğli;Karadeniz Ereğlisi","boundary":"administrative","name":"Ereğli","name:de":"Ereğli","name:en":"Ereğli","name:tr":"Ereğli","name:tr:suffix":"İlçesi","network":"TR81-districts","type":"boundary","wikidata":"Q1012887","wikipedia":"tr:Karadeniz Ereğli"}}]},"id":"relation/12988970"},
{"type":"Feature","geometry":{"type":"Polygon","coordinates":[[[31.4197571,41.2785726],[31.4211985,41.2803453],[31.4204517,41.2810097],[31.4123046,41.2887711],[31.4109025,41.2867039],[31.4197571,41.2785726]]]},"properties":{"@id":"relation/12988971","admin_level":"8","boundary":"administrative","name":"Orhanlar Mahallesi","type":"boundary","@relations":[{"role":"subarea","rel":1840250,"reltags":{"admin_level":"6","alt_name":"Ereğli;Karadeniz Ereğlisi","boundary":"administrative","name":"Ereğli","name:de":"Ereğli","name:en":"Ereğli","name:tr":"Ereğli","name:tr:suffix":"İlçesi","network":"TR81-districts","type":"boundary","wikidata":"Q1012887","wikipedia":"tr:Karadeniz Ereğli"}}]},"id":"relation/12988971"},
{"type":"Feature","geometry":{"type":"Polygon","coordinates":[[[31.4317346,41.2918425],[31.434211,41.2941373],[31.4303827,41.2979285],[31.4110494,41.297735],[31.4104915,41.2976222],[31.4175403,41.29098],[31.4194433,41.2906187],[31.4221752,41.2885696],[31.4246963,41.2887771],[31.4317346,41.2918425]]]},"properties":{"@id":"relation/12988972","admin_level":"8","boundary":"administrative","name":"Uzunmehmet Mahallesi","type":"boundary","@relations":[{"role":"subarea","rel":1840250,"reltags":{"admin_level":"6","alt_name":"Ereğli;Karadeniz Ereğlisi","boundary":"administrative","name":"Ereğli","name:de":"Ereğli","name:en":"Ereğli","name:tr":"Ereğli","name:tr:suffix":"İlçesi","network":"TR81-districts","type":"boundary","wikidata":"Q1012887","wikipedia":"tr:Karadeniz Ereğli"}}]},"id":"relation/12988972"},
{"type":"Feature","geometry":{"type":"Polygon","coordinates":[[[31.4175403,41.29098],[31.4104915,41.2976222],[31.3981104,41.2990891],[31.3934506,41.2923993],[31.3994985,41.2869592],[31.4109025,41.2867039],[31.4123046,41.2887711],[31.4175403,41.29098]]]},"properties":{"@id":"relation/12988973","admin_level":"8","boundary":"administrative","name":"Süleymanlar Mahallesi","type":"boundary","@relations":[{"role":"subarea","rel":1840250,"reltags":{"admin_level":"6","alt_name":"Ereğli;Karadeniz Ereğlisi","boundary":"administrative","name":"Ereğli","name:de":"Ereğli","name:en":"Ereğli","name:tr":"Ereğli","name:tr:suffix":"İlçesi","network":"TR81-districts","type":"boundary","wikidata":"Q1012887","wikipedia":"tr:Karadeniz Ereğli"}}]},"id":"relation/12988973"},
{"type":"Feature","geometry":{"type":"Polygon","coordinates":[[[31.4227707,41.2804089],[31.4257157,41.2760649],[31.4449847,41.2700172],[31.4475909,41.2698726],[31.4383435,41.2828779],[31.4253033,41.283741],[31.4227707,41.2804089]]]},"properties":{"@id":"relation/13016971","admin_level":"8","boundary":"administrative","name":"Bağlık Mahallesi","type":"boundary","@relations":[{"role":"subarea","rel":1840250,"reltags":{"admin_level":"6","alt_name":"Ereğli;Karadeniz Ereğlisi","boundary":"administrative","name":"Ereğli","name:de":"Ereğli","name:en":"Ereğli","name:tr":"Ereğli","name:tr:suffix":"İlçesi","network":"TR81-districts","type":"boundary","wikidata":"Q1012887","wikipedia":"tr:Karadeniz Ereğli"}}]},"id":"relation/13016971"},
{"type":"Feature","geometry":{"type":"Polygon","coordinates":[[[31.8124205,41.453603],[31.8230206,41.4555007],[31.8156981,41.4570686],[31.8122327,41.4568515],[31.8124205,41.453603]]]},"properties":{"@id":"relation/13104977","admin_level":"8","boundary":"administrative","name":"Baştarla Mahallesi","type":"boundary","@relations":[{"role":"subarea","rel":1840251,"reltags":{"admin_level":"6","alt_name":"Zonguldak","boundary":"administrative","name":"Zonguldak Merkez","name:ar":"زونغولداق","name:az":"Zonquldak","name:be":"Зангулдак","name:bg":"Зонгулдак","name:ce":"Зонгулдак","name:de":"Zonguldak","name:el":"Ζονγκουλντάκ","name:en":"Zonguldak","name:fa":"زونگولداغ","name:hy":"Զոնգուլդաք","name:ja":"ゾングルダク","name:ka":"ზონგულდაქი","name:kk":"Зонгулдак","name:ko":"종굴다크","name:lt":"Zonguldakas","name:os":"Зонгулдак","name:pt":"Zonguldaque","name:ru":"Зонгулдак","name:sr":"Зонгулдак","name:tg":"Зонгулдак","name:tr":"Zonguldak Merkez","name:tr:suffix":"İlçesi","name:tt":"Зонгулдак","name:uk":"Зонгулдак","name:ur":"زانگولداک","name:zh":"宗古爾達克","network":"TR67-districts","population":"120395","population:date":"2021-12-31","type":"boundary","wikidata":"Q187895","wikipedia":"tr:Zonguldak"}}]},"id":"relation/13104977"},
{"type":"Feature","geometry":{"type":"Polygon","coordinates":[[[31.8124205,41.453603],[31.8058215,41.4502961],[31.8194103,41.4448415],[31.8216634,41.4403618],[31.825,41.4422921],[31.8230206,41.4555007],[31.8124205,41.453603]]]},"properties":{"@id":"relation/13104978","admin_level":"8","boundary":"administrative","name":"Çınartepe Mahallesi","type":"boundary","@relations":[{"role":"subarea","rel":1840251,"reltags":{"admin_level":"6","alt_name":"Zonguldak","boundary":"administrative","name":"Zonguldak Merkez","name:ar":"زونغولداق","name:az":"Zonquldak","name:be":"Зангулдак","name:bg":"Зонгулдак","name:ce":"Зонгулдак","name:de":"Zonguldak","name:el":"Ζονγκουλντάκ","name:en":"Zonguldak","name:fa":"زونگولداغ","name:hy":"Զոնգուլդաք","name:ja":"ゾングルダク","name:ka":"ზონგულდაქი","name:kk":"Зонгулдак","name:ko":"종굴다크","name:lt":"Zonguldakas","name:os":"Зонгулдак","name:pt":"Zonguldaque","name:ru":"Зонгулдак","name:sr":"Зонгулдак","name:tg":"Зонгулдак","name:tr":"Zonguldak Merkez","name:tr:suffix":"İlçesi","name:tt":"Зонгулдак","name:uk":"Зонгулдак","name:ur":"زانگولداک","name:zh":"宗古爾達克","network":"TR67-districts","population":"120395","population:date":"2021-12-31","type":"boundary","wikidata":"Q187895","wikipedia":"tr:Zonguldak"}}]},"id":"relation/13104978"},
{"type":"Feature","geometry":{"type":"Polygon","coordinates":[[[31.7900938,41.4507966],[31.7913209,41.4499123],[31.8058215,41.4502961],[31.8124205,41.453603],[31.8122327,41.4568515],[31.7976308,41.4571289],[31.7886373,41.4530591],[31.7900938,41.4507966]]]},"properties":{"@id":"relation/13104979","admin_level":"8","boundary":"administrative","name":"Mithatpaşa Mahallesi","type":"boundary","@relations":[{"role":"subarea","rel":1840251,"reltags":{"admin_level":"6","alt_name":"Zonguldak","boundary":"administrative","name":"Zonguldak Merkez","name:ar":"زونغولداق","name:az":"Zonquldak","name:be":"Зангулдак","name:bg":"Зонгулдак","name:ce":"Зонгулдак","name:de":"Zonguldak","name:el":"Ζονγκουλντάκ","name:en":"Zonguldak","name:fa":"زونگولداغ","name:hy":"Զոնգուլդաք","name:ja":"ゾングルダク","name:ka":"ზონგულდაქი","name:kk":"Зонгулдак","name:ko":"종굴다크","name:lt":"Zonguldakas","name:os":"Зонгулдак","name:pt":"Zonguldaque","name:ru":"Зонгулдак","name:sr":"Зонгулдак","name:tg":"Зонгулдак","name:tr":"Zonguldak Merkez","name:tr:suffix":"İlçesi","name:tt":"Зонгулдак","name:uk":"Зонгулдак","name:ur":"زانگولداک","name:zh":"宗古爾達克","network":"TR67-districts","population":"120395","population:date":"2021-12-31","type":"boundary","wikidata":"Q187895","wikipedia":"tr:Zonguldak"}}]},"id":"relation/13104979"},
{"type":"Feature","geometry":{"type":"Polygon","coordinates":[[[31.7962414,41.4430682],[31.8129837,41.4416004],[31.8183267,41.4388096],[31.8216634,41.4403618],[31.8194103,41.4448415],[31.8058215,41.4502961],[31.7913209,41.4499123],[31.7938381,41.4459514],[31.7962414,41.4430682]]]},"properties":{"@id":"relation/13104980","admin_level":"8","boundary":"administrative","name":"Karaelmas Mahallesi","type":"boundary","@relations":[{"role":"subarea","rel":1840251,"reltags":{"admin_level":"6","alt_name":"Zonguldak","boundary":"administrative","name":"Zonguldak Merkez","name:ar":"زونغولداق","name:az":"Zonquldak","name:be":"Зангулдак","name:bg":"Зонгулдак","name:ce":"Зонгулдак","name:de":"Zonguldak","name:el":"Ζονγκουλντάκ","name:en":"Zonguldak","name:fa":"زونگولداغ","name:hy":"Զոնգուլդաք","name:ja":"ゾングルダク","name:ka":"ზონგულდაქი","name:kk":"Зонгулдак","name:ko":"종굴다크","name:lt":"Zonguldakas","name:os":"Зонгулдак","name:pt":"Zonguldaque","name:ru":"Зонгулдак","name:sr":"Зонгулдак","name:tg":"Зонгулдак","name:tr":"Zonguldak Merkez","name:tr:suffix":"İlçesi","name:tt":"Зонгулдак","name:uk":"Зонгулдак","name:ur":"زانگولداک","name:zh":"宗古爾達克","network":"TR67-districts","population":"120395","population:date":"2021-12-31","type":"boundary","wikidata":"Q187895","wikipedia":"tr:Zonguldak"}}]},"id":"relation/13104980"},
{"type":"Feature","geometry":{"type":"Polygon","coordinates":[[[31.8084186,41.430392],[31.8183267,41.4388096],[31.8129837,41.4416004],[31.7962414,41.4430682],[31.8084186,41.430392]]]},"properties":{"@id":"relation/13104981","admin_level":"8","boundary":"administrative","name":"Çaydamar Mahallesi","type":"boundary","@relations":[{"role":"subarea","rel":1840251,"reltags":{"admin_level":"6","alt_name":"Zonguldak","boundary":"administrative","name":"Zonguldak Merkez","name:ar":"زونغولداق","name:az":"Zonquldak","name:be":"Зангулдак","name:bg":"Зонгулдак","name:ce":"Зонгулдак","name:de":"Zonguldak","name:el":"Ζονγκουλντάκ","name:en":"Zonguldak","name:fa":"زونگولداغ","name:hy":"Զոնգուլդաք","name:ja":"ゾングルダク","name:ka":"ზონგულდაქი","name:kk":"Зонгулдак","name:ko":"종굴다크","name:lt":"Zonguldakas","name:os":"Зонгулдак","name:pt":"Zonguldaque","name:ru":"Зонгулдак","name:sr":"Зонгулдак","name:tg":"Зонгулдак","name:tr":"Zonguldak Merkez","name:tr:suffix":"İlçesi","name:tt":"Зонгулдак","name:uk":"Зонгулдак","name:ur":"زانگولداک","name:zh":"宗古爾達克","network":"TR67-districts","population":"120395","population:date":"2021-12-31","type":"boundary","wikidata":"Q187895","wikipedia":"tr:Zonguldak"}}]},"id":"relation/13104981"},
{"type":"Feature","geometry":{"type":"Polygon","coordinates":[[[31.7938381,41.4459514],[31.7839837,41.4328172],[31.7955816,41.433324],[31.801461,41.4273231],[31.8084186,41.430392],[31.7962414,41.4430682],[31.7938381,41.4459514]]]},"properties":{"@id":"relation/13104982","admin_level":"8","boundary":"administrative","name":"Birlik Mahallesi","type":"boundary","@relations":[{"role":"subarea","rel":1840251,"reltags":{"admin_level":"6","alt_name":"Zonguldak","boundary":"administrative","name":"Zonguldak Merkez","name:ar":"زونغولداق","name:az":"Zonquldak","name:be":"Зангулдак","name:bg":"Зонгулдак","name:ce":"Зонгулдак","name:de":"Zonguldak","name:el":"Ζονγκουλντάκ","name:en":"Zonguldak","name:fa":"زونگولداغ","name:hy":"Զոնգուլդաք","name:ja":"ゾングルダク","name:ka":"ზონგულდაქი","name:kk":"Зонгулдак","name:ko":"종굴다크","name:lt":"Zonguldakas","name:os":"Зонгулдак","name:pt":"Zonguldaque","name:ru":"Зонгулдак","name:sr":"Зонгулдак","name:tg":"Зонгулдак","name:tr":"Zonguldak Merkez","name:tr:suffix":"İlçesi","name:tt":"Зонгулдак","name:uk":"Зонгулдак","name:ur":"زانگولداک","name:zh":"宗古爾達克","network":"TR67-districts","population":"120395","population:date":"2021-12-31","type":"boundary","wikidata":"Q187895","wikipedia":"tr:Zonguldak"}}]},"id":"relation/13104982"},
{"type":"Feature","geometry":{"type":"Polygon","coordinates":[[[31.7913209,41.4499123],[31.7900938,41.4507966],[31.7792952,41.4389061],[31.772943,41.4406203],[31.7839837,41.4328172],[31.7938381,41.4459514],[31.7913209,41.4499123]]]},"properties":{"@id":"relation/13104983","admin_level":"8","boundary":"administrative","name":"On Temmuz Mahallesi","type":"boundary","@relations":[{"role":"subarea","rel":1840251,"reltags":{"admin_level":"6","alt_name":"Zonguldak","boundary":"administrative","name":"Zonguldak Merkez","name:ar":"زونغولداق","name:az":"Zonquldak","name:be":"Зангулдак","name:bg":"Зонгулдак","name:ce":"Зонгулдак","name:de":"Zonguldak","name:el":"Ζονγκουλντάκ","name:en":"Zonguldak","name:fa":"زونگولداغ","name:hy":"Զոնգուլդաք","name:ja":"ゾングルダク","name:ka":"ზონგულდაქი","name:kk":"Зонгулдак","name:ko":"종굴다크","name:lt":"Zonguldakas","name:os":"Зонгулдак","name:pt":"Zonguldaque","name:ru":"Зонгулдак","name:sr":"Зонгулдак","name:tg":"Зонгулдак","name:tr":"Zonguldak Merkez","name:tr:suffix":"İlçesi","name:tt":"Зонгулдак","name:uk":"Зонгулдак","name:ur":"زانگولداک","name:zh":"宗古爾達克","network":"TR67-districts","population":"120395","population:date":"2021-12-31","type":"boundary","wikidata":"Q187895","wikipedia":"tr:Zonguldak"}}]},"id":"relation/13104983"},
{"type":"Feature","geometry":{"type":"Polygon","coordinates":[[[31.7900938,41.4507966],[31.7886373,41.4530591],[31.7875673,41.4545711],[31.7760159,41.453938],[31.7792737,41.4500326],[31.7689217,41.4415616],[31.772943,41.4406203],[31.7792952,41.4389061],[31.7900938,41.4507966]]]},"properties":{"@id":"relation/13104984","admin_level":"8","boundary":"administrative","name":"Terakki Mahallesi","type":"boundary","@relations":[{"role":"subarea","rel":1840251,"reltags":{"admin_level":"6","alt_name":"Zonguldak","boundary":"administrative","name":"Zonguldak Merkez","name:ar":"زونغولداق","name:az":"Zonquldak","name:be":"Зангулдак","name:bg":"Зонгулдак","name:ce":"Зонгулдак","name:de":"Zonguldak","name:el":"Ζονγκουλντάκ","name:en":"Zonguldak","name:fa":"زونگولداغ","name:hy":"Զոնգուլդաք","name:ja":"ゾングルダク","name:ka":"ზონგულდაქი","name:kk":"Зонгулдак","name:ko":"종굴다크","name:lt":"Zonguldakas","name:os":"Зонгулдак","name:pt":"Zonguldaque","name:ru":"Зонгулдак","name:sr":"Зонгулдак","name:tg":"Зонгулдак","name:tr":"Zonguldak Merkez","name:tr:suffix":"İlçesi","name:tt":"Зонгулдак","name:uk":"Зонгулдак","name:ur":"زانگولداک","name:zh":"宗古爾達克","network":"TR67-districts","population":"120395","population:date":"2021-12-31","type":"boundary","wikidata":"Q187895","wikipedia":"tr:Zonguldak"}}]},"id":"relation/13104984"},
{"type":"Feature","geometry":{"type":"Polygon","coordinates":[[[31.7665229,41.4415476],[31.7689217,41.4415616],[31.7792737,41.4500326],[31.7760159,41.453938],[31.7671356,41.4552707],[31.7665229,41.4415476]]]},"properties":{"@id":"relation/13104985","admin_level":"8","boundary":"administrative","name":"Bahçelievler Mahallesi","type":"boundary","@relations":[{"role":"subarea","rel":1840251,"reltags":{"admin_level":"6","alt_name":"Zonguldak","boundary":"administrative","name":"Zonguldak Merkez","name:ar":"زونغولداق","name:az":"Zonquldak","name:be":"Зангулдак","name:bg":"Зонгулдак","name:ce":"Зонгулдак","name:de":"Zonguldak","name:el":"Ζονγκουλντάκ","name:en":"Zonguldak","name:fa":"زونگولداغ","name:hy":"Զոնգուլդաք","name:ja":"ゾングルダク","name:ka":"ზონგულდაქი","name:kk":"Зонгулдак","name:ko":"종굴다크","name:lt":"Zonguldakas","name:os":"Зонгулдак","name:pt":"Zonguldaque","name:ru":"Зонгулдак","name:sr":"Зонгулдак","name:tg":"Зонгулдак","name:tr":"Zonguldak Merkez","name:tr:suffix":"İlçesi","name:tt":"Зонгулдак","name:uk":"Зонгулдак","name:ur":"زانگولداک","name:zh":"宗古爾達克","network":"TR67-districts","population":"120395","population:date":"2021-12-31","type":"boundary","wikidata":"Q187895","wikipedia":"tr:Zonguldak"}}]},"id":"relation/13104985"},
{"type":"Feature","geometry":{"type":"Polygon","coordinates":[[[31.7671356,41.4552707],[31.7559054,41.4545649],[31.7665229,41.4415476],[31.7671356,41.4552707]]]},"properties":{"@id":"relation/13104986","admin_level":"8","boundary":"administrative","name":"İncivez Mahallesi","type":"boundary","@relations":[{"role":"subarea","rel":1840251,"reltags":{"admin_level":"6","alt_name":"Zonguldak","boundary":"administrative","name":"Zonguldak Merkez","name:ar":"زونغولداق","name:az":"Zonquldak","name:be":"Зангулдак","name:bg":"Зонгулдак","name:ce":"Зонгулдак","name:de":"Zonguldak","name:el":"Ζονγκουλντάκ","name:en":"Zonguldak","name:fa":"زونگولداغ","name:hy":"Զոնգուլդաք","name:ja":"ゾングルダク","name:ka":"ზონგულდაქი","name:kk":"Зонгулдак","name:ko":"종굴다크","name:lt":"Zonguldakas","name:os":"Зонгулдак","name:pt":"Zonguldaque","name:ru":"Зонгулдак","name:sr":"Зонгулдак","name:tg":"Зонгулдак","name:tr":"Zonguldak Merkez","name:tr:suffix":"İlçesi","name:tt":"Зонгулдак","name:uk":"Зонгулдак","name:ur":"زانگولداک","name:zh":"宗古爾達克","network":"TR67-districts","population":"120395","population:date":"2021-12-31","type":"boundary","wikidata":"Q187895","wikipedia":"tr:Zonguldak"}}]},"id":"relation/13104986"},
{"type":"Feature","geometry":{"type":"Polygon","coordinates":[[[31.4475909,41.2698726],[31.4449847,41.2700172],[31.4352228,41.2649287],[31.4554506,41.2650819],[31.460461,41.2675899],[31.4475909,41.2698726]]]},"properties":{"@id":"relation/13105014","admin_level":"8","boundary":"administrative","name":"Kavaklık Mahallesi","type":"boundary","@relations":[{"role":"subarea","rel":1840250,"reltags":{"admin_level":"6","alt_name":"Ereğli;Karadeniz Ereğlisi","boundary":"administrative","name":"Ereğli","name:de":"Ereğli","name:en":"Ereğli","name:tr":"Ereğli","name:tr:suffix":"İlçesi","network":"TR81-districts","type":"boundary","wikidata":"Q1012887","wikipedia":"tr:Karadeniz Ereğli"}}]},"id":"relation/13105014"},
{"type":"Feature","geometry":{"type":"Polygon","coordinates":[[[31.4554506,41.2650819],[31.4352228,41.2649287],[31.4352297,41.2617834],[31.449877,41.2585816],[31.456486,41.2624851],[31.4554506,41.2650819]]]},"properties":{"@id":"relation/13824303","admin_level":"8","boundary":"administrative","name":"Elma Tepe Mahallesi","type":"boundary","@relations":[{"role":"subarea","rel":1840250,"reltags":{"admin_level":"6","alt_name":"Ereğli;Karadeniz Ereğlisi","boundary":"administrative","name":"Ereğli","name:de":"Ereğli","name:en":"Ereğli","name:tr":"Ereğli","name:tr:suffix":"İlçesi","network":"TR81-districts","type":"boundary","wikidata":"Q1012887","wikipedia":"tr:Karadeniz Ereğli"}}]},"id":"relation/13824303"},
{"type":"Feature","geometry":{"type":"Polygon","coordinates":[[[31.434211,41.2941373],[31.4317346,41.2918425],[31.4371419,41.2904721],[31.434211,41.2941373]]]},"properties":{"@id":"relation/13824304","admin_level":"8","boundary":"administrative","name":"Güldere Mahallesi","type":"boundary","@relations":[{"role":"subarea","rel":1840250,"reltags":{"admin_level":"6","alt_name":"Ereğli;Karadeniz Ereğlisi","boundary":"administrative","name":"Ereğli","name:de":"Ereğli","name:en":"Ereğli","name:tr":"Ereğli","name:tr:suffix":"İlçesi","network":"TR81-districts","type":"boundary","wikidata":"Q1012887","wikipedia":"tr:Karadeniz Ereğli"}}]},"id":"relation/13824304"},
{"type":"Feature","geometry":{"type":"Polygon","coordinates":[[[31.4450276,41.3119038],[31.4378822,41.3114122],[31.4303827,41.2979285],[31.434211,41.2941373],[31.4371419,41.2904721],[31.4466691,41.2860382],[31.4637709,41.2928744],[31.4642429,41.2971949],[31.4450276,41.3119038]]]},"properties":{"@id":"relation/13824305","admin_level":"8","boundary":"administrative","name":"Korubaşı Mahallesi","type":"boundary","@relations":[{"role":"subarea","rel":1840250,"reltags":{"admin_level":"6","alt_name":"Ereğli;Karadeniz Ereğlisi","boundary":"administrative","name":"Ereğli","name:de":"Ereğli","name:en":"Ereğli","name:tr":"Ereğli","name:tr:suffix":"İlçesi","network":"TR81-districts","type":"boundary","wikidata":"Q1012887","wikipedia":"tr:Karadeniz Ereğli"}}]},"id":"relation/13824305"},
{"type":"Feature","geometry":{"type":"Polygon","coordinates":[[[31.4253033,41.283741],[31.4383435,41.2828779],[31.4475909,41.2698726],[31.460461,41.2675899],[31.4612048,41.2687574],[31.4635026,41.2723718],[31.4591038,41.2803946],[31.4637709,41.2928744],[31.4466691,41.2860382],[31.4371419,41.2904721],[31.4317346,41.2918425],[31.4246963,41.2887771],[31.4253033,41.283741]]]},"properties":{"@id":"relation/13824306","admin_level":"8","boundary":"administrative","name":"Sarıkokmaz Mahallesi","type":"boundary","@relations":[{"role":"subarea","rel":1840250,"reltags":{"admin_level":"6","alt_name":"Ereğli;Karadeniz Ereğlisi","boundary":"administrative","name":"Ereğli","name:de":"Ereğli","name:en":"Ereğli","name:tr":"Ereğli","name:tr:suffix":"İlçesi","network":"TR81-districts","type":"boundary","wikidata":"Q1012887","wikipedia":"tr:Karadeniz Ereğli"}}]},"id":"relation/13824306"},
{"type":"Feature","geometry":{"type":"Polygon","coordinates":[[[31.4794564,41.319688],[31.4822459,41.3156671],[31.4957072,41.3121671],[31.5175545,41.3118071],[31.5038431,41.3394185],[31.4958005,41.339992],[31.4815519,41.3340288],[31.4723968,41.3274875],[31.4794564,41.319688]]]},"properties":{"@id":"relation/13824307","admin_level":"8","boundary":"administrative","name":"Keşkek Köyü","type":"boundary","@relations":[{"role":"subarea","rel":1840250,"reltags":{"admin_level":"6","alt_name":"Ereğli;Karadeniz Ereğlisi","boundary":"administrative","name":"Ereğli","name:de":"Ereğli","name:en":"Ereğli","name:tr":"Ereğli","name:tr:suffix":"İlçesi","network":"TR81-districts","type":"boundary","wikidata":"Q1012887","wikipedia":"tr:Karadeniz Ereğli"}}]},"id":"relation/13824307"},
{"type":"Feature","geometry":{"type":"Polygon","coordinates":[[[31.4442229,41.3130964],[31.454072,41.3125001],[31.4610886,41.3080516],[31.4743066,41.3053759],[31.4752292,41.3187856],[31.4794564,41.319688],[31.4723968,41.3274875],[31.4661073,41.3274699],[31.4366184,41.3271299],[31.4275952,41.3200302],[31.4332151,41.3162553],[31.4442229,41.3130964]]]},"properties":{"@id":"relation/13824308","admin_level":"8","boundary":"administrative","name":"Balı Mahallesi","type":"boundary","@relations":[{"role":"subarea","rel":1840250,"reltags":{"admin_level":"6","alt_name":"Ereğli;Karadeniz Ereğlisi","boundary":"administrative","name":"Ereğli","name:de":"Ereğli","name:en":"Ereğli","name:tr":"Ereğli","name:tr:suffix":"İlçesi","network":"TR81-districts","type":"boundary","wikidata":"Q1012887","wikipedia":"tr:Karadeniz Ereğli"}}]},"id":"relation/13824308"},
{"type":"Feature","geometry":{"type":"Polygon","coordinates":[[[31.4110494,41.297735],[31.4303827,41.2979285],[31.4378822,41.3114122],[31.4450276,41.3119038],[31.4442229,41.3130964],[31.4332151,41.3162553],[31.4247393,41.3125001],[31.4110494,41.297735]]]},"properties":{"@id":"relation/13824309","admin_level":"8","boundary":"administrative","name":"Kestaneci Mahallesi","type":"boundary","@relations":[{"role":"subarea","rel":1840250,"reltags":{"admin_level":"6","alt_name":"Ereğli;Karadeniz Ereğlisi","boundary":"administrative","name":"Ereğli","name:de":"Ereğli","name:en":"Ereğli","name:tr":"Ereğli","name:tr:suffix":"İlçesi","network":"TR81-districts","type":"boundary","wikidata":"Q1012887","wikipedia":"tr:Karadeniz Ereğli"}}]},"id":"relation/13824309"},
{"type":"Feature","geometry":{"type":"Polygon","coordinates":[[[31.4332151,41.3162553],[31.4275952,41.3200302],[31.4223394,41.3161406],[31.3984826,41.3139252],[31.3928005,41.3024459],[31.3934506,41.2923993],[31.3981104,41.2990891],[31.4104915,41.2976222],[31.4110494,41.297735],[31.4247393,41.3125001],[31.4332151,41.3162553]]]},"properties":{"@id":"relation/13824310","admin_level":"8","boundary":"administrative","name":"Kırmacı Mahallesi","type":"boundary","@relations":[{"role":"subarea","rel":1840250,"reltags":{"admin_level":"6","alt_name":"Ereğli;Karadeniz Ereğlisi","boundary":"administrative","name":"Ereğli","name:de":"Ereğli","name:en":"Ereğli","name:tr":"Ereğli","name:tr:suffix":"İlçesi","network":"TR81-districts","type":"boundary","wikidata":"Q1012887","wikipedia":"tr:Karadeniz Ereğli"}}]},"id":"relation/13824310"},
{"type":"Feature","geometry":{"type":"Polygon","coordinates":[[[31.4917195,41.3428258],[31.4958005,41.339992],[31.5038431,41.3394185],[31.4917195,41.3428258]]]},"properties":{"@id":"relation/14586131","admin_level":"8","boundary":"administrative","name":"Geyikbeli Mahallesi","type":"boundary","@relations":[{"role":"subarea","rel":1840250,"reltags":{"admin_level":"6","alt_name":"Ereğli;Karadeniz Ereğlisi","boundary":"administrative","name":"Ereğli","name:de":"Ereğli","name:en":"Ereğli","name:tr":"Ereğli","name:tr:suffix":"İlçesi","network":"TR81-districts","type":"boundary","wikidata":"Q1012887","wikipedia":"tr:Karadeniz Ereğli"}}]},"id":"relation/14586131"},
{"type":"Feature","geometry":{"type":"Polygon","coordinates":[[[31.4661073,41.3274699],[31.4723968,41.3274875],[31.4815519,41.3340288],[31.4958005,41.339992],[31.4917195,41.3428258],[31.4874301,41.3474783],[31.4723406,41.3378607],[31.4661073,41.3274699]]]},"properties":{"@id":"relation/17270380","admin_level":"8","boundary":"administrative","name":"Buruncuk Köyü","type":"boundary","@relations":[{"role":"subarea","rel":1840250,"reltags":{"admin_level":"6","alt_name":"Ereğli;Karadeniz Ereğlisi","boundary":"administrative","name":"Ereğli","name:de":"Ereğli","name:en":"Ereğli","name:tr":"Ereğli","name:tr:suffix":"İlçesi","network":"TR81-districts","type":"boundary","wikidata":"Q1012887","wikipedia":"tr:Karadeniz Ereğli"}}]},"id":"relation/17270380"},
{"type":"Feature","geometry":{"type":"Polygon","coordinates":[[[31.468445,41.2539101],[31.4792989,41.2449],[31.4987777,41.2615157],[31.4937944,41.266502],[31.4770554,41.2708739],[31.4612048,41.2687574],[31.460461,41.2675899],[31.4554506,41.2650819],[31.456486,41.2624851],[31.468445,41.2539101]]]},"properties":{"@id":"relation/18422402","admin_level":"8","boundary":"administrative","name":"Kepez Mahallesi","type":"boundary"},"id":"relation/18422402"},
{"type":"Feature","geometry":{"type":"Polygon","coordinates":[[[31.4719681,41.2771359],[31.4635026,41.2723718],[31.4612048,41.2687574],[31.4770554,41.2708739],[31.4937944,41.266502],[31.4920248,41.27496],[31.4719681,41.2771359]]]},"properties":{"@id":"relation/18422403","admin_level":"8","boundary":"administrative","name":"Belenyeni Mahallesi","type":"boundary","@relations":[{"role":"subarea","rel":1840250,"reltags":{"admin_level":"6","alt_name":"Ereğli;Karadeniz Ereğlisi","boundary":"administrative","name":"Ereğli","name:de":"Ereğli","name:en":"Ereğli","name:tr":"Ereğli","name:tr:suffix":"İlçesi","network":"TR81-districts","type":"boundary","wikidata":"Q1012887","wikipedia":"tr:Karadeniz Ereğli"}}]},"id":"relation/18422403"},
{"type":"Feature","geometry":{"type":"Polygon","coordinates":[[[31.4813017,41.2952225],[31.4719681,41.2771359],[31.4920248,41.27496],[31.4859367,41.2827654],[31.4891768,41.2924657],[31.4813017,41.2952225]]]},"properties":{"@id":"relation/18422404","admin_level":"8","boundary":"administrative","name":"Belen Mahallesi","type":"boundary","@relations":[{"role":"subarea","rel":1840250,"reltags":{"admin_level":"6","alt_name":"Ereğli;Karadeniz Ereğlisi","boundary":"administrative","name":"Ereğli","name:de":"Ereğli","name:en":"Ereğli","name:tr":"Ereğli","name:tr:suffix":"İlçesi","network":"TR81-districts","type":"boundary","wikidata":"Q1012887","wikipedia":"tr:Karadeniz Ereğli"}}]},"id":"relation/18422404"},
{"type":"Feature","geometry":{"type":"Polygon","coordinates":[[[31.4813017,41.2952225],[31.4891768,41.2924657],[31.4859367,41.2827654],[31.4920248,41.27496],[31.5008315,41.2901292],[31.5004667,41.3016206],[31.4957072,41.3121671],[31.4822459,41.3156671],[31.4765908,41.3087321],[31.4813017,41.2952225]]]},"properties":{"@id":"relation/18422405","admin_level":"8","boundary":"administrative","name":"Ömerli Mahallesi","type":"boundary","@relations":[{"role":"subarea","rel":1840250,"reltags":{"admin_level":"6","alt_name":"Ereğli;Karadeniz Ereğlisi","boundary":"administrative","name":"Ereğli","name:de":"Ereğli","name:en":"Ereğli","name:tr":"Ereğli","name:tr:suffix":"İlçesi","network":"TR81-districts","type":"boundary","wikidata":"Q1012887","wikipedia":"tr:Karadeniz Ereğli"}}]},"id":"relation/18422405"},
{"type":"Feature","geometry":{"type":"Polygon","coordinates":[[[31.4957072,41.3121671],[31.5004667,41.3016206],[31.5008315,41.2901292],[31.4920248,41.27496],[31.4937944,41.266502],[31.4987777,41.2615157],[31.509638,41.263105],[31.5175837,41.2738476],[31.514408,41.2845643],[31.5198368,41.2941594],[31.5175545,41.3118071],[31.4957072,41.3121671]]]},"properties":{"@id":"relation/18422407","admin_level":"8","boundary":"administrative","name":"Ören Mahallesi","type":"boundary","@relations":[{"role":"subarea","rel":1840250,"reltags":{"admin_level":"6","alt_name":"Ereğli;Karadeniz Ereğlisi","boundary":"administrative","name":"Ereğli","name:de":"Ereğli","name:en":"Ereğli","name:tr":"Ereğli","name:tr:suffix":"İlçesi","network":"TR81-districts","type":"boundary","wikidata":"Q1012887","wikipedia":"tr:Karadeniz Ereğli"}}]},"id":"relation/18422407"},
{"type":"Feature","geometry":{"type":"Polygon","coordinates":[[[31.4637709,41.2928744],[31.4591038,41.2803946],[31.4635026,41.2723718],[31.4719681,41.2771359],[31.4813017,41.2952225],[31.4765908,41.3087321],[31.4822459,41.3156671],[31.4794564,41.319688],[31.4752292,41.3187856],[31.4743066,41.3053759],[31.4610886,41.3080516],[31.454072,41.3125001],[31.4442229,41.3130964],[31.4450276,41.3119038],[31.4642429,41.2971949],[31.4637709,41.2928744]]]},"properties":{"@id":"relation/18422408","admin_level":"8","boundary":"administrative","name":"Kocaali Mahallesi","type":"boundary","@relations":[{"role":"subarea","rel":1840250,"reltags":{"admin_level":"6","alt_name":"Ereğli;Karadeniz Ereğlisi","boundary":"administrative","name":"Ereğli","name:de":"Ereğli","name:en":"Ereğli","name:tr":"Ereğli","name:tr:suffix":"İlçesi","network":"TR81-districts","type":"boundary","wikidata":"Q1012887","wikipedia":"tr:Karadeniz Ereğli"}}]},"id":"relation/18422408"},
{"type":"Feature","geometry":{"type":"Polygon","coordinates":[[[31.4470314,41.2467508],[31.461178,41.2441694],[31.468445,41.2539101],[31.456486,41.2624851],[31.449877,41.2585816],[31.4352297,41.2617834],[31.4280481,41.2527232],[31.4317756,41.2498654],[31.4428576,41.2547516],[31.4470314,41.2467508]]]},"properties":{"@id":"relation/18430276","admin_level":"8","boundary":"administrative","name":"Kışla Mahallesi","type":"boundary","@relations":[{"role":"subarea","rel":1840250,"reltags":{"admin_level":"6","alt_name":"Ereğli;Karadeniz Ereğlisi","boundary":"administrative","name":"Ereğli","name:de":"Ereğli","name:en":"Ereğli","name:tr":"Ereğli","name:tr:suffix":"İlçesi","network":"TR81-districts","type":"boundary","wikidata":"Q1012887","wikipedia":"tr:Karadeniz Ereğli"}}]},"id":"relation/18430276"},
{"type":"Feature","geometry":{"type":"Polygon","coordinates":[[[31.4317756,41.2498654],[31.4351428,41.2442288],[31.4470314,41.2467508],[31.4428576,41.2547516],[31.4317756,41.2498654]]]},"properties":{"@id":"relation/18430277","admin_level":"8","boundary":"administrative","name":"Köseler Mahallesi","type":"boundary","@relations":[{"role":"subarea","rel":1840250,"reltags":{"admin_level":"6","alt_name":"Ereğli;Karadeniz Ereğlisi","boundary":"administrative","name":"Ereğli","name:de":"Ereğli","name:en":"Ereğli","name:tr":"Ereğli","name:tr:suffix":"İlçesi","network":"TR81-districts","type":"boundary","wikidata":"Q1012887","wikipedia":"tr:Karadeniz Ereğli"}}]},"id":"relation/18430277"}
]}